<?xml version="1.0" encoding="UTF-8"?>
<osm version="0.6" generator="openstreetmap-cgimap 2.1.0 (2942767 spike-08.openstreetmap.org)" copyright="OpenStreetMap and contributors" attribution="http://www.openstreetmap.org/copyright" license="http://opendatacommons.org/licenses/odbl/1-0/">
 <bounds minlat="34.0701700" minlon="131.5503324" maxlat="34.0725700" maxlon="131.5533324"/>
 <node id="748891821" visible="true" version="2" changeset="55398596" timestamp="2018-01-13T05:34:28Z" user="show1017" uid="3244669" lat="34.0729836" lon="131.5553394"/>
 <node id="748906795" visible="true" version="3" changeset="117015953" timestamp="2022-02-04T17:33:46Z" user="AYAGE" uid="521665" lat="34.0799056" lon="131.5519327"/>
 <node id="748914450" visible="true" version="2" changeset="85720274" timestamp="2020-05-25T13:58:40Z" user="mklyr" uid="614924" lat="34.0780140" lon="131.5522825"/>
 <node id="748918616" visible="true" version="2" changeset="55399060" timestamp="2018-01-13T06:16:32Z" user="show1017" uid="3244669" lat="34.0672590" lon="131.5484309"/>
 <node id="748922128" visible="true" version="3" changeset="117015953" timestamp="2022-02-04T17:33:46Z" user="AYAGE" uid="521665" lat="34.0803006" lon="131.5514793"/>
 <node id="748929110" visible="true" version="3" changeset="117015953" timestamp="2022-02-04T17:33:46Z" user="AYAGE" uid="521665" lat="34.0790893" lon="131.5517753"/>
 <node id="748932752" visible="true" version="2" changeset="55399060" timestamp="2018-01-13T06:16:32Z" user="show1017" uid="3244669" lat="34.0706682" lon="131.5530155"/>
 <node id="748947527" visible="true" version="2" changeset="85720274" timestamp="2020-05-25T13:58:40Z" user="mklyr" uid="614924" lat="34.0769969" lon="131.5530180"/>
 <node id="748953502" visible="true" version="2" changeset="55399060" timestamp="2018-01-13T06:16:32Z" user="show1017" uid="3244669" lat="34.0644322" lon="131.5458849"/>
 <node id="748972707" visible="true" version="2" changeset="85720274" timestamp="2020-05-25T13:58:40Z" user="mklyr" uid="614924" lat="34.0741076" lon="131.5551481"/>
 <node id="748979184" visible="true" version="2" changeset="55399060" timestamp="2018-01-13T06:16:32Z" user="show1017" uid="3244669" lat="34.0668652" lon="131.5478875"/>
 <node id="749000580" visible="true" version="3" changeset="85720274" timestamp="2020-05-25T13:58:40Z" user="mklyr" uid="614924" lat="34.0751858" lon="131.5547285"/>
 <node id="749030266" visible="true" version="3" changeset="117015953" timestamp="2022-02-04T17:33:46Z" user="AYAGE" uid="521665" lat="34.0805927" lon="131.5513904"/>
 <node id="749041444" visible="true" version="2" changeset="55398596" timestamp="2018-01-13T05:34:28Z" user="show1017" uid="3244669" lat="34.0719299" lon="131.5548647"/>
 <node id="749069774" visible="true" version="2" changeset="55398596" timestamp="2018-01-13T05:34:28Z" user="show1017" uid="3244669" lat="34.0738211" lon="131.5552523"/>
 <node id="749078540" visible="true" version="3" changeset="117015953" timestamp="2022-02-04T17:33:46Z" user="AYAGE" uid="521665" lat="34.0800451" lon="131.5518179"/>
 <node id="749088752" visible="true" version="3" changeset="117015953" timestamp="2022-02-04T17:33:46Z" user="AYAGE" uid="521665" lat="34.0784418" lon="131.5518622"/>
 <node id="749093696" visible="true" version="2" changeset="55399060" timestamp="2018-01-13T06:16:32Z" user="show1017" uid="3244669" lat="34.0683084" lon="131.5498010"/>
 <node id="749110738" visible="true" version="2" changeset="85720274" timestamp="2020-05-25T13:58:40Z" user="mklyr" uid="614924" lat="34.0759892" lon="131.5543555"/>
 <node id="749117853" visible="true" version="3" changeset="55399060" timestamp="2018-01-13T06:16:32Z" user="show1017" uid="3244669" lat="34.0715178" lon="131.5541235"/>
 <node id="749144497" visible="true" version="2" changeset="85720274" timestamp="2020-05-25T13:58:40Z" user="mklyr" uid="614924" lat="34.0774390" lon="131.5525644"/>
 <node id="749153731" visible="true" version="2" changeset="55399060" timestamp="2018-01-13T06:16:32Z" user="show1017" uid="3244669" lat="34.0657016" lon="131.5469179"/>
 <node id="749179602" visible="true" version="3" changeset="85720274" timestamp="2020-05-25T13:58:40Z" user="mklyr" uid="614924" lat="34.0744121" lon="131.5550242"/>
 <node id="749218277" visible="true" version="3" changeset="85720274" timestamp="2020-05-25T13:58:40Z" user="mklyr" uid="614924" lat="34.0758304" lon="131.5544585"/>
 <node id="749226274" visible="true" version="3" changeset="55400796" timestamp="2018-01-13T08:35:44Z" user="show1017" uid="3244669" lat="34.0629399" lon="131.5451842"/>
 <node id="749241617" visible="true" version="3" changeset="117015953" timestamp="2022-02-04T17:33:46Z" user="AYAGE" uid="521665" lat="34.0809796" lon="131.5509866"/>
 <node id="749252261" visible="true" version="2" changeset="55398596" timestamp="2018-01-13T05:34:28Z" user="show1017" uid="3244669" lat="34.0725928" lon="131.5552519"/>
 <node id="749278766" visible="true" version="3" changeset="117015953" timestamp="2022-02-04T17:33:46Z" user="AYAGE" uid="521665" lat="34.0796749" lon="131.5519815"/>
 <node id="749292697" visible="true" version="2" changeset="85720274" timestamp="2020-05-25T13:58:40Z" user="mklyr" uid="614924" lat="34.0778873" lon="131.5524026"/>
 <node id="749302435" visible="true" version="3" changeset="117015953" timestamp="2022-02-04T17:33:46Z" user="AYAGE" uid="521665" lat="34.0801793" lon="131.5515886"/>
 <node id="749311463" visible="true" version="3" changeset="117015953" timestamp="2022-02-04T17:33:46Z" user="AYAGE" uid="521665" lat="34.0787940" lon="131.5518014"/>
 <node id="749315647" visible="true" version="2" changeset="55399060" timestamp="2018-01-13T06:16:32Z" user="show1017" uid="3244669" lat="34.0699952" lon="131.5520762"/>
 <node id="749332405" visible="true" version="2" changeset="85720274" timestamp="2020-05-25T13:58:40Z" user="mklyr" uid="614924" lat="34.0765362" lon="131.5538829"/>
 <node id="749338621" visible="true" version="1" changeset="4814433" timestamp="2010-05-26T16:24:52Z" user="Tom_G3X" uid="146930" lat="34.0639820" lon="131.5456050"/>
 <node id="749365609" visible="true" version="2" changeset="85720274" timestamp="2020-05-25T13:58:40Z" user="mklyr" uid="614924" lat="34.0777845" lon="131.5524783"/>
 <node id="749376571" visible="true" version="2" changeset="55399060" timestamp="2018-01-13T06:16:32Z" user="show1017" uid="3244669" lat="34.0666865" lon="131.5476736"/>
 <node id="749403996" visible="true" version="3" changeset="85720274" timestamp="2020-05-25T13:58:40Z" user="mklyr" uid="614924" lat="34.0750635" lon="131.5547543"/>
 <node id="749425275" visible="true" version="3" changeset="117015953" timestamp="2022-02-04T17:33:46Z" user="AYAGE" uid="521665" lat="34.0804856" lon="131.5514392"/>
 <node id="749438106" visible="true" version="2" changeset="55398596" timestamp="2018-01-13T05:34:28Z" user="show1017" uid="3244669" lat="34.0718045" lon="131.5547177"/>
 <node id="749466223" visible="true" version="2" changeset="56650342" timestamp="2018-02-25T02:07:58Z" user="hibagonsan" uid="5939709" lat="34.0811105" lon="131.5506515"/>
 <node id="749485573" visible="true" version="2" changeset="55398596" timestamp="2018-01-13T05:34:28Z" user="show1017" uid="3244669" lat="34.0736079" lon="131.5553144"/>
 <node id="749524545" visible="true" version="3" changeset="117015953" timestamp="2022-02-04T17:33:46Z" user="AYAGE" uid="521665" lat="34.0799786" lon="131.5518878"/>
 <node id="749546869" visible="true" version="3" changeset="117015953" timestamp="2022-02-04T17:33:46Z" user="AYAGE" uid="521665" lat="34.0782225" lon="131.5520137"/>
 <node id="749552211" visible="true" version="2" changeset="55399060" timestamp="2018-01-13T06:16:32Z" user="show1017" uid="3244669" lat="34.0677320" lon="131.5490268"/>
 <node id="749569598" visible="true" version="3" changeset="117015953" timestamp="2022-02-04T17:33:46Z" user="AYAGE" uid="521665" lat="34.0794214" lon="131.5519233"/>
 <node id="749575390" visible="true" version="2" changeset="55399060" timestamp="2018-01-13T06:16:32Z" user="show1017" uid="3244669" lat="34.0712731" lon="131.5537803"/>
 <node id="749594968" visible="true" version="2" changeset="85720274" timestamp="2020-05-25T13:58:40Z" user="mklyr" uid="614924" lat="34.0772263" lon="131.5527485"/>
 <node id="749602924" visible="true" version="2" changeset="55399060" timestamp="2018-01-13T06:16:31Z" user="show1017" uid="3244669" lat="34.0651448" lon="131.5464680"/>
 <node id="749683757" visible="true" version="3" changeset="85720274" timestamp="2020-05-25T13:58:40Z" user="mklyr" uid="614924" lat="34.0755008" lon="131.5546330"/>
 <node id="749711465" visible="true" version="3" changeset="117015953" timestamp="2022-02-04T17:33:46Z" user="AYAGE" uid="521665" lat="34.0807301" lon="131.5512645"/>
 <node id="749725980" visible="true" version="2" changeset="55398596" timestamp="2018-01-13T05:34:28Z" user="show1017" uid="3244669" lat="34.0721398" lon="131.5550571"/>
 <node id="749758305" visible="true" version="3" changeset="117015953" timestamp="2022-02-04T17:33:46Z" user="AYAGE" uid="521665" lat="34.0795592" lon="131.5519673"/>
 <node id="749787339" visible="true" version="3" changeset="117015953" timestamp="2022-02-04T17:33:46Z" user="AYAGE" uid="521665" lat="34.0786072" lon="131.5518162"/>
 <node id="749789928" visible="true" version="2" changeset="55399060" timestamp="2018-01-13T06:16:32Z" user="show1017" uid="3244669" lat="34.0692139" lon="131.5510133"/>
 <node id="749799582" visible="true" version="2" changeset="85720274" timestamp="2020-05-25T13:58:40Z" user="mklyr" uid="614924" lat="34.0763988" lon="131.5540473"/>
 <node id="749802298" visible="true" version="2" changeset="55400796" timestamp="2018-01-13T08:35:44Z" user="show1017" uid="3244669" lat="34.0635960" lon="131.5453337"/>
 <node id="749811909" visible="true" version="2" changeset="85720274" timestamp="2020-05-25T13:58:40Z" user="mklyr" uid="614924" lat="34.0775466" lon="131.5525215"/>
 <node id="749815239" visible="true" version="2" changeset="55399060" timestamp="2018-01-13T06:16:32Z" user="show1017" uid="3244669" lat="34.0663253" lon="131.5473696"/>
 <node id="749838208" visible="true" version="3" changeset="85720274" timestamp="2020-05-25T13:58:40Z" user="mklyr" uid="614924" lat="34.0746251" lon="131.5549369"/>
 <node id="749860576" visible="true" version="2" changeset="117015953" timestamp="2022-02-04T17:33:46Z" user="AYAGE" uid="521665" lat="34.0803694" lon="131.5514448"/>
 <node id="749871210" visible="true" version="2" changeset="55398596" timestamp="2018-01-13T05:34:28Z" user="show1017" uid="3244669" lat="34.0716973" lon="131.5544765"/>
 <node id="749879500" visible="true" version="3" changeset="85981636" timestamp="2020-05-30T13:15:28Z" user="mklyr" uid="614924" lat="34.0633292" lon="131.5452131"/>
 <node id="749895454" visible="true" version="3" changeset="117015953" timestamp="2022-02-04T17:33:46Z" user="AYAGE" uid="521665" lat="34.0810512" lon="131.5508327"/>
 <node id="1346474401" visible="true" version="2" changeset="55398942" timestamp="2018-01-13T06:07:33Z" user="show1017" uid="3244669" lat="34.0727702" lon="131.5495696"/>
 <node id="1346474486" visible="true" version="2" changeset="55398942" timestamp="2018-01-13T06:07:34Z" user="show1017" uid="3244669" lat="34.0729039" lon="131.5501227"/>
 <node id="1346475168" visible="true" version="4" changeset="118889259" timestamp="2022-03-25T02:33:22Z" user="hibagonsan" uid="5939709" lat="34.0693932" lon="131.5494434">
  <tag k="highway" v="traffic_signals"/>
 </node>
 <node id="1346475599" visible="true" version="3" changeset="85705972" timestamp="2020-05-25T07:08:10Z" user="mklyr" uid="614924" lat="34.0673129" lon="131.5469104"/>
 <node id="1346476972" visible="true" version="3" changeset="85705972" timestamp="2020-05-25T07:08:10Z" user="mklyr" uid="614924" lat="34.0683139" lon="131.5481744"/>
 <node id="1346477710" visible="true" version="3" changeset="130230260" timestamp="2022-12-19T04:09:44Z" user="AYAGE" uid="521665" lat="34.0732588" lon="131.5518212"/>
 <node id="1346479144" visible="true" version="2" changeset="130230260" timestamp="2022-12-19T04:09:44Z" user="AYAGE" uid="521665" lat="34.0721416" lon="131.5499188"/>
 <node id="1346479402" visible="true" version="2" changeset="55398877" timestamp="2018-01-13T06:02:00Z" user="show1017" uid="3244669" lat="34.0702576" lon="131.5522112"/>
 <node id="1346479982" visible="true" version="4" changeset="85705972" timestamp="2020-05-25T07:08:10Z" user="mklyr" uid="614924" lat="34.0656172" lon="131.5445252"/>
 <node id="1346487452" visible="true" version="2" changeset="55398922" timestamp="2018-01-13T06:06:14Z" user="show1017" uid="3244669" lat="34.0725085" lon="131.5490090"/>
 <node id="1346490097" visible="true" version="3" changeset="85705972" timestamp="2020-05-25T07:08:10Z" user="mklyr" uid="614924" lat="34.0688232" lon="131.5488253"/>
 <node id="1346490449" visible="true" version="3" changeset="130230260" timestamp="2022-12-19T04:09:44Z" user="AYAGE" uid="521665" lat="34.0731235" lon="131.5518747"/>
 <node id="1346492263" visible="true" version="4" changeset="85705972" timestamp="2020-05-25T07:08:10Z" user="mklyr" uid="614924" lat="34.0653983" lon="131.5428529"/>
 <node id="1346492851" visible="true" version="4" changeset="85705972" timestamp="2020-05-25T07:08:10Z" user="mklyr" uid="614924" lat="34.0657527" lon="131.5448578"/>
 <node id="1346493049" visible="true" version="2" changeset="55398942" timestamp="2018-01-13T06:07:34Z" user="show1017" uid="3244669" lat="34.0724863" lon="131.5505965"/>
 <node id="1346493133" visible="true" version="4" changeset="85705972" timestamp="2020-05-25T07:08:10Z" user="mklyr" uid="614924" lat="34.0652950" lon="131.5424882"/>
 <node id="1346493920" visible="true" version="2" changeset="55398864" timestamp="2018-01-13T06:00:34Z" user="show1017" uid="3244669" lat="34.0719286" lon="131.5531808"/>
 <node id="1346494113" visible="true" version="4" changeset="85705972" timestamp="2020-05-25T07:08:10Z" user="mklyr" uid="614924" lat="34.0655439" lon="131.5437226"/>
 <node id="1346495569" visible="true" version="5" changeset="86234629" timestamp="2020-06-05T09:28:18Z" user="mklyr" uid="614924" lat="34.0666157" lon="131.5461577">
  <tag k="highway" v="traffic_signals"/>
 </node>
 <node id="1346496251" visible="true" version="2" changeset="55398942" timestamp="2018-01-13T06:07:33Z" user="show1017" uid="3244669" lat="34.0729174" lon="131.5496778"/>
 <node id="1346496620" visible="true" version="3" changeset="130230260" timestamp="2022-12-19T04:09:44Z" user="AYAGE" uid="521665" lat="34.0728402" lon="131.5510271"/>
 <node id="1346498452" visible="true" version="2" changeset="55398890" timestamp="2018-01-13T06:03:43Z" user="show1017" uid="3244669" lat="34.0725537" lon="131.5508840"/>
 <node id="1346499666" visible="true" version="2" changeset="55398864" timestamp="2018-01-13T06:00:34Z" user="show1017" uid="3244669" lat="34.0719562" lon="131.5530541"/>
 <node id="1346501242" visible="true" version="4" changeset="85705972" timestamp="2020-05-25T07:08:10Z" user="mklyr" uid="614924" lat="34.0679797" lon="131.5477114"/>
 <node id="1346502084" visible="true" version="4" changeset="85705972" timestamp="2020-05-25T07:08:10Z" user="mklyr" uid="614924" lat="34.0721747" lon="131.5528090"/>
 <node id="1346503011" visible="true" version="3" changeset="85720274" timestamp="2020-05-25T13:58:40Z" user="mklyr" uid="614924" lat="34.0714803" lon="131.5537155"/>
 <node id="1346504840" visible="true" version="3" changeset="85705972" timestamp="2020-05-25T07:08:10Z" user="mklyr" uid="614924" lat="34.0701845" lon="131.5503007"/>
 <node id="1346507344" visible="true" version="4" changeset="85705972" timestamp="2020-05-25T07:08:10Z" user="mklyr" uid="614924" lat="34.0652378" lon="131.5417451"/>
 <node id="1346507452" visible="true" version="2" changeset="55398877" timestamp="2018-01-13T06:02:00Z" user="show1017" uid="3244669" lat="34.0708881" lon="131.5530661"/>
 <node id="1346508167" visible="true" version="3" changeset="130230260" timestamp="2022-12-19T04:09:44Z" user="AYAGE" uid="521665" lat="34.0726713" lon="131.5522938"/>
 <node id="1346513234" visible="true" version="4" changeset="85705972" timestamp="2020-05-25T07:08:10Z" user="mklyr" uid="614924" lat="34.0655438" lon="131.5441565"/>
 <node id="1346513641" visible="true" version="2" changeset="55398922" timestamp="2018-01-13T06:06:14Z" user="show1017" uid="3244669" lat="34.0717808" lon="131.5504500"/>
 <node id="1346514011" visible="true" version="3" changeset="130230260" timestamp="2022-12-19T04:09:44Z" user="AYAGE" uid="521665" lat="34.0709024" lon="131.5495056"/>
 <node id="1346514143" visible="true" version="3" changeset="85705972" timestamp="2020-05-25T07:08:10Z" user="mklyr" uid="614924" lat="34.0659361" lon="131.5451717"/>
 <node id="1346514233" visible="true" version="3" changeset="130230260" timestamp="2022-12-19T04:09:44Z" user="AYAGE" uid="521665" lat="34.0724435" lon="131.5508223"/>
 <node id="1346514546" visible="true" version="4" changeset="85705972" timestamp="2020-05-25T07:08:10Z" user="mklyr" uid="614924" lat="34.0705354" lon="131.5506987"/>
 <node id="1346514751" visible="true" version="3" changeset="130230260" timestamp="2022-12-19T04:09:44Z" user="AYAGE" uid="521665" lat="34.0716639" lon="131.5503492"/>
 <node id="1346515894" visible="true" version="6" changeset="85705972" timestamp="2020-05-25T07:08:10Z" user="mklyr" uid="614924" lat="34.0652042" lon="131.5413904">
  <tag k="highway" v="traffic_signals"/>
 </node>
 <node id="1346516749" visible="true" version="4" changeset="85705972" timestamp="2020-05-25T07:08:10Z" user="mklyr" uid="614924" lat="34.0655222" lon="131.5433276"/>
 <node id="2929014112" visible="true" version="3" changeset="85705972" timestamp="2020-05-25T07:08:10Z" user="mklyr" uid="614924" lat="34.0729623" lon="131.5538019">
  <tag k="highway" v="traffic_signals"/>
 </node>
 <node id="5336205032" visible="true" version="2" changeset="130230260" timestamp="2022-12-19T04:09:44Z" user="AYAGE" uid="521665" lat="34.0726553" lon="131.5494976"/>
 <node id="5336205033" visible="true" version="2" changeset="130230260" timestamp="2022-12-19T04:09:44Z" user="AYAGE" uid="521665" lat="34.0729434" lon="131.5498747"/>
 <node id="5336205034" visible="true" version="2" changeset="130230260" timestamp="2022-12-19T04:09:44Z" user="AYAGE" uid="521665" lat="34.0725984" lon="131.5493816"/>
 <node id="5336205035" visible="true" version="2" changeset="130230260" timestamp="2022-12-19T04:09:44Z" user="AYAGE" uid="521665" lat="34.0726064" lon="131.5492206"/>
 <node id="5336205037" visible="true" version="1" changeset="55398942" timestamp="2018-01-13T06:07:33Z" user="show1017" uid="3244669" lat="34.0728597" lon="131.5496097"/>
 <node id="5336205038" visible="true" version="2" changeset="130230260" timestamp="2022-12-19T04:09:44Z" user="AYAGE" uid="521665" lat="34.0725871" lon="131.5491337"/>
 <node id="5336205039" visible="true" version="2" changeset="130230260" timestamp="2022-12-19T04:09:44Z" user="AYAGE" uid="521665" lat="34.0726144" lon="131.5494443"/>
 <node id="5336217111" visible="true" version="1" changeset="55398864" timestamp="2018-01-13T06:00:34Z" user="show1017" uid="3244669" lat="34.0717822" lon="131.5533683"/>
 <node id="5336218022" visible="true" version="2" changeset="57092995" timestamp="2018-03-11T20:42:28Z" user="pyram" uid="497849" lat="34.0719769" lon="131.5532157"/>
 <node id="5336218023" visible="true" version="1" changeset="55398868" timestamp="2018-01-13T06:01:04Z" user="show1017" uid="3244669" lat="34.0722305" lon="131.5532627"/>
 <node id="5336218024" visible="true" version="2" changeset="85705972" timestamp="2020-05-25T07:08:10Z" user="mklyr" uid="614924" lat="34.0725582" lon="131.5539651"/>
 <node id="5336218025" visible="true" version="1" changeset="55398868" timestamp="2018-01-13T06:01:04Z" user="show1017" uid="3244669" lat="34.0720225" lon="131.5529783"/>
 <node id="5336218225" visible="true" version="2" changeset="85705972" timestamp="2020-05-25T07:08:10Z" user="mklyr" uid="614924" lat="34.0698536" lon="131.5499403"/>
 <node id="5336218965" visible="true" version="1" changeset="55398882" timestamp="2018-01-13T06:02:41Z" user="show1017" uid="3244669" lat="34.0713838" lon="131.5530984"/>
 <node id="5336218966" visible="true" version="1" changeset="55398882" timestamp="2018-01-13T06:02:41Z" user="show1017" uid="3244669" lat="34.0718857" lon="131.5532357"/>
 <node id="5336218967" visible="true" version="1" changeset="55398882" timestamp="2018-01-13T06:02:41Z" user="show1017" uid="3244669" lat="34.0711446" lon="131.5530460"/>
 <node id="5336218968" visible="true" version="1" changeset="55398882" timestamp="2018-01-13T06:02:41Z" user="show1017" uid="3244669" lat="34.0712510" lon="131.5530359"/>
 <node id="5336218969" visible="true" version="1" changeset="55398882" timestamp="2018-01-13T06:02:41Z" user="show1017" uid="3244669" lat="34.0710608" lon="131.5530582"/>
 <node id="5336219515" visible="true" version="1" changeset="55398899" timestamp="2018-01-13T06:04:38Z" user="show1017" uid="3244669" lat="34.0720033" lon="131.5519112"/>
 <node id="5336219516" visible="true" version="1" changeset="55398899" timestamp="2018-01-13T06:04:38Z" user="show1017" uid="3244669" lat="34.0720674" lon="131.5523356"/>
 <node id="5336219517" visible="true" version="2" changeset="130230260" timestamp="2022-12-19T04:09:44Z" user="AYAGE" uid="521665" lat="34.0726779" lon="131.5512363"/>
 <node id="5336219518" visible="true" version="2" changeset="130230260" timestamp="2022-12-19T04:09:44Z" user="AYAGE" uid="521665" lat="34.0722300" lon="131.5516049"/>
 <node id="5336219519" visible="true" version="1" changeset="55398899" timestamp="2018-01-13T06:04:38Z" user="show1017" uid="3244669" lat="34.0722917" lon="131.5526817"/>
 <node id="5336219520" visible="true" version="2" changeset="130230260" timestamp="2022-12-19T04:09:44Z" user="AYAGE" uid="521665" lat="34.0722905" lon="131.5515565"/>
 <node id="5336219721" visible="true" version="2" changeset="130230260" timestamp="2022-12-19T04:09:44Z" user="AYAGE" uid="521665" lat="34.0724081" lon="131.5514884"/>
 <node id="5336219722" visible="true" version="1" changeset="55398899" timestamp="2018-01-13T06:04:38Z" user="show1017" uid="3244669" lat="34.0721313" lon="131.5517232"/>
 <node id="5336219723" visible="true" version="1" changeset="55398899" timestamp="2018-01-13T06:04:38Z" user="show1017" uid="3244669" lat="34.0719617" lon="131.5515359"/>
 <node id="5336219724" visible="true" version="1" changeset="55398899" timestamp="2018-01-13T06:04:38Z" user="show1017" uid="3244669" lat="34.0723713" lon="131.5520513"/>
 <node id="5336219725" visible="true" version="1" changeset="55398899" timestamp="2018-01-13T06:04:38Z" user="show1017" uid="3244669" lat="34.0720873" lon="131.5517678"/>
 <node id="5336219726" visible="true" version="1" changeset="55398899" timestamp="2018-01-13T06:04:38Z" user="show1017" uid="3244669" lat="34.0719590" lon="131.5520584"/>
 <node id="5336219727" visible="true" version="1" changeset="55398899" timestamp="2018-01-13T06:04:38Z" user="show1017" uid="3244669" lat="34.0725908" lon="131.5520453"/>
 <node id="5336222677" visible="true" version="2" changeset="85705972" timestamp="2020-05-25T07:08:10Z" user="mklyr" uid="614924" lat="34.0701025" lon="131.5502122">
  <tag k="highway" v="traffic_signals"/>
 </node>
 <node id="5336224397" visible="true" version="1" changeset="55398988" timestamp="2018-01-13T06:11:30Z" user="show1017" uid="3244669" lat="34.0704476" lon="131.5524688"/>
 <node id="5336224398" visible="true" version="1" changeset="55398988" timestamp="2018-01-13T06:11:30Z" user="show1017" uid="3244669" lat="34.0712570" lon="131.5521030"/>
 <node id="5336224399" visible="true" version="1" changeset="55398988" timestamp="2018-01-13T06:11:30Z" user="show1017" uid="3244669" lat="34.0709785" lon="131.5523804"/>
 <node id="5336224400" visible="true" version="1" changeset="55398988" timestamp="2018-01-13T06:11:30Z" user="show1017" uid="3244669" lat="34.0704728" lon="131.5507621"/>
 <node id="5336224401" visible="true" version="1" changeset="55398988" timestamp="2018-01-13T06:11:30Z" user="show1017" uid="3244669" lat="34.0713300" lon="131.5521904"/>
 <node id="5336224402" visible="true" version="1" changeset="55398988" timestamp="2018-01-13T06:11:30Z" user="show1017" uid="3244669" lat="34.0707202" lon="131.5521396"/>
 <node id="5336224404" visible="true" version="1" changeset="55398988" timestamp="2018-01-13T06:11:30Z" user="show1017" uid="3244669" lat="34.0703196" lon="131.5517297"/>
 <node id="5336224405" visible="true" version="2" changeset="85705972" timestamp="2020-05-25T07:08:10Z" user="mklyr" uid="614924" lat="34.0701361" lon="131.5503642"/>
 <node id="5336224406" visible="true" version="1" changeset="55398988" timestamp="2018-01-13T06:11:30Z" user="show1017" uid="3244669" lat="34.0701075" lon="131.5514039"/>
 <node id="5336224407" visible="true" version="1" changeset="55398988" timestamp="2018-01-13T06:11:30Z" user="show1017" uid="3244669" lat="34.0700851" lon="131.5519667"/>
 <node id="5336224408" visible="true" version="1" changeset="55398988" timestamp="2018-01-13T06:11:30Z" user="show1017" uid="3244669" lat="34.0708003" lon="131.5521396"/>
 <node id="5336406677" visible="true" version="1" changeset="55400969" timestamp="2018-01-13T08:46:17Z" user="show1017" uid="3244669" lat="34.0715104" lon="131.5511452"/>
 <node id="5336406678" visible="true" version="2" changeset="85705972" timestamp="2020-05-25T07:08:10Z" user="mklyr" uid="614924" lat="34.0712226" lon="131.5515536"/>
 <node id="5336406679" visible="true" version="1" changeset="55400969" timestamp="2018-01-13T08:46:17Z" user="show1017" uid="3244669" lat="34.0718048" lon="131.5507416"/>
 <node id="5336406680" visible="true" version="2" changeset="130230260" timestamp="2022-12-19T04:09:44Z" user="AYAGE" uid="521665" lat="34.0719641" lon="131.5505672"/>
 <node id="5336406681" visible="true" version="1" changeset="55400969" timestamp="2018-01-13T08:46:17Z" user="show1017" uid="3244669" lat="34.0716531" lon="131.5509206"/>
 <node id="5336406682" visible="true" version="1" changeset="55400969" timestamp="2018-01-13T08:46:17Z" user="show1017" uid="3244669" lat="34.0713227" lon="131.5514351"/>
 <node id="5336408901" visible="true" version="1" changeset="55401039" timestamp="2018-01-13T08:51:06Z" user="show1017" uid="3244669" lat="34.0686061" lon="131.5485650"/>
 <node id="5434432511" visible="true" version="2" changeset="117015953" timestamp="2022-02-04T17:33:46Z" user="AYAGE" uid="521665" lat="34.0808865" lon="131.5510910"/>
 <node id="7555564073" visible="true" version="1" changeset="85705972" timestamp="2020-05-25T07:08:10Z" user="mklyr" uid="614924" lat="34.0652310" lon="131.5415771"/>
 <node id="7555564075" visible="true" version="1" changeset="85705972" timestamp="2020-05-25T07:08:10Z" user="mklyr" uid="614924" lat="34.0652388" lon="131.5420277"/>
 <node id="7555564076" visible="true" version="1" changeset="85705972" timestamp="2020-05-25T07:08:10Z" user="mklyr" uid="614924" lat="34.0652610" lon="131.5422343"/>
 <node id="7555564077" visible="true" version="1" changeset="85705972" timestamp="2020-05-25T07:08:10Z" user="mklyr" uid="614924" lat="34.0654782" lon="131.5431114"/>
 <node id="7555564078" visible="true" version="1" changeset="85705972" timestamp="2020-05-25T07:08:10Z" user="mklyr" uid="614924" lat="34.0655410" lon="131.5435284"/>
 <node id="7555564079" visible="true" version="1" changeset="85705972" timestamp="2020-05-25T07:08:10Z" user="mklyr" uid="614924" lat="34.0655382" lon="131.5439536"/>
 <node id="7555564080" visible="true" version="1" changeset="85705972" timestamp="2020-05-25T07:08:10Z" user="mklyr" uid="614924" lat="34.0655676" lon="131.5443177"/>
 <node id="7555564081" visible="true" version="1" changeset="85705972" timestamp="2020-05-25T07:08:10Z" user="mklyr" uid="614924" lat="34.0656782" lon="131.5446952"/>
 <node id="7555564082" visible="true" version="1" changeset="85705972" timestamp="2020-05-25T07:08:10Z" user="mklyr" uid="614924" lat="34.0708979" lon="131.5511218"/>
 <node id="7555564085" visible="true" version="1" changeset="85705972" timestamp="2020-05-25T07:08:10Z" user="mklyr" uid="614924" lat="34.0676551" lon="131.5473010"/>
 <node id="7555564086" visible="true" version="1" changeset="85705972" timestamp="2020-05-25T07:08:10Z" user="mklyr" uid="614924" lat="34.0661253" lon="131.5455267"/>
 <node id="7555564087" visible="true" version="1" changeset="85705972" timestamp="2020-05-25T07:08:10Z" user="mklyr" uid="614924" lat="34.0662753" lon="131.5457587"/>
 <node id="7555564088" visible="true" version="1" changeset="85705972" timestamp="2020-05-25T07:08:10Z" user="mklyr" uid="614924" lat="34.0663908" lon="131.5459089"/>
 <node id="7556383109" visible="true" version="1" changeset="85720274" timestamp="2020-05-25T13:58:40Z" user="mklyr" uid="614924" lat="34.0713189" lon="131.5535894"/>
 <node id="7556383118" visible="true" version="1" changeset="85720274" timestamp="2020-05-25T13:58:40Z" user="mklyr" uid="614924" lat="34.0765921" lon="131.5537101"/>
 <node id="7556383119" visible="true" version="1" changeset="85720274" timestamp="2020-05-25T13:58:40Z" user="mklyr" uid="614924" lat="34.0767765" lon="131.5533037"/>
 <node id="7556383132" visible="true" version="1" changeset="85720274" timestamp="2020-05-25T13:58:40Z" user="mklyr" uid="614924" lat="34.0776696" lon="131.5525031"/>
 <node id="9412086341" visible="true" version="1" changeset="116054198" timestamp="2022-01-12T07:39:29Z" user="okadatsuneo_import" uid="12352917" lat="34.0714389" lon="131.5517636">
  <tag k="bus" v="yes"/>
  <tag k="gtfs:stop_id" v="60155 2"/>
  <tag k="highway" v="bus_stop"/>
  <tag k="name" v="高井"/>
  <tag k="name:en" v="Takai"/>
  <tag k="name:ja" v="高井"/>
  <tag k="name:ja-Hira" v="たかい"/>
  <tag k="name:ko" v="다카이"/>
  <tag k="name:zh-Hans" v="高井"/>
  <tag k="name:zh-Hant" v="高井"/>
  <tag k="operator" v="中国ジェイアールバス"/>
  <tag k="operator:en" v="Chugoku JR Bus"/>
  <tag k="public_transport" v="platform"/>
 </node>
 <node id="9412086342" visible="true" version="1" changeset="116054198" timestamp="2022-01-12T07:39:29Z" user="okadatsuneo_import" uid="12352917" lat="34.0713723" lon="131.5518302">
  <tag k="bus" v="yes"/>
  <tag k="gtfs:stop_id" v="60155 1"/>
  <tag k="highway" v="bus_stop"/>
  <tag k="name" v="高井"/>
  <tag k="name:en" v="Takai"/>
  <tag k="name:ja" v="高井"/>
  <tag k="name:ja-Hira" v="たかい"/>
  <tag k="name:ko" v="다카이"/>
  <tag k="name:zh-Hans" v="高井"/>
  <tag k="name:zh-Hant" v="高井"/>
  <tag k="operator" v="中国ジェイアールバス"/>
  <tag k="operator:en" v="Chugoku JR Bus"/>
  <tag k="public_transport" v="platform"/>
 </node>
 <node id="9476538771" visible="true" version="1" changeset="117015953" timestamp="2022-02-04T17:33:46Z" user="AYAGE" uid="521665" lat="34.0792070" lon="131.5517749"/>
 <node id="9476538772" visible="true" version="1" changeset="117015953" timestamp="2022-02-04T17:33:46Z" user="AYAGE" uid="521665" lat="34.0792975" lon="131.5518158"/>
 <node id="9604606117" visible="true" version="1" changeset="118889259" timestamp="2022-03-25T02:33:22Z" user="hibagonsan" uid="5939709" lat="34.0690965" lon="131.5491255"/>
 <node id="9604606265" visible="true" version="1" changeset="118889259" timestamp="2022-03-25T02:33:22Z" user="hibagonsan" uid="5939709" lat="34.0654454" lon="131.5429994"/>
 <node id="9604606266" visible="true" version="1" changeset="118889259" timestamp="2022-03-25T02:33:22Z" user="hibagonsan" uid="5939709" lat="34.0653393" lon="131.5426621"/>
 <node id="10272461120" visible="true" version="1" changeset="130230260" timestamp="2022-12-19T04:09:44Z" user="AYAGE" uid="521665" lat="34.0729441" lon="131.5497787"/>
 <node id="10272461121" visible="true" version="1" changeset="130230260" timestamp="2022-12-19T04:09:44Z" user="AYAGE" uid="521665" lat="34.0725543" lon="131.5490628"/>
 <node id="10272461149" visible="true" version="1" changeset="130230260" timestamp="2022-12-19T04:09:44Z" user="AYAGE" uid="521665" lat="34.0724764" lon="131.5490726"/>
 <node id="10272461150" visible="true" version="1" changeset="130230260" timestamp="2022-12-19T04:09:44Z" user="AYAGE" uid="521665" lat="34.0722198" lon="131.5497605"/>
 <node id="10272461152" visible="true" version="1" changeset="130230260" timestamp="2022-12-19T04:09:44Z" user="AYAGE" uid="521665" lat="34.0727736" lon="131.5521598"/>
 <node id="10272461153" visible="true" version="1" changeset="130230260" timestamp="2022-12-19T04:09:44Z" user="AYAGE" uid="521665" lat="34.0730191" lon="131.5519492"/>
 <node id="10272461155" visible="true" version="1" changeset="130230260" timestamp="2022-12-19T04:09:44Z" user="AYAGE" uid="521665" lat="34.0724998" lon="131.5514081"/>
 <node id="10272461156" visible="true" version="1" changeset="130230260" timestamp="2022-12-19T04:09:44Z" user="AYAGE" uid="521665" lat="34.0728158" lon="131.5510675"/>
 <node id="10272461157" visible="true" version="1" changeset="130230260" timestamp="2022-12-19T04:09:44Z" user="AYAGE" uid="521665" lat="34.0727925" lon="131.5510024"/>
 <node id="10272461158" visible="true" version="1" changeset="130230260" timestamp="2022-12-19T04:09:44Z" user="AYAGE" uid="521665" lat="34.0721571" lon="131.5506826"/>
 <node id="10272461159" visible="true" version="1" changeset="130230260" timestamp="2022-12-19T04:09:44Z" user="AYAGE" uid="521665" lat="34.0713822" lon="131.5500288"/>
 <node id="10272461160" visible="true" version="1" changeset="130230260" timestamp="2022-12-19T04:09:44Z" user="AYAGE" uid="521665" lat="34.0712384" lon="131.5498357"/>
 <node id="10272461165" visible="true" version="1" changeset="130230260" timestamp="2022-12-19T04:09:44Z" user="AYAGE" uid="521665" lat="34.0710867" lon="131.5496787"/>
 <node id="10272461166" visible="true" version="1" changeset="130230260" timestamp="2022-12-19T04:09:44Z" user="AYAGE" uid="521665" lat="34.0718116" lon="131.5503560"/>
 <node id="10272461167" visible="true" version="1" changeset="130230260" timestamp="2022-12-19T04:09:44Z" user="AYAGE" uid="521665" lat="34.0718888" lon="131.5502333"/>
 <node id="10272461168" visible="true" version="1" changeset="130230260" timestamp="2022-12-19T04:09:44Z" user="AYAGE" uid="521665" lat="34.0724442" lon="131.5507556"/>
 <node id="10272461169" visible="true" version="1" changeset="130230260" timestamp="2022-12-19T04:09:44Z" user="AYAGE" uid="521665" lat="34.0724459" lon="131.5506839"/>
 <node id="10272461170" visible="true" version="1" changeset="130230260" timestamp="2022-12-19T04:09:44Z" user="AYAGE" uid="521665" lat="34.0719438" lon="131.5506061"/>
 <node id="11168556382" visible="true" version="1" changeset="140828045" timestamp="2023-09-05T02:00:58Z" user="taketaketake" uid="4757277" lat="34.0725272" lon="131.5539252"/>
 <node id="11168556386" visible="true" version="1" changeset="140828045" timestamp="2023-09-05T02:00:58Z" user="taketaketake" uid="4757277" lat="34.0728687" lon="131.5536840"/>
 <way id="60303629" visible="true" version="6" changeset="117015953" timestamp="2022-02-04T17:33:46Z" user="AYAGE" uid="521665">
  <nd ref="749466223"/>
  <nd ref="749895454"/>
  <nd ref="749241617"/>
  <nd ref="5434432511"/>
  <nd ref="749711465"/>
  <nd ref="749030266"/>
  <nd ref="749425275"/>
  <nd ref="749860576"/>
  <nd ref="748922128"/>
  <nd ref="749302435"/>
  <nd ref="749078540"/>
  <nd ref="749524545"/>
  <nd ref="748906795"/>
  <nd ref="749278766"/>
  <nd ref="749758305"/>
  <nd ref="749569598"/>
  <nd ref="9476538772"/>
  <nd ref="9476538771"/>
  <nd ref="748929110"/>
  <nd ref="749311463"/>
  <nd ref="749787339"/>
  <nd ref="749088752"/>
  <nd ref="749546869"/>
  <nd ref="748914450"/>
  <nd ref="749292697"/>
  <nd ref="749365609"/>
  <nd ref="7556383132"/>
  <nd ref="749811909"/>
  <nd ref="749144497"/>
  <nd ref="749594968"/>
  <nd ref="748947527"/>
  <nd ref="7556383119"/>
  <nd ref="7556383118"/>
  <nd ref="749332405"/>
  <nd ref="749799582"/>
  <nd ref="749110738"/>
  <nd ref="749218277"/>
  <nd ref="749683757"/>
  <nd ref="749000580"/>
  <nd ref="749403996"/>
  <nd ref="749838208"/>
  <nd ref="749179602"/>
  <nd ref="748972707"/>
  <nd ref="749069774"/>
  <nd ref="749485573"/>
  <nd ref="748891821"/>
  <nd ref="749252261"/>
  <nd ref="749725980"/>
  <nd ref="749041444"/>
  <nd ref="749438106"/>
  <nd ref="749871210"/>
  <nd ref="749117853"/>
  <nd ref="749575390"/>
  <nd ref="748932752"/>
  <nd ref="749315647"/>
  <nd ref="749789928"/>
  <nd ref="749093696"/>
  <nd ref="749552211"/>
  <nd ref="748918616"/>
  <nd ref="748979184"/>
  <nd ref="749376571"/>
  <nd ref="749815239"/>
  <nd ref="749153731"/>
  <nd ref="749602924"/>
  <nd ref="748953502"/>
  <nd ref="749338621"/>
  <nd ref="749802298"/>
  <nd ref="749879500"/>
  <nd ref="749226274"/>
  <tag k="name" v="剣川"/>
  <tag k="name:ja" v="剣川"/>
  <tag k="note" v="National-Land Numerical Information (River) 2006, MLIT Japan"/>
  <tag k="note:ja" v="国土数値情報(河川データ)平成18年国土交通省"/>
  <tag k="source" v="KSJ2"/>
  <tag k="source_ref" v="http://nlftp.mlit.go.jp/ksj/jpgis/datalist/KsjTmplt-W05.html"/>
  <tag k="waterway" v="river"/>
 </way>
 <way id="119986480" visible="true" version="7" changeset="172323976" timestamp="2025-09-23T04:59:12Z" user="taketaketake" uid="4757277">
  <nd ref="1346515894"/>
  <nd ref="7555564073"/>
  <nd ref="1346507344"/>
  <nd ref="7555564075"/>
  <nd ref="7555564076"/>
  <nd ref="1346493133"/>
  <nd ref="9604606266"/>
  <nd ref="1346492263"/>
  <nd ref="9604606265"/>
  <nd ref="7555564077"/>
  <nd ref="1346516749"/>
  <nd ref="7555564078"/>
  <nd ref="1346494113"/>
  <nd ref="7555564079"/>
  <nd ref="1346513234"/>
  <nd ref="7555564080"/>
  <nd ref="1346479982"/>
  <nd ref="7555564081"/>
  <nd ref="1346492851"/>
  <nd ref="1346514143"/>
  <nd ref="7555564086"/>
  <nd ref="7555564087"/>
  <nd ref="7555564088"/>
  <nd ref="1346495569"/>
  <nd ref="1346475599"/>
  <nd ref="7555564085"/>
  <nd ref="1346501242"/>
  <nd ref="1346476972"/>
  <nd ref="5336408901"/>
  <nd ref="1346490097"/>
  <nd ref="9604606117"/>
  <nd ref="1346475168"/>
  <nd ref="5336218225"/>
  <nd ref="5336222677"/>
  <nd ref="1346504840"/>
  <nd ref="1346514546"/>
  <nd ref="7555564082"/>
  <nd ref="5336406678"/>
  <nd ref="1346502084"/>
  <nd ref="11168556386"/>
  <nd ref="2929014112"/>
  <tag k="highway" v="secondary"/>
  <tag k="lanes" v="2"/>
  <tag k="name" v="大内右田線"/>
  <tag k="name:en" v="Ouchi Migita Line"/>
  <tag k="name:ja" v="大内右田線"/>
  <tag k="name:ja-Hira" v="おおうちみぎたせん"/>
  <tag k="name:ja_rm" v="Ōuchi Migita-sen"/>
  <tag k="ref" v="348"/>
  <tag k="source" v="YahooJapan/ALPSMAP"/>
  <tag k="surface" v="asphalt"/>
  <tag k="wikidata" v="Q11467316"/>
  <tag k="wikipedia" v="ja:山口県道348号大内右田線"/>
 </way>
 <way id="119986539" visible="true" version="3" changeset="85720274" timestamp="2020-05-25T13:58:40Z" user="mklyr" uid="614924">
  <nd ref="1346503011"/>
  <nd ref="7556383109"/>
  <nd ref="1346507452"/>
  <tag k="highway" v="unclassified"/>
  <tag k="source" v="YahooJapan/ALPSMAP"/>
 </way>
 <way id="119986851" visible="true" version="5" changeset="130230260" timestamp="2022-12-19T04:09:44Z" user="AYAGE" uid="521665">
  <nd ref="1346487452"/>
  <nd ref="10272461121"/>
  <nd ref="5336205038"/>
  <nd ref="5336205035"/>
  <nd ref="5336205034"/>
  <nd ref="5336205039"/>
  <nd ref="5336205032"/>
  <nd ref="1346474401"/>
  <nd ref="5336205037"/>
  <nd ref="1346496251"/>
  <nd ref="10272461120"/>
  <nd ref="5336205033"/>
  <nd ref="1346474486"/>
  <nd ref="1346493049"/>
  <nd ref="10272461169"/>
  <nd ref="10272461168"/>
  <nd ref="1346514233"/>
  <tag k="highway" v="unclassified"/>
  <tag k="source" v="YahooJapan/ALPSMAP"/>
 </way>
 <way id="119987116" visible="true" version="3" changeset="130230260" timestamp="2022-12-19T04:09:44Z" user="AYAGE" uid="521665">
  <nd ref="1346513641"/>
  <nd ref="5336406680"/>
  <nd ref="10272461158"/>
  <nd ref="1346514233"/>
  <tag k="highway" v="unclassified"/>
  <tag k="source" v="YahooJapan/ALPSMAP"/>
 </way>
 <way id="119989132" visible="true" version="4" changeset="130230260" timestamp="2022-12-19T04:09:44Z" user="AYAGE" uid="521665">
  <nd ref="1346487452"/>
  <nd ref="10272461149"/>
  <nd ref="10272461150"/>
  <nd ref="1346479144"/>
  <nd ref="10272461167"/>
  <nd ref="10272461166"/>
  <nd ref="1346513641"/>
  <tag k="highway" v="unclassified"/>
  <tag k="source" v="YahooJapan/ALPSMAP"/>
 </way>
 <way id="119990121" visible="true" version="3" changeset="130230260" timestamp="2022-12-19T04:09:44Z" user="AYAGE" uid="521665">
  <nd ref="1346514233"/>
  <nd ref="1346498452"/>
  <nd ref="10272461157"/>
  <nd ref="1346496620"/>
  <tag k="highway" v="unclassified"/>
  <tag k="source" v="YahooJapan/ALPSMAP"/>
 </way>
 <way id="119990489" visible="true" version="3" changeset="55398868" timestamp="2018-01-13T06:01:04Z" user="show1017" uid="3244669">
  <nd ref="1346502084"/>
  <nd ref="5336218025"/>
  <tag k="highway" v="unclassified"/>
  <tag k="source" v="YahooJapan/ALPSMAP"/>
 </way>
 <way id="119991546" visible="true" version="2" changeset="130230260" timestamp="2022-12-19T04:09:44Z" user="AYAGE" uid="521665">
  <nd ref="1346514011"/>
  <nd ref="10272461165"/>
  <nd ref="10272461160"/>
  <nd ref="10272461159"/>
  <nd ref="1346514751"/>
  <nd ref="1346513641"/>
  <tag k="highway" v="unclassified"/>
  <tag k="source" v="YahooJapan/ALPSMAP"/>
 </way>
 <way id="119992421" visible="true" version="4" changeset="130230260" timestamp="2022-12-19T04:09:44Z" user="AYAGE" uid="521665">
  <nd ref="1346477710"/>
  <nd ref="1346490449"/>
  <nd ref="10272461153"/>
  <nd ref="10272461152"/>
  <nd ref="1346508167"/>
  <nd ref="5336219519"/>
  <nd ref="1346502084"/>
  <tag k="highway" v="unclassified"/>
  <tag k="source" v="YahooJapan/ALPSMAP"/>
 </way>
 <way id="552739387" visible="true" version="1" changeset="55398868" timestamp="2018-01-13T06:01:04Z" user="show1017" uid="3244669">
  <nd ref="5336218023"/>
  <nd ref="5336218025"/>
  <tag k="highway" v="unclassified"/>
 </way>
 <way id="552739388" visible="true" version="2" changeset="55398882" timestamp="2018-01-13T06:02:41Z" user="show1017" uid="3244669">
  <nd ref="1346493920"/>
  <nd ref="5336218966"/>
  <nd ref="5336217111"/>
  <nd ref="1346503011"/>
  <tag k="highway" v="unclassified"/>
  <tag k="source" v="YahooJapan/ALPSMAP"/>
 </way>
 <way id="552739389" visible="true" version="2" changeset="57092995" timestamp="2018-03-11T20:42:37Z" user="pyram" uid="497849">
  <nd ref="5336218025"/>
  <nd ref="1346499666"/>
  <nd ref="1346493920"/>
  <tag k="highway" v="unclassified"/>
  <tag k="source" v="YahooJapan/ALPSMAP"/>
 </way>
 <way id="552739390" visible="true" version="3" changeset="140828045" timestamp="2023-09-05T02:00:58Z" user="taketaketake" uid="4757277">
  <nd ref="1346493920"/>
  <nd ref="5336218022"/>
  <nd ref="11168556382"/>
  <nd ref="5336218024"/>
  <tag k="highway" v="unclassified"/>
 </way>
 <way id="552739529" visible="true" version="2" changeset="55398988" timestamp="2018-01-13T06:11:31Z" user="show1017" uid="3244669">
  <nd ref="1346507452"/>
  <nd ref="5336224397"/>
  <tag k="highway" v="unclassified"/>
  <tag k="source" v="YahooJapan/ALPSMAP"/>
 </way>
 <way id="552739559" visible="true" version="1" changeset="55398882" timestamp="2018-01-13T06:02:41Z" user="show1017" uid="3244669">
  <nd ref="5336218966"/>
  <nd ref="5336218965"/>
  <nd ref="5336218968"/>
  <nd ref="5336218967"/>
  <nd ref="5336218969"/>
  <nd ref="1346507452"/>
  <tag k="highway" v="unclassified"/>
 </way>
 <way id="552739656" visible="true" version="2" changeset="130230260" timestamp="2022-12-19T04:09:44Z" user="AYAGE" uid="521665">
  <nd ref="5336219519"/>
  <nd ref="5336219516"/>
  <nd ref="5336219726"/>
  <nd ref="5336219515"/>
  <nd ref="5336219725"/>
  <nd ref="5336219722"/>
  <nd ref="5336219518"/>
  <nd ref="5336219520"/>
  <nd ref="5336219721"/>
  <nd ref="10272461155"/>
  <nd ref="5336219517"/>
  <nd ref="10272461156"/>
  <nd ref="1346496620"/>
  <tag k="highway" v="unclassified"/>
 </way>
 <way id="552739657" visible="true" version="1" changeset="55398899" timestamp="2018-01-13T06:04:38Z" user="show1017" uid="3244669">
  <nd ref="5336219727"/>
  <nd ref="5336219518"/>
  <tag k="highway" v="unclassified"/>
 </way>
 <way id="552739658" visible="true" version="1" changeset="55398899" timestamp="2018-01-13T06:04:38Z" user="show1017" uid="3244669">
  <nd ref="5336219724"/>
  <nd ref="5336219722"/>
  <tag k="highway" v="unclassified"/>
 </way>
 <way id="552739659" visible="true" version="1" changeset="55398899" timestamp="2018-01-13T06:04:38Z" user="show1017" uid="3244669">
  <nd ref="5336219722"/>
  <nd ref="5336219723"/>
  <tag k="highway" v="unclassified"/>
 </way>
 <way id="552740341" visible="true" version="1" changeset="55398988" timestamp="2018-01-13T06:11:30Z" user="show1017" uid="3244669">
  <nd ref="5336224401"/>
  <nd ref="5336224398"/>
  <nd ref="5336224399"/>
  <nd ref="5336224408"/>
  <nd ref="5336224402"/>
  <nd ref="5336224397"/>
  <tag k="highway" v="unclassified"/>
 </way>
 <way id="552740342" visible="true" version="1" changeset="55398988" timestamp="2018-01-13T06:11:30Z" user="show1017" uid="3244669">
  <nd ref="5336224397"/>
  <nd ref="1346479402"/>
  <nd ref="5336224407"/>
  <tag k="highway" v="unclassified"/>
  <tag k="source" v="YahooJapan/ALPSMAP"/>
 </way>
 <way id="552740344" visible="true" version="1" changeset="55398988" timestamp="2018-01-13T06:11:31Z" user="show1017" uid="3244669">
  <nd ref="1346514546"/>
  <nd ref="5336224400"/>
  <nd ref="5336224405"/>
  <tag k="highway" v="unclassified"/>
 </way>
 <way id="552740346" visible="true" version="1" changeset="55398988" timestamp="2018-01-13T06:11:31Z" user="show1017" uid="3244669">
  <nd ref="5336224406"/>
  <nd ref="5336224404"/>
  <nd ref="5336224407"/>
  <tag k="highway" v="unclassified"/>
 </way>
 <way id="552768391" visible="true" version="2" changeset="130230260" timestamp="2022-12-19T04:09:44Z" user="AYAGE" uid="521665">
  <nd ref="5336406680"/>
  <nd ref="10272461170"/>
  <nd ref="5336406679"/>
  <nd ref="5336406681"/>
  <nd ref="5336406677"/>
  <nd ref="5336406682"/>
  <nd ref="5336406678"/>
  <tag k="highway" v="unclassified"/>
 </way>
 <relation id="15742026" visible="true" version="17" changeset="172594622" timestamp="2025-09-29T06:10:24Z" user="taketaketake" uid="4757277">
  <member type="node" ref="9412086570" role="platform"/>
  <member type="node" ref="9412086568" role="platform"/>
  <member type="node" ref="9412086566" role="platform"/>
  <member type="node" ref="9412086564" role="platform"/>
  <member type="node" ref="9412086562" role="platform"/>
  <member type="node" ref="9412086342" role="platform"/>
  <member type="node" ref="9412086340" role="platform"/>
  <member type="node" ref="9412086337" role="platform"/>
  <member type="node" ref="9412086339" role="platform"/>
  <member type="node" ref="9412086341" role="platform"/>
  <member type="node" ref="9412086560" role="platform"/>
  <member type="node" ref="9412086558" role="platform"/>
  <member type="node" ref="9412086556" role="platform"/>
  <member type="node" ref="9412086554" role="platform"/>
  <member type="node" ref="9412086552" role="platform"/>
  <member type="node" ref="9412086550" role="platform"/>
  <member type="node" ref="9412086548" role="platform"/>
  <member type="node" ref="9412086546" role="platform"/>
  <member type="node" ref="9412086544" role="platform"/>
  <member type="node" ref="9412086542" role="platform"/>
  <member type="node" ref="9412086540" role="platform"/>
  <member type="node" ref="9412086538" role="platform"/>
  <member type="node" ref="9412086536" role="platform"/>
  <member type="node" ref="9412086534" role="platform"/>
  <member type="node" ref="9412086346" role="platform"/>
  <member type="node" ref="9412086515" role="platform"/>
  <member type="node" ref="9412086532" role="platform"/>
  <member type="node" ref="9412086530" role="platform"/>
  <member type="node" ref="9412086513" role="platform"/>
  <member type="node" ref="9412086517" role="platform"/>
  <member type="node" ref="9412086518" role="platform"/>
  <member type="node" ref="9412086521" role="platform"/>
  <member type="node" ref="9412086522" role="platform"/>
  <member type="node" ref="9412086525" role="platform"/>
  <member type="node" ref="9412086527" role="platform"/>
  <member type="node" ref="9412086511" role="platform"/>
  <member type="node" ref="9412086509" role="platform"/>
  <member type="node" ref="9412086507" role="platform"/>
  <member type="node" ref="9412086505" role="platform"/>
  <member type="node" ref="9412086503" role="platform"/>
  <member type="node" ref="9412086396" role="platform"/>
  <member type="node" ref="9412086394" role="platform"/>
  <member type="node" ref="9412086392" role="platform"/>
  <member type="node" ref="9412086390" role="platform"/>
  <member type="node" ref="9412086388" role="platform"/>
  <member type="node" ref="9412086386" role="platform"/>
  <member type="node" ref="9412086384" role="platform"/>
  <member type="way" ref="357194915" role=""/>
  <member type="way" ref="357194913" role=""/>
  <member type="way" ref="957733672" role=""/>
  <member type="way" ref="77178773" role=""/>
  <member type="way" ref="361731290" role=""/>
  <member type="way" ref="1420856717" role=""/>
  <member type="way" ref="1122925019" role=""/>
  <member type="way" ref="361731281" role=""/>
  <member type="way" ref="361731282" role=""/>
  <member type="way" ref="361731280" role=""/>
  <member type="way" ref="119986970" role=""/>
  <member type="way" ref="710577835" role=""/>
  <member type="way" ref="1163757171" role=""/>
  <member type="way" ref="119986480" role=""/>
  <member type="way" ref="1163757168" role=""/>
  <member type="way" ref="1163757169" role=""/>
  <member type="way" ref="1163757168" role=""/>
  <member type="way" ref="119986480" role=""/>
  <member type="way" ref="710577834" role=""/>
  <member type="way" ref="710577831" role=""/>
  <member type="way" ref="710577830" role=""/>
  <member type="way" ref="119885470" role=""/>
  <member type="way" ref="119886915" role=""/>
  <member type="way" ref="535381131" role=""/>
  <member type="way" ref="535381134" role=""/>
  <member type="way" ref="289348800" role=""/>
  <member type="way" ref="289348803" role=""/>
  <member type="way" ref="289348808" role=""/>
  <member type="way" ref="289348798" role=""/>
  <member type="way" ref="289348809" role=""/>
  <member type="way" ref="1315033214" role=""/>
  <member type="way" ref="289348802" role=""/>
  <member type="way" ref="1420101860" role=""/>
  <member type="way" ref="289348826" role=""/>
  <member type="way" ref="119887013" role=""/>
  <member type="way" ref="552482886" role=""/>
  <member type="way" ref="546317412" role=""/>
  <member type="way" ref="119885290" role=""/>
  <member type="way" ref="119887419" role=""/>
  <member type="way" ref="1163757165" role=""/>
  <member type="way" ref="1163757164" role=""/>
  <member type="way" ref="119887419" role=""/>
  <member type="way" ref="119887566" role=""/>
  <member type="way" ref="119886474" role=""/>
  <member type="way" ref="119888061" role=""/>
  <member type="way" ref="119886880" role=""/>
  <member type="way" ref="119885817" role=""/>
  <member type="way" ref="957726378" role=""/>
  <member type="way" ref="119879058" role=""/>
  <member type="way" ref="1036697530" role=""/>
  <member type="way" ref="1036697526" role=""/>
  <member type="way" ref="1036697532" role=""/>
  <member type="way" ref="1394161504" role=""/>
  <member type="way" ref="1036697531" role=""/>
  <member type="way" ref="1163757161" role=""/>
  <member type="way" ref="1036697528" role=""/>
  <member type="way" ref="1036697526" role=""/>
  <member type="way" ref="119878523" role=""/>
  <member type="way" ref="517552886" role=""/>
  <member type="way" ref="119878656" role=""/>
  <member type="way" ref="1036697525" role=""/>
  <member type="way" ref="1036697534" role=""/>
  <member type="way" ref="1036697533" role=""/>
  <member type="way" ref="1036697512" role=""/>
  <member type="way" ref="1036697534" role=""/>
  <member type="way" ref="1036697525" role=""/>
  <member type="way" ref="119878656" role=""/>
  <member type="way" ref="1036697524" role=""/>
  <member type="way" ref="119879071" role=""/>
  <member type="way" ref="119887610" role=""/>
  <member type="way" ref="119888155" role=""/>
  <member type="way" ref="119879116" role=""/>
  <member type="way" ref="119879037" role=""/>
  <member type="way" ref="119885215" role=""/>
  <member type="way" ref="1161949597" role=""/>
  <member type="way" ref="119886759" role=""/>
  <member type="way" ref="119887879" role=""/>
  <member type="way" ref="119885734" role=""/>
  <member type="way" ref="119885590" role=""/>
  <member type="way" ref="119887887" role=""/>
  <member type="way" ref="119888300" role=""/>
  <member type="way" ref="119885704" role=""/>
  <member type="way" ref="119885762" role=""/>
  <member type="way" ref="119887444" role=""/>
  <member type="way" ref="119885764" role=""/>
  <member type="way" ref="119885750" role=""/>
  <member type="way" ref="119875257" role=""/>
  <tag k="duration" v="01:21:00"/>
  <tag k="from" v="防府駅前"/>
  <tag k="gtfs:route_id" v="2229846746"/>
  <tag k="gtfs:shape_id" v="40001310"/>
  <tag k="name" v="Bus: 防府駅前→総合医療センター前→ゆめタウン山口→山口県庁前→中尾口"/>
  <tag k="network" v="防長線"/>
  <tag k="opening_hours" v="15:00-16:21"/>
  <tag k="operator" v="中国ジェイアールバス"/>
  <tag k="operator:en" v="Chugoku JR Bus"/>
  <tag k="public_transport:version" v="2"/>
  <tag k="route" v="bus"/>
  <tag k="to" v="中尾口"/>
  <tag k="type" v="route"/>
  <tag k="via" v="総合医療センター前;ゆめタウン山口;山口県庁前"/>
 </relation>
 <relation id="15742027" visible="true" version="17" changeset="178047391" timestamp="2026-02-03T12:01:21Z" user="setowalker" uid="21720421">
  <member type="node" ref="9412086385" role="platform"/>
  <member type="node" ref="9412086387" role="platform"/>
  <member type="node" ref="9412086389" role="platform"/>
  <member type="node" ref="9412086391" role="platform"/>
  <member type="node" ref="9412086393" role="platform"/>
  <member type="node" ref="9412086395" role="platform"/>
  <member type="node" ref="9412086397" role="platform"/>
  <member type="node" ref="9412086502" role="platform"/>
  <member type="node" ref="9412086504" role="platform"/>
  <member type="node" ref="9412086506" role="platform"/>
  <member type="node" ref="9412086508" role="platform"/>
  <member type="node" ref="9412086510" role="platform"/>
  <member type="node" ref="9412086512" role="platform"/>
  <member type="node" ref="9412086528" role="platform"/>
  <member type="node" ref="9412086526" role="platform"/>
  <member type="node" ref="9412086523" role="platform"/>
  <member type="node" ref="9412086520" role="platform"/>
  <member type="node" ref="9412086519" role="platform"/>
  <member type="node" ref="9412086516" role="platform"/>
  <member type="node" ref="9412086514" role="platform"/>
  <member type="node" ref="9412086531" role="platform"/>
  <member type="node" ref="9412086533" role="platform"/>
  <member type="node" ref="9412086515" role="platform"/>
  <member type="node" ref="9412086535" role="platform"/>
  <member type="node" ref="9412086537" role="platform"/>
  <member type="node" ref="9412086539" role="platform"/>
  <member type="node" ref="9412086541" role="platform"/>
  <member type="node" ref="9412086543" role="platform"/>
  <member type="node" ref="9412086545" role="platform"/>
  <member type="node" ref="9412086547" role="platform"/>
  <member type="node" ref="9412086549" role="platform"/>
  <member type="node" ref="9412086551" role="platform"/>
  <member type="node" ref="9412086553" role="platform"/>
  <member type="node" ref="9412086555" role="platform"/>
  <member type="node" ref="9412086557" role="platform"/>
  <member type="node" ref="9412086559" role="platform"/>
  <member type="node" ref="9412086561" role="platform"/>
  <member type="node" ref="9412086342" role="platform"/>
  <member type="node" ref="9412086340" role="platform"/>
  <member type="node" ref="9412086338" role="platform"/>
  <member type="node" ref="9412086339" role="platform"/>
  <member type="node" ref="9412086341" role="platform"/>
  <member type="node" ref="9412086563" role="platform"/>
  <member type="node" ref="9412086565" role="platform"/>
  <member type="node" ref="9412086567" role="platform"/>
  <member type="node" ref="9412086569" role="platform"/>
  <member type="node" ref="9412086571" role="platform"/>
  <member type="way" ref="119875257" role=""/>
  <member type="way" ref="119885750" role=""/>
  <member type="way" ref="119885764" role=""/>
  <member type="way" ref="119887444" role=""/>
  <member type="way" ref="119885762" role=""/>
  <member type="way" ref="119885704" role=""/>
  <member type="way" ref="119888300" role=""/>
  <member type="way" ref="119887887" role=""/>
  <member type="way" ref="119885590" role=""/>
  <member type="way" ref="119885734" role=""/>
  <member type="way" ref="119887879" role=""/>
  <member type="way" ref="119886759" role=""/>
  <member type="way" ref="1161949597" role=""/>
  <member type="way" ref="119885215" role=""/>
  <member type="way" ref="119879037" role=""/>
  <member type="way" ref="119879116" role=""/>
  <member type="way" ref="119888155" role=""/>
  <member type="way" ref="119887610" role=""/>
  <member type="way" ref="119879071" role=""/>
  <member type="way" ref="1036697511" role=""/>
  <member type="way" ref="1036697510" role=""/>
  <member type="way" ref="1036697514" role=""/>
  <member type="way" ref="1036697512" role=""/>
  <member type="way" ref="1036697534" role=""/>
  <member type="way" ref="1036697525" role=""/>
  <member type="way" ref="119878656" role=""/>
  <member type="way" ref="119878549" role=""/>
  <member type="way" ref="119878523" role=""/>
  <member type="way" ref="1036697526" role=""/>
  <member type="way" ref="1036697532" role=""/>
  <member type="way" ref="1394161504" role=""/>
  <member type="way" ref="1036697531" role=""/>
  <member type="way" ref="1036697527" role=""/>
  <member type="way" ref="119879058" role=""/>
  <member type="way" ref="957726378" role=""/>
  <member type="way" ref="119885817" role=""/>
  <member type="way" ref="119886880" role=""/>
  <member type="way" ref="119888061" role=""/>
  <member type="way" ref="119886474" role=""/>
  <member type="way" ref="119887566" role=""/>
  <member type="way" ref="119887419" role=""/>
  <member type="way" ref="1163757165" role=""/>
  <member type="way" ref="1163757164" role=""/>
  <member type="way" ref="119887419" role=""/>
  <member type="way" ref="119885290" role=""/>
  <member type="way" ref="546317412" role=""/>
  <member type="way" ref="407829907" role=""/>
  <member type="way" ref="1473855298" role=""/>
  <member type="way" ref="1473855299" role=""/>
  <member type="way" ref="139849495" role=""/>
  <member type="way" ref="1420101861" role=""/>
  <member type="way" ref="1315033215" role=""/>
  <member type="way" ref="289348758" role=""/>
  <member type="way" ref="289348773" role=""/>
  <member type="way" ref="289348780" role=""/>
  <member type="way" ref="289348769" role=""/>
  <member type="way" ref="289348772" role=""/>
  <member type="way" ref="535381133" role=""/>
  <member type="way" ref="535381132" role=""/>
  <member type="way" ref="289348757" role=""/>
  <member type="way" ref="42403292" role=""/>
  <member type="way" ref="289348828" role=""/>
  <member type="way" ref="710577832" role=""/>
  <member type="way" ref="710577833" role=""/>
  <member type="way" ref="119990501" role=""/>
  <member type="way" ref="119986480" role=""/>
  <member type="way" ref="1163757168" role=""/>
  <member type="way" ref="1163757169" role=""/>
  <member type="way" ref="1163757168" role=""/>
  <member type="way" ref="119986480" role=""/>
  <member type="way" ref="119990501" role=""/>
  <member type="way" ref="1163757160" role=""/>
  <member type="way" ref="710577836" role=""/>
  <member type="way" ref="552730769" role=""/>
  <member type="way" ref="552730766" role=""/>
  <member type="way" ref="1315019735" role=""/>
  <member type="way" ref="361731287" role=""/>
  <member type="way" ref="1420856718" role=""/>
  <member type="way" ref="361731290" role=""/>
  <member type="way" ref="77178773" role=""/>
  <member type="way" ref="957733672" role=""/>
  <member type="way" ref="646777796" role=""/>
  <tag k="duration" v="01:21:00"/>
  <tag k="from" v="中尾口"/>
  <tag k="gtfs:route_id" v="2229846746"/>
  <tag k="gtfs:shape_id" v="40001319"/>
  <tag k="name" v="Bus: 中尾口→山口県庁前→ゆめタウン山口→総合医療センター前→防府駅"/>
  <tag k="network" v="防長線"/>
  <tag k="opening_hours" v="11:45-13:08"/>
  <tag k="operator" v="中国ジェイアールバス"/>
  <tag k="operator:en" v="Chugoku JR Bus"/>
  <tag k="public_transport:version" v="2"/>
  <tag k="route" v="bus"/>
  <tag k="to" v="防府駅"/>
  <tag k="type" v="route"/>
  <tag k="via" v="山口県庁前;ゆめタウン山口;総合医療センター前"/>
 </relation>
 <relation id="15742028" visible="true" version="1" changeset="135081250" timestamp="2023-04-19T01:12:02Z" user="okadatsuneo_import" uid="12352917">
  <member type="relation" ref="15742026" role=""/>
  <member type="relation" ref="15742025" role=""/>
  <member type="relation" ref="15742023" role=""/>
  <member type="relation" ref="15742027" role=""/>
  <member type="relation" ref="15742024" role=""/>
  <tag k="name" v="Bus: 防府駅前&lt;-&gt;中尾口"/>
  <tag k="network" v="防長線"/>
  <tag k="operator" v="中国ジェイアールバス"/>
  <tag k="operator:en" v="Chugoku JR Bus"/>
  <tag k="route_master" v="bus"/>
  <tag k="type" v="route_master"/>
 </relation>
 <relation id="15742102" visible="true" version="18" changeset="172594622" timestamp="2025-09-29T06:10:24Z" user="taketaketake" uid="4757277">
  <member type="node" ref="9412086570" role="platform"/>
  <member type="node" ref="9412086568" role="platform"/>
  <member type="node" ref="9412086566" role="platform"/>
  <member type="node" ref="9412086564" role="platform"/>
  <member type="node" ref="9412086562" role="platform"/>
  <member type="node" ref="9412086342" role="platform"/>
  <member type="node" ref="9412086340" role="platform"/>
  <member type="node" ref="9412086337" role="platform"/>
  <member type="node" ref="9412086339" role="platform"/>
  <member type="node" ref="9412086341" role="platform"/>
  <member type="node" ref="9412086560" role="platform"/>
  <member type="node" ref="9412086558" role="platform"/>
  <member type="node" ref="9412086556" role="platform"/>
  <member type="node" ref="9412086554" role="platform"/>
  <member type="node" ref="9412086552" role="platform"/>
  <member type="node" ref="9412086550" role="platform"/>
  <member type="node" ref="9412086548" role="platform"/>
  <member type="node" ref="9412086546" role="platform"/>
  <member type="node" ref="9412086544" role="platform"/>
  <member type="node" ref="9412086542" role="platform"/>
  <member type="node" ref="9412086540" role="platform"/>
  <member type="node" ref="9412086538" role="platform"/>
  <member type="node" ref="9412086536" role="platform"/>
  <member type="node" ref="9412086534" role="platform"/>
  <member type="node" ref="9412086346" role="platform"/>
  <member type="node" ref="9412086515" role="platform"/>
  <member type="node" ref="9412086532" role="platform"/>
  <member type="node" ref="9412086530" role="platform"/>
  <member type="node" ref="9412086513" role="platform"/>
  <member type="node" ref="9412086517" role="platform"/>
  <member type="node" ref="9412086518" role="platform"/>
  <member type="node" ref="9412086521" role="platform"/>
  <member type="node" ref="9412086522" role="platform"/>
  <member type="node" ref="9412086525" role="platform"/>
  <member type="node" ref="9412086527" role="platform"/>
  <member type="node" ref="9412086511" role="platform"/>
  <member type="node" ref="9412086509" role="platform"/>
  <member type="node" ref="9412086507" role="platform"/>
  <member type="node" ref="9412086505" role="platform"/>
  <member type="node" ref="9412086503" role="platform"/>
  <member type="node" ref="9412086500" role="platform"/>
  <member type="node" ref="9412086498" role="platform"/>
  <member type="node" ref="9412086496" role="platform"/>
  <member type="node" ref="9412086494" role="platform"/>
  <member type="node" ref="9412086493" role="platform"/>
  <member type="way" ref="357194915" role=""/>
  <member type="way" ref="357194913" role=""/>
  <member type="way" ref="957733672" role=""/>
  <member type="way" ref="77178773" role=""/>
  <member type="way" ref="361731290" role=""/>
  <member type="way" ref="1420856717" role=""/>
  <member type="way" ref="1122925019" role=""/>
  <member type="way" ref="361731281" role=""/>
  <member type="way" ref="361731282" role=""/>
  <member type="way" ref="361731280" role=""/>
  <member type="way" ref="119986970" role=""/>
  <member type="way" ref="710577835" role=""/>
  <member type="way" ref="1163757171" role=""/>
  <member type="way" ref="119986480" role=""/>
  <member type="way" ref="1163757168" role=""/>
  <member type="way" ref="1163757169" role=""/>
  <member type="way" ref="1163757168" role=""/>
  <member type="way" ref="119986480" role=""/>
  <member type="way" ref="710577834" role=""/>
  <member type="way" ref="710577831" role=""/>
  <member type="way" ref="710577830" role=""/>
  <member type="way" ref="119885470" role=""/>
  <member type="way" ref="119886915" role=""/>
  <member type="way" ref="535381131" role=""/>
  <member type="way" ref="535381134" role=""/>
  <member type="way" ref="289348800" role=""/>
  <member type="way" ref="289348803" role=""/>
  <member type="way" ref="289348808" role=""/>
  <member type="way" ref="289348798" role=""/>
  <member type="way" ref="289348809" role=""/>
  <member type="way" ref="1315033214" role=""/>
  <member type="way" ref="289348802" role=""/>
  <member type="way" ref="1420101860" role=""/>
  <member type="way" ref="289348826" role=""/>
  <member type="way" ref="119887013" role=""/>
  <member type="way" ref="552482886" role=""/>
  <member type="way" ref="546317412" role=""/>
  <member type="way" ref="119885290" role=""/>
  <member type="way" ref="119887419" role=""/>
  <member type="way" ref="1163757165" role=""/>
  <member type="way" ref="1163757164" role=""/>
  <member type="way" ref="119887419" role=""/>
  <member type="way" ref="119887566" role=""/>
  <member type="way" ref="119886474" role=""/>
  <member type="way" ref="119888061" role=""/>
  <member type="way" ref="119886880" role=""/>
  <member type="way" ref="119885817" role=""/>
  <member type="way" ref="957726378" role=""/>
  <member type="way" ref="119879058" role=""/>
  <member type="way" ref="1036697530" role=""/>
  <member type="way" ref="1036697526" role=""/>
  <member type="way" ref="1036697532" role=""/>
  <member type="way" ref="1394161504" role=""/>
  <member type="way" ref="1036697531" role=""/>
  <member type="way" ref="1163757161" role=""/>
  <member type="way" ref="1036697528" role=""/>
  <member type="way" ref="1036697526" role=""/>
  <member type="way" ref="119878523" role=""/>
  <member type="way" ref="517552886" role=""/>
  <member type="way" ref="119878656" role=""/>
  <member type="way" ref="1036697525" role=""/>
  <member type="way" ref="1036697534" role=""/>
  <member type="way" ref="1036697533" role=""/>
  <member type="way" ref="1036697512" role=""/>
  <member type="way" ref="1036697534" role=""/>
  <member type="way" ref="1036697525" role=""/>
  <member type="way" ref="119878656" role=""/>
  <member type="way" ref="1036697524" role=""/>
  <member type="way" ref="119879071" role=""/>
  <member type="way" ref="119887610" role=""/>
  <member type="way" ref="119888155" role=""/>
  <member type="way" ref="119879116" role=""/>
  <member type="way" ref="119879037" role=""/>
  <member type="way" ref="119885215" role=""/>
  <member type="way" ref="1161949597" role=""/>
  <member type="way" ref="1427055400" role=""/>
  <member type="way" ref="119885217" role=""/>
  <member type="way" ref="119888475" role=""/>
  <member type="way" ref="119887315" role=""/>
  <member type="way" ref="119886472" role=""/>
  <member type="way" ref="119885381" role=""/>
  <member type="way" ref="119887360" role=""/>
  <member type="way" ref="119887402" role=""/>
  <member type="way" ref="283108776" role=""/>
  <member type="way" ref="283108775" role=""/>
  <member type="way" ref="1163761251" role=""/>
  <member type="way" ref="1163761254" role=""/>
  <tag k="duration" v="01:19:00"/>
  <tag k="from" v="防府駅前"/>
  <tag k="gtfs:route_id" v="2229846746"/>
  <tag k="gtfs:shape_id" v="40001350"/>
  <tag k="name" v="Bus: 防府駅前→総合医療センター前→ゆめタウン山口→山口県庁前→山口大学"/>
  <tag k="network" v="防長線"/>
  <tag k="opening_hours" v="Mo-Fr 10:35-20:25; Sa-Su 10:35-20:22"/>
  <tag k="operator" v="中国ジェイアールバス"/>
  <tag k="operator:en" v="Chugoku JR Bus"/>
  <tag k="public_transport:version" v="2"/>
  <tag k="route" v="bus"/>
  <tag k="to" v="山口大学"/>
  <tag k="type" v="route"/>
  <tag k="via" v="総合医療センター前;ゆめタウン山口;山口県庁前"/>
 </relation>
 <relation id="15742103" visible="true" version="19" changeset="178047391" timestamp="2026-02-03T12:01:21Z" user="setowalker" uid="21720421">
  <member type="node" ref="9412086493" role="platform"/>
  <member type="node" ref="9412086492" role="platform"/>
  <member type="node" ref="9412086495" role="platform"/>
  <member type="node" ref="9412086497" role="platform"/>
  <member type="node" ref="9412086499" role="platform"/>
  <member type="node" ref="9412086502" role="platform"/>
  <member type="node" ref="9412086504" role="platform"/>
  <member type="node" ref="9412086506" role="platform"/>
  <member type="node" ref="9412086508" role="platform"/>
  <member type="node" ref="9412086510" role="platform"/>
  <member type="node" ref="9412086512" role="platform"/>
  <member type="node" ref="9412086528" role="platform"/>
  <member type="node" ref="9412086526" role="platform"/>
  <member type="node" ref="9412086523" role="platform"/>
  <member type="node" ref="9412086520" role="platform"/>
  <member type="node" ref="9412086519" role="platform"/>
  <member type="node" ref="9412086516" role="platform"/>
  <member type="node" ref="9412086514" role="platform"/>
  <member type="node" ref="9412086531" role="platform"/>
  <member type="node" ref="9412086533" role="platform"/>
  <member type="node" ref="9412086515" role="platform"/>
  <member type="node" ref="9412086535" role="platform"/>
  <member type="node" ref="9412086537" role="platform"/>
  <member type="node" ref="9412086539" role="platform"/>
  <member type="node" ref="9412086541" role="platform"/>
  <member type="node" ref="9412086543" role="platform"/>
  <member type="node" ref="9412086545" role="platform"/>
  <member type="node" ref="9412086547" role="platform"/>
  <member type="node" ref="9412086549" role="platform"/>
  <member type="node" ref="9412086551" role="platform"/>
  <member type="node" ref="9412086553" role="platform"/>
  <member type="node" ref="9412086555" role="platform"/>
  <member type="node" ref="9412086557" role="platform"/>
  <member type="node" ref="9412086559" role="platform"/>
  <member type="node" ref="9412086561" role="platform"/>
  <member type="node" ref="9412086342" role="platform"/>
  <member type="node" ref="9412086340" role="platform"/>
  <member type="node" ref="9412086338" role="platform"/>
  <member type="node" ref="9412086339" role="platform"/>
  <member type="node" ref="9412086341" role="platform"/>
  <member type="node" ref="9412086563" role="platform"/>
  <member type="node" ref="9412086565" role="platform"/>
  <member type="node" ref="9412086567" role="platform"/>
  <member type="node" ref="9412086569" role="platform"/>
  <member type="node" ref="9412086571" role="platform"/>
  <member type="way" ref="119885969" role=""/>
  <member type="way" ref="119887402" role=""/>
  <member type="way" ref="119887360" role=""/>
  <member type="way" ref="119885381" role=""/>
  <member type="way" ref="119886472" role=""/>
  <member type="way" ref="119887315" role=""/>
  <member type="way" ref="119888475" role=""/>
  <member type="way" ref="119885217" role=""/>
  <member type="way" ref="1427055400" role=""/>
  <member type="way" ref="1161949597" role=""/>
  <member type="way" ref="119885215" role=""/>
  <member type="way" ref="119879037" role=""/>
  <member type="way" ref="119879116" role=""/>
  <member type="way" ref="119888155" role=""/>
  <member type="way" ref="119887610" role=""/>
  <member type="way" ref="119879071" role=""/>
  <member type="way" ref="1036697511" role=""/>
  <member type="way" ref="1036697510" role=""/>
  <member type="way" ref="1036697514" role=""/>
  <member type="way" ref="1036697512" role=""/>
  <member type="way" ref="1036697534" role=""/>
  <member type="way" ref="1036697525" role=""/>
  <member type="way" ref="119878656" role=""/>
  <member type="way" ref="119878549" role=""/>
  <member type="way" ref="119878523" role=""/>
  <member type="way" ref="1036697526" role=""/>
  <member type="way" ref="1036697532" role=""/>
  <member type="way" ref="1394161504" role=""/>
  <member type="way" ref="1036697531" role=""/>
  <member type="way" ref="1036697527" role=""/>
  <member type="way" ref="119879058" role=""/>
  <member type="way" ref="957726378" role=""/>
  <member type="way" ref="119885817" role=""/>
  <member type="way" ref="119886880" role=""/>
  <member type="way" ref="119888061" role=""/>
  <member type="way" ref="119886474" role=""/>
  <member type="way" ref="119887566" role=""/>
  <member type="way" ref="119887419" role=""/>
  <member type="way" ref="1163757165" role=""/>
  <member type="way" ref="1163757164" role=""/>
  <member type="way" ref="119887419" role=""/>
  <member type="way" ref="119885290" role=""/>
  <member type="way" ref="546317412" role=""/>
  <member type="way" ref="407829907" role=""/>
  <member type="way" ref="1473855298" role=""/>
  <member type="way" ref="1473855299" role=""/>
  <member type="way" ref="139849495" role=""/>
  <member type="way" ref="1420101861" role=""/>
  <member type="way" ref="1315033215" role=""/>
  <member type="way" ref="289348758" role=""/>
  <member type="way" ref="289348773" role=""/>
  <member type="way" ref="289348780" role=""/>
  <member type="way" ref="289348769" role=""/>
  <member type="way" ref="289348772" role=""/>
  <member type="way" ref="535381133" role=""/>
  <member type="way" ref="535381132" role=""/>
  <member type="way" ref="289348757" role=""/>
  <member type="way" ref="42403292" role=""/>
  <member type="way" ref="289348828" role=""/>
  <member type="way" ref="710577832" role=""/>
  <member type="way" ref="710577833" role=""/>
  <member type="way" ref="119990501" role=""/>
  <member type="way" ref="119986480" role=""/>
  <member type="way" ref="1163757168" role=""/>
  <member type="way" ref="1163757169" role=""/>
  <member type="way" ref="1163757168" role=""/>
  <member type="way" ref="119986480" role=""/>
  <member type="way" ref="119990501" role=""/>
  <member type="way" ref="1163757160" role=""/>
  <member type="way" ref="710577836" role=""/>
  <member type="way" ref="552730769" role=""/>
  <member type="way" ref="552730766" role=""/>
  <member type="way" ref="1315019735" role=""/>
  <member type="way" ref="361731287" role=""/>
  <member type="way" ref="1420856718" role=""/>
  <member type="way" ref="361731290" role=""/>
  <member type="way" ref="77178773" role=""/>
  <member type="way" ref="957733672" role=""/>
  <member type="way" ref="646777796" role=""/>
  <tag k="duration" v="01:13:00"/>
  <tag k="from" v="山口大学"/>
  <tag k="gtfs:route_id" v="2229846746"/>
  <tag k="gtfs:shape_id" v="40001359"/>
  <tag k="name" v="Bus: 山口大学→山口県庁前→ゆめタウン山口→総合医療センター前→防府駅"/>
  <tag k="network" v="防長線"/>
  <tag k="opening_hours" v="Mo-Fr 10:35-20:25; Sa-Su 08:15-10:15"/>
  <tag k="operator" v="中国ジェイアールバス"/>
  <tag k="operator:en" v="Chugoku JR Bus"/>
  <tag k="public_transport:version" v="2"/>
  <tag k="route" v="bus"/>
  <tag k="to" v="防府駅"/>
  <tag k="type" v="route"/>
  <tag k="via" v="山口県庁前;ゆめタウン山口;総合医療センター前"/>
 </relation>
 <relation id="15742104" visible="true" version="1" changeset="135081958" timestamp="2023-04-19T01:53:23Z" user="okadatsuneo_import" uid="12352917">
  <member type="relation" ref="15742103" role=""/>
  <member type="relation" ref="15742102" role=""/>
  <member type="relation" ref="15742101" role=""/>
  <member type="relation" ref="15742100" role=""/>
  <member type="relation" ref="15742099" role=""/>
  <member type="relation" ref="15742098" role=""/>
  <member type="relation" ref="15742097" role=""/>
  <member type="relation" ref="15742096" role=""/>
  <tag k="name" v="Bus: 防府駅前&lt;-&gt;山口大学"/>
  <tag k="network" v="防長線"/>
  <tag k="operator" v="中国ジェイアールバス"/>
  <tag k="operator:en" v="Chugoku JR Bus"/>
  <tag k="route_master" v="bus"/>
  <tag k="type" v="route_master"/>
 </relation>
 <relation id="19639129" visible="true" version="1" changeset="172323976" timestamp="2025-09-23T04:59:12Z" user="taketaketake" uid="4757277">
  <member type="way" ref="1316254556" role=""/>
  <member type="way" ref="1316254557" role=""/>
  <member type="way" ref="119887456" role=""/>
  <member type="way" ref="1432193128" role=""/>
  <member type="way" ref="119885361" role=""/>
  <member type="way" ref="1432193129" role=""/>
  <member type="way" ref="119986540" role=""/>
  <member type="way" ref="1432193130" role=""/>
  <member type="way" ref="813103406" role=""/>
  <member type="way" ref="119986098" role=""/>
  <member type="way" ref="119988099" role=""/>
  <member type="way" ref="119987511" role=""/>
  <member type="way" ref="119986480" role=""/>
  <member type="way" ref="119990501" role=""/>
  <tag k="from" v="山口県山口市上小鯖"/>
  <tag k="name" v="山口県道348号　大内右田線"/>
  <tag k="name:en" v="Yamaguchi Prefectural Route 348 Ouchi Migita Line"/>
  <tag k="name:ja" v="山口県道348号　大内右田線"/>
  <tag k="name:ja-Hira" v="やまぐちけんどう348ごう おおうちみぎたせん"/>
  <tag k="name:ja_rm" v="Yamaguchikendō 348-gō Ōuchi Migita-sen"/>
  <tag k="network" v="JP:prefectural"/>
  <tag k="ref" v="348"/>
  <tag k="route" v="road"/>
  <tag k="to" v="山口県防府市大字高井"/>
  <tag k="type" v="route"/>
  <tag k="wikidata" v="Q11467316"/>
  <tag k="wikipedia" v="ja:山口県道348号大内右田線"/>
 </relation>
</osm>
