<?xml version="1.0" encoding="UTF-8"?>
<osm version="0.6" generator="openstreetmap-cgimap 2.1.0 (2942785 spike-08.openstreetmap.org)" copyright="OpenStreetMap and contributors" attribution="http://www.openstreetmap.org/copyright" license="http://opendatacommons.org/licenses/odbl/1-0/">
 <bounds minlat="34.4025019" minlon="131.4007097" maxlat="34.4049019" maxlon="131.4037097"/>
 <node id="1292502351" visible="true" version="2" changeset="27328244" timestamp="2014-12-08T08:04:57Z" user="mklyr" uid="614924" lat="34.4045294" lon="131.4049057"/>
 <node id="1292502602" visible="true" version="2" changeset="27328244" timestamp="2014-12-08T08:04:58Z" user="mklyr" uid="614924" lat="34.4055000" lon="131.4023685"/>
 <node id="1292503235" visible="true" version="2" changeset="27328244" timestamp="2014-12-08T08:04:58Z" user="mklyr" uid="614924" lat="34.4037737" lon="131.4048243"/>
 <node id="1292503733" visible="true" version="3" changeset="56384387" timestamp="2018-02-15T13:27:35Z" user="mklyr" uid="614924" lat="34.4023438" lon="131.4020035"/>
 <node id="1292509746" visible="true" version="3" changeset="56384805" timestamp="2018-02-15T13:41:35Z" user="mklyr" uid="614924" lat="34.4025884" lon="131.4008998"/>
 <node id="1292510815" visible="true" version="3" changeset="56384387" timestamp="2018-02-15T13:27:35Z" user="mklyr" uid="614924" lat="34.4023731" lon="131.4017775"/>
 <node id="1292517213" visible="true" version="3" changeset="35101202" timestamp="2015-11-05T12:47:42Z" user="AYAGE" uid="521665" lat="34.4041219" lon="131.3999968"/>
 <node id="1292517570" visible="true" version="2" changeset="27328244" timestamp="2014-12-08T08:05:02Z" user="mklyr" uid="614924" lat="34.4033585" lon="131.3999238"/>
 <node id="1292525036" visible="true" version="2" changeset="27328244" timestamp="2014-12-08T08:05:04Z" user="mklyr" uid="614924" lat="34.4030949" lon="131.4034522"/>
 <node id="1292525475" visible="true" version="2" changeset="27328959" timestamp="2014-12-08T08:48:05Z" user="mklyr" uid="614924" lat="34.4022508" lon="131.4033338"/>
 <node id="1292525559" visible="true" version="3" changeset="35101202" timestamp="2015-11-05T12:47:44Z" user="AYAGE" uid="521665" lat="34.4039600" lon="131.4021747"/>
 <node id="1292527256" visible="true" version="3" changeset="56384805" timestamp="2018-02-15T13:41:35Z" user="mklyr" uid="614924" lat="34.4028029" lon="131.3999944"/>
 <node id="1292527474" visible="true" version="3" changeset="35102366" timestamp="2015-11-05T13:52:48Z" user="AYAGE" uid="521665" lat="34.4033279" lon="131.4005146"/>
 <node id="1292529329" visible="true" version="3" changeset="56384805" timestamp="2018-02-15T13:41:35Z" user="mklyr" uid="614924" lat="34.4024981" lon="131.4011923"/>
 <node id="1292530743" visible="true" version="2" changeset="27328244" timestamp="2014-12-08T08:05:05Z" user="mklyr" uid="614924" lat="34.4032050" lon="131.4020968"/>
 <node id="1292531626" visible="true" version="2" changeset="27328244" timestamp="2014-12-08T08:05:06Z" user="mklyr" uid="614924" lat="34.4023040" lon="131.4020007"/>
 <node id="1292531748" visible="true" version="3" changeset="35101202" timestamp="2015-11-05T12:47:44Z" user="AYAGE" uid="521665" lat="34.4029990" lon="131.4047224"/>
 <node id="1292532977" visible="true" version="3" changeset="35101202" timestamp="2015-11-05T12:47:45Z" user="AYAGE" uid="521665" lat="34.4069266" lon="131.4025176"/>
 <node id="1292534491" visible="true" version="2" changeset="27328959" timestamp="2014-12-08T08:48:06Z" user="mklyr" uid="614924" lat="34.4028838" lon="131.3998745"/>
 <node id="1292535741" visible="true" version="2" changeset="27328244" timestamp="2014-12-08T08:05:07Z" user="mklyr" uid="614924" lat="34.4038802" lon="131.4033291"/>
 <node id="1292540045" visible="true" version="3" changeset="56384387" timestamp="2018-02-15T13:27:37Z" user="mklyr" uid="614924" lat="34.4086400" lon="131.4027153">
  <tag k="highway" v="traffic_signals"/>
  <tag k="name" v="御許町"/>
 </node>
 <node id="1292542121" visible="true" version="2" changeset="27328244" timestamp="2014-12-08T08:05:09Z" user="mklyr" uid="614924" lat="34.4046569" lon="131.4034249"/>
 <node id="1292542516" visible="true" version="2" changeset="27328244" timestamp="2014-12-08T08:05:09Z" user="mklyr" uid="614924" lat="34.4054156" lon="131.4035182"/>
 <node id="1423660838" visible="true" version="2" changeset="170182560" timestamp="2025-08-09T04:12:10Z" user="pseek" uid="21586509" lat="34.4042800" lon="131.4024850">
  <tag k="addr:block_number" v="3"/>
  <tag k="addr:city" v="萩市"/>
  <tag k="addr:housenumber" v="1"/>
  <tag k="addr:neighbourhood" v="橋本町"/>
  <tag k="addr:postcode" v="758-0062"/>
  <tag k="addr:province" v="山口県"/>
  <tag k="amenity" v="post_office"/>
  <tag k="name" v="萩橋本郵便局"/>
  <tag k="name:en" v="Hagi Hashimoto Post Office"/>
  <tag k="name:es" v="Oficina de Correos de Hagui Hashimoto"/>
  <tag k="name:ja" v="萩橋本郵便局"/>
  <tag k="name:ja-Hira" v="はぎ はしもと ゆうびんきょく"/>
  <tag k="name:pt" v="Correio de Hagi Hashimoto"/>
  <tag k="note" v="National-Land Numerical Information (Public Facility) 2006, MLIT Japan"/>
  <tag k="note:ja" v="国土数値情報（公共施設データ）平成19年　国土交通省"/>
  <tag k="opening_hours" v="Mo-Fr 09:00-17:00"/>
  <tag k="operator" v="日本郵便"/>
  <tag k="operator:en" v="Japan Post"/>
  <tag k="operator:ja" v="日本郵便"/>
  <tag k="operator:short" v="郵便局"/>
  <tag k="operator:short:en" v="JP"/>
  <tag k="operator:short:ja" v="郵便局"/>
  <tag k="operator:wikidata" v="Q11509260"/>
  <tag k="phone" v="+81-838-22-0298"/>
  <tag k="source" v="KSJ2"/>
  <tag k="source_ref" v="http://nlftp.mlit.go.jp/ksj/jpgis/datalist/KsjTmplt-P02-v2_0.html"/>
 </node>
 <node id="3224494418" visible="true" version="2" changeset="56384387" timestamp="2018-02-15T13:27:37Z" user="mklyr" uid="614924" lat="34.4087252" lon="131.4027263">
  <tag k="highway" v="traffic_signals"/>
  <tag k="name" v="御許町"/>
 </node>
 <node id="4052409461" visible="true" version="1" changeset="37727961" timestamp="2016-03-10T07:58:05Z" user="yoshitk" uid="1003241" lat="34.4038414" lon="131.4038736"/>
 <node id="4052409462" visible="true" version="1" changeset="37727961" timestamp="2016-03-10T07:58:05Z" user="yoshitk" uid="1003241" lat="34.4030683" lon="131.4038042"/>
 <node id="4060906743" visible="true" version="1" changeset="37834193" timestamp="2016-03-15T03:07:39Z" user="yoshitk" uid="1003241" lat="34.4055832" lon="131.4013712"/>
 <node id="4060906744" visible="true" version="1" changeset="37834193" timestamp="2016-03-15T03:07:39Z" user="yoshitk" uid="1003241" lat="34.4050894" lon="131.4013098"/>
 <node id="4060906745" visible="true" version="1" changeset="37834193" timestamp="2016-03-15T03:07:39Z" user="yoshitk" uid="1003241" lat="34.4046802" lon="131.4012821"/>
 <node id="4060906746" visible="true" version="1" changeset="37834193" timestamp="2016-03-15T03:07:39Z" user="yoshitk" uid="1003241" lat="34.4047132" lon="131.4009894"/>
 <node id="4060906750" visible="true" version="1" changeset="37834193" timestamp="2016-03-15T03:07:39Z" user="yoshitk" uid="1003241" lat="34.4066096" lon="131.3977173"/>
 <node id="4060906751" visible="true" version="1" changeset="37834193" timestamp="2016-03-15T03:07:39Z" user="yoshitk" uid="1003241" lat="34.4065689" lon="131.3978529"/>
 <node id="4060906752" visible="true" version="1" changeset="37834193" timestamp="2016-03-15T03:07:39Z" user="yoshitk" uid="1003241" lat="34.4064444" lon="131.3979114"/>
 <node id="4060906753" visible="true" version="1" changeset="37834193" timestamp="2016-03-15T03:07:39Z" user="yoshitk" uid="1003241" lat="34.4063478" lon="131.3981518"/>
 <node id="4060906754" visible="true" version="1" changeset="37834193" timestamp="2016-03-15T03:07:39Z" user="yoshitk" uid="1003241" lat="34.4062817" lon="131.3982873"/>
 <node id="4060906755" visible="true" version="1" changeset="37834193" timestamp="2016-03-15T03:07:39Z" user="yoshitk" uid="1003241" lat="34.4062232" lon="131.3984044"/>
 <node id="4060906756" visible="true" version="1" changeset="37834193" timestamp="2016-03-15T03:07:39Z" user="yoshitk" uid="1003241" lat="34.4061622" lon="131.3988327"/>
 <node id="4060906757" visible="true" version="1" changeset="37834193" timestamp="2016-03-15T03:07:39Z" user="yoshitk" uid="1003241" lat="34.4058012" lon="131.3988080"/>
 <node id="4060906758" visible="true" version="2" changeset="163549582" timestamp="2025-03-13T00:01:49Z" user="ikuraikukiu" uid="21709822" lat="34.4057029" lon="131.4002202"/>
 <node id="4060906759" visible="true" version="2" changeset="163549582" timestamp="2025-03-13T00:01:49Z" user="ikuraikukiu" uid="21709822" lat="34.4045768" lon="131.4000856"/>
 <node id="4060906760" visible="true" version="2" changeset="163549582" timestamp="2025-03-13T00:01:49Z" user="ikuraikukiu" uid="21709822" lat="34.4045251" lon="131.4002120"/>
 <node id="4060906761" visible="true" version="2" changeset="163549582" timestamp="2025-03-13T00:01:49Z" user="ikuraikukiu" uid="21709822" lat="34.4044197" lon="131.4016671"/>
 <node id="4060906762" visible="true" version="2" changeset="163549582" timestamp="2025-03-13T00:01:49Z" user="ikuraikukiu" uid="21709822" lat="34.4043657" lon="131.4017710"/>
 <node id="4060906763" visible="true" version="2" changeset="163549582" timestamp="2025-03-13T00:01:49Z" user="ikuraikukiu" uid="21709822" lat="34.4042688" lon="131.4017505"/>
 <node id="4060906764" visible="true" version="2" changeset="163549582" timestamp="2025-03-13T00:01:49Z" user="ikuraikukiu" uid="21709822" lat="34.4040476" lon="131.4017085"/>
 <node id="5140286755" visible="true" version="2" changeset="75036920" timestamp="2019-09-28T10:43:07Z" user="Reboli_NL" uid="93547" lat="34.4075290" lon="131.4025871"/>
 <node id="5140286756" visible="true" version="1" changeset="52522812" timestamp="2017-09-30T22:00:15Z" user="tkamada" uid="3344524" lat="34.4040326" lon="131.4011985"/>
 <node id="5140286757" visible="true" version="1" changeset="52522812" timestamp="2017-09-30T22:00:15Z" user="tkamada" uid="3344524" lat="34.4044150" lon="131.4012439"/>
 <node id="5140286758" visible="true" version="1" changeset="52522812" timestamp="2017-09-30T22:00:15Z" user="tkamada" uid="3344524" lat="34.4032651" lon="131.4013237"/>
 <node id="5140286759" visible="true" version="1" changeset="52522812" timestamp="2017-09-30T22:00:15Z" user="tkamada" uid="3344524" lat="34.4026594" lon="131.4012349"/>
 <node id="5140286760" visible="true" version="1" changeset="52522812" timestamp="2017-09-30T22:00:15Z" user="tkamada" uid="3344524" lat="34.4025838" lon="131.4020302"/>
 <node id="5140286761" visible="true" version="1" changeset="52522812" timestamp="2017-09-30T22:00:15Z" user="tkamada" uid="3344524" lat="34.4025018" lon="131.4027868"/>
 <node id="5140286762" visible="true" version="1" changeset="52522812" timestamp="2017-09-30T22:00:15Z" user="tkamada" uid="3344524" lat="34.4024458" lon="131.4033612"/>
 <node id="5140286763" visible="true" version="1" changeset="52522812" timestamp="2017-09-30T22:00:15Z" user="tkamada" uid="3344524" lat="34.4025774" lon="131.4033796"/>
 <node id="5140286764" visible="true" version="1" changeset="52522812" timestamp="2017-09-30T22:00:15Z" user="tkamada" uid="3344524" lat="34.4025314" lon="131.4039089"/>
 <node id="8479049138" visible="true" version="3" changeset="181792300" timestamp="2026-04-25T05:55:28Z" user="FajrAl" uid="2649988" lat="34.4028781" lon="131.4018911">
  <tag k="name" v="橋本町"/>
  <tag k="name:en" v="Hashimotomachi"/>
  <tag k="name:id" v="Hashimotomachi"/>
  <tag k="name:ja" v="橋本町"/>
  <tag k="name:ja-Hira" v="はしもとまち"/>
  <tag k="official_name" v="大字橋本町"/>
  <tag k="place" v="quarter"/>
 </node>
 <node id="9412086398" visible="true" version="1" changeset="116054198" timestamp="2022-01-12T07:39:29Z" user="okadatsuneo_import" uid="12352917" lat="34.4040840" lon="131.4021274">
  <tag k="bus" v="yes"/>
  <tag k="gtfs:stop_id" v="60090 2"/>
  <tag k="highway" v="bus_stop"/>
  <tag k="name" v="橋本町"/>
  <tag k="name:ja" v="橋本町"/>
  <tag k="name:ja-Hira" v="はしもとまち"/>
  <tag k="operator" v="中国ジェイアールバス"/>
  <tag k="operator:en" v="Chugoku JR Bus"/>
  <tag k="public_transport" v="platform"/>
 </node>
 <node id="9412086399" visible="true" version="1" changeset="116054198" timestamp="2022-01-12T07:39:29Z" user="okadatsuneo_import" uid="12352917" lat="34.4037008" lon="131.4022107">
  <tag k="bus" v="yes"/>
  <tag k="gtfs:stop_id" v="60090 1"/>
  <tag k="highway" v="bus_stop"/>
  <tag k="name" v="橋本町"/>
  <tag k="name:ja" v="橋本町"/>
  <tag k="name:ja-Hira" v="はしもとまち"/>
  <tag k="operator" v="中国ジェイアールバス"/>
  <tag k="operator:en" v="Chugoku JR Bus"/>
  <tag k="public_transport" v="platform"/>
 </node>
 <node id="12657649264" visible="true" version="1" changeset="163549582" timestamp="2025-03-13T00:01:49Z" user="ikuraikukiu" uid="21709822" lat="34.4045416" lon="131.4000985"/>
 <node id="12657649265" visible="true" version="1" changeset="163549582" timestamp="2025-03-13T00:01:49Z" user="ikuraikukiu" uid="21709822" lat="34.4044450" lon="131.4013178"/>
 <node id="12657649266" visible="true" version="1" changeset="163549582" timestamp="2025-03-13T00:01:49Z" user="ikuraikukiu" uid="21709822" lat="34.4044530" lon="131.4012079"/>
 <node id="12657649267" visible="true" version="1" changeset="163549582" timestamp="2025-03-13T00:01:49Z" user="ikuraikukiu" uid="21709822" lat="34.4046270" lon="131.4012174"/>
 <node id="12657649268" visible="true" version="1" changeset="163549582" timestamp="2025-03-13T00:01:49Z" user="ikuraikukiu" uid="21709822" lat="34.4055581" lon="131.4013156"/>
 <way id="114055645" visible="true" version="1" changeset="8194860" timestamp="2011-05-20T03:11:12Z" user="yamasan" uid="32308">
  <nd ref="1292542121"/>
  <nd ref="1292535741"/>
  <tag k="highway" v="unclassified"/>
  <tag k="source" v="YahooJapan/ALPSMAP"/>
  <tag k="yh:STRUCTURE" v="地上"/>
  <tag k="yh:TOTYUMONO" v="供用中"/>
  <tag k="yh:TYPE" v="その他一般道"/>
  <tag k="yh:WIDTH" v="3.0m〜5.5m"/>
  <tag k="yh:WIDTH_RANK" v="3"/>
 </way>
 <way id="114055717" visible="true" version="2" changeset="52522812" timestamp="2017-09-30T22:00:33Z" user="tkamada" uid="3344524">
  <nd ref="1292525475"/>
  <nd ref="5140286762"/>
  <nd ref="5140286763"/>
  <nd ref="1292525036"/>
  <tag k="highway" v="unclassified"/>
  <tag k="source" v="YahooJapan/ALPSMAP"/>
 </way>
 <way id="114055961" visible="true" version="1" changeset="8194860" timestamp="2011-05-20T03:12:20Z" user="yamasan" uid="32308">
  <nd ref="1292535741"/>
  <nd ref="1292525559"/>
  <tag k="highway" v="unclassified"/>
  <tag k="source" v="YahooJapan/ALPSMAP"/>
  <tag k="yh:STRUCTURE" v="地上"/>
  <tag k="yh:TOTYUMONO" v="供用中"/>
  <tag k="yh:TYPE" v="その他一般道"/>
  <tag k="yh:WIDTH" v="3.0m〜5.5m"/>
  <tag k="yh:WIDTH_RANK" v="3"/>
 </way>
 <way id="114056233" visible="true" version="2" changeset="52522812" timestamp="2017-09-30T22:00:33Z" user="tkamada" uid="3344524">
  <nd ref="1292517570"/>
  <nd ref="1292527474"/>
  <nd ref="5140286758"/>
  <nd ref="1292530743"/>
  <tag k="highway" v="unclassified"/>
  <tag k="source" v="YahooJapan/ALPSMAP"/>
 </way>
 <way id="114056416" visible="true" version="1" changeset="8194860" timestamp="2011-05-20T03:14:00Z" user="yamasan" uid="32308">
  <nd ref="1292502351"/>
  <nd ref="1292542121"/>
  <tag k="highway" v="unclassified"/>
  <tag k="source" v="YahooJapan/ALPSMAP"/>
  <tag k="yh:STRUCTURE" v="地上"/>
  <tag k="yh:TOTYUMONO" v="供用中"/>
  <tag k="yh:TYPE" v="その他一般道"/>
  <tag k="yh:WIDTH" v="3.0m〜5.5m"/>
  <tag k="yh:WIDTH_RANK" v="3"/>
 </way>
 <way id="114057149" visible="true" version="2" changeset="37727961" timestamp="2016-03-10T07:58:08Z" user="yoshitk" uid="1003241">
  <nd ref="1292525036"/>
  <nd ref="4052409462"/>
  <nd ref="1292531748"/>
  <tag k="highway" v="unclassified"/>
  <tag k="source" v="YahooJapan/ALPSMAP"/>
 </way>
 <way id="114057288" visible="true" version="2" changeset="27328244" timestamp="2014-12-08T08:04:55Z" user="mklyr" uid="614924">
  <nd ref="1292503733"/>
  <nd ref="1292510815"/>
  <nd ref="1292529329"/>
  <nd ref="1292509746"/>
  <nd ref="1292527256"/>
  <nd ref="1292534491"/>
  <tag k="highway" v="unclassified"/>
  <tag k="source" v="YahooJapan/ALPSMAP"/>
  <tag k="yh:WIDTH" v="3.0m〜5.5m"/>
 </way>
 <way id="114057893" visible="true" version="1" changeset="8194860" timestamp="2011-05-20T03:21:01Z" user="yamasan" uid="32308">
  <nd ref="1292530743"/>
  <nd ref="1292525036"/>
  <tag k="highway" v="unclassified"/>
  <tag k="source" v="YahooJapan/ALPSMAP"/>
  <tag k="yh:STRUCTURE" v="地上"/>
  <tag k="yh:TOTYUMONO" v="供用中"/>
  <tag k="yh:TYPE" v="その他一般道"/>
  <tag k="yh:WIDTH" v="3.0m〜5.5m"/>
  <tag k="yh:WIDTH_RANK" v="3"/>
 </way>
 <way id="114057916" visible="true" version="2" changeset="52522812" timestamp="2017-09-30T22:00:33Z" user="tkamada" uid="3344524">
  <nd ref="1292525559"/>
  <nd ref="5140286756"/>
  <nd ref="1292517213"/>
  <tag k="highway" v="unclassified"/>
  <tag k="source" v="YahooJapan/ALPSMAP"/>
 </way>
 <way id="114058162" visible="true" version="1" changeset="8194860" timestamp="2011-05-20T03:22:06Z" user="yamasan" uid="32308">
  <nd ref="1292542121"/>
  <nd ref="1292542516"/>
  <tag k="highway" v="unclassified"/>
  <tag k="source" v="YahooJapan/ALPSMAP"/>
  <tag k="yh:STRUCTURE" v="地上"/>
  <tag k="yh:TOTYUMONO" v="供用中"/>
  <tag k="yh:TYPE" v="その他一般道"/>
  <tag k="yh:WIDTH" v="3.0m〜5.5m"/>
  <tag k="yh:WIDTH_RANK" v="3"/>
 </way>
 <way id="114058518" visible="true" version="4" changeset="171993143" timestamp="2025-09-16T04:32:12Z" user="taketaketake" uid="4757277">
  <nd ref="3224494418"/>
  <nd ref="1292540045"/>
  <nd ref="5140286755"/>
  <nd ref="1292532977"/>
  <nd ref="1292502602"/>
  <nd ref="1292525559"/>
  <nd ref="1292530743"/>
  <nd ref="5140286760"/>
  <nd ref="1292503733"/>
  <nd ref="1292531626"/>
  <tag k="highway" v="primary"/>
  <tag k="lanes" v="2"/>
  <tag k="name" v="萩三隅線"/>
  <tag k="name:en" v="Hagi Misumi Line"/>
  <tag k="name:ja" v="萩三隅線"/>
  <tag k="name:ja-Hira" v="はぎみすみせん"/>
  <tag k="name:ja_rm" v="Hagi Misumi-sen"/>
  <tag k="ref" v="64;293"/>
  <tag k="source" v="YahooJapan/ALPSMAP"/>
  <tag k="surface" v="asphalt"/>
  <tag k="wikidata" v="Q11467359"/>
  <tag k="wikipedia" v="ja:山口県道64号萩三隅線"/>
 </way>
 <way id="114058718" visible="true" version="2" changeset="37727961" timestamp="2016-03-10T07:58:08Z" user="yoshitk" uid="1003241">
  <nd ref="1292535741"/>
  <nd ref="4052409461"/>
  <nd ref="1292503235"/>
  <tag k="highway" v="unclassified"/>
  <tag k="source" v="YahooJapan/ALPSMAP"/>
 </way>
 <way id="403773971" visible="true" version="1" changeset="37834193" timestamp="2016-03-15T03:07:39Z" user="yoshitk" uid="1003241">
  <nd ref="4060906743"/>
  <nd ref="4060906744"/>
  <nd ref="4060906745"/>
  <nd ref="4060906746"/>
  <tag k="highway" v="residential"/>
 </way>
 <way id="403773973" visible="true" version="2" changeset="163549582" timestamp="2025-03-13T00:01:49Z" user="ikuraikukiu" uid="21709822">
  <nd ref="4060906764"/>
  <nd ref="4060906763"/>
  <nd ref="4060906762"/>
  <nd ref="4060906761"/>
  <nd ref="12657649265"/>
  <nd ref="12657649266"/>
  <nd ref="4060906760"/>
  <nd ref="12657649264"/>
  <nd ref="4060906759"/>
  <nd ref="4060906758"/>
  <nd ref="4060906757"/>
  <nd ref="4060906756"/>
  <nd ref="4060906755"/>
  <nd ref="4060906754"/>
  <nd ref="4060906753"/>
  <nd ref="4060906752"/>
  <nd ref="4060906751"/>
  <nd ref="4060906750"/>
  <tag k="waterway" v="canal"/>
 </way>
 <way id="529077091" visible="true" version="1" changeset="52522812" timestamp="2017-09-30T22:00:22Z" user="tkamada" uid="3344524">
  <nd ref="5140286756"/>
  <nd ref="5140286757"/>
  <tag k="highway" v="unclassified"/>
 </way>
 <way id="529077092" visible="true" version="2" changeset="56384805" timestamp="2018-02-15T13:41:36Z" user="mklyr" uid="614924">
  <nd ref="5140286758"/>
  <nd ref="5140286759"/>
  <nd ref="1292529329"/>
  <tag k="highway" v="unclassified"/>
 </way>
 <way id="529077093" visible="true" version="1" changeset="52522812" timestamp="2017-09-30T22:00:22Z" user="tkamada" uid="3344524">
  <nd ref="5140286760"/>
  <nd ref="5140286761"/>
  <nd ref="5140286762"/>
  <tag k="highway" v="unclassified"/>
 </way>
 <way id="529077094" visible="true" version="1" changeset="52522812" timestamp="2017-09-30T22:00:22Z" user="tkamada" uid="3344524">
  <nd ref="5140286763"/>
  <nd ref="5140286764"/>
  <tag k="highway" v="unclassified"/>
 </way>
 <way id="1366711206" visible="true" version="1" changeset="163549582" timestamp="2025-03-13T00:01:49Z" user="ikuraikukiu" uid="21709822">
  <nd ref="12657649265"/>
  <nd ref="12657649266"/>
  <nd ref="12657649267"/>
  <nd ref="12657649268"/>
  <tag k="waterway" v="ditch"/>
 </way>
 <relation id="13884431" visible="true" version="10" changeset="171993143" timestamp="2025-09-16T04:32:12Z" user="taketaketake" uid="4757277">
  <member type="node" ref="9412086504" role="platform"/>
  <member type="node" ref="9412086506" role="platform"/>
  <member type="node" ref="9412086508" role="platform"/>
  <member type="node" ref="9412086510" role="platform"/>
  <member type="node" ref="9412086491" role="platform"/>
  <member type="node" ref="9412086520" role="platform"/>
  <member type="node" ref="9412086519" role="platform"/>
  <member type="node" ref="9412086516" role="platform"/>
  <member type="node" ref="9412086518" role="platform"/>
  <member type="node" ref="9412086521" role="platform"/>
  <member type="node" ref="9412086522" role="platform"/>
  <member type="node" ref="9412086524" role="platform"/>
  <member type="node" ref="9412086476" role="platform"/>
  <member type="node" ref="9412086474" role="platform"/>
  <member type="node" ref="9412086472" role="platform"/>
  <member type="node" ref="9412086470" role="platform"/>
  <member type="node" ref="9412086468" role="platform"/>
  <member type="node" ref="9412086466" role="platform"/>
  <member type="node" ref="9412086464" role="platform"/>
  <member type="node" ref="9412086462" role="platform"/>
  <member type="node" ref="9412086460" role="platform"/>
  <member type="node" ref="9412086487" role="platform"/>
  <member type="node" ref="9412086485" role="platform"/>
  <member type="node" ref="10653428528" role="platform"/>
  <member type="node" ref="9412086458" role="platform"/>
  <member type="node" ref="9412086456" role="platform"/>
  <member type="node" ref="9412086454" role="platform"/>
  <member type="node" ref="9412086453" role="platform"/>
  <member type="node" ref="9412086451" role="platform"/>
  <member type="node" ref="9412086449" role="platform"/>
  <member type="node" ref="9412086447" role="platform"/>
  <member type="node" ref="9412086445" role="platform"/>
  <member type="node" ref="9412086443" role="platform"/>
  <member type="node" ref="9412086441" role="platform"/>
  <member type="node" ref="9412086483" role="platform"/>
  <member type="node" ref="9412086334" role="platform"/>
  <member type="node" ref="9412086439" role="platform"/>
  <member type="node" ref="9412086437" role="platform"/>
  <member type="node" ref="9412086435" role="platform"/>
  <member type="node" ref="9412086433" role="platform"/>
  <member type="node" ref="9412086431" role="platform"/>
  <member type="node" ref="9412086429" role="platform"/>
  <member type="node" ref="9412086427" role="platform"/>
  <member type="node" ref="9412086425" role="platform"/>
  <member type="node" ref="9412086423" role="platform"/>
  <member type="node" ref="9412086421" role="platform"/>
  <member type="node" ref="9412086419" role="platform"/>
  <member type="node" ref="9412086417" role="platform"/>
  <member type="node" ref="9412086415" role="platform"/>
  <member type="node" ref="9412086481" role="platform"/>
  <member type="node" ref="9412086413" role="platform"/>
  <member type="node" ref="9412086411" role="platform"/>
  <member type="node" ref="9412086409" role="platform"/>
  <member type="node" ref="9412086407" role="platform"/>
  <member type="node" ref="9412086405" role="platform"/>
  <member type="node" ref="9412086403" role="platform"/>
  <member type="node" ref="9412086401" role="platform"/>
  <member type="node" ref="9412086400" role="platform"/>
  <member type="node" ref="9412086398" role="platform"/>
  <member type="node" ref="9412086343" role="platform"/>
  <member type="node" ref="9412086479" role="platform"/>
  <member type="node" ref="9412086478" role="platform"/>
  <member type="way" ref="119885215" role=""/>
  <member type="way" ref="119879037" role=""/>
  <member type="way" ref="1036697523" role=""/>
  <member type="way" ref="119878523" role=""/>
  <member type="way" ref="1036697526" role=""/>
  <member type="way" ref="1036697532" role=""/>
  <member type="way" ref="1394161504" role=""/>
  <member type="way" ref="1036697531" role=""/>
  <member type="way" ref="1163757161" role=""/>
  <member type="way" ref="1036697528" role=""/>
  <member type="way" ref="1036697526" role=""/>
  <member type="way" ref="119878523" role=""/>
  <member type="way" ref="517552886" role=""/>
  <member type="way" ref="119878656" role=""/>
  <member type="way" ref="1036697525" role=""/>
  <member type="way" ref="1036697534" role=""/>
  <member type="way" ref="1036697533" role=""/>
  <member type="way" ref="1036697512" role=""/>
  <member type="way" ref="1036697534" role=""/>
  <member type="way" ref="1036697525" role=""/>
  <member type="way" ref="119878656" role=""/>
  <member type="way" ref="1036709693" role=""/>
  <member type="way" ref="1036709692" role=""/>
  <member type="way" ref="119879154" role=""/>
  <member type="way" ref="119879065" role=""/>
  <member type="way" ref="310175728" role=""/>
  <member type="way" ref="310175725" role=""/>
  <member type="way" ref="119878743" role=""/>
  <member type="way" ref="119878597" role=""/>
  <member type="way" ref="119879213" role=""/>
  <member type="way" ref="119879204" role=""/>
  <member type="way" ref="119878605" role=""/>
  <member type="way" ref="1036709691" role=""/>
  <member type="way" ref="119878779" role=""/>
  <member type="way" ref="119878679" role=""/>
  <member type="way" ref="119879109" role=""/>
  <member type="way" ref="119878957" role=""/>
  <member type="way" ref="119878571" role=""/>
  <member type="way" ref="119878796" role=""/>
  <member type="way" ref="119878467" role=""/>
  <member type="way" ref="68875222" role=""/>
  <member type="way" ref="68875217" role=""/>
  <member type="way" ref="68875218" role=""/>
  <member type="way" ref="42403306" role=""/>
  <member type="way" ref="544509184" role=""/>
  <member type="way" ref="544509185" role=""/>
  <member type="way" ref="42476346" role=""/>
  <member type="way" ref="42476343" role=""/>
  <member type="way" ref="42476344" role=""/>
  <member type="way" ref="42476342" role=""/>
  <member type="way" ref="544509186" role=""/>
  <member type="way" ref="544509187" role=""/>
  <member type="way" ref="544509188" role=""/>
  <member type="way" ref="544509189" role=""/>
  <member type="way" ref="42476341" role=""/>
  <member type="way" ref="42476352" role=""/>
  <member type="way" ref="42476351" role=""/>
  <member type="way" ref="119875332" role=""/>
  <member type="way" ref="119875295" role=""/>
  <member type="way" ref="710482454" role=""/>
  <member type="way" ref="544509193" role=""/>
  <member type="way" ref="1036709687" role=""/>
  <member type="way" ref="544509195" role=""/>
  <member type="way" ref="544509194" role=""/>
  <member type="way" ref="114040847" role=""/>
  <member type="way" ref="114040970" role=""/>
  <member type="way" ref="1036709670" role=""/>
  <member type="way" ref="434742622" role=""/>
  <member type="way" ref="1036709668" role=""/>
  <member type="way" ref="1036709669" role=""/>
  <member type="way" ref="704734761" role=""/>
  <member type="way" ref="114040299" role=""/>
  <member type="way" ref="114041125" role=""/>
  <member type="way" ref="114040449" role=""/>
  <member type="way" ref="114041267" role=""/>
  <member type="way" ref="114041034" role=""/>
  <member type="way" ref="42476347" role=""/>
  <member type="way" ref="413732108" role=""/>
  <member type="way" ref="413732109" role=""/>
  <member type="way" ref="42476368" role=""/>
  <member type="way" ref="42476369" role=""/>
  <member type="way" ref="568591089" role=""/>
  <member type="way" ref="710477714" role=""/>
  <member type="way" ref="710477713" role=""/>
  <member type="way" ref="544735763" role=""/>
  <member type="way" ref="544735764" role=""/>
  <member type="way" ref="544735765" role=""/>
  <member type="way" ref="42476366" role=""/>
  <member type="way" ref="568591123" role=""/>
  <member type="way" ref="544735768" role=""/>
  <member type="way" ref="544735767" role=""/>
  <member type="way" ref="544735758" role=""/>
  <member type="way" ref="710459517" role=""/>
  <member type="way" ref="114040401" role=""/>
  <member type="way" ref="114041191" role=""/>
  <member type="way" ref="702008675" role=""/>
  <member type="way" ref="114040351" role=""/>
  <member type="way" ref="544735762" role=""/>
  <member type="way" ref="114056460" role=""/>
  <member type="way" ref="114057397" role=""/>
  <member type="way" ref="114056321" role=""/>
  <member type="way" ref="114057881" role=""/>
  <member type="way" ref="114057811" role=""/>
  <member type="way" ref="114056744" role=""/>
  <member type="way" ref="114057169" role=""/>
  <member type="way" ref="114056169" role=""/>
  <member type="way" ref="1430138808" role=""/>
  <member type="way" ref="114055935" role=""/>
  <member type="way" ref="114058420" role=""/>
  <member type="way" ref="79534125" role=""/>
  <member type="way" ref="1036709684" role=""/>
  <member type="way" ref="316339820" role=""/>
  <member type="way" ref="316339812" role=""/>
  <member type="way" ref="316339817" role=""/>
  <member type="way" ref="114056144" role=""/>
  <member type="way" ref="1036709680" role=""/>
  <member type="way" ref="114058392" role=""/>
  <member type="way" ref="1036709679" role=""/>
  <member type="way" ref="421310968" role=""/>
  <member type="way" ref="1430138807" role=""/>
  <member type="way" ref="114055661" role=""/>
  <member type="way" ref="114058659" role=""/>
  <member type="way" ref="114058518" role=""/>
  <member type="way" ref="402834033" role=""/>
  <member type="way" ref="114056495" role=""/>
  <member type="way" ref="604148052" role=""/>
  <member type="way" ref="1036709675" role=""/>
  <member type="way" ref="1036709674" role=""/>
  <member type="way" ref="1036709676" role=""/>
  <member type="way" ref="1036709675" role=""/>
  <member type="way" ref="604148052" role=""/>
  <member type="way" ref="604148053" role=""/>
  <member type="way" ref="402834035" role=""/>
  <member type="way" ref="114056368" role=""/>
  <member type="way" ref="114058206" role=""/>
  <member type="way" ref="114056326" role=""/>
  <member type="way" ref="114056166" role=""/>
  <member type="way" ref="79534148" role=""/>
  <member type="way" ref="316339802" role=""/>
  <member type="way" ref="316339803" role=""/>
  <member type="way" ref="316339838" role=""/>
  <member type="way" ref="1036709673" role=""/>
  <member type="way" ref="114056730" role=""/>
  <member type="way" ref="1036709672" role=""/>
  <tag k="duration" v="01:40:00"/>
  <tag k="from" v="湯田温泉"/>
  <tag k="gtfs:route_id" v="2229846746"/>
  <tag k="gtfs:shape_id" v="40001280"/>
  <tag k="name" v="Bus: 湯田温泉→東萩駅前"/>
  <tag k="network" v="防長線"/>
  <tag k="opening_hours" v="09:20-11:00"/>
  <tag k="operator" v="中国ジェイアールバス"/>
  <tag k="operator:en" v="Chugoku JR Bus"/>
  <tag k="public_transport:version" v="2"/>
  <tag k="route" v="bus"/>
  <tag k="to" v="東萩駅前"/>
  <tag k="type" v="route"/>
 </relation>
 <relation id="13884432" visible="true" version="11" changeset="171993143" timestamp="2025-09-16T04:32:12Z" user="taketaketake" uid="4757277">
  <member type="node" ref="9412086478" role="platform"/>
  <member type="node" ref="9412086480" role="platform"/>
  <member type="node" ref="9412086343" role="platform"/>
  <member type="node" ref="9412086399" role="platform"/>
  <member type="node" ref="9412086400" role="platform"/>
  <member type="node" ref="9412086402" role="platform"/>
  <member type="node" ref="9412086404" role="platform"/>
  <member type="node" ref="9412086406" role="platform"/>
  <member type="node" ref="9412086408" role="platform"/>
  <member type="node" ref="9412086410" role="platform"/>
  <member type="node" ref="9412086412" role="platform"/>
  <member type="node" ref="9412086414" role="platform"/>
  <member type="node" ref="9412086482" role="platform"/>
  <member type="node" ref="9412086416" role="platform"/>
  <member type="node" ref="9412086418" role="platform"/>
  <member type="node" ref="9412086420" role="platform"/>
  <member type="node" ref="9412086422" role="platform"/>
  <member type="node" ref="9412086424" role="platform"/>
  <member type="node" ref="9412086426" role="platform"/>
  <member type="node" ref="9412086428" role="platform"/>
  <member type="node" ref="9412086430" role="platform"/>
  <member type="node" ref="9412086432" role="platform"/>
  <member type="node" ref="9412086434" role="platform"/>
  <member type="node" ref="9412086436" role="platform"/>
  <member type="node" ref="9412086438" role="platform"/>
  <member type="node" ref="9412086440" role="platform"/>
  <member type="node" ref="9412086334" role="platform"/>
  <member type="node" ref="9412086484" role="platform"/>
  <member type="node" ref="9412086442" role="platform"/>
  <member type="node" ref="9412086444" role="platform"/>
  <member type="node" ref="9412086446" role="platform"/>
  <member type="node" ref="9412086448" role="platform"/>
  <member type="node" ref="9412086450" role="platform"/>
  <member type="node" ref="9412086452" role="platform"/>
  <member type="node" ref="10653908309" role="platform"/>
  <member type="node" ref="9412086455" role="platform"/>
  <member type="node" ref="9412086457" role="platform"/>
  <member type="node" ref="9412086459" role="platform"/>
  <member type="node" ref="10653428529" role="platform"/>
  <member type="node" ref="9412086486" role="platform"/>
  <member type="node" ref="9412086488" role="platform"/>
  <member type="node" ref="9412086461" role="platform"/>
  <member type="node" ref="9412086463" role="platform"/>
  <member type="node" ref="9412086465" role="platform"/>
  <member type="node" ref="9412086467" role="platform"/>
  <member type="node" ref="9412086469" role="platform"/>
  <member type="node" ref="9412086471" role="platform"/>
  <member type="node" ref="9412086473" role="platform"/>
  <member type="node" ref="9412086475" role="platform"/>
  <member type="node" ref="9412086477" role="platform"/>
  <member type="node" ref="9412086525" role="platform"/>
  <member type="node" ref="9412086523" role="platform"/>
  <member type="node" ref="9412086520" role="platform"/>
  <member type="node" ref="9412086519" role="platform"/>
  <member type="node" ref="9412086517" role="platform"/>
  <member type="node" ref="9412086518" role="platform"/>
  <member type="node" ref="9412086521" role="platform"/>
  <member type="node" ref="9412086511" role="platform"/>
  <member type="node" ref="9412086509" role="platform"/>
  <member type="node" ref="9412086507" role="platform"/>
  <member type="node" ref="9412086505" role="platform"/>
  <member type="node" ref="9412086345" role="platform"/>
  <member type="way" ref="1036709672" role=""/>
  <member type="way" ref="1036709671" role=""/>
  <member type="way" ref="1036709673" role=""/>
  <member type="way" ref="316339838" role=""/>
  <member type="way" ref="316339803" role=""/>
  <member type="way" ref="316339802" role=""/>
  <member type="way" ref="79534148" role=""/>
  <member type="way" ref="114056166" role=""/>
  <member type="way" ref="114056326" role=""/>
  <member type="way" ref="114058206" role=""/>
  <member type="way" ref="1036709666" role=""/>
  <member type="way" ref="114055946" role=""/>
  <member type="way" ref="114058274" role=""/>
  <member type="way" ref="402834035" role=""/>
  <member type="way" ref="402834033" role=""/>
  <member type="way" ref="114056495" role=""/>
  <member type="way" ref="604148052" role=""/>
  <member type="way" ref="1036709675" role=""/>
  <member type="way" ref="1036709674" role=""/>
  <member type="way" ref="1036709676" role=""/>
  <member type="way" ref="1036709675" role=""/>
  <member type="way" ref="604148052" role=""/>
  <member type="way" ref="604148053" role=""/>
  <member type="way" ref="114058518" role=""/>
  <member type="way" ref="114058659" role=""/>
  <member type="way" ref="114055661" role=""/>
  <member type="way" ref="1430138807" role=""/>
  <member type="way" ref="421310968" role=""/>
  <member type="way" ref="1036709679" role=""/>
  <member type="way" ref="1036709678" role=""/>
  <member type="way" ref="1036709680" role=""/>
  <member type="way" ref="114058392" role=""/>
  <member type="way" ref="1036709678" role=""/>
  <member type="way" ref="114056144" role=""/>
  <member type="way" ref="1036709681" role=""/>
  <member type="way" ref="1036709682" role=""/>
  <member type="way" ref="114057391" role=""/>
  <member type="way" ref="114056724" role=""/>
  <member type="way" ref="79534125" role=""/>
  <member type="way" ref="114058420" role=""/>
  <member type="way" ref="114055935" role=""/>
  <member type="way" ref="1430138808" role=""/>
  <member type="way" ref="114056169" role=""/>
  <member type="way" ref="114057169" role=""/>
  <member type="way" ref="114056744" role=""/>
  <member type="way" ref="114057811" role=""/>
  <member type="way" ref="114057881" role=""/>
  <member type="way" ref="114056321" role=""/>
  <member type="way" ref="114057397" role=""/>
  <member type="way" ref="114056460" role=""/>
  <member type="way" ref="544735762" role=""/>
  <member type="way" ref="114040351" role=""/>
  <member type="way" ref="702008675" role=""/>
  <member type="way" ref="114041191" role=""/>
  <member type="way" ref="114040401" role=""/>
  <member type="way" ref="710459517" role=""/>
  <member type="way" ref="544735758" role=""/>
  <member type="way" ref="544735767" role=""/>
  <member type="way" ref="544735768" role=""/>
  <member type="way" ref="568591123" role=""/>
  <member type="way" ref="42476366" role=""/>
  <member type="way" ref="544735765" role=""/>
  <member type="way" ref="544735764" role=""/>
  <member type="way" ref="544735763" role=""/>
  <member type="way" ref="710477713" role=""/>
  <member type="way" ref="710477714" role=""/>
  <member type="way" ref="568591089" role=""/>
  <member type="way" ref="42476369" role=""/>
  <member type="way" ref="42476368" role=""/>
  <member type="way" ref="413732109" role=""/>
  <member type="way" ref="413732108" role=""/>
  <member type="way" ref="42476347" role=""/>
  <member type="way" ref="114041034" role=""/>
  <member type="way" ref="114041267" role=""/>
  <member type="way" ref="114040449" role=""/>
  <member type="way" ref="114041125" role=""/>
  <member type="way" ref="114040299" role=""/>
  <member type="way" ref="704734761" role=""/>
  <member type="way" ref="1036709669" role=""/>
  <member type="way" ref="1036709668" role=""/>
  <member type="way" ref="434742622" role=""/>
  <member type="way" ref="1036709670" role=""/>
  <member type="way" ref="114040970" role=""/>
  <member type="way" ref="114040847" role=""/>
  <member type="way" ref="544509194" role=""/>
  <member type="way" ref="544509195" role=""/>
  <member type="way" ref="544509191" role=""/>
  <member type="way" ref="1036709688" role=""/>
  <member type="way" ref="710482454" role=""/>
  <member type="way" ref="119875295" role=""/>
  <member type="way" ref="119875332" role=""/>
  <member type="way" ref="42476351" role=""/>
  <member type="way" ref="42476352" role=""/>
  <member type="way" ref="42476341" role=""/>
  <member type="way" ref="544509189" role=""/>
  <member type="way" ref="544509188" role=""/>
  <member type="way" ref="544509187" role=""/>
  <member type="way" ref="544509186" role=""/>
  <member type="way" ref="42476342" role=""/>
  <member type="way" ref="42476344" role=""/>
  <member type="way" ref="42476343" role=""/>
  <member type="way" ref="42476346" role=""/>
  <member type="way" ref="544509185" role=""/>
  <member type="way" ref="544509184" role=""/>
  <member type="way" ref="42403306" role=""/>
  <member type="way" ref="42403311" role=""/>
  <member type="way" ref="68875219" role=""/>
  <member type="way" ref="68875220" role=""/>
  <member type="way" ref="119878796" role=""/>
  <member type="way" ref="1036709690" role=""/>
  <member type="way" ref="119878679" role=""/>
  <member type="way" ref="119878779" role=""/>
  <member type="way" ref="1036709691" role=""/>
  <member type="way" ref="119878605" role=""/>
  <member type="way" ref="119879204" role=""/>
  <member type="way" ref="119879213" role=""/>
  <member type="way" ref="119878597" role=""/>
  <member type="way" ref="119878743" role=""/>
  <member type="way" ref="310175725" role=""/>
  <member type="way" ref="310175728" role=""/>
  <member type="way" ref="119879065" role=""/>
  <member type="way" ref="119879154" role=""/>
  <member type="way" ref="1036697536" role=""/>
  <member type="way" ref="119878656" role=""/>
  <member type="way" ref="1036697525" role=""/>
  <member type="way" ref="1036697534" role=""/>
  <member type="way" ref="1036697533" role=""/>
  <member type="way" ref="1036697512" role=""/>
  <member type="way" ref="1036697534" role=""/>
  <member type="way" ref="1036697525" role=""/>
  <member type="way" ref="119878656" role=""/>
  <member type="way" ref="119878549" role=""/>
  <member type="way" ref="119878523" role=""/>
  <member type="way" ref="1036697526" role=""/>
  <member type="way" ref="1036697532" role=""/>
  <member type="way" ref="1394161504" role=""/>
  <member type="way" ref="1036697531" role=""/>
  <member type="way" ref="1163757161" role=""/>
  <member type="way" ref="1036697528" role=""/>
  <member type="way" ref="1036697526" role=""/>
  <member type="way" ref="119878523" role=""/>
  <member type="way" ref="1036697523" role=""/>
  <member type="way" ref="119879037" role=""/>
  <member type="way" ref="119885215" role=""/>
  <tag k="duration" v="01:43:00"/>
  <tag k="from" v="東萩駅前"/>
  <tag k="gtfs:route_id" v="2229846746"/>
  <tag k="gtfs:shape_id" v="40001289"/>
  <tag k="name" v="Bus: 東萩駅前→湯田温泉通"/>
  <tag k="network" v="防長線"/>
  <tag k="opening_hours" v="06:15-16:13"/>
  <tag k="operator" v="中国ジェイアールバス"/>
  <tag k="operator:en" v="Chugoku JR Bus"/>
  <tag k="public_transport:version" v="2"/>
  <tag k="route" v="bus"/>
  <tag k="to" v="湯田温泉通"/>
  <tag k="type" v="route"/>
 </relation>
 <relation id="13884433" visible="true" version="9" changeset="171993143" timestamp="2025-09-16T04:32:12Z" user="taketaketake" uid="4757277">
  <member type="node" ref="9412086478" role="platform"/>
  <member type="node" ref="9412086480" role="platform"/>
  <member type="node" ref="9412086343" role="platform"/>
  <member type="node" ref="9412086399" role="platform"/>
  <member type="node" ref="9412086400" role="platform"/>
  <member type="node" ref="9412086402" role="platform"/>
  <member type="node" ref="9412086404" role="platform"/>
  <member type="node" ref="9412086406" role="platform"/>
  <member type="node" ref="9412086408" role="platform"/>
  <member type="node" ref="9412086410" role="platform"/>
  <member type="node" ref="9412086412" role="platform"/>
  <member type="node" ref="9412086414" role="platform"/>
  <member type="node" ref="9412086482" role="platform"/>
  <member type="node" ref="9412086416" role="platform"/>
  <member type="node" ref="9412086418" role="platform"/>
  <member type="node" ref="9412086420" role="platform"/>
  <member type="node" ref="9412086422" role="platform"/>
  <member type="node" ref="9412086424" role="platform"/>
  <member type="node" ref="9412086426" role="platform"/>
  <member type="node" ref="9412086428" role="platform"/>
  <member type="node" ref="9412086430" role="platform"/>
  <member type="node" ref="9412086432" role="platform"/>
  <member type="node" ref="9412086434" role="platform"/>
  <member type="node" ref="9412086436" role="platform"/>
  <member type="node" ref="9412086438" role="platform"/>
  <member type="node" ref="9412086440" role="platform"/>
  <member type="node" ref="9412086334" role="platform"/>
  <member type="node" ref="9412086484" role="platform"/>
  <member type="node" ref="9412086442" role="platform"/>
  <member type="node" ref="9412086444" role="platform"/>
  <member type="node" ref="9412086446" role="platform"/>
  <member type="node" ref="9412086448" role="platform"/>
  <member type="node" ref="9412086450" role="platform"/>
  <member type="node" ref="9412086452" role="platform"/>
  <member type="node" ref="9412086453" role="platform"/>
  <member type="node" ref="9412086455" role="platform"/>
  <member type="node" ref="9412086457" role="platform"/>
  <member type="node" ref="9412086459" role="platform"/>
  <member type="node" ref="9412086486" role="platform"/>
  <member type="node" ref="9412086488" role="platform"/>
  <member type="node" ref="9412086461" role="platform"/>
  <member type="node" ref="9412086463" role="platform"/>
  <member type="node" ref="9412086465" role="platform"/>
  <member type="node" ref="9412086467" role="platform"/>
  <member type="node" ref="9412086469" role="platform"/>
  <member type="node" ref="9412086471" role="platform"/>
  <member type="node" ref="9412086473" role="platform"/>
  <member type="node" ref="9412086475" role="platform"/>
  <member type="node" ref="9412086477" role="platform"/>
  <member type="node" ref="9412086525" role="platform"/>
  <member type="node" ref="9412086523" role="platform"/>
  <member type="node" ref="9412086520" role="platform"/>
  <member type="node" ref="9412086519" role="platform"/>
  <member type="node" ref="9412086516" role="platform"/>
  <member type="way" ref="1036709672" role=""/>
  <member type="way" ref="1036709671" role=""/>
  <member type="way" ref="1036709673" role=""/>
  <member type="way" ref="316339838" role=""/>
  <member type="way" ref="316339803" role=""/>
  <member type="way" ref="316339802" role=""/>
  <member type="way" ref="79534148" role=""/>
  <member type="way" ref="114056166" role=""/>
  <member type="way" ref="114056326" role=""/>
  <member type="way" ref="114058206" role=""/>
  <member type="way" ref="1036709666" role=""/>
  <member type="way" ref="114055946" role=""/>
  <member type="way" ref="114058274" role=""/>
  <member type="way" ref="402834035" role=""/>
  <member type="way" ref="402834033" role=""/>
  <member type="way" ref="114056495" role=""/>
  <member type="way" ref="604148052" role=""/>
  <member type="way" ref="1036709675" role=""/>
  <member type="way" ref="1036709674" role=""/>
  <member type="way" ref="1036709676" role=""/>
  <member type="way" ref="1036709675" role=""/>
  <member type="way" ref="604148052" role=""/>
  <member type="way" ref="604148053" role=""/>
  <member type="way" ref="114058518" role=""/>
  <member type="way" ref="114058659" role=""/>
  <member type="way" ref="114055661" role=""/>
  <member type="way" ref="1430138807" role=""/>
  <member type="way" ref="421310968" role=""/>
  <member type="way" ref="1036709679" role=""/>
  <member type="way" ref="1036709678" role=""/>
  <member type="way" ref="1036709680" role=""/>
  <member type="way" ref="114058392" role=""/>
  <member type="way" ref="1036709678" role=""/>
  <member type="way" ref="114056144" role=""/>
  <member type="way" ref="1036709681" role=""/>
  <member type="way" ref="1036709682" role=""/>
  <member type="way" ref="114057391" role=""/>
  <member type="way" ref="114056724" role=""/>
  <member type="way" ref="79534125" role=""/>
  <member type="way" ref="114058420" role=""/>
  <member type="way" ref="114055935" role=""/>
  <member type="way" ref="1430138808" role=""/>
  <member type="way" ref="114056169" role=""/>
  <member type="way" ref="114057169" role=""/>
  <member type="way" ref="114056744" role=""/>
  <member type="way" ref="114057811" role=""/>
  <member type="way" ref="114057881" role=""/>
  <member type="way" ref="114056321" role=""/>
  <member type="way" ref="114057397" role=""/>
  <member type="way" ref="114056460" role=""/>
  <member type="way" ref="544735762" role=""/>
  <member type="way" ref="114040351" role=""/>
  <member type="way" ref="702008675" role=""/>
  <member type="way" ref="114041191" role=""/>
  <member type="way" ref="114040401" role=""/>
  <member type="way" ref="710459517" role=""/>
  <member type="way" ref="544735758" role=""/>
  <member type="way" ref="544735767" role=""/>
  <member type="way" ref="544735768" role=""/>
  <member type="way" ref="568591123" role=""/>
  <member type="way" ref="42476366" role=""/>
  <member type="way" ref="544735765" role=""/>
  <member type="way" ref="544735764" role=""/>
  <member type="way" ref="544735763" role=""/>
  <member type="way" ref="710477713" role=""/>
  <member type="way" ref="710477714" role=""/>
  <member type="way" ref="568591089" role=""/>
  <member type="way" ref="42476369" role=""/>
  <member type="way" ref="42476368" role=""/>
  <member type="way" ref="413732109" role=""/>
  <member type="way" ref="413732108" role=""/>
  <member type="way" ref="42476347" role=""/>
  <member type="way" ref="114041034" role=""/>
  <member type="way" ref="114041267" role=""/>
  <member type="way" ref="114040449" role=""/>
  <member type="way" ref="114041125" role=""/>
  <member type="way" ref="114040299" role=""/>
  <member type="way" ref="704734761" role=""/>
  <member type="way" ref="1036709669" role=""/>
  <member type="way" ref="1036709668" role=""/>
  <member type="way" ref="434742622" role=""/>
  <member type="way" ref="1036709670" role=""/>
  <member type="way" ref="114040970" role=""/>
  <member type="way" ref="114040847" role=""/>
  <member type="way" ref="544509194" role=""/>
  <member type="way" ref="544509195" role=""/>
  <member type="way" ref="544509191" role=""/>
  <member type="way" ref="1036709688" role=""/>
  <member type="way" ref="710482454" role=""/>
  <member type="way" ref="119875295" role=""/>
  <member type="way" ref="119875332" role=""/>
  <member type="way" ref="42476351" role=""/>
  <member type="way" ref="42476352" role=""/>
  <member type="way" ref="42476341" role=""/>
  <member type="way" ref="544509189" role=""/>
  <member type="way" ref="544509188" role=""/>
  <member type="way" ref="544509187" role=""/>
  <member type="way" ref="544509186" role=""/>
  <member type="way" ref="42476342" role=""/>
  <member type="way" ref="42476344" role=""/>
  <member type="way" ref="42476343" role=""/>
  <member type="way" ref="42476346" role=""/>
  <member type="way" ref="544509185" role=""/>
  <member type="way" ref="544509184" role=""/>
  <member type="way" ref="42403306" role=""/>
  <member type="way" ref="42403311" role=""/>
  <member type="way" ref="68875219" role=""/>
  <member type="way" ref="68875220" role=""/>
  <member type="way" ref="119878796" role=""/>
  <member type="way" ref="1036709690" role=""/>
  <member type="way" ref="119878679" role=""/>
  <member type="way" ref="119878779" role=""/>
  <member type="way" ref="1036709691" role=""/>
  <member type="way" ref="119878605" role=""/>
  <member type="way" ref="119879204" role=""/>
  <member type="way" ref="119879213" role=""/>
  <member type="way" ref="119878597" role=""/>
  <member type="way" ref="119878743" role=""/>
  <member type="way" ref="310175725" role=""/>
  <member type="way" ref="310175728" role=""/>
  <member type="way" ref="119879065" role=""/>
  <member type="way" ref="119879154" role=""/>
  <member type="way" ref="1036697536" role=""/>
  <member type="way" ref="119878656" role=""/>
  <member type="way" ref="1036697525" role=""/>
  <member type="way" ref="1036697534" role=""/>
  <member type="way" ref="1036697533" role=""/>
  <member type="way" ref="1036697512" role=""/>
  <member type="way" ref="1036697534" role=""/>
  <member type="way" ref="1036697525" role=""/>
  <member type="way" ref="119878656" role=""/>
  <member type="way" ref="119878549" role=""/>
  <member type="way" ref="119878523" role=""/>
  <member type="way" ref="1036697526" role=""/>
  <member type="way" ref="1036697532" role=""/>
  <member type="way" ref="1394161504" role=""/>
  <tag k="duration" v="01:29:00"/>
  <tag k="from" v="東萩駅前"/>
  <tag k="gtfs:route_id" v="2229846746"/>
  <tag k="gtfs:shape_id" v="40001279"/>
  <tag k="name" v="Bus: 東萩駅前→山口駅"/>
  <tag k="network" v="防長線"/>
  <tag k="opening_hours" v="Mo-Fr 09:35-20:09; Sa-Su 12:00-20:09"/>
  <tag k="operator" v="中国ジェイアールバス"/>
  <tag k="operator:en" v="Chugoku JR Bus"/>
  <tag k="public_transport:version" v="2"/>
  <tag k="route" v="bus"/>
  <tag k="to" v="山口駅"/>
  <tag k="type" v="route"/>
 </relation>
 <relation id="13884434" visible="true" version="9" changeset="171993143" timestamp="2025-09-16T04:32:12Z" user="taketaketake" uid="4757277">
  <member type="node" ref="9412086516" role="platform"/>
  <member type="node" ref="9412086519" role="platform"/>
  <member type="node" ref="9412086521" role="platform"/>
  <member type="node" ref="9412086522" role="platform"/>
  <member type="node" ref="9412086524" role="platform"/>
  <member type="node" ref="9412086476" role="platform"/>
  <member type="node" ref="9412086474" role="platform"/>
  <member type="node" ref="9412086472" role="platform"/>
  <member type="node" ref="9412086470" role="platform"/>
  <member type="node" ref="9412086468" role="platform"/>
  <member type="node" ref="9412086466" role="platform"/>
  <member type="node" ref="9412086464" role="platform"/>
  <member type="node" ref="9412086462" role="platform"/>
  <member type="node" ref="9412086460" role="platform"/>
  <member type="node" ref="9412086487" role="platform"/>
  <member type="node" ref="9412086485" role="platform"/>
  <member type="node" ref="9412086458" role="platform"/>
  <member type="node" ref="9412086456" role="platform"/>
  <member type="node" ref="9412086454" role="platform"/>
  <member type="node" ref="9412086453" role="platform"/>
  <member type="node" ref="9412086451" role="platform"/>
  <member type="node" ref="9412086449" role="platform"/>
  <member type="node" ref="9412086447" role="platform"/>
  <member type="node" ref="9412086445" role="platform"/>
  <member type="node" ref="9412086443" role="platform"/>
  <member type="node" ref="9412086441" role="platform"/>
  <member type="node" ref="9412086483" role="platform"/>
  <member type="node" ref="9412086334" role="platform"/>
  <member type="node" ref="9412086439" role="platform"/>
  <member type="node" ref="9412086437" role="platform"/>
  <member type="node" ref="9412086435" role="platform"/>
  <member type="node" ref="9412086433" role="platform"/>
  <member type="node" ref="9412086431" role="platform"/>
  <member type="node" ref="9412086429" role="platform"/>
  <member type="node" ref="9412086427" role="platform"/>
  <member type="node" ref="9412086425" role="platform"/>
  <member type="node" ref="9412086423" role="platform"/>
  <member type="node" ref="9412086421" role="platform"/>
  <member type="node" ref="9412086419" role="platform"/>
  <member type="node" ref="9412086417" role="platform"/>
  <member type="node" ref="9412086415" role="platform"/>
  <member type="node" ref="9412086481" role="platform"/>
  <member type="node" ref="9412086413" role="platform"/>
  <member type="node" ref="9412086411" role="platform"/>
  <member type="node" ref="9412086409" role="platform"/>
  <member type="node" ref="9412086407" role="platform"/>
  <member type="node" ref="9412086405" role="platform"/>
  <member type="node" ref="9412086403" role="platform"/>
  <member type="node" ref="9412086401" role="platform"/>
  <member type="node" ref="9412086400" role="platform"/>
  <member type="node" ref="9412086398" role="platform"/>
  <member type="node" ref="9412086343" role="platform"/>
  <member type="node" ref="9412086479" role="platform"/>
  <member type="node" ref="9412086478" role="platform"/>
  <member type="way" ref="1036697531" role=""/>
  <member type="way" ref="1163757161" role=""/>
  <member type="way" ref="1036697528" role=""/>
  <member type="way" ref="1036697526" role=""/>
  <member type="way" ref="119878523" role=""/>
  <member type="way" ref="517552886" role=""/>
  <member type="way" ref="119878656" role=""/>
  <member type="way" ref="1036697525" role=""/>
  <member type="way" ref="1036697534" role=""/>
  <member type="way" ref="1036697533" role=""/>
  <member type="way" ref="1036697512" role=""/>
  <member type="way" ref="1036697534" role=""/>
  <member type="way" ref="1036697525" role=""/>
  <member type="way" ref="119878656" role=""/>
  <member type="way" ref="1036709693" role=""/>
  <member type="way" ref="1036709692" role=""/>
  <member type="way" ref="119879154" role=""/>
  <member type="way" ref="119879065" role=""/>
  <member type="way" ref="310175728" role=""/>
  <member type="way" ref="310175725" role=""/>
  <member type="way" ref="119878743" role=""/>
  <member type="way" ref="119878597" role=""/>
  <member type="way" ref="119879213" role=""/>
  <member type="way" ref="119879204" role=""/>
  <member type="way" ref="119878605" role=""/>
  <member type="way" ref="1036709691" role=""/>
  <member type="way" ref="119878779" role=""/>
  <member type="way" ref="119878679" role=""/>
  <member type="way" ref="119879109" role=""/>
  <member type="way" ref="119878957" role=""/>
  <member type="way" ref="119878571" role=""/>
  <member type="way" ref="119878796" role=""/>
  <member type="way" ref="119878467" role=""/>
  <member type="way" ref="68875222" role=""/>
  <member type="way" ref="68875217" role=""/>
  <member type="way" ref="68875218" role=""/>
  <member type="way" ref="42403306" role=""/>
  <member type="way" ref="544509184" role=""/>
  <member type="way" ref="544509185" role=""/>
  <member type="way" ref="42476346" role=""/>
  <member type="way" ref="42476343" role=""/>
  <member type="way" ref="42476344" role=""/>
  <member type="way" ref="42476342" role=""/>
  <member type="way" ref="544509186" role=""/>
  <member type="way" ref="544509187" role=""/>
  <member type="way" ref="544509188" role=""/>
  <member type="way" ref="544509189" role=""/>
  <member type="way" ref="42476341" role=""/>
  <member type="way" ref="42476352" role=""/>
  <member type="way" ref="42476351" role=""/>
  <member type="way" ref="119875332" role=""/>
  <member type="way" ref="119875295" role=""/>
  <member type="way" ref="710482454" role=""/>
  <member type="way" ref="544509193" role=""/>
  <member type="way" ref="1036709687" role=""/>
  <member type="way" ref="544509195" role=""/>
  <member type="way" ref="544509194" role=""/>
  <member type="way" ref="114040847" role=""/>
  <member type="way" ref="114040970" role=""/>
  <member type="way" ref="1036709670" role=""/>
  <member type="way" ref="434742622" role=""/>
  <member type="way" ref="1036709668" role=""/>
  <member type="way" ref="1036709669" role=""/>
  <member type="way" ref="704734761" role=""/>
  <member type="way" ref="114040299" role=""/>
  <member type="way" ref="114041125" role=""/>
  <member type="way" ref="114040449" role=""/>
  <member type="way" ref="114041267" role=""/>
  <member type="way" ref="114041034" role=""/>
  <member type="way" ref="42476347" role=""/>
  <member type="way" ref="413732108" role=""/>
  <member type="way" ref="413732109" role=""/>
  <member type="way" ref="42476368" role=""/>
  <member type="way" ref="42476369" role=""/>
  <member type="way" ref="568591089" role=""/>
  <member type="way" ref="710477714" role=""/>
  <member type="way" ref="710477713" role=""/>
  <member type="way" ref="544735763" role=""/>
  <member type="way" ref="544735764" role=""/>
  <member type="way" ref="544735765" role=""/>
  <member type="way" ref="42476366" role=""/>
  <member type="way" ref="568591123" role=""/>
  <member type="way" ref="544735768" role=""/>
  <member type="way" ref="544735767" role=""/>
  <member type="way" ref="544735758" role=""/>
  <member type="way" ref="710459517" role=""/>
  <member type="way" ref="114040401" role=""/>
  <member type="way" ref="114041191" role=""/>
  <member type="way" ref="702008675" role=""/>
  <member type="way" ref="114040351" role=""/>
  <member type="way" ref="544735762" role=""/>
  <member type="way" ref="114056460" role=""/>
  <member type="way" ref="114057397" role=""/>
  <member type="way" ref="114056321" role=""/>
  <member type="way" ref="114057881" role=""/>
  <member type="way" ref="114057811" role=""/>
  <member type="way" ref="114056744" role=""/>
  <member type="way" ref="114057169" role=""/>
  <member type="way" ref="114056169" role=""/>
  <member type="way" ref="1430138808" role=""/>
  <member type="way" ref="114055935" role=""/>
  <member type="way" ref="114058420" role=""/>
  <member type="way" ref="79534125" role=""/>
  <member type="way" ref="1036709684" role=""/>
  <member type="way" ref="316339820" role=""/>
  <member type="way" ref="316339812" role=""/>
  <member type="way" ref="316339817" role=""/>
  <member type="way" ref="114056144" role=""/>
  <member type="way" ref="1036709680" role=""/>
  <member type="way" ref="114058392" role=""/>
  <member type="way" ref="1036709679" role=""/>
  <member type="way" ref="421310968" role=""/>
  <member type="way" ref="1430138807" role=""/>
  <member type="way" ref="114055661" role=""/>
  <member type="way" ref="114058659" role=""/>
  <member type="way" ref="114058518" role=""/>
  <member type="way" ref="402834033" role=""/>
  <member type="way" ref="114056495" role=""/>
  <member type="way" ref="604148052" role=""/>
  <member type="way" ref="1036709675" role=""/>
  <member type="way" ref="1036709674" role=""/>
  <member type="way" ref="1036709676" role=""/>
  <member type="way" ref="1036709675" role=""/>
  <member type="way" ref="604148052" role=""/>
  <member type="way" ref="604148053" role=""/>
  <member type="way" ref="402834035" role=""/>
  <member type="way" ref="114056368" role=""/>
  <member type="way" ref="114058206" role=""/>
  <member type="way" ref="114056326" role=""/>
  <member type="way" ref="114056166" role=""/>
  <member type="way" ref="79534148" role=""/>
  <member type="way" ref="316339802" role=""/>
  <member type="way" ref="316339803" role=""/>
  <member type="way" ref="316339838" role=""/>
  <member type="way" ref="1036709673" role=""/>
  <member type="way" ref="114056730" role=""/>
  <member type="way" ref="1036709672" role=""/>
  <tag k="duration" v="01:27:00"/>
  <tag k="from" v="山口駅"/>
  <tag k="gtfs:route_id" v="2229846746"/>
  <tag k="gtfs:shape_id" v="40001270"/>
  <tag k="name" v="Bus: 山口駅→東萩駅前"/>
  <tag k="network" v="防長線"/>
  <tag k="opening_hours" v="Mo-Fr 06:40-21:17; Sa-Su 10:45-21:17"/>
  <tag k="operator" v="中国ジェイアールバス"/>
  <tag k="operator:en" v="Chugoku JR Bus"/>
  <tag k="public_transport:version" v="2"/>
  <tag k="route" v="bus"/>
  <tag k="to" v="東萩駅前"/>
  <tag k="type" v="route"/>
 </relation>
 <relation id="13884435" visible="true" version="1" changeset="118041702" timestamp="2022-03-03T05:33:13Z" user="okadatsuneo_import" uid="12352917">
  <member type="relation" ref="13884434" role=""/>
  <member type="relation" ref="13884433" role=""/>
  <tag k="name" v="Bus 山口駅&lt;-&gt;東萩駅前"/>
  <tag k="network" v="防長線"/>
  <tag k="operator" v="中国ジェイアールバス"/>
  <tag k="operator:en" v="Chugoku JR Bus"/>
  <tag k="route_master" v="bus"/>
  <tag k="type" v="route_master"/>
 </relation>
 <relation id="13884436" visible="true" version="2" changeset="134842526" timestamp="2023-04-13T03:15:44Z" user="okadatsuneo_import" uid="12352917">
  <member type="relation" ref="13884431" role=""/>
  <member type="relation" ref="13884432" role=""/>
  <tag k="name" v="Bus 湯田温泉&lt;-&gt;東萩駅前"/>
  <tag k="network" v="防長線"/>
  <tag k="operator" v="中国ジェイアールバス"/>
  <tag k="operator:en" v="Chugoku JR Bus"/>
  <tag k="route_master" v="bus"/>
  <tag k="type" v="route_master"/>
 </relation>
 <relation id="19472726" visible="true" version="2" changeset="171993143" timestamp="2025-09-16T04:32:12Z" user="taketaketake" uid="4757277">
  <member type="way" ref="114058518" role=""/>
  <member type="way" ref="114058659" role=""/>
  <member type="way" ref="114055661" role=""/>
  <member type="way" ref="1430138807" role=""/>
  <member type="way" ref="421310968" role=""/>
  <member type="way" ref="1036709679" role=""/>
  <member type="way" ref="114058722" role=""/>
  <member type="way" ref="114058662" role=""/>
  <member type="way" ref="1315257212" role=""/>
  <member type="way" ref="114058520" role=""/>
  <member type="way" ref="1315257211" role=""/>
  <member type="way" ref="1315257210" role=""/>
  <member type="way" ref="1315257209" role=""/>
  <member type="way" ref="1315257208" role=""/>
  <member type="way" ref="1422951204" role=""/>
  <member type="way" ref="114056341" role=""/>
  <member type="way" ref="484174578" role=""/>
  <member type="way" ref="1315257207" role=""/>
  <member type="way" ref="484174577" role=""/>
  <member type="way" ref="114057384" role=""/>
  <member type="way" ref="114055924" role=""/>
  <member type="way" ref="1422951205" role=""/>
  <member type="way" ref="1315257203" role=""/>
  <member type="way" ref="1315257204" role=""/>
  <member type="way" ref="112829653" role=""/>
  <member type="way" ref="1422951207" role=""/>
  <member type="way" ref="1315257200" role=""/>
  <member type="way" ref="1315257199" role=""/>
  <member type="way" ref="112830040" role=""/>
  <member type="way" ref="112830807" role=""/>
  <member type="way" ref="484174577" role=""/>
  <tag k="from" v="山口県萩市御許町"/>
  <tag k="name" v="山口県道64号　萩三隅線"/>
  <tag k="name:en" v="Yamaguchi Prefectural Route 64 Hagi Misumi Line"/>
  <tag k="name:ja" v="山口県道64号　萩三隅線"/>
  <tag k="name:ja-Hira" v="やまぐちけんどう64ごう はぎみすみせん"/>
  <tag k="name:ja_rm" v="Yamaguchikendō 64-gō Hagi Misumi-sen"/>
  <tag k="network" v="JP:prefectural"/>
  <tag k="ref" v="64"/>
  <tag k="route" v="road"/>
  <tag k="to" v="山口県長門市三隅中"/>
  <tag k="type" v="route"/>
  <tag k="wikidata" v="Q11467359"/>
  <tag k="wikipedia" v="ja:山口県道64号萩三隅線"/>
 </relation>
 <relation id="19607232" visible="true" version="1" changeset="171993143" timestamp="2025-09-16T04:32:12Z" user="taketaketake" uid="4757277">
  <member type="way" ref="114058518" role=""/>
  <member type="way" ref="114058659" role=""/>
  <member type="way" ref="114055661" role=""/>
  <member type="way" ref="114055674" role=""/>
  <member type="way" ref="710440310" role="forward"/>
  <member type="way" ref="316339797" role="forward"/>
  <member type="way" ref="42475228" role="forward"/>
  <member type="way" ref="1036709682" role="forward"/>
  <member type="way" ref="114057391" role="forward"/>
  <member type="way" ref="114056724" role="forward"/>
  <member type="way" ref="1036709684" role=""/>
  <member type="way" ref="316339820" role="forward"/>
  <member type="way" ref="316339812" role="forward"/>
  <member type="way" ref="316339817" role="forward"/>
  <member type="way" ref="1036709683" role="forward"/>
  <member type="way" ref="316339814" role="forward"/>
  <member type="way" ref="316339815" role="forward"/>
  <member type="way" ref="79534125" role=""/>
  <member type="way" ref="114058420" role=""/>
  <member type="way" ref="114055935" role=""/>
  <member type="way" ref="114056008" role=""/>
  <member type="way" ref="114057703" role=""/>
  <member type="way" ref="114057363" role=""/>
  <member type="way" ref="114055848" role=""/>
  <member type="way" ref="690973129" role=""/>
  <member type="way" ref="114040310" role=""/>
  <member type="way" ref="114040897" role=""/>
  <member type="way" ref="114040428" role=""/>
  <member type="way" ref="114040397" role=""/>
  <member type="way" ref="114041144" role=""/>
  <member type="way" ref="114040601" role=""/>
  <member type="way" ref="114041054" role=""/>
  <member type="way" ref="114040531" role=""/>
  <member type="way" ref="114040514" role=""/>
  <member type="way" ref="114040466" role=""/>
  <member type="way" ref="114041646" role=""/>
  <member type="way" ref="114040524" role=""/>
  <member type="way" ref="114040543" role=""/>
  <member type="way" ref="114040871" role=""/>
  <member type="way" ref="114040500" role=""/>
  <member type="way" ref="692512533" role=""/>
  <member type="way" ref="692512534" role=""/>
  <member type="way" ref="114040826" role=""/>
  <member type="way" ref="114041288" role=""/>
  <member type="way" ref="114040754" role=""/>
  <member type="way" ref="114057640" role=""/>
  <member type="way" ref="114056011" role=""/>
  <member type="way" ref="119720521" role=""/>
  <member type="way" ref="114040817" role=""/>
  <member type="way" ref="114040482" role=""/>
  <member type="way" ref="114040604" role=""/>
  <member type="way" ref="114041117" role=""/>
  <member type="way" ref="1316077728" role=""/>
  <member type="way" ref="114041311" role=""/>
  <member type="way" ref="1316077732" role=""/>
  <member type="way" ref="1316077731" role=""/>
  <member type="way" ref="114040743" role=""/>
  <member type="way" ref="1430138809" role=""/>
  <member type="way" ref="114041459" role=""/>
  <member type="way" ref="114040446" role=""/>
  <member type="way" ref="313214496" role=""/>
  <member type="way" ref="313214497" role=""/>
  <member type="way" ref="313214664" role=""/>
  <member type="way" ref="1316077733" role=""/>
  <member type="way" ref="119738420" role=""/>
  <member type="way" ref="119740915" role=""/>
  <member type="way" ref="119738642" role=""/>
  <tag k="from" v="山口県萩市大字御許町"/>
  <tag k="name" v="山口県道293号　萩長門峡線"/>
  <tag k="name:en" v="Yamaguchi Prefectural Route 293 Hagi Chomonkyo Line"/>
  <tag k="name:ja" v="山口県道293号　萩長門峡線"/>
  <tag k="name:ja-Hira" v="やまぐちけんどう293ごう はぎちょうもんきょうせん"/>
  <tag k="name:ja_rm" v="Yamaguchikendō 293-gō Hagi Chōmonkyō-sen"/>
  <tag k="network" v="JP:prefectural"/>
  <tag k="ref" v="293"/>
  <tag k="route" v="road"/>
  <tag k="to" v="山口県山口市阿東生雲東分"/>
  <tag k="type" v="route"/>
  <tag k="wikidata" v="Q11467268"/>
  <tag k="wikipedia" v="ja:山口県道293号萩長門峡線"/>
 </relation>
</osm>
