<?xml version="1.0" encoding="UTF-8"?>
<osm version="0.6" generator="openstreetmap-cgimap 2.1.0 (2942764 spike-08.openstreetmap.org)" copyright="OpenStreetMap and contributors" attribution="http://www.openstreetmap.org/copyright" license="http://opendatacommons.org/licenses/odbl/1-0/">
 <bounds minlat="34.3433303" minlon="131.4128852" maxlat="34.3457303" maxlon="131.4158852"/>
 <node id="748907353" visible="true" version="2" changeset="71950260" timestamp="2019-07-06T04:11:22Z" user="AYAGE" uid="521665" lat="34.3467829" lon="131.4165127"/>
 <node id="748922661" visible="true" version="2" changeset="71950260" timestamp="2019-07-06T04:11:22Z" user="AYAGE" uid="521665" lat="34.3484812" lon="131.4201224"/>
 <node id="748933302" visible="true" version="1" changeset="4813224" timestamp="2010-05-26T13:53:54Z" user="Tom_G3X" uid="146930" lat="34.3435860" lon="131.4129420"/>
 <node id="748936220" visible="true" version="2" changeset="71950260" timestamp="2019-07-06T04:11:22Z" user="AYAGE" uid="521665" lat="34.3475888" lon="131.4185462"/>
 <node id="748960329" visible="true" version="1" changeset="4813224" timestamp="2010-05-26T14:04:44Z" user="Tom_G3X" uid="146930" lat="34.3497280" lon="131.4209760"/>
 <node id="748992432" visible="true" version="1" changeset="4813224" timestamp="2010-05-26T14:19:05Z" user="Tom_G3X" uid="146930" lat="34.3463350" lon="131.4153880"/>
 <node id="749031905" visible="true" version="2" changeset="71950260" timestamp="2019-07-06T04:11:22Z" user="AYAGE" uid="521665" lat="34.3444215" lon="131.4136056"/>
 <node id="749079069" visible="true" version="2" changeset="71950260" timestamp="2019-07-06T04:11:22Z" user="AYAGE" uid="521665" lat="34.3464916" lon="131.4156640"/>
 <node id="749119338" visible="true" version="1" changeset="4813826" timestamp="2010-05-26T15:08:26Z" user="Tom_G3X" uid="146930" lat="34.3427620" lon="131.4123240"/>
 <node id="749126463" visible="true" version="1" changeset="4813826" timestamp="2010-05-26T15:10:43Z" user="Tom_G3X" uid="146930" lat="34.3502610" lon="131.4209890"/>
 <node id="749163239" visible="true" version="1" changeset="4813826" timestamp="2010-05-26T15:20:21Z" user="Tom_G3X" uid="146930" lat="34.3493540" lon="131.4208610"/>
 <node id="749208195" visible="true" version="2" changeset="71950260" timestamp="2019-07-06T04:11:22Z" user="AYAGE" uid="521665" lat="34.3458250" lon="131.4147390"/>
 <node id="749212649" visible="true" version="1" changeset="4813826" timestamp="2010-05-26T15:36:20Z" user="Tom_G3X" uid="146930" lat="34.3508140" lon="131.4210620"/>
 <node id="749242876" visible="true" version="2" changeset="71950260" timestamp="2019-07-06T04:11:22Z" user="AYAGE" uid="521665" lat="34.3438182" lon="131.4131905"/>
 <node id="749280025" visible="true" version="2" changeset="71950260" timestamp="2019-07-06T04:11:22Z" user="AYAGE" uid="521665" lat="34.3469459" lon="131.4169209"/>
 <node id="749303080" visible="true" version="2" changeset="71950260" timestamp="2019-07-06T04:11:22Z" user="AYAGE" uid="521665" lat="34.3487449" lon="131.4203974"/>
 <node id="749347579" visible="true" version="1" changeset="4814433" timestamp="2010-05-26T16:27:06Z" user="Tom_G3X" uid="146930" lat="34.3499520" lon="131.4208780"/>
 <node id="749405272" visible="true" version="1" changeset="4814433" timestamp="2010-05-26T16:41:48Z" user="Tom_G3X" uid="146930" lat="34.3506710" lon="131.4210450"/>
 <node id="749427228" visible="true" version="1" changeset="4814433" timestamp="2010-05-26T16:51:07Z" user="Tom_G3X" uid="146930" lat="34.3450230" lon="131.4140860"/>
 <node id="749469217" visible="true" version="2" changeset="71950260" timestamp="2019-07-06T04:11:22Z" user="AYAGE" uid="521665" lat="34.3472742" lon="131.4177573"/>
 <node id="749558369" visible="true" version="1" changeset="4815008" timestamp="2010-05-26T17:31:18Z" user="Tom_G3X" uid="146930" lat="34.3482980" lon="131.4197910"/>
 <node id="749576193" visible="true" version="1" changeset="4815008" timestamp="2010-05-26T17:37:00Z" user="Tom_G3X" uid="146930" lat="34.3432630" lon="131.4127410"/>
 <node id="749581782" visible="true" version="1" changeset="4815008" timestamp="2010-05-26T17:39:00Z" user="Tom_G3X" uid="146930" lat="34.3503410" lon="131.4210000"/>
 <node id="749613924" visible="true" version="1" changeset="4815008" timestamp="2010-05-26T17:47:27Z" user="Tom_G3X" uid="146930" lat="34.3494980" lon="131.4209550"/>
 <node id="749669471" visible="true" version="2" changeset="71950260" timestamp="2019-07-06T04:11:22Z" user="AYAGE" uid="521665" lat="34.3461054" lon="131.4150449"/>
 <node id="749713641" visible="true" version="2" changeset="71950260" timestamp="2019-07-06T04:11:22Z" user="AYAGE" uid="521665" lat="34.3441165" lon="131.4134206"/>
 <node id="749759496" visible="true" version="2" changeset="71950260" timestamp="2019-07-06T04:11:22Z" user="AYAGE" uid="521665" lat="34.3470440" lon="131.4172804"/>
 <node id="749779456" visible="true" version="1" changeset="4815008" timestamp="2010-05-26T18:51:06Z" user="Tom_G3X" uid="146930" lat="34.3489450" lon="131.4205330"/>
 <node id="749794530" visible="true" version="2" changeset="71950260" timestamp="2019-07-06T04:11:22Z" user="AYAGE" uid="521665" lat="34.3478799" lon="131.4190603"/>
 <node id="749802758" visible="true" version="1" changeset="4815758" timestamp="2010-05-26T19:03:39Z" user="Tom_G3X" uid="146930" lat="34.3426820" lon="131.4122390"/>
 <node id="749805736" visible="true" version="1" changeset="4815758" timestamp="2010-05-26T19:05:18Z" user="Tom_G3X" uid="146930" lat="34.3500790" lon="131.4209110"/>
 <node id="749861698" visible="true" version="2" changeset="71950260" timestamp="2019-07-06T04:11:22Z" user="AYAGE" uid="521665" lat="34.3455166" lon="131.4144400"/>
 <node id="749896542" visible="true" version="1" changeset="4815758" timestamp="2010-05-26T19:40:25Z" user="Tom_G3X" uid="146930" lat="34.3474680" lon="131.4182580"/>
 <node id="1292355014" visible="true" version="2" changeset="71950260" timestamp="2019-07-06T04:11:22Z" user="AYAGE" uid="521665" lat="34.3434392" lon="131.4132453"/>
 <node id="1292355140" visible="true" version="1" changeset="8194567" timestamp="2011-05-20T00:39:34Z" user="yamasan" uid="32308" lat="34.3463430" lon="131.4148830"/>
 <node id="1292357884" visible="true" version="2" changeset="71950260" timestamp="2019-07-06T04:11:22Z" user="AYAGE" uid="521665" lat="34.3463475" lon="131.4147532"/>
 <node id="1292358614" visible="true" version="2" changeset="79774290" timestamp="2020-01-20T04:17:54Z" user="hibagonsan" uid="5939709" lat="34.3433688" lon="131.4140404"/>
 <node id="1292358887" visible="true" version="2" changeset="71950260" timestamp="2019-07-06T04:11:22Z" user="AYAGE" uid="521665" lat="34.3463700" lon="131.4140472"/>
 <node id="1292359745" visible="true" version="2" changeset="71950260" timestamp="2019-07-06T04:11:22Z" user="AYAGE" uid="521665" lat="34.3461743" lon="131.4138719"/>
 <node id="1292361962" visible="true" version="2" changeset="71950260" timestamp="2019-07-06T04:11:22Z" user="AYAGE" uid="521665" lat="34.3422485" lon="131.4149183"/>
 <node id="1292362056" visible="true" version="1" changeset="8194567" timestamp="2011-05-20T00:42:49Z" user="yamasan" uid="32308" lat="34.3458200" lon="131.4135750"/>
 <node id="1292362127" visible="true" version="3" changeset="79774290" timestamp="2020-01-20T04:17:54Z" user="hibagonsan" uid="5939709" lat="34.3436656" lon="131.4134657"/>
 <node id="1292362296" visible="true" version="2" changeset="54359541" timestamp="2017-12-05T10:24:21Z" user="mklyr" uid="614924" lat="34.3480412" lon="131.4200167"/>
 <node id="1292362325" visible="true" version="2" changeset="71950260" timestamp="2019-07-06T04:11:22Z" user="AYAGE" uid="521665" lat="34.3455789" lon="131.4158505"/>
 <node id="1292362332" visible="true" version="2" changeset="79774290" timestamp="2020-01-20T04:17:54Z" user="hibagonsan" uid="5939709" lat="34.3435218" lon="131.4139210"/>
 <node id="1292362921" visible="true" version="2" changeset="71950260" timestamp="2019-07-06T04:11:22Z" user="AYAGE" uid="521665" lat="34.3455883" lon="131.4130497"/>
 <node id="1292363564" visible="true" version="1" changeset="8194567" timestamp="2011-05-20T00:43:35Z" user="yamasan" uid="32308" lat="34.3463680" lon="131.4169310"/>
 <node id="1292363576" visible="true" version="2" changeset="54359541" timestamp="2017-12-05T10:24:21Z" user="mklyr" uid="614924" lat="34.3470434" lon="131.4181674"/>
 <node id="1292364642" visible="true" version="2" changeset="71950260" timestamp="2019-07-06T04:11:22Z" user="AYAGE" uid="521665" lat="34.3447287" lon="131.4118734"/>
 <node id="1292364908" visible="true" version="1" changeset="8194567" timestamp="2011-05-20T00:44:09Z" user="yamasan" uid="32308" lat="34.3443150" lon="131.4163130"/>
 <node id="1292367046" visible="true" version="2" changeset="79774290" timestamp="2020-01-20T04:17:54Z" user="hibagonsan" uid="5939709" lat="34.3436493" lon="131.4138235"/>
 <node id="1292369129" visible="true" version="2" changeset="71950260" timestamp="2019-07-06T04:11:22Z" user="AYAGE" uid="521665" lat="34.3452070" lon="131.4153536"/>
 <node id="1292370864" visible="true" version="2" changeset="71950260" timestamp="2019-07-06T04:11:22Z" user="AYAGE" uid="521665" lat="34.3464186" lon="131.4143926"/>
 <node id="1292371364" visible="true" version="2" changeset="71950260" timestamp="2019-07-06T04:11:22Z" user="AYAGE" uid="521665" lat="34.3463596" lon="131.4150336"/>
 <node id="1292371514" visible="true" version="2" changeset="71950260" timestamp="2019-07-06T04:11:22Z" user="AYAGE" uid="521665" lat="34.3450640" lon="131.4122688"/>
 <node id="1292372283" visible="true" version="2" changeset="71950260" timestamp="2019-07-06T04:11:22Z" user="AYAGE" uid="521665" lat="34.3428810" lon="131.4128947"/>
 <node id="1292373374" visible="true" version="2" changeset="71950260" timestamp="2019-07-06T04:11:22Z" user="AYAGE" uid="521665" lat="34.3464197" lon="131.4141891"/>
 <node id="1292373376" visible="true" version="2" changeset="71950260" timestamp="2019-07-06T04:11:22Z" user="AYAGE" uid="521665" lat="34.3445172" lon="131.4144205"/>
 <node id="1292373688" visible="true" version="2" changeset="54359541" timestamp="2017-12-05T10:24:21Z" user="mklyr" uid="614924" lat="34.3480560" lon="131.4204253"/>
 <node id="1292373914" visible="true" version="1" changeset="8194567" timestamp="2011-05-20T00:49:04Z" user="yamasan" uid="32308" lat="34.3461650" lon="131.4166700"/>
 <node id="1292374375" visible="true" version="1" changeset="8194567" timestamp="2011-05-20T00:49:16Z" user="yamasan" uid="32308" lat="34.3448700" lon="131.4156610"/>
 <node id="1292375733" visible="true" version="1" changeset="8194567" timestamp="2011-05-20T00:50:22Z" user="yamasan" uid="32308" lat="34.3449300" lon="131.4155720"/>
 <node id="1292375814" visible="true" version="2" changeset="71950260" timestamp="2019-07-06T04:11:22Z" user="AYAGE" uid="521665" lat="34.3454228" lon="131.4127597"/>
 <node id="1292377125" visible="true" version="2" changeset="71950260" timestamp="2019-07-06T04:11:22Z" user="AYAGE" uid="521665" lat="34.3432495" lon="131.4131032"/>
 <node id="1292379663" visible="true" version="1" changeset="8194567" timestamp="2011-05-20T00:52:34Z" user="yamasan" uid="32308" lat="34.3444680" lon="131.4161280"/>
 <node id="1292382401" visible="true" version="2" changeset="71950260" timestamp="2019-07-06T04:11:22Z" user="AYAGE" uid="521665" lat="34.3458794" lon="131.4136653"/>
 <node id="1292382591" visible="true" version="2" changeset="54359541" timestamp="2017-12-05T10:24:22Z" user="mklyr" uid="614924" lat="34.3475536" lon="131.4191201"/>
 <node id="1292383339" visible="true" version="3" changeset="79774290" timestamp="2020-01-20T04:17:54Z" user="hibagonsan" uid="5939709" lat="34.3438541" lon="131.4136721"/>
 <node id="1292387238" visible="true" version="2" changeset="71950260" timestamp="2019-07-06T04:11:22Z" user="AYAGE" uid="521665" lat="34.3464391" lon="131.4152799"/>
 <node id="1292389527" visible="true" version="2" changeset="71950260" timestamp="2019-07-06T04:11:22Z" user="AYAGE" uid="521665" lat="34.3448447" lon="131.4119742"/>
 <node id="1292389561" visible="true" version="1" changeset="8194567" timestamp="2011-05-20T00:57:18Z" user="yamasan" uid="32308" lat="34.3463210" lon="131.4139730"/>
 <node id="1292389833" visible="true" version="2" changeset="71950260" timestamp="2019-07-06T04:11:22Z" user="AYAGE" uid="521665" lat="34.3444767" lon="131.4117456"/>
 <node id="1292390798" visible="true" version="2" changeset="71950260" timestamp="2019-07-06T04:11:22Z" user="AYAGE" uid="521665" lat="34.3441064" lon="131.4115841"/>
 <node id="1292391367" visible="true" version="2" changeset="71950260" timestamp="2019-07-06T04:11:22Z" user="AYAGE" uid="521665" lat="34.3435852" lon="131.4126993"/>
 <node id="1292391496" visible="true" version="2" changeset="54359541" timestamp="2017-12-05T10:24:23Z" user="mklyr" uid="614924" lat="34.3480804" lon="131.4202425"/>
 <node id="1292391529" visible="true" version="2" changeset="54359541" timestamp="2017-12-05T10:24:23Z" user="mklyr" uid="614924" lat="34.3459270" lon="131.4163365"/>
 <node id="3195227064" visible="true" version="1" changeset="26881679" timestamp="2014-11-19T08:56:36Z" user="ひろときょうたまなかなおや" uid="2000955" lat="34.3502138" lon="131.4208746"/>
 <node id="3195255238" visible="true" version="2" changeset="71950260" timestamp="2019-07-06T04:11:22Z" user="AYAGE" uid="521665" lat="34.3494178" lon="131.4209415"/>
 <node id="3195255239" visible="true" version="1" changeset="26881679" timestamp="2014-11-19T09:17:20Z" user="ひろときょうたまなかなおや" uid="2000955" lat="34.3484305" lon="131.4203019"/>
 <node id="3195255240" visible="true" version="2" changeset="71950260" timestamp="2019-07-06T04:11:22Z" user="AYAGE" uid="521665" lat="34.3468351" lon="131.4168354"/>
 <node id="3195255241" visible="true" version="1" changeset="26881679" timestamp="2014-11-19T09:17:25Z" user="ひろときょうたまなかなおや" uid="2000955" lat="34.3433990" lon="131.4128879"/>
 <node id="3195255242" visible="true" version="2" changeset="71950260" timestamp="2019-07-06T04:11:22Z" user="AYAGE" uid="521665" lat="34.3471236" lon="131.4171803"/>
 <node id="3195256061" visible="true" version="1" changeset="26881679" timestamp="2014-11-19T08:56:35Z" user="ひろときょうたまなかなおや" uid="2000955" lat="34.3501683" lon="131.4210949"/>
 <node id="3195260447" visible="true" version="2" changeset="71950260" timestamp="2019-07-06T04:11:22Z" user="AYAGE" uid="521665" lat="34.3458260" lon="131.4146293"/>
 <node id="3195260508" visible="true" version="1" changeset="26881679" timestamp="2014-11-19T09:17:24Z" user="ひろときょうたまなかなおや" uid="2000955" lat="34.3436768" lon="131.4131315"/>
 <node id="3195260816" visible="true" version="2" changeset="71950260" timestamp="2019-07-06T04:11:22Z" user="AYAGE" uid="521665" lat="34.3479850" lon="131.4190610"/>
 <node id="3195260817" visible="true" version="2" changeset="71950260" timestamp="2019-07-06T04:11:22Z" user="AYAGE" uid="521665" lat="34.3498053" lon="131.4208633"/>
 <node id="3195260818" visible="true" version="1" changeset="26881679" timestamp="2014-11-19T09:17:32Z" user="ひろときょうたまなかなおや" uid="2000955" lat="34.3500064" lon="131.4207740"/>
 <node id="3195261720" visible="true" version="2" changeset="71950260" timestamp="2019-07-06T04:11:22Z" user="AYAGE" uid="521665" lat="34.3484162" lon="131.4195366"/>
 <node id="3195261721" visible="true" version="2" changeset="71950260" timestamp="2019-07-06T04:11:22Z" user="AYAGE" uid="521665" lat="34.3486364" lon="131.4198735"/>
 <node id="3195267762" visible="true" version="2" changeset="71950260" timestamp="2019-07-06T04:11:22Z" user="AYAGE" uid="521665" lat="34.3488285" lon="131.4206015"/>
 <node id="3195267763" visible="true" version="2" changeset="71950260" timestamp="2019-07-06T04:11:22Z" user="AYAGE" uid="521665" lat="34.3481975" lon="131.4198428"/>
 <node id="3195267764" visible="true" version="2" changeset="71950260" timestamp="2019-07-06T04:11:22Z" user="AYAGE" uid="521665" lat="34.3476155" lon="131.4184793"/>
 <node id="3195267962" visible="true" version="2" changeset="71950260" timestamp="2019-07-06T04:11:22Z" user="AYAGE" uid="521665" lat="34.3457607" lon="131.4147421"/>
 <node id="3195267963" visible="true" version="2" changeset="71950260" timestamp="2019-07-06T04:11:22Z" user="AYAGE" uid="521665" lat="34.3449178" lon="131.4140494"/>
 <node id="3195268263" visible="true" version="1" changeset="26881679" timestamp="2014-11-19T09:17:18Z" user="ひろときょうたまなかなおや" uid="2000955" lat="34.3499091" lon="131.4210229"/>
 <node id="3195268264" visible="true" version="2" changeset="71950260" timestamp="2019-07-06T04:11:22Z" user="AYAGE" uid="521665" lat="34.3495808" lon="131.4210096"/>
 <node id="3195268265" visible="true" version="2" changeset="71950260" timestamp="2019-07-06T04:11:22Z" user="AYAGE" uid="521665" lat="34.3478581" lon="131.4191838"/>
 <node id="3195268266" visible="true" version="2" changeset="71950260" timestamp="2019-07-06T04:11:22Z" user="AYAGE" uid="521665" lat="34.3439213" lon="131.4132205"/>
 <node id="3195268961" visible="true" version="2" changeset="71950260" timestamp="2019-07-06T04:11:22Z" user="AYAGE" uid="521665" lat="34.3474163" lon="131.4182736"/>
 <node id="3195269061" visible="true" version="2" changeset="71950260" timestamp="2019-07-06T04:11:22Z" user="AYAGE" uid="521665" lat="34.3471483" lon="131.4178140"/>
 <node id="3195269062" visible="true" version="2" changeset="71950260" timestamp="2019-07-06T04:11:22Z" user="AYAGE" uid="521665" lat="34.3464645" lon="131.4157477"/>
 <node id="3195269063" visible="true" version="2" changeset="71950260" timestamp="2019-07-06T04:11:22Z" user="AYAGE" uid="521665" lat="34.3434651" lon="131.4127801"/>
 <node id="3195269161" visible="true" version="2" changeset="71950260" timestamp="2019-07-06T04:11:22Z" user="AYAGE" uid="521665" lat="34.3460537" lon="131.4150573"/>
 <node id="3195269261" visible="true" version="2" changeset="71950260" timestamp="2019-07-06T04:11:22Z" user="AYAGE" uid="521665" lat="34.3461075" lon="131.4149372"/>
 <node id="3195269262" visible="true" version="2" changeset="71950260" timestamp="2019-07-06T04:11:22Z" user="AYAGE" uid="521665" lat="34.3474322" lon="131.4179509"/>
 <node id="3195269361" visible="true" version="2" changeset="71950260" timestamp="2019-07-06T04:11:22Z" user="AYAGE" uid="521665" lat="34.3465293" lon="131.4156705"/>
 <node id="3195269362" visible="true" version="2" changeset="71950260" timestamp="2019-07-06T04:11:22Z" user="AYAGE" uid="521665" lat="34.3468133" lon="131.4164621"/>
 <node id="3195269561" visible="true" version="1" changeset="26881679" timestamp="2014-11-19T09:17:31Z" user="ひろときょうたまなかなおや" uid="2000955" lat="34.3496321" lon="131.4208588"/>
 <node id="3196249570" visible="true" version="1" changeset="26896975" timestamp="2014-11-19T22:17:14Z" user="ひろときょうたまなかなおや" uid="2000955" lat="34.3429639" lon="131.4123361"/>
 <node id="3196281762" visible="true" version="1" changeset="26896975" timestamp="2014-11-19T22:16:48Z" user="ひろときょうたまなかなおや" uid="2000955" lat="34.3428391" lon="131.4125173"/>
 <node id="3196281763" visible="true" version="1" changeset="26896975" timestamp="2014-11-19T22:16:48Z" user="ひろときょうたまなかなおや" uid="2000955" lat="34.3425071" lon="131.4121490"/>
 <node id="3196281764" visible="true" version="1" changeset="26896975" timestamp="2014-11-19T22:16:49Z" user="ひろときょうたまなかなおや" uid="2000955" lat="34.3423170" lon="131.4119640"/>
 <node id="3196281765" visible="true" version="2" changeset="71950260" timestamp="2019-07-06T04:11:22Z" user="AYAGE" uid="521665" lat="34.3421193" lon="131.4115435"/>
 <node id="3196281866" visible="true" version="1" changeset="26896975" timestamp="2014-11-19T22:17:12Z" user="ひろときょうたまなかなおや" uid="2000955" lat="34.3422621" lon="131.4112606"/>
 <node id="3196281963" visible="true" version="1" changeset="26896975" timestamp="2014-11-19T22:16:49Z" user="ひろときょうたまなかなおや" uid="2000955" lat="34.3421730" lon="131.4116505"/>
 <node id="3196281967" visible="true" version="2" changeset="71950260" timestamp="2019-07-06T04:11:22Z" user="AYAGE" uid="521665" lat="34.3421051" lon="131.4113823"/>
 <node id="3196282268" visible="true" version="1" changeset="26896975" timestamp="2014-11-19T22:17:13Z" user="ひろときょうたまなかなおや" uid="2000955" lat="34.3424019" lon="131.4116520"/>
 <node id="3196282269" visible="true" version="1" changeset="26896975" timestamp="2014-11-19T22:17:13Z" user="ひろときょうたまなかなおや" uid="2000955" lat="34.3425482" lon="131.4119361"/>
 <node id="3196282763" visible="true" version="2" changeset="71950260" timestamp="2019-07-06T04:11:22Z" user="AYAGE" uid="521665" lat="34.3420252" lon="131.4114529"/>
 <node id="5265505666" visible="true" version="1" changeset="54359541" timestamp="2017-12-05T10:24:15Z" user="mklyr" uid="614924" lat="34.3465985" lon="131.4173305"/>
 <node id="5265505667" visible="true" version="1" changeset="54359541" timestamp="2017-12-05T10:24:15Z" user="mklyr" uid="614924" lat="34.3480689" lon="131.4201173"/>
 <node id="6592568061" visible="true" version="1" changeset="71950260" timestamp="2019-07-06T04:11:22Z" user="AYAGE" uid="521665" lat="34.3452022" lon="131.4138892"/>
 <node id="6592568062" visible="true" version="1" changeset="71950260" timestamp="2019-07-06T04:11:22Z" user="AYAGE" uid="521665" lat="34.3447925" lon="131.4135714"/>
 <node id="6592568063" visible="true" version="1" changeset="71950260" timestamp="2019-07-06T04:11:22Z" user="AYAGE" uid="521665" lat="34.3435457" lon="131.4127171"/>
 <node id="6592568064" visible="true" version="1" changeset="71950260" timestamp="2019-07-06T04:11:22Z" user="AYAGE" uid="521665" lat="34.3434870" lon="131.4126943"/>
 <node id="6592568065" visible="true" version="1" changeset="71950260" timestamp="2019-07-06T04:11:22Z" user="AYAGE" uid="521665" lat="34.3431659" lon="131.4123738"/>
 <node id="6592568066" visible="true" version="1" changeset="71950260" timestamp="2019-07-06T04:11:22Z" user="AYAGE" uid="521665" lat="34.3431249" lon="131.4122477"/>
 <node id="6592568067" visible="true" version="1" changeset="71950260" timestamp="2019-07-06T04:11:22Z" user="AYAGE" uid="521665" lat="34.3428248" lon="131.4118293"/>
 <node id="6592568068" visible="true" version="1" changeset="71950260" timestamp="2019-07-06T04:11:22Z" user="AYAGE" uid="521665" lat="34.3423376" lon="131.4111936"/>
 <node id="6592568069" visible="true" version="1" changeset="71950260" timestamp="2019-07-06T04:11:22Z" user="AYAGE" uid="521665" lat="34.3422811" lon="131.4110635"/>
 <node id="6592568070" visible="true" version="1" changeset="71950260" timestamp="2019-07-06T04:11:22Z" user="AYAGE" uid="521665" lat="34.3421673" lon="131.4107076"/>
 <node id="6592568134" visible="true" version="1" changeset="71950260" timestamp="2019-07-06T04:11:22Z" user="AYAGE" uid="521665" lat="34.3468886" lon="131.4170355"/>
 <node id="6592568135" visible="true" version="1" changeset="71950260" timestamp="2019-07-06T04:11:22Z" user="AYAGE" uid="521665" lat="34.3466195" lon="131.4160980"/>
 <node id="6592568136" visible="true" version="1" changeset="71950260" timestamp="2019-07-06T04:11:22Z" user="AYAGE" uid="521665" lat="34.3466638" lon="131.4163783"/>
 <node id="6592568137" visible="true" version="1" changeset="71950260" timestamp="2019-07-06T04:11:22Z" user="AYAGE" uid="521665" lat="34.3462818" lon="131.4153752"/>
 <node id="6592568138" visible="true" version="1" changeset="71950260" timestamp="2019-07-06T04:11:22Z" user="AYAGE" uid="521665" lat="34.3442189" lon="131.4134212"/>
 <node id="6592568139" visible="true" version="1" changeset="71950260" timestamp="2019-07-06T04:11:22Z" user="AYAGE" uid="521665" lat="34.3438247" lon="131.4132723"/>
 <node id="6592568140" visible="true" version="1" changeset="71950260" timestamp="2019-07-06T04:11:22Z" user="AYAGE" uid="521665" lat="34.3440307" lon="131.4134225"/>
 <node id="6592568141" visible="true" version="1" changeset="71950260" timestamp="2019-07-06T04:11:22Z" user="AYAGE" uid="521665" lat="34.3444437" lon="131.4136666"/>
 <node id="6592568142" visible="true" version="1" changeset="71950260" timestamp="2019-07-06T04:11:22Z" user="AYAGE" uid="521665" lat="34.3444747" lon="131.4135566"/>
 <node id="6592568143" visible="true" version="1" changeset="71950260" timestamp="2019-07-06T04:11:22Z" user="AYAGE" uid="521665" lat="34.3450516" lon="131.4140354"/>
 <node id="6592568144" visible="true" version="1" changeset="71950260" timestamp="2019-07-06T04:11:22Z" user="AYAGE" uid="521665" lat="34.3452244" lon="131.4142647"/>
 <node id="6592568145" visible="true" version="1" changeset="71950260" timestamp="2019-07-06T04:11:22Z" user="AYAGE" uid="521665" lat="34.3455333" lon="131.4145195"/>
 <node id="6592568146" visible="true" version="1" changeset="71950260" timestamp="2019-07-06T04:11:22Z" user="AYAGE" uid="521665" lat="34.3459596" lon="131.4147744"/>
 <node id="6592568147" visible="true" version="1" changeset="71950260" timestamp="2019-07-06T04:11:22Z" user="AYAGE" uid="521665" lat="34.3462253" lon="131.4150989"/>
 <node id="6592568148" visible="true" version="1" changeset="71950260" timestamp="2019-07-06T04:11:22Z" user="AYAGE" uid="521665" lat="34.3463350" lon="131.4152893"/>
 <node id="6592568149" visible="true" version="1" changeset="71950260" timestamp="2019-07-06T04:11:22Z" user="AYAGE" uid="521665" lat="34.3466395" lon="131.4160417"/>
 <node id="6592568150" visible="true" version="1" changeset="71950260" timestamp="2019-07-06T04:11:22Z" user="AYAGE" uid="521665" lat="34.3466705" lon="131.4160900"/>
 <node id="6592568151" visible="true" version="1" changeset="71950260" timestamp="2019-07-06T04:11:22Z" user="AYAGE" uid="521665" lat="34.3469484" lon="131.4167418"/>
 <node id="6592568152" visible="true" version="1" changeset="71950260" timestamp="2019-07-06T04:11:22Z" user="AYAGE" uid="521665" lat="34.3468886" lon="131.4172044"/>
 <node id="6592568153" visible="true" version="1" changeset="71950260" timestamp="2019-07-06T04:11:22Z" user="AYAGE" uid="521665" lat="34.3472939" lon="131.4179796"/>
 <node id="6592568154" visible="true" version="1" changeset="71950260" timestamp="2019-07-06T04:11:22Z" user="AYAGE" uid="521665" lat="34.3473359" lon="131.4175585"/>
 <node id="6592568155" visible="true" version="1" changeset="71950260" timestamp="2019-07-06T04:11:22Z" user="AYAGE" uid="521665" lat="34.3474843" lon="131.4182210"/>
 <node id="6592568156" visible="true" version="1" changeset="71950260" timestamp="2019-07-06T04:11:22Z" user="AYAGE" uid="521665" lat="34.3481575" lon="131.4191812"/>
 <node id="6592568157" visible="true" version="1" changeset="71950260" timestamp="2019-07-06T04:11:22Z" user="AYAGE" uid="521665" lat="34.3486956" lon="131.4201683"/>
 <node id="6592568158" visible="true" version="1" changeset="71950260" timestamp="2019-07-06T04:11:22Z" user="AYAGE" uid="521665" lat="34.3487820" lon="131.4203238"/>
 <node id="6592568159" visible="true" version="1" changeset="71950260" timestamp="2019-07-06T04:11:22Z" user="AYAGE" uid="521665" lat="34.3492493" lon="131.4206859"/>
 <node id="6592568160" visible="true" version="2" changeset="79774290" timestamp="2020-01-20T04:17:54Z" user="hibagonsan" uid="5939709" lat="34.3442244" lon="131.4140730"/>
 <node id="6592568161" visible="true" version="2" changeset="172050107" timestamp="2025-09-17T08:05:18Z" user="taketaketake" uid="4757277" lat="34.3424833" lon="131.4126604"/>
 <node id="7144571292" visible="true" version="1" changeset="79774290" timestamp="2020-01-20T04:17:54Z" user="hibagonsan" uid="5939709" lat="34.3451930" lon="131.4143736"/>
 <node id="7144571293" visible="true" version="1" changeset="79774290" timestamp="2020-01-20T04:17:54Z" user="hibagonsan" uid="5939709" lat="34.3451340" lon="131.4143197"/>
 <node id="7144571294" visible="true" version="1" changeset="79774290" timestamp="2020-01-20T04:17:54Z" user="hibagonsan" uid="5939709" lat="34.3451081" lon="131.4143613"/>
 <node id="7144571295" visible="true" version="1" changeset="79774290" timestamp="2020-01-20T04:17:54Z" user="hibagonsan" uid="5939709" lat="34.3451672" lon="131.4144152"/>
 <node id="7144571296" visible="true" version="1" changeset="79774290" timestamp="2020-01-20T04:17:54Z" user="hibagonsan" uid="5939709" lat="34.3451627" lon="131.4144610"/>
 <node id="7144571297" visible="true" version="1" changeset="79774290" timestamp="2020-01-20T04:17:54Z" user="hibagonsan" uid="5939709" lat="34.3451063" lon="131.4143993"/>
 <node id="7144571298" visible="true" version="1" changeset="79774290" timestamp="2020-01-20T04:17:54Z" user="hibagonsan" uid="5939709" lat="34.3450727" lon="131.4144444"/>
 <node id="7144571299" visible="true" version="1" changeset="79774290" timestamp="2020-01-20T04:17:54Z" user="hibagonsan" uid="5939709" lat="34.3451291" lon="131.4145061"/>
 <node id="7144571300" visible="true" version="1" changeset="79774290" timestamp="2020-01-20T04:17:54Z" user="hibagonsan" uid="5939709" lat="34.3452521" lon="131.4146248"/>
 <node id="7144571301" visible="true" version="1" changeset="79774290" timestamp="2020-01-20T04:17:54Z" user="hibagonsan" uid="5939709" lat="34.3451358" lon="131.4147562"/>
 <node id="7144571302" visible="true" version="1" changeset="79774290" timestamp="2020-01-20T04:17:54Z" user="hibagonsan" uid="5939709" lat="34.3451756" lon="131.4148079"/>
 <node id="7144571303" visible="true" version="1" changeset="79774290" timestamp="2020-01-20T04:17:54Z" user="hibagonsan" uid="5939709" lat="34.3452919" lon="131.4146765"/>
 <node id="7144571304" visible="true" version="1" changeset="79774290" timestamp="2020-01-20T04:17:54Z" user="hibagonsan" uid="5939709" lat="34.3449338" lon="131.4144857"/>
 <node id="7144571305" visible="true" version="1" changeset="79774290" timestamp="2020-01-20T04:17:54Z" user="hibagonsan" uid="5939709" lat="34.3448862" lon="131.4145354"/>
 <node id="7144571306" visible="true" version="1" changeset="79774290" timestamp="2020-01-20T04:17:54Z" user="hibagonsan" uid="5939709" lat="34.3449187" lon="131.4145812"/>
 <node id="7144571307" visible="true" version="1" changeset="79774290" timestamp="2020-01-20T04:17:54Z" user="hibagonsan" uid="5939709" lat="34.3449664" lon="131.4145316"/>
 <node id="7144571308" visible="true" version="1" changeset="79774290" timestamp="2020-01-20T04:17:54Z" user="hibagonsan" uid="5939709" lat="34.3447126" lon="131.4144660"/>
 <node id="7144571309" visible="true" version="1" changeset="79774290" timestamp="2020-01-20T04:17:54Z" user="hibagonsan" uid="5939709" lat="34.3446572" lon="131.4145317"/>
 <node id="7144571310" visible="true" version="1" changeset="79774290" timestamp="2020-01-20T04:17:54Z" user="hibagonsan" uid="5939709" lat="34.3446973" lon="131.4145812"/>
 <node id="7144571311" visible="true" version="1" changeset="79774290" timestamp="2020-01-20T04:17:54Z" user="hibagonsan" uid="5939709" lat="34.3447527" lon="131.4145155"/>
 <node id="7144571312" visible="true" version="1" changeset="79774290" timestamp="2020-01-20T04:17:54Z" user="hibagonsan" uid="5939709" lat="34.3446354" lon="131.4143359"/>
 <node id="7144571313" visible="true" version="1" changeset="79774290" timestamp="2020-01-20T04:17:54Z" user="hibagonsan" uid="5939709" lat="34.3447682" lon="131.4145022"/>
 <node id="7144571314" visible="true" version="1" changeset="79774290" timestamp="2020-01-20T04:17:54Z" user="hibagonsan" uid="5939709" lat="34.3448999" lon="131.4143479"/>
 <node id="7144571315" visible="true" version="1" changeset="79774290" timestamp="2020-01-20T04:17:54Z" user="hibagonsan" uid="5939709" lat="34.3447670" lon="131.4141816"/>
 <node id="7144571316" visible="true" version="1" changeset="79774290" timestamp="2020-01-20T04:17:54Z" user="hibagonsan" uid="5939709" lat="34.3439407" lon="131.4136024"/>
 <node id="7144571317" visible="true" version="1" changeset="79774290" timestamp="2020-01-20T04:17:54Z" user="hibagonsan" uid="5939709" lat="34.3438720" lon="131.4135286"/>
 <node id="7144571318" visible="true" version="1" changeset="79774290" timestamp="2020-01-20T04:17:54Z" user="hibagonsan" uid="5939709" lat="34.3438358" lon="131.4135781"/>
 <node id="7144571319" visible="true" version="1" changeset="79774290" timestamp="2020-01-20T04:17:54Z" user="hibagonsan" uid="5939709" lat="34.3439045" lon="131.4136519"/>
 <node id="9412086481" visible="true" version="1" changeset="116054198" timestamp="2022-01-12T07:39:29Z" user="okadatsuneo_import" uid="12352917" lat="34.3445406" lon="131.4143791">
  <tag k="bus" v="yes"/>
  <tag k="gtfs:stop_id" v="60047 2"/>
  <tag k="highway" v="bus_stop"/>
  <tag k="name" v="明木"/>
  <tag k="name:ja" v="明木"/>
  <tag k="name:ja-Hira" v="あきらぎ"/>
  <tag k="operator" v="中国ジェイアールバス"/>
  <tag k="operator:en" v="Chugoku JR Bus"/>
  <tag k="public_transport" v="platform"/>
 </node>
 <node id="9412086482" visible="true" version="1" changeset="116054198" timestamp="2022-01-12T07:39:29Z" user="okadatsuneo_import" uid="12352917" lat="34.3445073" lon="131.4144624">
  <tag k="bus" v="yes"/>
  <tag k="gtfs:stop_id" v="60047 1"/>
  <tag k="highway" v="bus_stop"/>
  <tag k="name" v="明木"/>
  <tag k="name:ja" v="明木"/>
  <tag k="name:ja-Hira" v="あきらぎ"/>
  <tag k="operator" v="中国ジェイアールバス"/>
  <tag k="operator:en" v="Chugoku JR Bus"/>
  <tag k="public_transport" v="platform"/>
 </node>
 <way id="60301285" visible="true" version="3" changeset="153270820" timestamp="2024-06-28T00:58:20Z" user="taketaketake" uid="4757277">
  <nd ref="749802758"/>
  <nd ref="749119338"/>
  <nd ref="749576193"/>
  <nd ref="748933302"/>
  <nd ref="749242876"/>
  <nd ref="749713641"/>
  <nd ref="749031905"/>
  <nd ref="749427228"/>
  <nd ref="749861698"/>
  <nd ref="749208195"/>
  <nd ref="749669471"/>
  <nd ref="748992432"/>
  <nd ref="749079069"/>
  <nd ref="6592568149"/>
  <nd ref="748907353"/>
  <nd ref="749280025"/>
  <nd ref="749759496"/>
  <nd ref="749469217"/>
  <nd ref="749896542"/>
  <nd ref="748936220"/>
  <nd ref="749794530"/>
  <nd ref="749558369"/>
  <nd ref="748922661"/>
  <nd ref="749303080"/>
  <nd ref="749779456"/>
  <nd ref="749163239"/>
  <nd ref="749613924"/>
  <nd ref="748960329"/>
  <nd ref="749347579"/>
  <nd ref="749805736"/>
  <nd ref="749126463"/>
  <nd ref="749581782"/>
  <nd ref="749405272"/>
  <nd ref="749212649"/>
  <tag k="name" v="明木川"/>
  <tag k="name:ja" v="明木川"/>
  <tag k="note" v="National-Land Numerical Information (River) 2006, MLIT Japan"/>
  <tag k="note:ja" v="国土数値情報(河川データ)平成18年国土交通省"/>
  <tag k="source" v="KSJ2"/>
  <tag k="source_ref" v="http://nlftp.mlit.go.jp/ksj/jpgis/datalist/KsjTmplt-W05.html"/>
  <tag k="waterway" v="river"/>
 </way>
 <way id="114040351" visible="true" version="5" changeset="172050107" timestamp="2025-09-17T08:05:18Z" user="taketaketake" uid="4757277">
  <nd ref="1292373688"/>
  <nd ref="1292391496"/>
  <nd ref="5265505667"/>
  <nd ref="1292362296"/>
  <nd ref="1292382591"/>
  <nd ref="1292363576"/>
  <nd ref="5265505666"/>
  <nd ref="1292363564"/>
  <nd ref="1292373914"/>
  <nd ref="1292391529"/>
  <nd ref="1292362325"/>
  <nd ref="1292369129"/>
  <nd ref="1292373376"/>
  <nd ref="6592568160"/>
  <nd ref="1292383339"/>
  <nd ref="1292362127"/>
  <nd ref="1292355014"/>
  <nd ref="1292377125"/>
  <nd ref="1292372283"/>
  <nd ref="6592568161"/>
  <tag k="highway" v="secondary"/>
  <tag k="lanes" v="1"/>
  <tag k="name" v="明木美東線"/>
  <tag k="name:en" v="Akeragi Mito Line"/>
  <tag k="name:ja" v="明木美東線"/>
  <tag k="name:ja-Hira" v="あきらぎみとうせん"/>
  <tag k="name:ja_rm" v="Akiragi Mitō-sen"/>
  <tag k="old_name" v="国道262号"/>
  <tag k="old_name:en" v="National Highway Route 262"/>
  <tag k="old_name:ja" v="国道262号"/>
  <tag k="old_ref" v="262"/>
  <tag k="ref" v="308"/>
  <tag k="source" v="YahooJapan/ALPSMAP"/>
  <tag k="surface" v="asphalt"/>
  <tag k="wikidata" v="Q11467281"/>
  <tag k="wikipedia" v="ja:山口県道308号明木美東線"/>
 </way>
 <way id="114041203" visible="true" version="2" changeset="71950260" timestamp="2019-07-06T04:11:22Z" user="AYAGE" uid="521665">
  <nd ref="1292390798"/>
  <nd ref="1292389833"/>
  <nd ref="1292364642"/>
  <nd ref="1292389527"/>
  <nd ref="1292371514"/>
  <nd ref="1292375814"/>
  <nd ref="1292362921"/>
  <nd ref="1292362056"/>
  <nd ref="1292382401"/>
  <nd ref="1292359745"/>
  <nd ref="1292389561"/>
  <nd ref="1292358887"/>
  <nd ref="1292373374"/>
  <nd ref="1292370864"/>
  <nd ref="1292357884"/>
  <nd ref="1292355140"/>
  <nd ref="1292371364"/>
  <nd ref="1292387238"/>
  <tag k="highway" v="unclassified"/>
  <tag k="source" v="YahooJapan/ALPSMAP"/>
 </way>
 <way id="114041408" visible="true" version="1" changeset="8194567" timestamp="2011-05-20T01:02:26Z" user="yamasan" uid="32308">
  <nd ref="1292364908"/>
  <nd ref="1292379663"/>
  <nd ref="1292374375"/>
  <nd ref="1292375733"/>
  <nd ref="1292369129"/>
  <tag k="highway" v="residential"/>
  <tag k="source" v="YahooJapan/ALPSMAP"/>
  <tag k="yh:STRUCTURE" v="地上"/>
  <tag k="yh:TOTYUMONO" v="供用中"/>
  <tag k="yh:TYPE" v="その他一般道"/>
  <tag k="yh:WIDTH" v="1.5m〜3.0m"/>
  <tag k="yh:WIDTH_RANK" v="4"/>
 </way>
 <way id="114041597" visible="true" version="1" changeset="8194567" timestamp="2011-05-20T01:02:48Z" user="yamasan" uid="32308">
  <nd ref="1292361962"/>
  <nd ref="1292358614"/>
  <nd ref="1292362332"/>
  <nd ref="1292367046"/>
  <nd ref="1292383339"/>
  <tag k="highway" v="residential"/>
  <tag k="source" v="YahooJapan/ALPSMAP"/>
  <tag k="yh:STRUCTURE" v="地上"/>
  <tag k="yh:TOTYUMONO" v="供用中"/>
  <tag k="yh:TYPE" v="その他一般道"/>
  <tag k="yh:WIDTH" v="1.5m〜3.0m"/>
  <tag k="yh:WIDTH_RANK" v="4"/>
 </way>
 <way id="313528119" visible="true" version="3" changeset="113200607" timestamp="2021-10-31T16:35:28Z" user="ZeLonewolf" uid="219297">
  <nd ref="3195227064"/>
  <nd ref="3195256061"/>
  <nd ref="3195268263"/>
  <nd ref="3195268264"/>
  <nd ref="3195255238"/>
  <nd ref="3195267762"/>
  <nd ref="3195255239"/>
  <nd ref="3195267763"/>
  <nd ref="3195268265"/>
  <nd ref="3195268961"/>
  <nd ref="6592568153"/>
  <nd ref="3195269061"/>
  <nd ref="6592568152"/>
  <nd ref="6592568134"/>
  <nd ref="3195255240"/>
  <nd ref="6592568136"/>
  <nd ref="6592568135"/>
  <nd ref="3195269062"/>
  <nd ref="6592568137"/>
  <nd ref="3195269161"/>
  <nd ref="3195267962"/>
  <nd ref="6592568145"/>
  <nd ref="6592568144"/>
  <nd ref="3195267963"/>
  <nd ref="6592568141"/>
  <nd ref="6592568140"/>
  <nd ref="6592568139"/>
  <nd ref="3195260508"/>
  <nd ref="3195255241"/>
  <nd ref="3195269063"/>
  <nd ref="3195268266"/>
  <nd ref="6592568138"/>
  <nd ref="6592568142"/>
  <nd ref="6592568143"/>
  <nd ref="3195260447"/>
  <nd ref="6592568146"/>
  <nd ref="3195269261"/>
  <nd ref="6592568147"/>
  <nd ref="6592568148"/>
  <nd ref="3195269361"/>
  <nd ref="6592568150"/>
  <nd ref="3195269362"/>
  <nd ref="6592568151"/>
  <nd ref="3195255242"/>
  <nd ref="6592568154"/>
  <nd ref="3195269262"/>
  <nd ref="6592568155"/>
  <nd ref="3195267764"/>
  <nd ref="3195260816"/>
  <nd ref="6592568156"/>
  <nd ref="3195261720"/>
  <nd ref="3195261721"/>
  <nd ref="6592568157"/>
  <nd ref="6592568158"/>
  <nd ref="6592568159"/>
  <nd ref="3195269561"/>
  <nd ref="3195260817"/>
  <nd ref="3195260818"/>
  <nd ref="3195227064"/>
  <tag k="natural" v="water"/>
  <tag k="source" v="bing"/>
  <tag k="water" v="river"/>
 </way>
 <way id="313624781" visible="true" version="4" changeset="156716313" timestamp="2024-09-17T07:12:48Z" user="taketaketake" uid="4757277">
  <nd ref="3195269063"/>
  <nd ref="3195255241"/>
  <nd ref="3196281762"/>
  <nd ref="3196281763"/>
  <nd ref="3196281764"/>
  <nd ref="3196281963"/>
  <nd ref="3196281765"/>
  <nd ref="3196282763"/>
  <nd ref="3196281967"/>
  <nd ref="3196281866"/>
  <nd ref="3196282268"/>
  <nd ref="3196282269"/>
  <nd ref="3196249570"/>
  <nd ref="3195269063"/>
  <tag k="natural" v="water"/>
  <tag k="source" v="bing"/>
  <tag k="water" v="river"/>
 </way>
 <way id="702008670" visible="true" version="1" changeset="71950260" timestamp="2019-07-06T04:11:22Z" user="AYAGE" uid="521665">
  <nd ref="6592568070"/>
  <nd ref="6592568069"/>
  <nd ref="6592568068"/>
  <nd ref="6592568067"/>
  <nd ref="6592568066"/>
  <nd ref="6592568065"/>
  <nd ref="6592568064"/>
  <nd ref="6592568063"/>
  <nd ref="1292391367"/>
  <nd ref="6592568062"/>
  <nd ref="6592568061"/>
  <tag k="highway" v="track"/>
 </way>
 <way id="764850039" visible="true" version="1" changeset="79774290" timestamp="2020-01-20T04:17:54Z" user="hibagonsan" uid="5939709">
  <nd ref="7144571295"/>
  <nd ref="7144571294"/>
  <nd ref="7144571293"/>
  <nd ref="7144571292"/>
  <nd ref="7144571295"/>
  <tag k="building" v="yes"/>
  <tag k="source" v="Bing"/>
 </way>
 <way id="764850040" visible="true" version="1" changeset="79774290" timestamp="2020-01-20T04:17:54Z" user="hibagonsan" uid="5939709">
  <nd ref="7144571299"/>
  <nd ref="7144571298"/>
  <nd ref="7144571297"/>
  <nd ref="7144571296"/>
  <nd ref="7144571299"/>
  <tag k="building" v="yes"/>
  <tag k="source" v="Bing"/>
 </way>
 <way id="764850041" visible="true" version="1" changeset="79774290" timestamp="2020-01-20T04:17:54Z" user="hibagonsan" uid="5939709">
  <nd ref="7144571303"/>
  <nd ref="7144571302"/>
  <nd ref="7144571301"/>
  <nd ref="7144571300"/>
  <nd ref="7144571303"/>
  <tag k="building" v="yes"/>
  <tag k="source" v="Bing"/>
 </way>
 <way id="764850042" visible="true" version="1" changeset="79774290" timestamp="2020-01-20T04:17:54Z" user="hibagonsan" uid="5939709">
  <nd ref="7144571307"/>
  <nd ref="7144571306"/>
  <nd ref="7144571305"/>
  <nd ref="7144571304"/>
  <nd ref="7144571307"/>
  <tag k="building" v="yes"/>
  <tag k="source" v="Bing"/>
 </way>
 <way id="764850043" visible="true" version="1" changeset="79774290" timestamp="2020-01-20T04:17:54Z" user="hibagonsan" uid="5939709">
  <nd ref="7144571311"/>
  <nd ref="7144571310"/>
  <nd ref="7144571309"/>
  <nd ref="7144571308"/>
  <nd ref="7144571311"/>
  <tag k="building" v="yes"/>
  <tag k="source" v="Bing"/>
 </way>
 <way id="764850044" visible="true" version="1" changeset="79774290" timestamp="2020-01-20T04:17:54Z" user="hibagonsan" uid="5939709">
  <nd ref="7144571315"/>
  <nd ref="7144571314"/>
  <nd ref="7144571313"/>
  <nd ref="7144571312"/>
  <nd ref="7144571315"/>
  <tag k="building" v="yes"/>
  <tag k="source" v="Bing"/>
 </way>
 <way id="764850045" visible="true" version="1" changeset="79774290" timestamp="2020-01-20T04:17:54Z" user="hibagonsan" uid="5939709">
  <nd ref="7144571319"/>
  <nd ref="7144571318"/>
  <nd ref="7144571317"/>
  <nd ref="7144571316"/>
  <nd ref="7144571319"/>
  <tag k="building" v="yes"/>
  <tag k="source" v="Bing"/>
 </way>
 <relation id="13884431" visible="true" version="10" changeset="171993143" timestamp="2025-09-16T04:32:12Z" user="taketaketake" uid="4757277">
  <member type="node" ref="9412086504" role="platform"/>
  <member type="node" ref="9412086506" role="platform"/>
  <member type="node" ref="9412086508" role="platform"/>
  <member type="node" ref="9412086510" role="platform"/>
  <member type="node" ref="9412086491" role="platform"/>
  <member type="node" ref="9412086520" role="platform"/>
  <member type="node" ref="9412086519" role="platform"/>
  <member type="node" ref="9412086516" role="platform"/>
  <member type="node" ref="9412086518" role="platform"/>
  <member type="node" ref="9412086521" role="platform"/>
  <member type="node" ref="9412086522" role="platform"/>
  <member type="node" ref="9412086524" role="platform"/>
  <member type="node" ref="9412086476" role="platform"/>
  <member type="node" ref="9412086474" role="platform"/>
  <member type="node" ref="9412086472" role="platform"/>
  <member type="node" ref="9412086470" role="platform"/>
  <member type="node" ref="9412086468" role="platform"/>
  <member type="node" ref="9412086466" role="platform"/>
  <member type="node" ref="9412086464" role="platform"/>
  <member type="node" ref="9412086462" role="platform"/>
  <member type="node" ref="9412086460" role="platform"/>
  <member type="node" ref="9412086487" role="platform"/>
  <member type="node" ref="9412086485" role="platform"/>
  <member type="node" ref="10653428528" role="platform"/>
  <member type="node" ref="9412086458" role="platform"/>
  <member type="node" ref="9412086456" role="platform"/>
  <member type="node" ref="9412086454" role="platform"/>
  <member type="node" ref="9412086453" role="platform"/>
  <member type="node" ref="9412086451" role="platform"/>
  <member type="node" ref="9412086449" role="platform"/>
  <member type="node" ref="9412086447" role="platform"/>
  <member type="node" ref="9412086445" role="platform"/>
  <member type="node" ref="9412086443" role="platform"/>
  <member type="node" ref="9412086441" role="platform"/>
  <member type="node" ref="9412086483" role="platform"/>
  <member type="node" ref="9412086334" role="platform"/>
  <member type="node" ref="9412086439" role="platform"/>
  <member type="node" ref="9412086437" role="platform"/>
  <member type="node" ref="9412086435" role="platform"/>
  <member type="node" ref="9412086433" role="platform"/>
  <member type="node" ref="9412086431" role="platform"/>
  <member type="node" ref="9412086429" role="platform"/>
  <member type="node" ref="9412086427" role="platform"/>
  <member type="node" ref="9412086425" role="platform"/>
  <member type="node" ref="9412086423" role="platform"/>
  <member type="node" ref="9412086421" role="platform"/>
  <member type="node" ref="9412086419" role="platform"/>
  <member type="node" ref="9412086417" role="platform"/>
  <member type="node" ref="9412086415" role="platform"/>
  <member type="node" ref="9412086481" role="platform"/>
  <member type="node" ref="9412086413" role="platform"/>
  <member type="node" ref="9412086411" role="platform"/>
  <member type="node" ref="9412086409" role="platform"/>
  <member type="node" ref="9412086407" role="platform"/>
  <member type="node" ref="9412086405" role="platform"/>
  <member type="node" ref="9412086403" role="platform"/>
  <member type="node" ref="9412086401" role="platform"/>
  <member type="node" ref="9412086400" role="platform"/>
  <member type="node" ref="9412086398" role="platform"/>
  <member type="node" ref="9412086343" role="platform"/>
  <member type="node" ref="9412086479" role="platform"/>
  <member type="node" ref="9412086478" role="platform"/>
  <member type="way" ref="119885215" role=""/>
  <member type="way" ref="119879037" role=""/>
  <member type="way" ref="1036697523" role=""/>
  <member type="way" ref="119878523" role=""/>
  <member type="way" ref="1036697526" role=""/>
  <member type="way" ref="1036697532" role=""/>
  <member type="way" ref="1394161504" role=""/>
  <member type="way" ref="1036697531" role=""/>
  <member type="way" ref="1163757161" role=""/>
  <member type="way" ref="1036697528" role=""/>
  <member type="way" ref="1036697526" role=""/>
  <member type="way" ref="119878523" role=""/>
  <member type="way" ref="517552886" role=""/>
  <member type="way" ref="119878656" role=""/>
  <member type="way" ref="1036697525" role=""/>
  <member type="way" ref="1036697534" role=""/>
  <member type="way" ref="1036697533" role=""/>
  <member type="way" ref="1036697512" role=""/>
  <member type="way" ref="1036697534" role=""/>
  <member type="way" ref="1036697525" role=""/>
  <member type="way" ref="119878656" role=""/>
  <member type="way" ref="1036709693" role=""/>
  <member type="way" ref="1036709692" role=""/>
  <member type="way" ref="119879154" role=""/>
  <member type="way" ref="119879065" role=""/>
  <member type="way" ref="310175728" role=""/>
  <member type="way" ref="310175725" role=""/>
  <member type="way" ref="119878743" role=""/>
  <member type="way" ref="119878597" role=""/>
  <member type="way" ref="119879213" role=""/>
  <member type="way" ref="119879204" role=""/>
  <member type="way" ref="119878605" role=""/>
  <member type="way" ref="1036709691" role=""/>
  <member type="way" ref="119878779" role=""/>
  <member type="way" ref="119878679" role=""/>
  <member type="way" ref="119879109" role=""/>
  <member type="way" ref="119878957" role=""/>
  <member type="way" ref="119878571" role=""/>
  <member type="way" ref="119878796" role=""/>
  <member type="way" ref="119878467" role=""/>
  <member type="way" ref="68875222" role=""/>
  <member type="way" ref="68875217" role=""/>
  <member type="way" ref="68875218" role=""/>
  <member type="way" ref="42403306" role=""/>
  <member type="way" ref="544509184" role=""/>
  <member type="way" ref="544509185" role=""/>
  <member type="way" ref="42476346" role=""/>
  <member type="way" ref="42476343" role=""/>
  <member type="way" ref="42476344" role=""/>
  <member type="way" ref="42476342" role=""/>
  <member type="way" ref="544509186" role=""/>
  <member type="way" ref="544509187" role=""/>
  <member type="way" ref="544509188" role=""/>
  <member type="way" ref="544509189" role=""/>
  <member type="way" ref="42476341" role=""/>
  <member type="way" ref="42476352" role=""/>
  <member type="way" ref="42476351" role=""/>
  <member type="way" ref="119875332" role=""/>
  <member type="way" ref="119875295" role=""/>
  <member type="way" ref="710482454" role=""/>
  <member type="way" ref="544509193" role=""/>
  <member type="way" ref="1036709687" role=""/>
  <member type="way" ref="544509195" role=""/>
  <member type="way" ref="544509194" role=""/>
  <member type="way" ref="114040847" role=""/>
  <member type="way" ref="114040970" role=""/>
  <member type="way" ref="1036709670" role=""/>
  <member type="way" ref="434742622" role=""/>
  <member type="way" ref="1036709668" role=""/>
  <member type="way" ref="1036709669" role=""/>
  <member type="way" ref="704734761" role=""/>
  <member type="way" ref="114040299" role=""/>
  <member type="way" ref="114041125" role=""/>
  <member type="way" ref="114040449" role=""/>
  <member type="way" ref="114041267" role=""/>
  <member type="way" ref="114041034" role=""/>
  <member type="way" ref="42476347" role=""/>
  <member type="way" ref="413732108" role=""/>
  <member type="way" ref="413732109" role=""/>
  <member type="way" ref="42476368" role=""/>
  <member type="way" ref="42476369" role=""/>
  <member type="way" ref="568591089" role=""/>
  <member type="way" ref="710477714" role=""/>
  <member type="way" ref="710477713" role=""/>
  <member type="way" ref="544735763" role=""/>
  <member type="way" ref="544735764" role=""/>
  <member type="way" ref="544735765" role=""/>
  <member type="way" ref="42476366" role=""/>
  <member type="way" ref="568591123" role=""/>
  <member type="way" ref="544735768" role=""/>
  <member type="way" ref="544735767" role=""/>
  <member type="way" ref="544735758" role=""/>
  <member type="way" ref="710459517" role=""/>
  <member type="way" ref="114040401" role=""/>
  <member type="way" ref="114041191" role=""/>
  <member type="way" ref="702008675" role=""/>
  <member type="way" ref="114040351" role=""/>
  <member type="way" ref="544735762" role=""/>
  <member type="way" ref="114056460" role=""/>
  <member type="way" ref="114057397" role=""/>
  <member type="way" ref="114056321" role=""/>
  <member type="way" ref="114057881" role=""/>
  <member type="way" ref="114057811" role=""/>
  <member type="way" ref="114056744" role=""/>
  <member type="way" ref="114057169" role=""/>
  <member type="way" ref="114056169" role=""/>
  <member type="way" ref="1430138808" role=""/>
  <member type="way" ref="114055935" role=""/>
  <member type="way" ref="114058420" role=""/>
  <member type="way" ref="79534125" role=""/>
  <member type="way" ref="1036709684" role=""/>
  <member type="way" ref="316339820" role=""/>
  <member type="way" ref="316339812" role=""/>
  <member type="way" ref="316339817" role=""/>
  <member type="way" ref="114056144" role=""/>
  <member type="way" ref="1036709680" role=""/>
  <member type="way" ref="114058392" role=""/>
  <member type="way" ref="1036709679" role=""/>
  <member type="way" ref="421310968" role=""/>
  <member type="way" ref="1430138807" role=""/>
  <member type="way" ref="114055661" role=""/>
  <member type="way" ref="114058659" role=""/>
  <member type="way" ref="114058518" role=""/>
  <member type="way" ref="402834033" role=""/>
  <member type="way" ref="114056495" role=""/>
  <member type="way" ref="604148052" role=""/>
  <member type="way" ref="1036709675" role=""/>
  <member type="way" ref="1036709674" role=""/>
  <member type="way" ref="1036709676" role=""/>
  <member type="way" ref="1036709675" role=""/>
  <member type="way" ref="604148052" role=""/>
  <member type="way" ref="604148053" role=""/>
  <member type="way" ref="402834035" role=""/>
  <member type="way" ref="114056368" role=""/>
  <member type="way" ref="114058206" role=""/>
  <member type="way" ref="114056326" role=""/>
  <member type="way" ref="114056166" role=""/>
  <member type="way" ref="79534148" role=""/>
  <member type="way" ref="316339802" role=""/>
  <member type="way" ref="316339803" role=""/>
  <member type="way" ref="316339838" role=""/>
  <member type="way" ref="1036709673" role=""/>
  <member type="way" ref="114056730" role=""/>
  <member type="way" ref="1036709672" role=""/>
  <tag k="duration" v="01:40:00"/>
  <tag k="from" v="湯田温泉"/>
  <tag k="gtfs:route_id" v="2229846746"/>
  <tag k="gtfs:shape_id" v="40001280"/>
  <tag k="name" v="Bus: 湯田温泉→東萩駅前"/>
  <tag k="network" v="防長線"/>
  <tag k="opening_hours" v="09:20-11:00"/>
  <tag k="operator" v="中国ジェイアールバス"/>
  <tag k="operator:en" v="Chugoku JR Bus"/>
  <tag k="public_transport:version" v="2"/>
  <tag k="route" v="bus"/>
  <tag k="to" v="東萩駅前"/>
  <tag k="type" v="route"/>
 </relation>
 <relation id="13884432" visible="true" version="11" changeset="171993143" timestamp="2025-09-16T04:32:12Z" user="taketaketake" uid="4757277">
  <member type="node" ref="9412086478" role="platform"/>
  <member type="node" ref="9412086480" role="platform"/>
  <member type="node" ref="9412086343" role="platform"/>
  <member type="node" ref="9412086399" role="platform"/>
  <member type="node" ref="9412086400" role="platform"/>
  <member type="node" ref="9412086402" role="platform"/>
  <member type="node" ref="9412086404" role="platform"/>
  <member type="node" ref="9412086406" role="platform"/>
  <member type="node" ref="9412086408" role="platform"/>
  <member type="node" ref="9412086410" role="platform"/>
  <member type="node" ref="9412086412" role="platform"/>
  <member type="node" ref="9412086414" role="platform"/>
  <member type="node" ref="9412086482" role="platform"/>
  <member type="node" ref="9412086416" role="platform"/>
  <member type="node" ref="9412086418" role="platform"/>
  <member type="node" ref="9412086420" role="platform"/>
  <member type="node" ref="9412086422" role="platform"/>
  <member type="node" ref="9412086424" role="platform"/>
  <member type="node" ref="9412086426" role="platform"/>
  <member type="node" ref="9412086428" role="platform"/>
  <member type="node" ref="9412086430" role="platform"/>
  <member type="node" ref="9412086432" role="platform"/>
  <member type="node" ref="9412086434" role="platform"/>
  <member type="node" ref="9412086436" role="platform"/>
  <member type="node" ref="9412086438" role="platform"/>
  <member type="node" ref="9412086440" role="platform"/>
  <member type="node" ref="9412086334" role="platform"/>
  <member type="node" ref="9412086484" role="platform"/>
  <member type="node" ref="9412086442" role="platform"/>
  <member type="node" ref="9412086444" role="platform"/>
  <member type="node" ref="9412086446" role="platform"/>
  <member type="node" ref="9412086448" role="platform"/>
  <member type="node" ref="9412086450" role="platform"/>
  <member type="node" ref="9412086452" role="platform"/>
  <member type="node" ref="10653908309" role="platform"/>
  <member type="node" ref="9412086455" role="platform"/>
  <member type="node" ref="9412086457" role="platform"/>
  <member type="node" ref="9412086459" role="platform"/>
  <member type="node" ref="10653428529" role="platform"/>
  <member type="node" ref="9412086486" role="platform"/>
  <member type="node" ref="9412086488" role="platform"/>
  <member type="node" ref="9412086461" role="platform"/>
  <member type="node" ref="9412086463" role="platform"/>
  <member type="node" ref="9412086465" role="platform"/>
  <member type="node" ref="9412086467" role="platform"/>
  <member type="node" ref="9412086469" role="platform"/>
  <member type="node" ref="9412086471" role="platform"/>
  <member type="node" ref="9412086473" role="platform"/>
  <member type="node" ref="9412086475" role="platform"/>
  <member type="node" ref="9412086477" role="platform"/>
  <member type="node" ref="9412086525" role="platform"/>
  <member type="node" ref="9412086523" role="platform"/>
  <member type="node" ref="9412086520" role="platform"/>
  <member type="node" ref="9412086519" role="platform"/>
  <member type="node" ref="9412086517" role="platform"/>
  <member type="node" ref="9412086518" role="platform"/>
  <member type="node" ref="9412086521" role="platform"/>
  <member type="node" ref="9412086511" role="platform"/>
  <member type="node" ref="9412086509" role="platform"/>
  <member type="node" ref="9412086507" role="platform"/>
  <member type="node" ref="9412086505" role="platform"/>
  <member type="node" ref="9412086345" role="platform"/>
  <member type="way" ref="1036709672" role=""/>
  <member type="way" ref="1036709671" role=""/>
  <member type="way" ref="1036709673" role=""/>
  <member type="way" ref="316339838" role=""/>
  <member type="way" ref="316339803" role=""/>
  <member type="way" ref="316339802" role=""/>
  <member type="way" ref="79534148" role=""/>
  <member type="way" ref="114056166" role=""/>
  <member type="way" ref="114056326" role=""/>
  <member type="way" ref="114058206" role=""/>
  <member type="way" ref="1036709666" role=""/>
  <member type="way" ref="114055946" role=""/>
  <member type="way" ref="114058274" role=""/>
  <member type="way" ref="402834035" role=""/>
  <member type="way" ref="402834033" role=""/>
  <member type="way" ref="114056495" role=""/>
  <member type="way" ref="604148052" role=""/>
  <member type="way" ref="1036709675" role=""/>
  <member type="way" ref="1036709674" role=""/>
  <member type="way" ref="1036709676" role=""/>
  <member type="way" ref="1036709675" role=""/>
  <member type="way" ref="604148052" role=""/>
  <member type="way" ref="604148053" role=""/>
  <member type="way" ref="114058518" role=""/>
  <member type="way" ref="114058659" role=""/>
  <member type="way" ref="114055661" role=""/>
  <member type="way" ref="1430138807" role=""/>
  <member type="way" ref="421310968" role=""/>
  <member type="way" ref="1036709679" role=""/>
  <member type="way" ref="1036709678" role=""/>
  <member type="way" ref="1036709680" role=""/>
  <member type="way" ref="114058392" role=""/>
  <member type="way" ref="1036709678" role=""/>
  <member type="way" ref="114056144" role=""/>
  <member type="way" ref="1036709681" role=""/>
  <member type="way" ref="1036709682" role=""/>
  <member type="way" ref="114057391" role=""/>
  <member type="way" ref="114056724" role=""/>
  <member type="way" ref="79534125" role=""/>
  <member type="way" ref="114058420" role=""/>
  <member type="way" ref="114055935" role=""/>
  <member type="way" ref="1430138808" role=""/>
  <member type="way" ref="114056169" role=""/>
  <member type="way" ref="114057169" role=""/>
  <member type="way" ref="114056744" role=""/>
  <member type="way" ref="114057811" role=""/>
  <member type="way" ref="114057881" role=""/>
  <member type="way" ref="114056321" role=""/>
  <member type="way" ref="114057397" role=""/>
  <member type="way" ref="114056460" role=""/>
  <member type="way" ref="544735762" role=""/>
  <member type="way" ref="114040351" role=""/>
  <member type="way" ref="702008675" role=""/>
  <member type="way" ref="114041191" role=""/>
  <member type="way" ref="114040401" role=""/>
  <member type="way" ref="710459517" role=""/>
  <member type="way" ref="544735758" role=""/>
  <member type="way" ref="544735767" role=""/>
  <member type="way" ref="544735768" role=""/>
  <member type="way" ref="568591123" role=""/>
  <member type="way" ref="42476366" role=""/>
  <member type="way" ref="544735765" role=""/>
  <member type="way" ref="544735764" role=""/>
  <member type="way" ref="544735763" role=""/>
  <member type="way" ref="710477713" role=""/>
  <member type="way" ref="710477714" role=""/>
  <member type="way" ref="568591089" role=""/>
  <member type="way" ref="42476369" role=""/>
  <member type="way" ref="42476368" role=""/>
  <member type="way" ref="413732109" role=""/>
  <member type="way" ref="413732108" role=""/>
  <member type="way" ref="42476347" role=""/>
  <member type="way" ref="114041034" role=""/>
  <member type="way" ref="114041267" role=""/>
  <member type="way" ref="114040449" role=""/>
  <member type="way" ref="114041125" role=""/>
  <member type="way" ref="114040299" role=""/>
  <member type="way" ref="704734761" role=""/>
  <member type="way" ref="1036709669" role=""/>
  <member type="way" ref="1036709668" role=""/>
  <member type="way" ref="434742622" role=""/>
  <member type="way" ref="1036709670" role=""/>
  <member type="way" ref="114040970" role=""/>
  <member type="way" ref="114040847" role=""/>
  <member type="way" ref="544509194" role=""/>
  <member type="way" ref="544509195" role=""/>
  <member type="way" ref="544509191" role=""/>
  <member type="way" ref="1036709688" role=""/>
  <member type="way" ref="710482454" role=""/>
  <member type="way" ref="119875295" role=""/>
  <member type="way" ref="119875332" role=""/>
  <member type="way" ref="42476351" role=""/>
  <member type="way" ref="42476352" role=""/>
  <member type="way" ref="42476341" role=""/>
  <member type="way" ref="544509189" role=""/>
  <member type="way" ref="544509188" role=""/>
  <member type="way" ref="544509187" role=""/>
  <member type="way" ref="544509186" role=""/>
  <member type="way" ref="42476342" role=""/>
  <member type="way" ref="42476344" role=""/>
  <member type="way" ref="42476343" role=""/>
  <member type="way" ref="42476346" role=""/>
  <member type="way" ref="544509185" role=""/>
  <member type="way" ref="544509184" role=""/>
  <member type="way" ref="42403306" role=""/>
  <member type="way" ref="42403311" role=""/>
  <member type="way" ref="68875219" role=""/>
  <member type="way" ref="68875220" role=""/>
  <member type="way" ref="119878796" role=""/>
  <member type="way" ref="1036709690" role=""/>
  <member type="way" ref="119878679" role=""/>
  <member type="way" ref="119878779" role=""/>
  <member type="way" ref="1036709691" role=""/>
  <member type="way" ref="119878605" role=""/>
  <member type="way" ref="119879204" role=""/>
  <member type="way" ref="119879213" role=""/>
  <member type="way" ref="119878597" role=""/>
  <member type="way" ref="119878743" role=""/>
  <member type="way" ref="310175725" role=""/>
  <member type="way" ref="310175728" role=""/>
  <member type="way" ref="119879065" role=""/>
  <member type="way" ref="119879154" role=""/>
  <member type="way" ref="1036697536" role=""/>
  <member type="way" ref="119878656" role=""/>
  <member type="way" ref="1036697525" role=""/>
  <member type="way" ref="1036697534" role=""/>
  <member type="way" ref="1036697533" role=""/>
  <member type="way" ref="1036697512" role=""/>
  <member type="way" ref="1036697534" role=""/>
  <member type="way" ref="1036697525" role=""/>
  <member type="way" ref="119878656" role=""/>
  <member type="way" ref="119878549" role=""/>
  <member type="way" ref="119878523" role=""/>
  <member type="way" ref="1036697526" role=""/>
  <member type="way" ref="1036697532" role=""/>
  <member type="way" ref="1394161504" role=""/>
  <member type="way" ref="1036697531" role=""/>
  <member type="way" ref="1163757161" role=""/>
  <member type="way" ref="1036697528" role=""/>
  <member type="way" ref="1036697526" role=""/>
  <member type="way" ref="119878523" role=""/>
  <member type="way" ref="1036697523" role=""/>
  <member type="way" ref="119879037" role=""/>
  <member type="way" ref="119885215" role=""/>
  <tag k="duration" v="01:43:00"/>
  <tag k="from" v="東萩駅前"/>
  <tag k="gtfs:route_id" v="2229846746"/>
  <tag k="gtfs:shape_id" v="40001289"/>
  <tag k="name" v="Bus: 東萩駅前→湯田温泉通"/>
  <tag k="network" v="防長線"/>
  <tag k="opening_hours" v="06:15-16:13"/>
  <tag k="operator" v="中国ジェイアールバス"/>
  <tag k="operator:en" v="Chugoku JR Bus"/>
  <tag k="public_transport:version" v="2"/>
  <tag k="route" v="bus"/>
  <tag k="to" v="湯田温泉通"/>
  <tag k="type" v="route"/>
 </relation>
 <relation id="13884433" visible="true" version="9" changeset="171993143" timestamp="2025-09-16T04:32:12Z" user="taketaketake" uid="4757277">
  <member type="node" ref="9412086478" role="platform"/>
  <member type="node" ref="9412086480" role="platform"/>
  <member type="node" ref="9412086343" role="platform"/>
  <member type="node" ref="9412086399" role="platform"/>
  <member type="node" ref="9412086400" role="platform"/>
  <member type="node" ref="9412086402" role="platform"/>
  <member type="node" ref="9412086404" role="platform"/>
  <member type="node" ref="9412086406" role="platform"/>
  <member type="node" ref="9412086408" role="platform"/>
  <member type="node" ref="9412086410" role="platform"/>
  <member type="node" ref="9412086412" role="platform"/>
  <member type="node" ref="9412086414" role="platform"/>
  <member type="node" ref="9412086482" role="platform"/>
  <member type="node" ref="9412086416" role="platform"/>
  <member type="node" ref="9412086418" role="platform"/>
  <member type="node" ref="9412086420" role="platform"/>
  <member type="node" ref="9412086422" role="platform"/>
  <member type="node" ref="9412086424" role="platform"/>
  <member type="node" ref="9412086426" role="platform"/>
  <member type="node" ref="9412086428" role="platform"/>
  <member type="node" ref="9412086430" role="platform"/>
  <member type="node" ref="9412086432" role="platform"/>
  <member type="node" ref="9412086434" role="platform"/>
  <member type="node" ref="9412086436" role="platform"/>
  <member type="node" ref="9412086438" role="platform"/>
  <member type="node" ref="9412086440" role="platform"/>
  <member type="node" ref="9412086334" role="platform"/>
  <member type="node" ref="9412086484" role="platform"/>
  <member type="node" ref="9412086442" role="platform"/>
  <member type="node" ref="9412086444" role="platform"/>
  <member type="node" ref="9412086446" role="platform"/>
  <member type="node" ref="9412086448" role="platform"/>
  <member type="node" ref="9412086450" role="platform"/>
  <member type="node" ref="9412086452" role="platform"/>
  <member type="node" ref="9412086453" role="platform"/>
  <member type="node" ref="9412086455" role="platform"/>
  <member type="node" ref="9412086457" role="platform"/>
  <member type="node" ref="9412086459" role="platform"/>
  <member type="node" ref="9412086486" role="platform"/>
  <member type="node" ref="9412086488" role="platform"/>
  <member type="node" ref="9412086461" role="platform"/>
  <member type="node" ref="9412086463" role="platform"/>
  <member type="node" ref="9412086465" role="platform"/>
  <member type="node" ref="9412086467" role="platform"/>
  <member type="node" ref="9412086469" role="platform"/>
  <member type="node" ref="9412086471" role="platform"/>
  <member type="node" ref="9412086473" role="platform"/>
  <member type="node" ref="9412086475" role="platform"/>
  <member type="node" ref="9412086477" role="platform"/>
  <member type="node" ref="9412086525" role="platform"/>
  <member type="node" ref="9412086523" role="platform"/>
  <member type="node" ref="9412086520" role="platform"/>
  <member type="node" ref="9412086519" role="platform"/>
  <member type="node" ref="9412086516" role="platform"/>
  <member type="way" ref="1036709672" role=""/>
  <member type="way" ref="1036709671" role=""/>
  <member type="way" ref="1036709673" role=""/>
  <member type="way" ref="316339838" role=""/>
  <member type="way" ref="316339803" role=""/>
  <member type="way" ref="316339802" role=""/>
  <member type="way" ref="79534148" role=""/>
  <member type="way" ref="114056166" role=""/>
  <member type="way" ref="114056326" role=""/>
  <member type="way" ref="114058206" role=""/>
  <member type="way" ref="1036709666" role=""/>
  <member type="way" ref="114055946" role=""/>
  <member type="way" ref="114058274" role=""/>
  <member type="way" ref="402834035" role=""/>
  <member type="way" ref="402834033" role=""/>
  <member type="way" ref="114056495" role=""/>
  <member type="way" ref="604148052" role=""/>
  <member type="way" ref="1036709675" role=""/>
  <member type="way" ref="1036709674" role=""/>
  <member type="way" ref="1036709676" role=""/>
  <member type="way" ref="1036709675" role=""/>
  <member type="way" ref="604148052" role=""/>
  <member type="way" ref="604148053" role=""/>
  <member type="way" ref="114058518" role=""/>
  <member type="way" ref="114058659" role=""/>
  <member type="way" ref="114055661" role=""/>
  <member type="way" ref="1430138807" role=""/>
  <member type="way" ref="421310968" role=""/>
  <member type="way" ref="1036709679" role=""/>
  <member type="way" ref="1036709678" role=""/>
  <member type="way" ref="1036709680" role=""/>
  <member type="way" ref="114058392" role=""/>
  <member type="way" ref="1036709678" role=""/>
  <member type="way" ref="114056144" role=""/>
  <member type="way" ref="1036709681" role=""/>
  <member type="way" ref="1036709682" role=""/>
  <member type="way" ref="114057391" role=""/>
  <member type="way" ref="114056724" role=""/>
  <member type="way" ref="79534125" role=""/>
  <member type="way" ref="114058420" role=""/>
  <member type="way" ref="114055935" role=""/>
  <member type="way" ref="1430138808" role=""/>
  <member type="way" ref="114056169" role=""/>
  <member type="way" ref="114057169" role=""/>
  <member type="way" ref="114056744" role=""/>
  <member type="way" ref="114057811" role=""/>
  <member type="way" ref="114057881" role=""/>
  <member type="way" ref="114056321" role=""/>
  <member type="way" ref="114057397" role=""/>
  <member type="way" ref="114056460" role=""/>
  <member type="way" ref="544735762" role=""/>
  <member type="way" ref="114040351" role=""/>
  <member type="way" ref="702008675" role=""/>
  <member type="way" ref="114041191" role=""/>
  <member type="way" ref="114040401" role=""/>
  <member type="way" ref="710459517" role=""/>
  <member type="way" ref="544735758" role=""/>
  <member type="way" ref="544735767" role=""/>
  <member type="way" ref="544735768" role=""/>
  <member type="way" ref="568591123" role=""/>
  <member type="way" ref="42476366" role=""/>
  <member type="way" ref="544735765" role=""/>
  <member type="way" ref="544735764" role=""/>
  <member type="way" ref="544735763" role=""/>
  <member type="way" ref="710477713" role=""/>
  <member type="way" ref="710477714" role=""/>
  <member type="way" ref="568591089" role=""/>
  <member type="way" ref="42476369" role=""/>
  <member type="way" ref="42476368" role=""/>
  <member type="way" ref="413732109" role=""/>
  <member type="way" ref="413732108" role=""/>
  <member type="way" ref="42476347" role=""/>
  <member type="way" ref="114041034" role=""/>
  <member type="way" ref="114041267" role=""/>
  <member type="way" ref="114040449" role=""/>
  <member type="way" ref="114041125" role=""/>
  <member type="way" ref="114040299" role=""/>
  <member type="way" ref="704734761" role=""/>
  <member type="way" ref="1036709669" role=""/>
  <member type="way" ref="1036709668" role=""/>
  <member type="way" ref="434742622" role=""/>
  <member type="way" ref="1036709670" role=""/>
  <member type="way" ref="114040970" role=""/>
  <member type="way" ref="114040847" role=""/>
  <member type="way" ref="544509194" role=""/>
  <member type="way" ref="544509195" role=""/>
  <member type="way" ref="544509191" role=""/>
  <member type="way" ref="1036709688" role=""/>
  <member type="way" ref="710482454" role=""/>
  <member type="way" ref="119875295" role=""/>
  <member type="way" ref="119875332" role=""/>
  <member type="way" ref="42476351" role=""/>
  <member type="way" ref="42476352" role=""/>
  <member type="way" ref="42476341" role=""/>
  <member type="way" ref="544509189" role=""/>
  <member type="way" ref="544509188" role=""/>
  <member type="way" ref="544509187" role=""/>
  <member type="way" ref="544509186" role=""/>
  <member type="way" ref="42476342" role=""/>
  <member type="way" ref="42476344" role=""/>
  <member type="way" ref="42476343" role=""/>
  <member type="way" ref="42476346" role=""/>
  <member type="way" ref="544509185" role=""/>
  <member type="way" ref="544509184" role=""/>
  <member type="way" ref="42403306" role=""/>
  <member type="way" ref="42403311" role=""/>
  <member type="way" ref="68875219" role=""/>
  <member type="way" ref="68875220" role=""/>
  <member type="way" ref="119878796" role=""/>
  <member type="way" ref="1036709690" role=""/>
  <member type="way" ref="119878679" role=""/>
  <member type="way" ref="119878779" role=""/>
  <member type="way" ref="1036709691" role=""/>
  <member type="way" ref="119878605" role=""/>
  <member type="way" ref="119879204" role=""/>
  <member type="way" ref="119879213" role=""/>
  <member type="way" ref="119878597" role=""/>
  <member type="way" ref="119878743" role=""/>
  <member type="way" ref="310175725" role=""/>
  <member type="way" ref="310175728" role=""/>
  <member type="way" ref="119879065" role=""/>
  <member type="way" ref="119879154" role=""/>
  <member type="way" ref="1036697536" role=""/>
  <member type="way" ref="119878656" role=""/>
  <member type="way" ref="1036697525" role=""/>
  <member type="way" ref="1036697534" role=""/>
  <member type="way" ref="1036697533" role=""/>
  <member type="way" ref="1036697512" role=""/>
  <member type="way" ref="1036697534" role=""/>
  <member type="way" ref="1036697525" role=""/>
  <member type="way" ref="119878656" role=""/>
  <member type="way" ref="119878549" role=""/>
  <member type="way" ref="119878523" role=""/>
  <member type="way" ref="1036697526" role=""/>
  <member type="way" ref="1036697532" role=""/>
  <member type="way" ref="1394161504" role=""/>
  <tag k="duration" v="01:29:00"/>
  <tag k="from" v="東萩駅前"/>
  <tag k="gtfs:route_id" v="2229846746"/>
  <tag k="gtfs:shape_id" v="40001279"/>
  <tag k="name" v="Bus: 東萩駅前→山口駅"/>
  <tag k="network" v="防長線"/>
  <tag k="opening_hours" v="Mo-Fr 09:35-20:09; Sa-Su 12:00-20:09"/>
  <tag k="operator" v="中国ジェイアールバス"/>
  <tag k="operator:en" v="Chugoku JR Bus"/>
  <tag k="public_transport:version" v="2"/>
  <tag k="route" v="bus"/>
  <tag k="to" v="山口駅"/>
  <tag k="type" v="route"/>
 </relation>
 <relation id="13884434" visible="true" version="9" changeset="171993143" timestamp="2025-09-16T04:32:12Z" user="taketaketake" uid="4757277">
  <member type="node" ref="9412086516" role="platform"/>
  <member type="node" ref="9412086519" role="platform"/>
  <member type="node" ref="9412086521" role="platform"/>
  <member type="node" ref="9412086522" role="platform"/>
  <member type="node" ref="9412086524" role="platform"/>
  <member type="node" ref="9412086476" role="platform"/>
  <member type="node" ref="9412086474" role="platform"/>
  <member type="node" ref="9412086472" role="platform"/>
  <member type="node" ref="9412086470" role="platform"/>
  <member type="node" ref="9412086468" role="platform"/>
  <member type="node" ref="9412086466" role="platform"/>
  <member type="node" ref="9412086464" role="platform"/>
  <member type="node" ref="9412086462" role="platform"/>
  <member type="node" ref="9412086460" role="platform"/>
  <member type="node" ref="9412086487" role="platform"/>
  <member type="node" ref="9412086485" role="platform"/>
  <member type="node" ref="9412086458" role="platform"/>
  <member type="node" ref="9412086456" role="platform"/>
  <member type="node" ref="9412086454" role="platform"/>
  <member type="node" ref="9412086453" role="platform"/>
  <member type="node" ref="9412086451" role="platform"/>
  <member type="node" ref="9412086449" role="platform"/>
  <member type="node" ref="9412086447" role="platform"/>
  <member type="node" ref="9412086445" role="platform"/>
  <member type="node" ref="9412086443" role="platform"/>
  <member type="node" ref="9412086441" role="platform"/>
  <member type="node" ref="9412086483" role="platform"/>
  <member type="node" ref="9412086334" role="platform"/>
  <member type="node" ref="9412086439" role="platform"/>
  <member type="node" ref="9412086437" role="platform"/>
  <member type="node" ref="9412086435" role="platform"/>
  <member type="node" ref="9412086433" role="platform"/>
  <member type="node" ref="9412086431" role="platform"/>
  <member type="node" ref="9412086429" role="platform"/>
  <member type="node" ref="9412086427" role="platform"/>
  <member type="node" ref="9412086425" role="platform"/>
  <member type="node" ref="9412086423" role="platform"/>
  <member type="node" ref="9412086421" role="platform"/>
  <member type="node" ref="9412086419" role="platform"/>
  <member type="node" ref="9412086417" role="platform"/>
  <member type="node" ref="9412086415" role="platform"/>
  <member type="node" ref="9412086481" role="platform"/>
  <member type="node" ref="9412086413" role="platform"/>
  <member type="node" ref="9412086411" role="platform"/>
  <member type="node" ref="9412086409" role="platform"/>
  <member type="node" ref="9412086407" role="platform"/>
  <member type="node" ref="9412086405" role="platform"/>
  <member type="node" ref="9412086403" role="platform"/>
  <member type="node" ref="9412086401" role="platform"/>
  <member type="node" ref="9412086400" role="platform"/>
  <member type="node" ref="9412086398" role="platform"/>
  <member type="node" ref="9412086343" role="platform"/>
  <member type="node" ref="9412086479" role="platform"/>
  <member type="node" ref="9412086478" role="platform"/>
  <member type="way" ref="1036697531" role=""/>
  <member type="way" ref="1163757161" role=""/>
  <member type="way" ref="1036697528" role=""/>
  <member type="way" ref="1036697526" role=""/>
  <member type="way" ref="119878523" role=""/>
  <member type="way" ref="517552886" role=""/>
  <member type="way" ref="119878656" role=""/>
  <member type="way" ref="1036697525" role=""/>
  <member type="way" ref="1036697534" role=""/>
  <member type="way" ref="1036697533" role=""/>
  <member type="way" ref="1036697512" role=""/>
  <member type="way" ref="1036697534" role=""/>
  <member type="way" ref="1036697525" role=""/>
  <member type="way" ref="119878656" role=""/>
  <member type="way" ref="1036709693" role=""/>
  <member type="way" ref="1036709692" role=""/>
  <member type="way" ref="119879154" role=""/>
  <member type="way" ref="119879065" role=""/>
  <member type="way" ref="310175728" role=""/>
  <member type="way" ref="310175725" role=""/>
  <member type="way" ref="119878743" role=""/>
  <member type="way" ref="119878597" role=""/>
  <member type="way" ref="119879213" role=""/>
  <member type="way" ref="119879204" role=""/>
  <member type="way" ref="119878605" role=""/>
  <member type="way" ref="1036709691" role=""/>
  <member type="way" ref="119878779" role=""/>
  <member type="way" ref="119878679" role=""/>
  <member type="way" ref="119879109" role=""/>
  <member type="way" ref="119878957" role=""/>
  <member type="way" ref="119878571" role=""/>
  <member type="way" ref="119878796" role=""/>
  <member type="way" ref="119878467" role=""/>
  <member type="way" ref="68875222" role=""/>
  <member type="way" ref="68875217" role=""/>
  <member type="way" ref="68875218" role=""/>
  <member type="way" ref="42403306" role=""/>
  <member type="way" ref="544509184" role=""/>
  <member type="way" ref="544509185" role=""/>
  <member type="way" ref="42476346" role=""/>
  <member type="way" ref="42476343" role=""/>
  <member type="way" ref="42476344" role=""/>
  <member type="way" ref="42476342" role=""/>
  <member type="way" ref="544509186" role=""/>
  <member type="way" ref="544509187" role=""/>
  <member type="way" ref="544509188" role=""/>
  <member type="way" ref="544509189" role=""/>
  <member type="way" ref="42476341" role=""/>
  <member type="way" ref="42476352" role=""/>
  <member type="way" ref="42476351" role=""/>
  <member type="way" ref="119875332" role=""/>
  <member type="way" ref="119875295" role=""/>
  <member type="way" ref="710482454" role=""/>
  <member type="way" ref="544509193" role=""/>
  <member type="way" ref="1036709687" role=""/>
  <member type="way" ref="544509195" role=""/>
  <member type="way" ref="544509194" role=""/>
  <member type="way" ref="114040847" role=""/>
  <member type="way" ref="114040970" role=""/>
  <member type="way" ref="1036709670" role=""/>
  <member type="way" ref="434742622" role=""/>
  <member type="way" ref="1036709668" role=""/>
  <member type="way" ref="1036709669" role=""/>
  <member type="way" ref="704734761" role=""/>
  <member type="way" ref="114040299" role=""/>
  <member type="way" ref="114041125" role=""/>
  <member type="way" ref="114040449" role=""/>
  <member type="way" ref="114041267" role=""/>
  <member type="way" ref="114041034" role=""/>
  <member type="way" ref="42476347" role=""/>
  <member type="way" ref="413732108" role=""/>
  <member type="way" ref="413732109" role=""/>
  <member type="way" ref="42476368" role=""/>
  <member type="way" ref="42476369" role=""/>
  <member type="way" ref="568591089" role=""/>
  <member type="way" ref="710477714" role=""/>
  <member type="way" ref="710477713" role=""/>
  <member type="way" ref="544735763" role=""/>
  <member type="way" ref="544735764" role=""/>
  <member type="way" ref="544735765" role=""/>
  <member type="way" ref="42476366" role=""/>
  <member type="way" ref="568591123" role=""/>
  <member type="way" ref="544735768" role=""/>
  <member type="way" ref="544735767" role=""/>
  <member type="way" ref="544735758" role=""/>
  <member type="way" ref="710459517" role=""/>
  <member type="way" ref="114040401" role=""/>
  <member type="way" ref="114041191" role=""/>
  <member type="way" ref="702008675" role=""/>
  <member type="way" ref="114040351" role=""/>
  <member type="way" ref="544735762" role=""/>
  <member type="way" ref="114056460" role=""/>
  <member type="way" ref="114057397" role=""/>
  <member type="way" ref="114056321" role=""/>
  <member type="way" ref="114057881" role=""/>
  <member type="way" ref="114057811" role=""/>
  <member type="way" ref="114056744" role=""/>
  <member type="way" ref="114057169" role=""/>
  <member type="way" ref="114056169" role=""/>
  <member type="way" ref="1430138808" role=""/>
  <member type="way" ref="114055935" role=""/>
  <member type="way" ref="114058420" role=""/>
  <member type="way" ref="79534125" role=""/>
  <member type="way" ref="1036709684" role=""/>
  <member type="way" ref="316339820" role=""/>
  <member type="way" ref="316339812" role=""/>
  <member type="way" ref="316339817" role=""/>
  <member type="way" ref="114056144" role=""/>
  <member type="way" ref="1036709680" role=""/>
  <member type="way" ref="114058392" role=""/>
  <member type="way" ref="1036709679" role=""/>
  <member type="way" ref="421310968" role=""/>
  <member type="way" ref="1430138807" role=""/>
  <member type="way" ref="114055661" role=""/>
  <member type="way" ref="114058659" role=""/>
  <member type="way" ref="114058518" role=""/>
  <member type="way" ref="402834033" role=""/>
  <member type="way" ref="114056495" role=""/>
  <member type="way" ref="604148052" role=""/>
  <member type="way" ref="1036709675" role=""/>
  <member type="way" ref="1036709674" role=""/>
  <member type="way" ref="1036709676" role=""/>
  <member type="way" ref="1036709675" role=""/>
  <member type="way" ref="604148052" role=""/>
  <member type="way" ref="604148053" role=""/>
  <member type="way" ref="402834035" role=""/>
  <member type="way" ref="114056368" role=""/>
  <member type="way" ref="114058206" role=""/>
  <member type="way" ref="114056326" role=""/>
  <member type="way" ref="114056166" role=""/>
  <member type="way" ref="79534148" role=""/>
  <member type="way" ref="316339802" role=""/>
  <member type="way" ref="316339803" role=""/>
  <member type="way" ref="316339838" role=""/>
  <member type="way" ref="1036709673" role=""/>
  <member type="way" ref="114056730" role=""/>
  <member type="way" ref="1036709672" role=""/>
  <tag k="duration" v="01:27:00"/>
  <tag k="from" v="山口駅"/>
  <tag k="gtfs:route_id" v="2229846746"/>
  <tag k="gtfs:shape_id" v="40001270"/>
  <tag k="name" v="Bus: 山口駅→東萩駅前"/>
  <tag k="network" v="防長線"/>
  <tag k="opening_hours" v="Mo-Fr 06:40-21:17; Sa-Su 10:45-21:17"/>
  <tag k="operator" v="中国ジェイアールバス"/>
  <tag k="operator:en" v="Chugoku JR Bus"/>
  <tag k="public_transport:version" v="2"/>
  <tag k="route" v="bus"/>
  <tag k="to" v="東萩駅前"/>
  <tag k="type" v="route"/>
 </relation>
 <relation id="13884435" visible="true" version="1" changeset="118041702" timestamp="2022-03-03T05:33:13Z" user="okadatsuneo_import" uid="12352917">
  <member type="relation" ref="13884434" role=""/>
  <member type="relation" ref="13884433" role=""/>
  <tag k="name" v="Bus 山口駅&lt;-&gt;東萩駅前"/>
  <tag k="network" v="防長線"/>
  <tag k="operator" v="中国ジェイアールバス"/>
  <tag k="operator:en" v="Chugoku JR Bus"/>
  <tag k="route_master" v="bus"/>
  <tag k="type" v="route_master"/>
 </relation>
 <relation id="13884436" visible="true" version="2" changeset="134842526" timestamp="2023-04-13T03:15:44Z" user="okadatsuneo_import" uid="12352917">
  <member type="relation" ref="13884431" role=""/>
  <member type="relation" ref="13884432" role=""/>
  <tag k="name" v="Bus 湯田温泉&lt;-&gt;東萩駅前"/>
  <tag k="network" v="防長線"/>
  <tag k="operator" v="中国ジェイアールバス"/>
  <tag k="operator:en" v="Chugoku JR Bus"/>
  <tag k="route_master" v="bus"/>
  <tag k="type" v="route_master"/>
 </relation>
 <relation id="19611233" visible="true" version="1" changeset="172050107" timestamp="2025-09-17T08:05:18Z" user="taketaketake" uid="4757277">
  <member type="way" ref="114040351" role=""/>
  <member type="way" ref="702008675" role=""/>
  <member type="way" ref="114041191" role=""/>
  <member type="way" ref="114041525" role=""/>
  <member type="way" ref="114040336" role=""/>
  <member type="way" ref="114040344" role=""/>
  <member type="way" ref="114041386" role=""/>
  <member type="way" ref="114040376" role=""/>
  <member type="way" ref="425640431" role=""/>
  <member type="way" ref="114040390" role=""/>
  <member type="way" ref="1430490101" role=""/>
  <member type="way" ref="1430490104" role=""/>
  <member type="way" ref="1430490105" role=""/>
  <member type="way" ref="114040474" role=""/>
  <member type="way" ref="114040740" role=""/>
  <member type="way" ref="114040432" role=""/>
  <member type="way" ref="1316084330" role=""/>
  <member type="way" ref="112810461" role=""/>
  <tag k="from" v="山口県萩市大字明木"/>
  <tag k="name" v="山口県道308号　明木美東線"/>
  <tag k="name:en" v="Yamaguchi Prefectural Route 308 Akeragi Mito Line"/>
  <tag k="name:ja" v="山口県道308号　明木美東線"/>
  <tag k="name:ja-Hira" v="やまぐちけんどう308ごう あきらぎみとうせん"/>
  <tag k="name:ja_rm" v="Yamaguchikendō 308-gō Akiragi Mitō-sen"/>
  <tag k="network" v="JP:prefectural"/>
  <tag k="ref" v="308"/>
  <tag k="route" v="road"/>
  <tag k="to" v="山口県美祢市美東町赤"/>
  <tag k="type" v="route"/>
  <tag k="wikidata" v="Q11467281"/>
  <tag k="wikipedia" v="ja:山口県道308号明木美東線"/>
 </relation>
</osm>
