<?xml version="1.0" encoding="UTF-8"?>
<osm version="0.6" generator="openstreetmap-cgimap 2.1.0 (2942773 spike-08.openstreetmap.org)" copyright="OpenStreetMap and contributors" attribution="http://www.openstreetmap.org/copyright" license="http://opendatacommons.org/licenses/odbl/1-0/">
 <bounds minlat="33.9734700" minlon="131.9231270" maxlat="33.9759460" maxlon="131.9261390"/>
 <node id="1283545648" visible="true" version="6" changeset="127646294" timestamp="2022-10-17T04:03:15Z" user="AYAGE" uid="521665" lat="33.9733316" lon="131.9246468"/>
 <node id="1283546120" visible="true" version="5" changeset="127631141" timestamp="2022-10-16T18:21:22Z" user="AYAGE" uid="521665" lat="33.9748059" lon="131.9237495"/>
 <node id="1283547024" visible="true" version="7" changeset="41523714" timestamp="2016-08-17T23:35:17Z" user="show1017" uid="3244669" lat="33.9746845" lon="131.9240890"/>
 <node id="1283547099" visible="true" version="3" changeset="127631141" timestamp="2022-10-16T18:21:22Z" user="AYAGE" uid="521665" lat="33.9763158" lon="131.9251667"/>
 <node id="1283547395" visible="true" version="5" changeset="127649423" timestamp="2022-10-17T05:51:39Z" user="AYAGE" uid="521665" lat="33.9743946" lon="131.9262130"/>
 <node id="1283547498" visible="true" version="5" changeset="127626438" timestamp="2022-10-16T16:35:11Z" user="AYAGE" uid="521665" lat="33.9761381" lon="131.9279335"/>
 <node id="1283547504" visible="true" version="5" changeset="127631141" timestamp="2022-10-16T18:21:22Z" user="AYAGE" uid="521665" lat="33.9747466" lon="131.9240467"/>
 <node id="1283547506" visible="true" version="6" changeset="127646294" timestamp="2022-10-17T04:03:15Z" user="AYAGE" uid="521665" lat="33.9731395" lon="131.9245765">
  <tag k="highway" v="traffic_signals"/>
 </node>
 <node id="1283547545" visible="true" version="5" changeset="127631141" timestamp="2022-10-16T18:21:22Z" user="AYAGE" uid="521665" lat="33.9763954" lon="131.9238968"/>
 <node id="1283547847" visible="true" version="6" changeset="169985844" timestamp="2025-08-05T05:42:52Z" user="taketaketake" uid="4757277" lat="33.9755490" lon="131.9219252"/>
 <node id="1283548023" visible="true" version="6" changeset="127649423" timestamp="2022-10-17T05:51:39Z" user="AYAGE" uid="521665" lat="33.9740556" lon="131.9269312"/>
 <node id="1283548500" visible="true" version="5" changeset="127649423" timestamp="2022-10-17T05:51:39Z" user="AYAGE" uid="521665" lat="33.9737426" lon="131.9248141"/>
 <node id="1283548639" visible="true" version="4" changeset="127626438" timestamp="2022-10-16T16:35:11Z" user="AYAGE" uid="521665" lat="33.9772456" lon="131.9299550"/>
 <node id="1283548700" visible="true" version="6" changeset="127631141" timestamp="2022-10-16T18:21:22Z" user="AYAGE" uid="521665" lat="33.9742530" lon="131.9250268"/>
 <node id="1283548738" visible="true" version="4" changeset="127646294" timestamp="2022-10-17T04:03:15Z" user="AYAGE" uid="521665" lat="33.9740671" lon="131.9215203"/>
 <node id="1283548828" visible="true" version="4" changeset="127631141" timestamp="2022-10-16T18:21:22Z" user="AYAGE" uid="521665" lat="33.9753729" lon="131.9250635"/>
 <node id="1283548855" visible="true" version="5" changeset="41523714" timestamp="2016-08-17T23:35:17Z" user="show1017" uid="3244669" lat="33.9745481" lon="131.9239900"/>
 <node id="1283548958" visible="true" version="4" changeset="127646294" timestamp="2022-10-17T04:03:15Z" user="AYAGE" uid="521665" lat="33.9750674" lon="131.9220493"/>
 <node id="1283549105" visible="true" version="4" changeset="127631141" timestamp="2022-10-16T18:21:22Z" user="AYAGE" uid="521665" lat="33.9749731" lon="131.9232233"/>
 <node id="1283549832" visible="true" version="5" changeset="127646294" timestamp="2022-10-17T04:03:15Z" user="AYAGE" uid="521665" lat="33.9741180" lon="131.9234857"/>
 <node id="1283549835" visible="true" version="4" changeset="127646294" timestamp="2022-10-17T04:03:15Z" user="AYAGE" uid="521665" lat="33.9746552" lon="131.9236069"/>
 <node id="1283550113" visible="true" version="4" changeset="127631141" timestamp="2022-10-16T18:21:22Z" user="AYAGE" uid="521665" lat="33.9759829" lon="131.9243095"/>
 <node id="1283550470" visible="true" version="3" changeset="127631141" timestamp="2022-10-16T18:21:22Z" user="AYAGE" uid="521665" lat="33.9765704" lon="131.9252421"/>
 <node id="1283550579" visible="true" version="4" changeset="127631141" timestamp="2022-10-16T18:21:22Z" user="AYAGE" uid="521665" lat="33.9751632" lon="131.9228037"/>
 <node id="1283550940" visible="true" version="3" changeset="41181423" timestamp="2016-08-02T01:52:11Z" user="show1017" uid="3244669" lat="33.9747302" lon="131.9232984"/>
 <node id="1283551208" visible="true" version="5" changeset="127649423" timestamp="2022-10-17T05:51:39Z" user="AYAGE" uid="521665" lat="33.9740343" lon="131.9249299"/>
 <node id="1283551524" visible="true" version="8" changeset="127631141" timestamp="2022-10-16T18:21:22Z" user="AYAGE" uid="521665" lat="33.9748376" lon="131.9241837"/>
 <node id="1283551543" visible="true" version="5" changeset="127631141" timestamp="2022-10-16T18:21:22Z" user="AYAGE" uid="521665" lat="33.9749617" lon="131.9257683"/>
 <node id="1283552057" visible="true" version="3" changeset="41181423" timestamp="2016-08-02T01:52:09Z" user="show1017" uid="3244669" lat="33.9748463" lon="131.9228752"/>
 <node id="1283552193" visible="true" version="4" changeset="127631141" timestamp="2022-10-16T18:21:22Z" user="AYAGE" uid="521665" lat="33.9756494" lon="131.9247268"/>
 <node id="1283552356" visible="true" version="6" changeset="127626438" timestamp="2022-10-16T16:35:11Z" user="AYAGE" uid="521665" lat="33.9757484" lon="131.9272149">
  <tag k="highway" v="traffic_signals"/>
 </node>
 <node id="1283552684" visible="true" version="5" changeset="127631141" timestamp="2022-10-16T18:21:22Z" user="AYAGE" uid="521665" lat="33.9747075" lon="131.9246520"/>
 <node id="1283552934" visible="true" version="5" changeset="127631141" timestamp="2022-10-16T18:21:22Z" user="AYAGE" uid="521665" lat="33.9746791" lon="131.9249158"/>
 <node id="1283553000" visible="true" version="4" changeset="41229030" timestamp="2016-08-04T04:13:44Z" user="show1017" uid="3244669" lat="33.9746006" lon="131.9252917">
  <tag k="highway" v="traffic_signals"/>
 </node>
 <node id="1283553006" visible="true" version="5" changeset="127631141" timestamp="2022-10-16T18:21:22Z" user="AYAGE" uid="521665" lat="33.9742852" lon="131.9249157"/>
 <node id="1283553037" visible="true" version="7" changeset="187783173" timestamp="2026-08-21T09:00:50Z" user="taketaketake" uid="4757277" lat="33.9718530" lon="131.9240505">
  <tag k="highway" v="traffic_signals"/>
  <tag k="name" v="浅江"/>
  <tag k="name:en" v="Asae"/>
  <tag k="name:ja" v="浅江"/>
  <tag k="name:ja_rm" v="Asae"/>
  <tag k="source:name" v="image;survey"/>
  <tag k="survey:date" v="2015-04-18"/>
 </node>
 <node id="1283553039" visible="true" version="5" changeset="127631141" timestamp="2022-10-16T18:21:22Z" user="AYAGE" uid="521665" lat="33.9749099" lon="131.9256718"/>
 <node id="1283553116" visible="true" version="7" changeset="127646294" timestamp="2022-10-17T04:03:15Z" user="AYAGE" uid="521665" lat="33.9723677" lon="131.9242631"/>
 <node id="1283553350" visible="true" version="5" changeset="77613440" timestamp="2019-11-27T08:04:36Z" user="mklyr" uid="614924" lat="33.9726695" lon="131.9243812"/>
 <node id="1283553503" visible="true" version="3" changeset="41181423" timestamp="2016-08-02T01:52:09Z" user="show1017" uid="3244669" lat="33.9749342" lon="131.9225730"/>
 <node id="1283553578" visible="true" version="4" changeset="127631141" timestamp="2022-10-16T18:21:22Z" user="AYAGE" uid="521665" lat="33.9762805" lon="131.9239898"/>
 <node id="1283553666" visible="true" version="5" changeset="127631141" timestamp="2022-10-16T18:21:22Z" user="AYAGE" uid="521665" lat="33.9744714" lon="131.9251683"/>
 <node id="1283553771" visible="true" version="5" changeset="127646294" timestamp="2022-10-17T04:03:15Z" user="AYAGE" uid="521665" lat="33.9736666" lon="131.9231699"/>
 <node id="1283553795" visible="true" version="4" changeset="127626438" timestamp="2022-10-16T16:35:11Z" user="AYAGE" uid="521665" lat="33.9769332" lon="131.9293928"/>
 <node id="1283553996" visible="true" version="4" changeset="127646294" timestamp="2022-10-17T04:03:15Z" user="AYAGE" uid="521665" lat="33.9740134" lon="131.9219118"/>
 <node id="1283554099" visible="true" version="4" changeset="41229030" timestamp="2016-08-04T04:13:46Z" user="show1017" uid="3244669" lat="33.9744862" lon="131.9258092"/>
 <node id="1283554237" visible="true" version="5" changeset="127626438" timestamp="2022-10-16T16:35:11Z" user="AYAGE" uid="521665" lat="33.9760084" lon="131.9276904"/>
 <node id="1283555020" visible="true" version="4" changeset="127739750" timestamp="2022-10-18T17:19:28Z" user="AYAGE" uid="521665" lat="33.9755187" lon="131.9248845"/>
 <node id="1283555278" visible="true" version="6" changeset="127649423" timestamp="2022-10-17T05:51:39Z" user="AYAGE" uid="521665" lat="33.9773589" lon="131.9301701">
  <tag k="highway" v="traffic_signals"/>
 </node>
 <node id="1283555372" visible="true" version="4" changeset="127646294" timestamp="2022-10-17T04:03:15Z" user="AYAGE" uid="521665" lat="33.9739853" lon="131.9220540"/>
 <node id="1283555627" visible="true" version="4" changeset="127631141" timestamp="2022-10-16T18:21:22Z" user="AYAGE" uid="521665" lat="33.9754293" lon="131.9266360"/>
 <node id="1283555744" visible="true" version="5" changeset="127646294" timestamp="2022-10-17T04:03:15Z" user="AYAGE" uid="521665" lat="33.9734560" lon="131.9230407"/>
 <node id="1283555815" visible="true" version="4" changeset="127631141" timestamp="2022-10-16T18:21:22Z" user="AYAGE" uid="521665" lat="33.9747982" lon="131.9255025"/>
 <node id="1283555838" visible="true" version="5" changeset="127631141" timestamp="2022-10-16T18:21:22Z" user="AYAGE" uid="521665" lat="33.9744826" lon="131.9242261"/>
 <node id="1283556304" visible="true" version="4" changeset="41229118" timestamp="2016-08-04T04:28:44Z" user="show1017" uid="3244669" lat="33.9738735" lon="131.9272563"/>
 <node id="1283556687" visible="true" version="5" changeset="127649423" timestamp="2022-10-17T05:51:39Z" user="AYAGE" uid="521665" lat="33.9737063" lon="131.9276002">
  <tag k="highway" v="traffic_signals"/>
 </node>
 <node id="1283556839" visible="true" version="5" changeset="127646294" timestamp="2022-10-17T04:03:15Z" user="AYAGE" uid="521665" lat="33.9740529" lon="131.9234220"/>
 <node id="1283556876" visible="true" version="3" changeset="41228804" timestamp="2016-08-04T03:42:25Z" user="show1017" uid="3244669" lat="33.9738546" lon="131.9225582"/>
 <node id="1283557610" visible="true" version="4" changeset="127631141" timestamp="2022-10-16T18:21:22Z" user="AYAGE" uid="521665" lat="33.9751233" lon="131.9260788"/>
 <node id="1283557810" visible="true" version="3" changeset="32007419" timestamp="2015-06-16T14:10:02Z" user="ひろときょうたまなかなおや" uid="2000955" lat="33.9750603" lon="131.9254549"/>
 <node id="1283559012" visible="true" version="5" changeset="127626438" timestamp="2022-10-16T16:35:11Z" user="AYAGE" uid="521665" lat="33.9765391" lon="131.9286777"/>
 <node id="1283559026" visible="true" version="4" changeset="127626438" timestamp="2022-10-16T16:35:11Z" user="AYAGE" uid="521665" lat="33.9766413" lon="131.9288587"/>
 <node id="1283559195" visible="true" version="3" changeset="41228804" timestamp="2016-08-04T03:42:23Z" user="show1017" uid="3244669" lat="33.9740367" lon="131.9216601"/>
 <node id="1423654216" visible="true" version="2" changeset="184667676" timestamp="2026-06-26T21:04:53Z" user="gc27" uid="7130304" lat="33.9759180" lon="131.9240640">
  <tag k="amenity" v="kindergarten"/>
  <tag k="KSJ2:AdminArea" v="山口県光市"/>
  <tag k="KSJ2:ADS" v="浅江3-2-15"/>
  <tag k="name" v="光天使幼稚園"/>
  <tag k="note" v="National-Land Numerical Information (Public Facility) 2006, MLIT Japan"/>
  <tag k="note:ja" v="国土数値情報（公共施設データ）平成19年　国土交通省"/>
  <tag k="operator:type" v="private"/>
  <tag k="source" v="KSJ2"/>
  <tag k="source_ref" v="http://nlftp.mlit.go.jp/ksj/jpgis/datalist/KsjTmplt-P02-v2_0.html"/>
 </node>
 <node id="3475174950" visible="true" version="3" changeset="127649423" timestamp="2022-10-17T05:51:39Z" user="AYAGE" uid="521665" lat="33.9742885" lon="131.9264919"/>
 <node id="3475174951" visible="true" version="3" changeset="41229030" timestamp="2016-08-04T04:13:45Z" user="show1017" uid="3244669" lat="33.9745422" lon="131.9255662"/>
 <node id="3475915818" visible="true" version="3" changeset="127646294" timestamp="2022-10-17T04:03:15Z" user="AYAGE" uid="521665" lat="33.9743695" lon="131.9238345"/>
 <node id="3598616843" visible="true" version="2" changeset="127631141" timestamp="2022-10-16T18:21:22Z" user="AYAGE" uid="521665" lat="33.9745495" lon="131.9261807"/>
 <node id="3598617102" visible="true" version="3" changeset="127626438" timestamp="2022-10-16T16:35:11Z" user="AYAGE" uid="521665" lat="33.9762669" lon="131.9281612"/>
 <node id="3598626169" visible="true" version="2" changeset="127649423" timestamp="2022-10-17T05:51:39Z" user="AYAGE" uid="521665" lat="33.9737275" lon="131.9265351"/>
 <node id="3598628733" visible="true" version="2" changeset="127649423" timestamp="2022-10-17T05:51:39Z" user="AYAGE" uid="521665" lat="33.9738238" lon="131.9266716"/>
 <node id="3598628944" visible="true" version="3" changeset="127649423" timestamp="2022-10-17T05:51:39Z" user="AYAGE" uid="521665" lat="33.9742112" lon="131.9261740"/>
 <node id="3598629016" visible="true" version="3" changeset="127649423" timestamp="2022-10-17T05:51:39Z" user="AYAGE" uid="521665" lat="33.9740591" lon="131.9259177"/>
 <node id="3598629406" visible="true" version="2" changeset="127649423" timestamp="2022-10-17T05:51:39Z" user="AYAGE" uid="521665" lat="33.9739474" lon="131.9260239"/>
 <node id="3599763593" visible="true" version="2" changeset="127739750" timestamp="2022-10-18T17:19:28Z" user="AYAGE" uid="521665" lat="33.9760928" lon="131.9253383"/>
 <node id="3599763594" visible="true" version="2" changeset="127739750" timestamp="2022-10-18T17:19:28Z" user="AYAGE" uid="521665" lat="33.9753563" lon="131.9257700"/>
 <node id="3599763595" visible="true" version="2" changeset="127739750" timestamp="2022-10-18T17:19:28Z" user="AYAGE" uid="521665" lat="33.9758972" lon="131.9256699"/>
 <node id="3599763693" visible="true" version="2" changeset="127739750" timestamp="2022-10-18T17:19:28Z" user="AYAGE" uid="521665" lat="33.9757398" lon="131.9250787"/>
 <node id="3599763793" visible="true" version="2" changeset="127739750" timestamp="2022-10-18T17:19:28Z" user="AYAGE" uid="521665" lat="33.9753524" lon="131.9257018"/>
 <node id="3599763893" visible="true" version="2" changeset="127739750" timestamp="2022-10-18T17:19:28Z" user="AYAGE" uid="521665" lat="33.9758153" lon="131.9264157"/>
 <node id="3599763894" visible="true" version="2" changeset="127739750" timestamp="2022-10-18T17:19:28Z" user="AYAGE" uid="521665" lat="33.9757880" lon="131.9255981"/>
 <node id="3599764093" visible="true" version="2" changeset="127739750" timestamp="2022-10-18T17:19:28Z" user="AYAGE" uid="521665" lat="33.9759504" lon="131.9262986"/>
 <node id="3599764393" visible="true" version="2" changeset="127739750" timestamp="2022-10-18T17:19:28Z" user="AYAGE" uid="521665" lat="33.9755374" lon="131.9260096"/>
 <node id="4331613198" visible="true" version="1" changeset="41181362" timestamp="2016-08-02T01:48:41Z" user="show1017" uid="3244669" lat="33.9758059" lon="131.9244199"/>
 <node id="4331613199" visible="true" version="1" changeset="41181362" timestamp="2016-08-02T01:48:44Z" user="show1017" uid="3244669" lat="33.9760025" lon="131.9241832"/>
 <node id="4331617095" visible="true" version="1" changeset="41181362" timestamp="2016-08-02T01:48:43Z" user="show1017" uid="3244669" lat="33.9757957" lon="131.9237020"/>
 <node id="4331617201" visible="true" version="1" changeset="41181474" timestamp="2016-08-02T01:56:29Z" user="show1017" uid="3244669" lat="33.9750880" lon="131.9249404"/>
 <node id="4331617297" visible="true" version="1" changeset="41181362" timestamp="2016-08-02T01:48:42Z" user="show1017" uid="3244669" lat="33.9758567" lon="131.9240842"/>
 <node id="4331618590" visible="true" version="1" changeset="41181362" timestamp="2016-08-02T01:48:42Z" user="show1017" uid="3244669" lat="33.9756975" lon="131.9243077"/>
 <node id="4331618591" visible="true" version="1" changeset="41181362" timestamp="2016-08-02T01:48:43Z" user="show1017" uid="3244669" lat="33.9759213" lon="131.9236729"/>
 <node id="4331619890" visible="true" version="1" changeset="41181474" timestamp="2016-08-02T01:56:29Z" user="show1017" uid="3244669" lat="33.9749732" lon="131.9249601"/>
 <node id="4331629990" visible="true" version="1" changeset="41181474" timestamp="2016-08-02T01:56:31Z" user="show1017" uid="3244669" lat="33.9749336" lon="131.9246247"/>
 <node id="4331632089" visible="true" version="2" changeset="76023994" timestamp="2019-10-22T02:36:21Z" user="okadatsuneo" uid="10163840" lat="33.9750144" lon="131.9247684">
  <tag k="amenity" v="doctors"/>
  <tag k="healthcare" v="doctor"/>
  <tag k="name" v="兼清外科"/>
 </node>
 <node id="4331632189" visible="true" version="1" changeset="41181474" timestamp="2016-08-02T01:56:30Z" user="show1017" uid="3244669" lat="33.9750485" lon="131.9246050"/>
 <node id="4353918603" visible="true" version="1" changeset="41512992" timestamp="2016-08-17T14:03:06Z" user="show1017" uid="3244669" lat="33.9743725" lon="131.9253795"/>
 <node id="4353918604" visible="true" version="1" changeset="41512992" timestamp="2016-08-17T14:03:10Z" user="show1017" uid="3244669" lat="33.9741407" lon="131.9260204"/>
 <node id="4353936397" visible="true" version="1" changeset="41512992" timestamp="2016-08-17T14:03:07Z" user="show1017" uid="3244669" lat="33.9743749" lon="131.9253147"/>
 <node id="4353936398" visible="true" version="1" changeset="41512992" timestamp="2016-08-17T14:03:08Z" user="show1017" uid="3244669" lat="33.9743024" lon="131.9257245"/>
 <node id="4353943793" visible="true" version="1" changeset="41512992" timestamp="2016-08-17T14:03:13Z" user="show1017" uid="3244669" lat="33.9742918" lon="131.9259281"/>
 <node id="4353964396" visible="true" version="1" changeset="41512992" timestamp="2016-08-17T14:03:05Z" user="show1017" uid="3244669" lat="33.9743228" lon="131.9253768"/>
 <node id="4353964397" visible="true" version="1" changeset="41512992" timestamp="2016-08-17T14:03:07Z" user="show1017" uid="3244669" lat="33.9743511" lon="131.9253134"/>
 <node id="4353965093" visible="true" version="1" changeset="41512992" timestamp="2016-08-17T14:03:12Z" user="show1017" uid="3244669" lat="33.9743205" lon="131.9259950"/>
 <node id="4353965200" visible="true" version="1" changeset="41512992" timestamp="2016-08-17T14:03:00Z" user="show1017" uid="3244669" lat="33.9743530" lon="131.9252632"/>
 <node id="4353965201" visible="true" version="1" changeset="41512992" timestamp="2016-08-17T14:03:08Z" user="show1017" uid="3244669" lat="33.9741925" lon="131.9257013"/>
 <node id="4353976196" visible="true" version="1" changeset="41512992" timestamp="2016-08-17T14:03:11Z" user="show1017" uid="3244669" lat="33.9742879" lon="131.9260315"/>
 <node id="4353978095" visible="true" version="1" changeset="41512992" timestamp="2016-08-17T14:03:04Z" user="show1017" uid="3244669" lat="33.9743414" lon="131.9256028"/>
 <node id="4353978096" visible="true" version="1" changeset="41512992" timestamp="2016-08-17T14:03:05Z" user="show1017" uid="3244669" lat="33.9743144" lon="131.9256013"/>
 <node id="4353987290" visible="true" version="1" changeset="41512992" timestamp="2016-08-17T14:03:03Z" user="show1017" uid="3244669" lat="33.9743102" lon="131.9256506"/>
 <node id="4353987291" visible="true" version="1" changeset="41512992" timestamp="2016-08-17T14:03:09Z" user="show1017" uid="3244669" lat="33.9741474" lon="131.9258914"/>
 <node id="4353987591" visible="true" version="1" changeset="41512992" timestamp="2016-08-17T14:03:03Z" user="show1017" uid="3244669" lat="33.9743093" lon="131.9256729"/>
 <node id="4353988691" visible="true" version="1" changeset="41512992" timestamp="2016-08-17T14:03:01Z" user="show1017" uid="3244669" lat="33.9742047" lon="131.9252547"/>
 <node id="4353988692" visible="true" version="1" changeset="41512992" timestamp="2016-08-17T14:03:04Z" user="show1017" uid="3244669" lat="33.9743395" lon="131.9256522"/>
 <node id="4353988693" visible="true" version="1" changeset="41512992" timestamp="2016-08-17T14:03:09Z" user="show1017" uid="3244669" lat="33.9741736" lon="131.9258313"/>
 <node id="4353989790" visible="true" version="1" changeset="41512992" timestamp="2016-08-17T14:03:12Z" user="show1017" uid="3244669" lat="33.9742899" lon="131.9259927"/>
 <node id="4353989791" visible="true" version="1" changeset="41512992" timestamp="2016-08-17T14:03:13Z" user="show1017" uid="3244669" lat="33.9743238" lon="131.9259305"/>
 <node id="4353991089" visible="true" version="1" changeset="41512992" timestamp="2016-08-17T14:03:02Z" user="show1017" uid="3244669" lat="33.9741886" lon="131.9256661"/>
 <node id="4354768996" visible="true" version="1" changeset="41523706" timestamp="2016-08-17T23:34:28Z" user="show1017" uid="3244669" lat="33.9749529" lon="131.9235117"/>
 <node id="4354768997" visible="true" version="1" changeset="41523706" timestamp="2016-08-17T23:34:28Z" user="show1017" uid="3244669" lat="33.9749147" lon="131.9235924"/>
 <node id="4354768998" visible="true" version="2" changeset="127646294" timestamp="2022-10-17T04:03:15Z" user="AYAGE" uid="521665" lat="33.9735706" lon="131.9234698"/>
 <node id="4354821694" visible="true" version="1" changeset="41523706" timestamp="2016-08-17T23:34:27Z" user="show1017" uid="3244669" lat="33.9752275" lon="131.9233109"/>
 <node id="4354821695" visible="true" version="2" changeset="127646294" timestamp="2022-10-17T04:03:15Z" user="AYAGE" uid="521665" lat="33.9734290" lon="131.9242690"/>
 <node id="4354821696" visible="true" version="2" changeset="127631141" timestamp="2022-10-16T18:21:22Z" user="AYAGE" uid="521665" lat="33.9752169" lon="131.9234174"/>
 <node id="4354821697" visible="true" version="2" changeset="127631141" timestamp="2022-10-16T18:21:22Z" user="AYAGE" uid="521665" lat="33.9751864" lon="131.9235044"/>
 <node id="4354825193" visible="true" version="3" changeset="127649423" timestamp="2022-10-17T05:51:39Z" user="AYAGE" uid="521665" lat="33.9734488" lon="131.9240853"/>
 <node id="4354825294" visible="true" version="1" changeset="41523706" timestamp="2016-08-17T23:34:25Z" user="show1017" uid="3244669" lat="33.9752806" lon="131.9232235"/>
 <node id="4354825295" visible="true" version="1" changeset="41523706" timestamp="2016-08-17T23:34:29Z" user="show1017" uid="3244669" lat="33.9750349" lon="131.9236749"/>
 <node id="4354828591" visible="true" version="1" changeset="41523706" timestamp="2016-08-17T23:34:25Z" user="show1017" uid="3244669" lat="33.9751381" lon="131.9230977"/>
 <node id="4354828592" visible="true" version="3" changeset="127649423" timestamp="2022-10-17T05:51:39Z" user="AYAGE" uid="521665" lat="33.9734009" lon="131.9243969"/>
 <node id="4354828594" visible="true" version="2" changeset="127631141" timestamp="2022-10-16T18:21:22Z" user="AYAGE" uid="521665" lat="33.9751461" lon="131.9236344"/>
 <node id="4354858290" visible="true" version="1" changeset="41523706" timestamp="2016-08-17T23:34:26Z" user="show1017" uid="3244669" lat="33.9750850" lon="131.9231851"/>
 <node id="4354858291" visible="true" version="1" changeset="41523706" timestamp="2016-08-17T23:34:27Z" user="show1017" uid="3244669" lat="33.9750731" lon="131.9235941"/>
 <node id="4354862790" visible="true" version="2" changeset="127631141" timestamp="2022-10-16T18:21:22Z" user="AYAGE" uid="521665" lat="33.9751703" lon="131.9235874"/>
 <node id="4354862791" visible="true" version="2" changeset="127631141" timestamp="2022-10-16T18:21:22Z" user="AYAGE" uid="521665" lat="33.9748843" lon="131.9239462"/>
 <node id="4354864689" visible="true" version="2" changeset="127631141" timestamp="2022-10-16T18:21:22Z" user="AYAGE" uid="521665" lat="33.9748525" lon="131.9241445"/>
 <node id="5713700522" visible="true" version="1" changeset="60102326" timestamp="2018-06-23T14:31:32Z" user="hagurumaQ" uid="8030942" lat="33.9747739" lon="131.9260924"/>
 <node id="5713700523" visible="true" version="1" changeset="60102326" timestamp="2018-06-23T14:31:32Z" user="hagurumaQ" uid="8030942" lat="33.9746869" lon="131.9261603"/>
 <node id="5713700524" visible="true" version="1" changeset="60102326" timestamp="2018-06-23T14:31:32Z" user="hagurumaQ" uid="8030942" lat="33.9746460" lon="131.9260862"/>
 <node id="5713700525" visible="true" version="1" changeset="60102326" timestamp="2018-06-23T14:31:32Z" user="hagurumaQ" uid="8030942" lat="33.9747288" lon="131.9260208"/>
 <node id="5713700526" visible="true" version="1" changeset="60102326" timestamp="2018-06-23T14:31:32Z" user="hagurumaQ" uid="8030942" lat="33.9748557" lon="131.9260751"/>
 <node id="5713700527" visible="true" version="1" changeset="60102326" timestamp="2018-06-23T14:31:32Z" user="hagurumaQ" uid="8030942" lat="33.9749233" lon="131.9262368"/>
 <node id="5713700528" visible="true" version="1" changeset="60102326" timestamp="2018-06-23T14:31:32Z" user="hagurumaQ" uid="8030942" lat="33.9748148" lon="131.9263145"/>
 <node id="5713700529" visible="true" version="1" changeset="60102326" timestamp="2018-06-23T14:31:32Z" user="hagurumaQ" uid="8030942" lat="33.9747903" lon="131.9262664"/>
 <node id="5713700530" visible="true" version="1" changeset="60102326" timestamp="2018-06-23T14:31:32Z" user="hagurumaQ" uid="8030942" lat="33.9748036" lon="131.9262540"/>
 <node id="5713700531" visible="true" version="1" changeset="60102326" timestamp="2018-06-23T14:31:32Z" user="hagurumaQ" uid="8030942" lat="33.9747575" lon="131.9261405"/>
 <node id="9412086266" visible="true" version="1" changeset="116054198" timestamp="2022-01-12T07:39:29Z" user="okadatsuneo_import" uid="12352917" lat="33.9747558" lon="131.9246204">
  <tag k="bus" v="yes"/>
  <tag k="gtfs:stop_id" v="70058 2"/>
  <tag k="highway" v="bus_stop"/>
  <tag k="name" v="木園"/>
  <tag k="name:ja" v="木園"/>
  <tag k="name:ja-Hira" v="きぞの"/>
  <tag k="operator" v="中国ジェイアールバス"/>
  <tag k="operator:en" v="Chugoku JR Bus"/>
  <tag k="public_transport" v="platform"/>
 </node>
 <node id="9412086267" visible="true" version="1" changeset="116054198" timestamp="2022-01-12T07:39:29Z" user="okadatsuneo_import" uid="12352917" lat="33.9746391" lon="131.9245871">
  <tag k="bus" v="yes"/>
  <tag k="gtfs:stop_id" v="70058 1"/>
  <tag k="highway" v="bus_stop"/>
  <tag k="name" v="木園"/>
  <tag k="name:ja" v="木園"/>
  <tag k="name:ja-Hira" v="きぞの"/>
  <tag k="operator" v="中国ジェイアールバス"/>
  <tag k="operator:en" v="Chugoku JR Bus"/>
  <tag k="public_transport" v="platform"/>
 </node>
 <node id="10106942236" visible="true" version="1" changeset="127631141" timestamp="2022-10-16T18:21:22Z" user="AYAGE" uid="521665" lat="33.9746368" lon="131.9260262"/>
 <node id="10106942243" visible="true" version="1" changeset="127631141" timestamp="2022-10-16T18:21:22Z" user="AYAGE" uid="521665" lat="33.9764034" lon="131.9252108"/>
 <node id="10106942244" visible="true" version="1" changeset="127631141" timestamp="2022-10-16T18:21:22Z" user="AYAGE" uid="521665" lat="33.9760781" lon="131.9250130"/>
 <node id="10106942245" visible="true" version="1" changeset="127631141" timestamp="2022-10-16T18:21:22Z" user="AYAGE" uid="521665" lat="33.9758552" lon="131.9248641"/>
 <node id="10106942246" visible="true" version="1" changeset="127631141" timestamp="2022-10-16T18:21:22Z" user="AYAGE" uid="521665" lat="33.9755371" lon="131.9246449"/>
 <node id="10106942247" visible="true" version="1" changeset="127631141" timestamp="2022-10-16T18:21:22Z" user="AYAGE" uid="521665" lat="33.9756889" lon="131.9246791"/>
 <node id="10106942248" visible="true" version="1" changeset="127631141" timestamp="2022-10-16T18:21:22Z" user="AYAGE" uid="521665" lat="33.9761193" lon="131.9241446"/>
 <node id="10106942249" visible="true" version="1" changeset="127631141" timestamp="2022-10-16T18:21:22Z" user="AYAGE" uid="521665" lat="33.9753286" lon="131.9232769"/>
 <node id="10106942250" visible="true" version="1" changeset="127631141" timestamp="2022-10-16T18:21:22Z" user="AYAGE" uid="521665" lat="33.9752674" lon="131.9233252"/>
 <node id="10106942251" visible="true" version="1" changeset="127631141" timestamp="2022-10-16T18:21:22Z" user="AYAGE" uid="521665" lat="33.9747969" lon="131.9241614"/>
 <node id="10106942252" visible="true" version="1" changeset="127631141" timestamp="2022-10-16T18:21:22Z" user="AYAGE" uid="521665" lat="33.9743866" lon="131.9251069"/>
 <node id="10106942253" visible="true" version="1" changeset="127631141" timestamp="2022-10-16T18:21:22Z" user="AYAGE" uid="521665" lat="33.9747247" lon="131.9242814"/>
 <node id="10106942254" visible="true" version="1" changeset="127631141" timestamp="2022-10-16T18:21:22Z" user="AYAGE" uid="521665" lat="33.9753947" lon="131.9223167"/>
 <node id="10106942255" visible="true" version="1" changeset="127631141" timestamp="2022-10-16T18:21:22Z" user="AYAGE" uid="521665" lat="33.9748843" lon="131.9234620"/>
 <node id="10106942256" visible="true" version="1" changeset="127631141" timestamp="2022-10-16T18:21:22Z" user="AYAGE" uid="521665" lat="33.9746507" lon="131.9253369"/>
 <node id="10107552607" visible="true" version="1" changeset="127646294" timestamp="2022-10-17T04:03:15Z" user="AYAGE" uid="521665" lat="33.9740485" lon="131.9215710"/>
 <node id="10107552608" visible="true" version="1" changeset="127646294" timestamp="2022-10-17T04:03:15Z" user="AYAGE" uid="521665" lat="33.9739233" lon="131.9222881"/>
 <node id="10107552610" visible="true" version="1" changeset="127646294" timestamp="2022-10-17T04:03:15Z" user="AYAGE" uid="521665" lat="33.9745195" lon="131.9239663"/>
 <node id="10107552611" visible="true" version="1" changeset="127646294" timestamp="2022-10-17T04:03:15Z" user="AYAGE" uid="521665" lat="33.9733556" lon="131.9245671"/>
 <node id="10107552614" visible="true" version="1" changeset="127646294" timestamp="2022-10-17T04:03:15Z" user="AYAGE" uid="521665" lat="33.9735118" lon="131.9230697"/>
 <node id="10107905879" visible="true" version="1" changeset="127649423" timestamp="2022-10-17T05:51:39Z" user="AYAGE" uid="521665" lat="33.9739923" lon="131.9253302"/>
 <node id="10107905880" visible="true" version="1" changeset="127649423" timestamp="2022-10-17T05:51:39Z" user="AYAGE" uid="521665" lat="33.9738021" lon="131.9259337"/>
 <node id="10107905881" visible="true" version="1" changeset="127649423" timestamp="2022-10-17T05:51:39Z" user="AYAGE" uid="521665" lat="33.9739200" lon="131.9259953"/>
 <node id="10107905884" visible="true" version="1" changeset="127649423" timestamp="2022-10-17T05:51:39Z" user="AYAGE" uid="521665" lat="33.9738549" lon="131.9262066"/>
 <node id="10107905885" visible="true" version="1" changeset="127649423" timestamp="2022-10-17T05:51:39Z" user="AYAGE" uid="521665" lat="33.9738055" lon="131.9263306"/>
 <way id="113097963" visible="true" version="3" changeset="127631141" timestamp="2022-10-16T18:21:22Z" user="AYAGE" uid="521665">
  <nd ref="1283547545"/>
  <nd ref="1283553578"/>
  <nd ref="10106942248"/>
  <nd ref="1283550113"/>
  <nd ref="10106942247"/>
  <nd ref="1283552193"/>
  <tag k="highway" v="unclassified"/>
  <tag k="source" v="GSImaps;YahooJapan/ALPSMAP"/>
 </way>
 <way id="113098150" visible="true" version="5" changeset="169986824" timestamp="2025-08-05T06:19:00Z" user="taketaketake" uid="4757277">
  <nd ref="1283553000"/>
  <nd ref="3475174951"/>
  <nd ref="1283554099"/>
  <nd ref="1283547395"/>
  <nd ref="3475174950"/>
  <nd ref="1283548023"/>
  <nd ref="1283556304"/>
  <nd ref="1283556687"/>
  <tag k="highway" v="primary"/>
  <tag k="lanes" v="2"/>
  <tag k="name" v="光柳井線"/>
  <tag k="name:en" v="Hikari Yanai Line"/>
  <tag k="name:ja" v="光柳井線"/>
  <tag k="name:ja-Hira" v="ひかりやないせん"/>
  <tag k="name:ja_rm" v="Hikari Yanai-sen"/>
  <tag k="ref" v="22"/>
  <tag k="surface" v="asphalt"/>
  <tag k="wikidata" v="Q11467215"/>
  <tag k="wikipedia" v="ja:山口県道22号光柳井線"/>
 </way>
 <way id="113098343" visible="true" version="4" changeset="187783173" timestamp="2026-08-21T09:00:50Z" user="taketaketake" uid="4757277">
  <nd ref="1283555278"/>
  <nd ref="1283548639"/>
  <nd ref="1283553795"/>
  <nd ref="1283559026"/>
  <nd ref="1283559012"/>
  <nd ref="3598617102"/>
  <nd ref="1283547498"/>
  <nd ref="1283554237"/>
  <nd ref="1283552356"/>
  <nd ref="1283555627"/>
  <nd ref="1283557610"/>
  <nd ref="1283551543"/>
  <nd ref="1283553039"/>
  <nd ref="1283555815"/>
  <nd ref="10106942256"/>
  <nd ref="1283553000"/>
  <nd ref="1283553666"/>
  <nd ref="10106942252"/>
  <nd ref="1283548700"/>
  <nd ref="1283551208"/>
  <nd ref="1283548500"/>
  <nd ref="1283545648"/>
  <nd ref="1283547506"/>
  <nd ref="1283553350"/>
  <nd ref="1283553116"/>
  <nd ref="1283553037"/>
  <tag k="highway" v="primary"/>
  <tag k="lanes" v="2"/>
  <tag k="name" v="徳山光線"/>
  <tag k="name:en" v="Tokuyama Hikari Line"/>
  <tag k="name:ja" v="徳山光線"/>
  <tag k="name:ja-Hira" v="とくやまひかりせん"/>
  <tag k="name:ja_rm" v="Tokuyama Hikari-sen"/>
  <tag k="ref" v="8"/>
  <tag k="source" v="YahooJapan/ALPSMAP;GSImaps"/>
  <tag k="surface" v="asphalt"/>
  <tag k="wikidata" v="Q11467370"/>
  <tag k="wikipedia" v="ja:山口県道8号徳山光線"/>
 </way>
 <way id="113098524" visible="true" version="3" changeset="127631141" timestamp="2022-10-16T18:21:22Z" user="AYAGE" uid="521665">
  <nd ref="1283552193"/>
  <nd ref="10106942246"/>
  <nd ref="1283551524"/>
  <tag k="highway" v="unclassified"/>
  <tag k="source" v="GSImaps;YahooJapan/ALPSMAP"/>
 </way>
 <way id="113098613" visible="true" version="4" changeset="127646294" timestamp="2022-10-17T04:03:15Z" user="AYAGE" uid="521665">
  <nd ref="1283548855"/>
  <nd ref="10107552610"/>
  <nd ref="3475915818"/>
  <nd ref="1283549832"/>
  <nd ref="1283556839"/>
  <nd ref="1283553771"/>
  <tag k="highway" v="unclassified"/>
  <tag k="source" v="GSImaps;YahooJapan/ALPSMAP"/>
 </way>
 <way id="113099675" visible="true" version="3" changeset="127631141" timestamp="2022-10-16T18:21:22Z" user="AYAGE" uid="521665">
  <nd ref="1283551524"/>
  <nd ref="10106942251"/>
  <tag k="highway" v="unclassified"/>
  <tag k="source" v="GSImaps;YahooJapan/ALPSMAP"/>
 </way>
 <way id="113100155" visible="true" version="2" changeset="30457449" timestamp="2015-04-24T16:16:00Z" user="nmaruichi" uid="317331">
  <nd ref="1283547024"/>
  <nd ref="1283548855"/>
  <tag k="highway" v="unclassified"/>
  <tag k="source" v="GSImaps;YahooJapan/ALPSMAP"/>
  <tag k="yh:STRUCTURE" v="地上"/>
  <tag k="yh:TOTYUMONO" v="供用中"/>
  <tag k="yh:TYPE" v="その他一般道"/>
  <tag k="yh:WIDTH" v="3.0m〜5.5m"/>
  <tag k="yh:WIDTH_RANK" v="3"/>
 </way>
 <way id="113100365" visible="true" version="2" changeset="30457449" timestamp="2015-04-24T16:16:00Z" user="nmaruichi" uid="317331">
  <nd ref="1283552193"/>
  <nd ref="1283555020"/>
  <nd ref="1283548828"/>
  <nd ref="1283557810"/>
  <nd ref="1283553039"/>
  <tag k="highway" v="unclassified"/>
  <tag k="source" v="GSImaps;YahooJapan/ALPSMAP"/>
  <tag k="yh:STRUCTURE" v="地上"/>
  <tag k="yh:TOTYUMONO" v="供用中"/>
  <tag k="yh:TYPE" v="その他一般道"/>
  <tag k="yh:WIDTH" v="3.0m〜5.5m"/>
  <tag k="yh:WIDTH_RANK" v="3"/>
 </way>
 <way id="113100489" visible="true" version="4" changeset="127631141" timestamp="2022-10-16T18:21:22Z" user="AYAGE" uid="521665">
  <nd ref="1283548855"/>
  <nd ref="1283555838"/>
  <nd ref="1283553006"/>
  <nd ref="1283548700"/>
  <tag k="highway" v="unclassified"/>
 </way>
 <way id="113100550" visible="true" version="4" changeset="183327989" timestamp="2026-05-28T23:48:21Z" user="taketaketake" uid="4757277">
  <nd ref="1283547847"/>
  <nd ref="10106942254"/>
  <nd ref="1283550579"/>
  <nd ref="1283549105"/>
  <nd ref="10106942255"/>
  <nd ref="1283546120"/>
  <nd ref="1283547504"/>
  <nd ref="10106942253"/>
  <nd ref="1283552684"/>
  <nd ref="1283552934"/>
  <nd ref="1283553000"/>
  <tag k="highway" v="primary"/>
  <tag k="lanes" v="2"/>
  <tag k="name" v="光柳井線"/>
  <tag k="name:en" v="Hikari Yanai Line"/>
  <tag k="name:ja" v="光柳井線"/>
  <tag k="name:ja-Hira" v="ひかりやないせん"/>
  <tag k="name:ja_rm" v="Hikari Yanai-sen"/>
  <tag k="ref" v="22"/>
  <tag k="source" v="GSImaps;YahooJapan/ALPSMAP"/>
  <tag k="surface" v="asphalt"/>
  <tag k="wikidata" v="Q11467215"/>
  <tag k="wikipedia" v="ja:山口県道22号光柳井線"/>
 </way>
 <way id="113100707" visible="true" version="3" changeset="127631141" timestamp="2022-10-16T18:21:22Z" user="AYAGE" uid="521665">
  <nd ref="1283550470"/>
  <nd ref="10106942243"/>
  <nd ref="1283547099"/>
  <nd ref="10106942244"/>
  <nd ref="10106942245"/>
  <nd ref="1283552193"/>
  <tag k="highway" v="unclassified"/>
  <tag k="source" v="GSImaps;YahooJapan/ALPSMAP"/>
 </way>
 <way id="113100767" visible="true" version="2" changeset="127646294" timestamp="2022-10-17T04:03:15Z" user="AYAGE" uid="521665">
  <nd ref="1283553771"/>
  <nd ref="10107552614"/>
  <nd ref="1283555744"/>
  <tag k="highway" v="unclassified"/>
  <tag k="source" v="YahooJapan/ALPSMAP"/>
 </way>
 <way id="354086675" visible="true" version="2" changeset="127631141" timestamp="2022-10-16T18:21:22Z" user="AYAGE" uid="521665">
  <nd ref="1283553039"/>
  <nd ref="10106942236"/>
  <nd ref="3598616843"/>
  <tag k="highway" v="unclassified"/>
  <tag k="source" v="GSImaps;YahooJapan/ALPSMAP"/>
 </way>
 <way id="354087998" visible="true" version="2" changeset="127649423" timestamp="2022-10-17T05:51:39Z" user="AYAGE" uid="521665">
  <nd ref="3598628944"/>
  <nd ref="3598629016"/>
  <nd ref="3598629406"/>
  <nd ref="10107905884"/>
  <nd ref="10107905885"/>
  <nd ref="3598626169"/>
  <nd ref="3598628733"/>
  <tag k="highway" v="unclassified"/>
  <tag k="source" v="GSImaps;YahooJapan/ALPSMAP"/>
 </way>
 <way id="354213759" visible="true" version="1" changeset="32020586" timestamp="2015-06-17T03:42:12Z" user="ひろときょうたまなかなおや" uid="2000955">
  <nd ref="3599763693"/>
  <nd ref="3599763793"/>
  <nd ref="3599763594"/>
  <nd ref="3599764393"/>
  <tag k="highway" v="unclassified"/>
  <tag k="source" v="YahooJapan/ALPSMAP;GSImaps"/>
  <tag k="yh:STRUCTURE" v="地上"/>
  <tag k="yh:TOTYUMONO" v="供用中"/>
  <tag k="yh:TYPE" v="その他一般道"/>
  <tag k="yh:WIDTH" v="3.0m〜5.5m"/>
  <tag k="yh:WIDTH_RANK" v="3"/>
 </way>
 <way id="354213825" visible="true" version="1" changeset="32020586" timestamp="2015-06-17T03:42:13Z" user="ひろときょうたまなかなおや" uid="2000955">
  <nd ref="3599764393"/>
  <nd ref="3599763894"/>
  <nd ref="3599763595"/>
  <tag k="highway" v="unclassified"/>
  <tag k="source" v="GSImaps;YahooJapan/ALPSMAP"/>
  <tag k="yh:STRUCTURE" v="地上"/>
  <tag k="yh:TOTYUMONO" v="供用中"/>
  <tag k="yh:TYPE" v="その他一般道"/>
  <tag k="yh:WIDTH" v="3.0m〜5.5m"/>
  <tag k="yh:WIDTH_RANK" v="3"/>
 </way>
 <way id="354213880" visible="true" version="1" changeset="32020586" timestamp="2015-06-17T03:42:15Z" user="ひろときょうたまなかなおや" uid="2000955">
  <nd ref="3599763595"/>
  <nd ref="3599763593"/>
  <nd ref="3599763693"/>
  <tag k="highway" v="unclassified"/>
  <tag k="source" v="YahooJapan/ALPSMAP;GSImaps"/>
  <tag k="yh:STRUCTURE" v="地上"/>
  <tag k="yh:TOTYUMONO" v="供用中"/>
  <tag k="yh:TYPE" v="その他一般道"/>
  <tag k="yh:WIDTH" v="3.0m〜5.5m"/>
  <tag k="yh:WIDTH_RANK" v="3"/>
 </way>
 <way id="354213906" visible="true" version="1" changeset="32020586" timestamp="2015-06-17T03:42:17Z" user="ひろときょうたまなかなおや" uid="2000955">
  <nd ref="3599764393"/>
  <nd ref="3599763893"/>
  <nd ref="3599764093"/>
  <nd ref="3599763595"/>
  <tag k="highway" v="unclassified"/>
  <tag k="source" v="YahooJapan/ALPSMAP;GSImaps"/>
  <tag k="yh:STRUCTURE" v="地上"/>
  <tag k="yh:TOTYUMONO" v="供用中"/>
  <tag k="yh:TYPE" v="その他一般道"/>
  <tag k="yh:WIDTH" v="3.0m〜5.5m"/>
  <tag k="yh:WIDTH_RANK" v="3"/>
 </way>
 <way id="354213907" visible="true" version="1" changeset="32020586" timestamp="2015-06-17T03:42:18Z" user="ひろときょうたまなかなおや" uid="2000955">
  <nd ref="3599763693"/>
  <nd ref="1283555020"/>
  <tag k="highway" v="unclassified"/>
  <tag k="source" v="YahooJapan/ALPSMAP;GSImaps"/>
  <tag k="yh:STRUCTURE" v="地上"/>
  <tag k="yh:TOTYUMONO" v="供用中"/>
  <tag k="yh:TYPE" v="その他一般道"/>
  <tag k="yh:WIDTH" v="3.0m〜5.5m"/>
  <tag k="yh:WIDTH_RANK" v="3"/>
 </way>
 <way id="435228307" visible="true" version="1" changeset="41181362" timestamp="2016-08-02T01:48:45Z" user="show1017" uid="3244669">
  <nd ref="4331613198"/>
  <nd ref="4331618590"/>
  <nd ref="4331617297"/>
  <nd ref="4331617095"/>
  <nd ref="4331618591"/>
  <nd ref="4331613199"/>
  <nd ref="4331613198"/>
  <tag k="building" v="yes"/>
 </way>
 <way id="435228625" visible="true" version="1" changeset="41181474" timestamp="2016-08-02T01:56:31Z" user="show1017" uid="3244669">
  <nd ref="4331619890"/>
  <nd ref="4331617201"/>
  <nd ref="4331632189"/>
  <nd ref="4331629990"/>
  <nd ref="4331619890"/>
  <tag k="building" v="hospital"/>
 </way>
 <way id="435589792" visible="true" version="2" changeset="127646294" timestamp="2022-10-17T04:03:15Z" user="AYAGE" uid="521665">
  <nd ref="1283548738"/>
  <nd ref="10107552607"/>
  <nd ref="1283559195"/>
  <nd ref="1283553996"/>
  <nd ref="1283555372"/>
  <nd ref="10107552608"/>
  <nd ref="1283556876"/>
  <nd ref="1283553771"/>
  <tag k="highway" v="unclassified"/>
  <tag k="source" v="GSImaps;YahooJapan/ALPSMAP"/>
 </way>
 <way id="435589803" visible="true" version="2" changeset="41228817" timestamp="2016-08-04T03:44:18Z" user="show1017" uid="3244669">
  <nd ref="1283548958"/>
  <nd ref="1283553503"/>
  <nd ref="1283552057"/>
  <nd ref="1283550940"/>
  <nd ref="1283549835"/>
  <nd ref="1283548855"/>
  <tag k="highway" v="unclassified"/>
 </way>
 <way id="437585592" visible="true" version="1" changeset="41512992" timestamp="2016-08-17T14:03:16Z" user="show1017" uid="3244669">
  <nd ref="4353965200"/>
  <nd ref="4353988691"/>
  <nd ref="4353991089"/>
  <nd ref="4353987591"/>
  <nd ref="4353987290"/>
  <nd ref="4353988692"/>
  <nd ref="4353978095"/>
  <nd ref="4353978096"/>
  <nd ref="4353964396"/>
  <nd ref="4353918603"/>
  <nd ref="4353936397"/>
  <nd ref="4353964397"/>
  <nd ref="4353965200"/>
  <tag k="building" v="yes"/>
 </way>
 <way id="437585593" visible="true" version="1" changeset="41512992" timestamp="2016-08-17T14:03:18Z" user="show1017" uid="3244669">
  <nd ref="4353936398"/>
  <nd ref="4353965201"/>
  <nd ref="4353988693"/>
  <nd ref="4353987291"/>
  <nd ref="4353918604"/>
  <nd ref="4353976196"/>
  <nd ref="4353989790"/>
  <nd ref="4353965093"/>
  <nd ref="4353989791"/>
  <nd ref="4353943793"/>
  <nd ref="4353936398"/>
  <tag k="building" v="yes"/>
 </way>
 <way id="437690078" visible="true" version="1" changeset="41523706" timestamp="2016-08-17T23:34:31Z" user="show1017" uid="3244669">
  <nd ref="4354825294"/>
  <nd ref="4354828591"/>
  <nd ref="4354858290"/>
  <nd ref="4354821694"/>
  <nd ref="4354825294"/>
  <tag k="building" v="yes"/>
 </way>
 <way id="437690079" visible="true" version="1" changeset="41523706" timestamp="2016-08-17T23:34:32Z" user="show1017" uid="3244669">
  <nd ref="4354858291"/>
  <nd ref="4354768996"/>
  <nd ref="4354768997"/>
  <nd ref="4354825295"/>
  <nd ref="4354858291"/>
  <tag k="building" v="yes"/>
 </way>
 <way id="437690137" visible="true" version="2" changeset="127646294" timestamp="2022-10-17T04:03:15Z" user="AYAGE" uid="521665">
  <nd ref="1283553771"/>
  <nd ref="4354768998"/>
  <nd ref="4354825193"/>
  <nd ref="4354821695"/>
  <nd ref="4354828592"/>
  <nd ref="10107552611"/>
  <nd ref="1283545648"/>
  <tag k="highway" v="unclassified"/>
 </way>
 <way id="437690326" visible="true" version="2" changeset="127631141" timestamp="2022-10-16T18:21:22Z" user="AYAGE" uid="521665">
  <nd ref="10106942249"/>
  <nd ref="10106942250"/>
  <nd ref="4354821696"/>
  <nd ref="4354821697"/>
  <nd ref="4354862790"/>
  <nd ref="4354828594"/>
  <nd ref="4354862791"/>
  <nd ref="4354864689"/>
  <nd ref="1283551524"/>
  <tag k="highway" v="unclassified"/>
 </way>
 <way id="601083207" visible="true" version="1" changeset="60102326" timestamp="2018-06-23T14:31:38Z" user="hagurumaQ" uid="8030942">
  <nd ref="5713700522"/>
  <nd ref="5713700523"/>
  <nd ref="5713700524"/>
  <nd ref="5713700525"/>
  <nd ref="5713700522"/>
  <tag k="building" v="house"/>
 </way>
 <way id="601083208" visible="true" version="1" changeset="60102326" timestamp="2018-06-23T14:31:38Z" user="hagurumaQ" uid="8030942">
  <nd ref="5713700526"/>
  <nd ref="5713700527"/>
  <nd ref="5713700528"/>
  <nd ref="5713700529"/>
  <nd ref="5713700530"/>
  <nd ref="5713700531"/>
  <nd ref="5713700526"/>
  <tag k="building" v="house"/>
 </way>
 <way id="1104487006" visible="true" version="1" changeset="127631141" timestamp="2022-10-16T18:21:22Z" user="AYAGE" uid="521665">
  <nd ref="10106942251"/>
  <nd ref="1283547024"/>
  <tag k="highway" v="unclassified"/>
  <tag k="layer" v="-1"/>
  <tag k="source" v="GSImaps;YahooJapan/ALPSMAP"/>
  <tag k="tunnel" v="yes"/>
 </way>
 <way id="1104578190" visible="true" version="1" changeset="127649423" timestamp="2022-10-17T05:51:39Z" user="AYAGE" uid="521665">
  <nd ref="3598629406"/>
  <nd ref="10107905881"/>
  <nd ref="10107905880"/>
  <nd ref="10107905879"/>
  <tag k="highway" v="residential"/>
 </way>
 <relation id="13884882" visible="true" version="11" changeset="187783173" timestamp="2026-08-21T09:00:50Z" user="taketaketake" uid="4757277">
  <member type="node" ref="9412086262" role="platform"/>
  <member type="node" ref="9412086264" role="platform"/>
  <member type="node" ref="9412086266" role="platform"/>
  <member type="node" ref="9412086268" role="platform"/>
  <member type="node" ref="9412086311" role="platform"/>
  <member type="node" ref="9412086250" role="platform"/>
  <member type="node" ref="9412086252" role="platform"/>
  <member type="node" ref="9412086253" role="platform"/>
  <member type="node" ref="9412086308" role="platform"/>
  <member type="node" ref="9412086306" role="platform"/>
  <member type="node" ref="9412086304" role="platform"/>
  <member type="node" ref="9412086302" role="platform"/>
  <member type="node" ref="9412086300" role="platform"/>
  <member type="node" ref="9412086298" role="platform"/>
  <member type="node" ref="9412086296" role="platform"/>
  <member type="node" ref="9412086294" role="platform"/>
  <member type="node" ref="9412086292" role="platform"/>
  <member type="node" ref="9412086290" role="platform"/>
  <member type="node" ref="9412086288" role="platform"/>
  <member type="node" ref="9412086286" role="platform"/>
  <member type="node" ref="9412086284" role="platform"/>
  <member type="node" ref="9412086282" role="platform"/>
  <member type="node" ref="9412086281" role="platform"/>
  <member type="way" ref="1161943644" role=""/>
  <member type="way" ref="1036764304" role=""/>
  <member type="way" ref="113099881" role=""/>
  <member type="way" ref="113098142" role=""/>
  <member type="way" ref="113098517" role=""/>
  <member type="way" ref="113098078" role=""/>
  <member type="way" ref="113100869" role=""/>
  <member type="way" ref="113099955" role=""/>
  <member type="way" ref="113100550" role=""/>
  <member type="way" ref="113098150" role=""/>
  <member type="way" ref="353828952" role=""/>
  <member type="way" ref="353828979" role=""/>
  <member type="way" ref="113098117" role=""/>
  <member type="way" ref="113100169" role=""/>
  <member type="way" ref="113098463" role=""/>
  <member type="way" ref="1102185672" role=""/>
  <member type="way" ref="112996051" role=""/>
  <member type="way" ref="112995984" role=""/>
  <member type="way" ref="112997073" role=""/>
  <member type="way" ref="1425704322" role=""/>
  <member type="way" ref="112996705" role=""/>
  <member type="way" ref="1102153220" role=""/>
  <member type="way" ref="1102153219" role=""/>
  <tag k="duration" v="00:27:00"/>
  <tag k="from" v="光総合病院"/>
  <tag k="gtfs:route_id" v="166685121"/>
  <tag k="gtfs:shape_id" v="40000660"/>
  <tag k="name" v="Bus: 光総合病院→室積公園口"/>
  <tag k="network" v="光線"/>
  <tag k="opening_hours" v="Mo-Fr 11:13-14:35"/>
  <tag k="operator" v="中国ジェイアールバス"/>
  <tag k="operator:en" v="Chugoku JR Bus"/>
  <tag k="public_transport:version" v="2"/>
  <tag k="route" v="bus"/>
  <tag k="to" v="室積公園口"/>
  <tag k="type" v="route"/>
 </relation>
 <relation id="13884887" visible="true" version="10" changeset="187783173" timestamp="2026-08-21T09:00:50Z" user="taketaketake" uid="4757277">
  <member type="node" ref="9412086281" role="platform"/>
  <member type="node" ref="9412086283" role="platform"/>
  <member type="node" ref="9412086285" role="platform"/>
  <member type="node" ref="9551414154" role="platform"/>
  <member type="node" ref="9412086289" role="platform"/>
  <member type="node" ref="9412086291" role="platform"/>
  <member type="node" ref="9412086293" role="platform"/>
  <member type="node" ref="9412086295" role="platform"/>
  <member type="node" ref="9412086297" role="platform"/>
  <member type="node" ref="9412086299" role="platform"/>
  <member type="node" ref="9412086301" role="platform"/>
  <member type="node" ref="9412086303" role="platform"/>
  <member type="node" ref="9412086305" role="platform"/>
  <member type="node" ref="9412086307" role="platform"/>
  <member type="node" ref="9412086309" role="platform"/>
  <member type="node" ref="9412086254" role="platform"/>
  <member type="node" ref="9412086310" role="platform"/>
  <member type="node" ref="9412086251" role="platform"/>
  <member type="node" ref="9412086269" role="platform"/>
  <member type="node" ref="9412086267" role="platform"/>
  <member type="node" ref="9412086265" role="platform"/>
  <member type="node" ref="9412086263" role="platform"/>
  <member type="way" ref="112996644" role=""/>
  <member type="way" ref="112995984" role=""/>
  <member type="way" ref="112996051" role=""/>
  <member type="way" ref="1102185672" role=""/>
  <member type="way" ref="113098463" role=""/>
  <member type="way" ref="113100169" role=""/>
  <member type="way" ref="113098117" role=""/>
  <member type="way" ref="113100384" role=""/>
  <member type="way" ref="113099461" role=""/>
  <member type="way" ref="113099735" role=""/>
  <member type="way" ref="353828979" role=""/>
  <member type="way" ref="353828952" role=""/>
  <member type="way" ref="113098150" role=""/>
  <member type="way" ref="113100550" role=""/>
  <member type="way" ref="113099955" role=""/>
  <member type="way" ref="113100869" role=""/>
  <member type="way" ref="113098078" role=""/>
  <member type="way" ref="113098517" role=""/>
  <member type="way" ref="113098142" role=""/>
  <member type="way" ref="1036764303" role=""/>
  <tag k="duration" v="00:24:00"/>
  <tag k="from" v="室積公園口"/>
  <tag k="gtfs:route_id" v="166685121"/>
  <tag k="gtfs:shape_id" v="40000669"/>
  <tag k="name" v="Bus: 室積公園口→光総合病院"/>
  <tag k="network" v="光線"/>
  <tag k="opening_hours" v="Mo-Fr 07:50-12:14"/>
  <tag k="operator" v="中国ジェイアールバス"/>
  <tag k="operator:en" v="Chugoku JR Bus"/>
  <tag k="public_transport:version" v="2"/>
  <tag k="route" v="bus"/>
  <tag k="to" v="光総合病院"/>
  <tag k="type" v="route"/>
 </relation>
 <relation id="13884900" visible="true" version="1" changeset="118045033" timestamp="2022-03-03T07:40:45Z" user="okadatsuneo_import" uid="12352917">
  <member type="relation" ref="13884882" role=""/>
  <member type="relation" ref="13884887" role=""/>
  <tag k="name" v="Bus 光総合病院&lt;-&gt;室積公園口"/>
  <tag k="network" v="光線"/>
  <tag k="operator" v="中国ジェイアールバス"/>
  <tag k="operator:en" v="Chugoku JR Bus"/>
  <tag k="route_master" v="bus"/>
  <tag k="type" v="route_master"/>
 </relation>
 <relation id="19423669" visible="true" version="1" changeset="169929269" timestamp="2025-08-04T00:07:21Z" user="taketaketake" uid="4757277">
  <member type="way" ref="1419738575" role=""/>
  <member type="way" ref="85466789" role=""/>
  <member type="way" ref="292668215" role=""/>
  <member type="way" ref="292668216" role=""/>
  <member type="way" ref="561677440" role=""/>
  <member type="way" ref="303727715" role=""/>
  <member type="way" ref="1419738580" role=""/>
  <member type="way" ref="284335872" role=""/>
  <member type="way" ref="1419738581" role=""/>
  <member type="way" ref="119272989" role=""/>
  <member type="way" ref="966967046" role=""/>
  <member type="way" ref="119272801" role=""/>
  <member type="way" ref="1419738582" role=""/>
  <member type="way" ref="1419738583" role=""/>
  <member type="way" ref="1062785581" role=""/>
  <member type="way" ref="119273359" role=""/>
  <member type="way" ref="119272666" role=""/>
  <member type="way" ref="119272736" role=""/>
  <member type="way" ref="119273709" role=""/>
  <member type="way" ref="119273234" role=""/>
  <member type="way" ref="119272949" role=""/>
  <member type="way" ref="513093132" role=""/>
  <member type="way" ref="113003054" role=""/>
  <member type="way" ref="113003176" role=""/>
  <member type="way" ref="113003180" role=""/>
  <member type="way" ref="113101046" role=""/>
  <member type="way" ref="113098343" role=""/>
  <tag k="from" v="山口県周南市中須北"/>
  <tag k="name" v="山口県道8号　徳山光線"/>
  <tag k="name:en" v="Yamaguchi Prefectural Route 8 Tokuyama Hikari Line"/>
  <tag k="name:ja" v="山口県道8号　徳山光線"/>
  <tag k="name:ja-Hira" v="やまぐちけんどう8ごう とくやまひかりせん"/>
  <tag k="name:ja_rm" v="Yamaguchikendō 8-gō Tokuyama Hikari-sen"/>
  <tag k="network" v="JP:prefectural"/>
  <tag k="ref" v="8"/>
  <tag k="route" v="road"/>
  <tag k="to" v="山口県光市浅江2丁目"/>
  <tag k="type" v="route"/>
  <tag k="wikidata" v="Q11467370"/>
  <tag k="wikipedia" v="ja:山口県道8号徳山光線"/>
 </relation>
 <relation id="19427502" visible="true" version="3" changeset="183328043" timestamp="2026-05-28T23:50:19Z" user="taketaketake" uid="4757277">
  <member type="way" ref="113100121" role=""/>
  <member type="way" ref="113099016" role=""/>
  <member type="way" ref="113098565" role=""/>
  <member type="way" ref="1101298527" role=""/>
  <member type="way" ref="113099200" role=""/>
  <member type="way" ref="112970200" role=""/>
  <member type="way" ref="1420115294" role=""/>
  <member type="way" ref="1420115293" role=""/>
  <member type="way" ref="112970427" role=""/>
  <member type="way" ref="112970023" role=""/>
  <member type="way" ref="1090868952" role=""/>
  <member type="way" ref="112970110" role=""/>
  <member type="way" ref="1315011767" role=""/>
  <member type="way" ref="294115944" role=""/>
  <member type="way" ref="441737625" role=""/>
  <member type="way" ref="294115940" role=""/>
  <member type="way" ref="112970074" role=""/>
  <member type="way" ref="112971542" role=""/>
  <member type="way" ref="112970068" role=""/>
  <member type="way" ref="1315011772" role=""/>
  <member type="way" ref="1315011771" role=""/>
  <member type="way" ref="1315011775" role=""/>
  <member type="way" ref="113361828" role=""/>
  <member type="way" ref="113361580" role=""/>
  <member type="way" ref="113098150" role=""/>
  <member type="way" ref="113098150" role=""/>
  <member type="way" ref="113100550" role=""/>
  <member type="way" ref="113099955" role=""/>
  <member type="way" ref="113100869" role=""/>
  <member type="way" ref="113098078" role=""/>
  <member type="way" ref="113098517" role=""/>
  <member type="way" ref="113098048" role=""/>
  <member type="way" ref="113100462" role=""/>
  <member type="way" ref="113100031" role=""/>
  <member type="way" ref="113098068" role=""/>
  <tag k="from" v="山口県光市虹ケ丘6丁目"/>
  <tag k="name" v="山口県道22号　光柳井線"/>
  <tag k="name:en" v="Yamaguchi Prefectural Route 22 Hikari Yanai Line"/>
  <tag k="name:ja" v="山口県道22号　光柳井線"/>
  <tag k="name:ja-Hira" v="やまぐちけんどう22ごう ひかりやないせん"/>
  <tag k="name:ja_rm" v="Yamaguchikendō 22-gō Hikari Yanai-sen"/>
  <tag k="network" v="JP:prefectural"/>
  <tag k="ref" v="22"/>
  <tag k="route" v="road"/>
  <tag k="to" v="山口県柳井市南町2丁目"/>
  <tag k="type" v="route"/>
  <tag k="wikidata" v="Q11467215"/>
  <tag k="wikipedia" v="ja:山口県道22号光柳井線"/>
 </relation>
</osm>
