<?xml version="1.0" encoding="UTF-8"?>
<osm version="0.6" generator="openstreetmap-cgimap 2.1.0 (2942783 spike-08.openstreetmap.org)" copyright="OpenStreetMap and contributors" attribution="http://www.openstreetmap.org/copyright" license="http://opendatacommons.org/licenses/odbl/1-0/">
 <bounds minlat="33.9790980" minlon="131.1761380" maxlat="33.9814980" maxlon="131.1791380"/>
 <node id="1351961384" visible="true" version="10" changeset="55071543" timestamp="2018-01-01T09:14:42Z" user="mklyr" uid="614924" lat="33.9778079" lon="131.1774118">
  <tag k="highway" v="traffic_signals"/>
  <tag k="name:ja" v="公園通り"/>
 </node>
 <node id="1351961391" visible="true" version="6" changeset="55071543" timestamp="2018-01-01T09:14:42Z" user="mklyr" uid="614924" lat="33.9779219" lon="131.1760352"/>
 <node id="1351961517" visible="true" version="6" changeset="57788526" timestamp="2018-04-04T01:17:41Z" user="mklyr" uid="614924" lat="33.9796814" lon="131.1792930"/>
 <node id="1351961520" visible="true" version="5" changeset="56817749" timestamp="2018-03-02T11:49:47Z" user="mklyr" uid="614924" lat="33.9797499" lon="131.1757794"/>
 <node id="1351961524" visible="true" version="6" changeset="56817749" timestamp="2018-03-02T11:49:47Z" user="mklyr" uid="614924" lat="33.9797436" lon="131.1761960"/>
 <node id="1351961532" visible="true" version="6" changeset="55071543" timestamp="2018-01-01T09:14:42Z" user="mklyr" uid="614924" lat="33.9798096" lon="131.1775537"/>
 <node id="1351961541" visible="true" version="4" changeset="56817749" timestamp="2018-03-02T11:49:47Z" user="mklyr" uid="614924" lat="33.9799019" lon="131.1762090"/>
 <node id="1351961569" visible="true" version="4" changeset="76382222" timestamp="2019-10-30T09:08:58Z" user="mklyr" uid="614924" lat="33.9805168" lon="131.1762673"/>
 <node id="1351961570" visible="true" version="6" changeset="56817749" timestamp="2018-03-02T11:49:47Z" user="mklyr" uid="614924" lat="33.9804836" lon="131.1792866"/>
 <node id="1351961577" visible="true" version="4" changeset="56817749" timestamp="2018-03-02T11:49:47Z" user="mklyr" uid="614924" lat="33.9806043" lon="131.1776211"/>
 <node id="1351961582" visible="true" version="4" changeset="57788526" timestamp="2018-04-04T01:17:41Z" user="mklyr" uid="614924" lat="33.9806912" lon="131.1769218"/>
 <node id="1351961591" visible="true" version="3" changeset="56817749" timestamp="2018-03-02T11:49:47Z" user="mklyr" uid="614924" lat="33.9807336" lon="131.1757025"/>
 <node id="1351961596" visible="true" version="4" changeset="76382222" timestamp="2019-10-30T09:08:58Z" user="mklyr" uid="614924" lat="33.9807557" lon="131.1761947"/>
 <node id="1351961603" visible="true" version="4" changeset="56817749" timestamp="2018-03-02T11:49:47Z" user="mklyr" uid="614924" lat="33.9808489" lon="131.1765667"/>
 <node id="1351961604" visible="true" version="5" changeset="56817749" timestamp="2018-03-02T11:49:47Z" user="mklyr" uid="614924" lat="33.9808941" lon="131.1776437"/>
 <node id="1351961627" visible="true" version="5" changeset="56817749" timestamp="2018-03-02T11:49:47Z" user="mklyr" uid="614924" lat="33.9811474" lon="131.1776575"/>
 <node id="1351961629" visible="true" version="5" changeset="56817749" timestamp="2018-03-02T11:49:47Z" user="mklyr" uid="614924" lat="33.9813330" lon="131.1792647"/>
 <node id="1351961645" visible="true" version="5" changeset="56817749" timestamp="2018-03-02T11:49:47Z" user="mklyr" uid="614924" lat="33.9815666" lon="131.1792262"/>
 <node id="1351961745" visible="true" version="8" changeset="56817749" timestamp="2018-03-02T11:49:47Z" user="mklyr" uid="614924" lat="33.9833371" lon="131.1778167"/>
 <node id="1351961898" visible="true" version="7" changeset="54987057" timestamp="2017-12-28T15:58:40Z" user="mklyr" uid="614924" lat="33.9856489" lon="131.1776175">
  <tag k="highway" v="traffic_signals"/>
 </node>
 <node id="2019462493" visible="true" version="4" changeset="54987057" timestamp="2017-12-28T15:58:42Z" user="mklyr" uid="614924" lat="33.9850309" lon="131.1776717"/>
 <node id="5127585165" visible="true" version="3" changeset="188956854" timestamp="2026-09-13T11:45:31Z" user="HOC01" uid="9106353" lat="33.9791755" lon="131.1774582">
  <tag k="bus" v="yes"/>
  <tag k="highway" v="bus_stop"/>
  <tag k="name" v="公園通"/>
  <tag k="public_transport" v="platform"/>
 </node>
 <node id="5127585167" visible="true" version="2" changeset="138117975" timestamp="2023-07-04T18:01:29Z" user="ivanbranco" uid="11220113" lat="33.9813293" lon="131.1776131">
  <tag k="bus" v="yes"/>
  <tag k="highway" v="bus_stop"/>
  <tag k="name" v="本町"/>
  <tag k="public_transport" v="platform"/>
 </node>
 <node id="5526569115" visible="true" version="1" changeset="57788526" timestamp="2018-04-04T01:17:35Z" user="mklyr" uid="614924" lat="33.9787336" lon="131.1774774"/>
 <node id="5526569116" visible="true" version="1" changeset="57788526" timestamp="2018-04-04T01:17:35Z" user="mklyr" uid="614924" lat="33.9788588" lon="131.1761179"/>
 <node id="5526569140" visible="true" version="1" changeset="57788526" timestamp="2018-04-04T01:17:36Z" user="mklyr" uid="614924" lat="33.9806517" lon="131.1769395"/>
 <node id="6939139897" visible="true" version="1" changeset="76526591" timestamp="2019-11-02T12:26:45Z" user="mklyr" uid="614924" lat="33.9796184" lon="131.1780211"/>
 <node id="6939139898" visible="true" version="1" changeset="76526591" timestamp="2019-11-02T12:26:45Z" user="mklyr" uid="614924" lat="33.9795800" lon="131.1780204"/>
 <node id="6939139899" visible="true" version="1" changeset="76526591" timestamp="2019-11-02T12:26:45Z" user="mklyr" uid="614924" lat="33.9795250" lon="131.1786648"/>
 <node id="6939139900" visible="true" version="1" changeset="76526591" timestamp="2019-11-02T12:26:45Z" user="mklyr" uid="614924" lat="33.9794238" lon="131.1786598"/>
 <node id="6939139901" visible="true" version="1" changeset="76526591" timestamp="2019-11-02T12:26:45Z" user="mklyr" uid="614924" lat="33.9793971" lon="131.1790465"/>
 <node id="6939139902" visible="true" version="1" changeset="76526591" timestamp="2019-11-02T12:26:45Z" user="mklyr" uid="614924" lat="33.9787935" lon="131.1789859"/>
 <node id="6939139903" visible="true" version="1" changeset="76526591" timestamp="2019-11-02T12:26:45Z" user="mklyr" uid="614924" lat="33.9787821" lon="131.1791508"/>
 <node id="6939139904" visible="true" version="1" changeset="76526591" timestamp="2019-11-02T12:26:45Z" user="mklyr" uid="614924" lat="33.9777841" lon="131.1790505"/>
 <node id="6939139905" visible="true" version="1" changeset="76526591" timestamp="2019-11-02T12:26:45Z" user="mklyr" uid="614924" lat="33.9778737" lon="131.1779492"/>
 <node id="6939139906" visible="true" version="1" changeset="76526591" timestamp="2019-11-02T12:26:45Z" user="mklyr" uid="614924" lat="33.9788596" lon="131.1780469"/>
 <node id="6939139907" visible="true" version="1" changeset="76526591" timestamp="2019-11-02T12:26:45Z" user="mklyr" uid="614924" lat="33.9788813" lon="131.1777331"/>
 <node id="6939139908" visible="true" version="1" changeset="76526591" timestamp="2019-11-02T12:26:45Z" user="mklyr" uid="614924" lat="33.9796165" lon="131.1777766"/>
 <node id="8571532185" visible="true" version="2" changeset="181792300" timestamp="2026-04-25T05:55:28Z" user="FajrAl" uid="2649988" lat="33.9806337" lon="131.1777581">
  <tag k="name" v="住吉本町一丁目"/>
  <tag k="name:en" v="Sumiyoshi-honmachi 1-chome"/>
  <tag k="name:id" v="Sumiyoshi-honmachi 1-chome"/>
  <tag k="name:ja" v="住吉本町一丁目"/>
  <tag k="name:ja-Hira" v="すみよしほんまち1ちょうめ"/>
  <tag k="place" v="neighbourhood"/>
 </node>
 <node id="14166507564" visible="true" version="1" changeset="188770272" timestamp="2026-09-09T12:12:19Z" user="HOC01" uid="9106353" lat="33.9812743" lon="131.1778482"/>
 <node id="14166507565" visible="true" version="1" changeset="188770272" timestamp="2026-09-09T12:12:19Z" user="HOC01" uid="9106353" lat="33.9812930" lon="131.1778492"/>
 <node id="14166507566" visible="true" version="1" changeset="188770272" timestamp="2026-09-09T12:12:19Z" user="HOC01" uid="9106353" lat="33.9813462" lon="131.1778810"/>
 <node id="14166507567" visible="true" version="1" changeset="188770272" timestamp="2026-09-09T12:12:19Z" user="HOC01" uid="9106353" lat="33.9813461" lon="131.1778854"/>
 <node id="14166507568" visible="true" version="1" changeset="188770272" timestamp="2026-09-09T12:12:19Z" user="HOC01" uid="9106353" lat="33.9812773" lon="131.1777607"/>
 <node id="14166507569" visible="true" version="1" changeset="188770272" timestamp="2026-09-09T12:12:19Z" user="HOC01" uid="9106353" lat="33.9812920" lon="131.1778782"/>
 <node id="14166507570" visible="true" version="1" changeset="188770272" timestamp="2026-09-09T12:12:19Z" user="HOC01" uid="9106353" lat="33.9813857" lon="131.1778874"/>
 <node id="14166507571" visible="true" version="1" changeset="188770272" timestamp="2026-09-09T12:12:19Z" user="HOC01" uid="9106353" lat="33.9813898" lon="131.1777663"/>
 <node id="14166507572" visible="true" version="1" changeset="188770272" timestamp="2026-09-09T12:12:19Z" user="HOC01" uid="9106353" lat="33.9815067" lon="131.1782607"/>
 <node id="14166507573" visible="true" version="1" changeset="188770272" timestamp="2026-09-09T12:12:19Z" user="HOC01" uid="9106353" lat="33.9814971" lon="131.1780778"/>
 <node id="14166507574" visible="true" version="1" changeset="188770272" timestamp="2026-09-09T12:12:19Z" user="HOC01" uid="9106353" lat="33.9814742" lon="131.1780796"/>
 <node id="14166507575" visible="true" version="1" changeset="188770272" timestamp="2026-09-09T12:12:19Z" user="HOC01" uid="9106353" lat="33.9814838" lon="131.1782625"/>
 <node id="14166507576" visible="true" version="1" changeset="188770272" timestamp="2026-09-09T12:12:19Z" user="HOC01" uid="9106353" lat="33.9814749" lon="131.1784471"/>
 <node id="14166507577" visible="true" version="1" changeset="188770272" timestamp="2026-09-09T12:12:19Z" user="HOC01" uid="9106353" lat="33.9814740" lon="131.1784296"/>
 <node id="14166507578" visible="true" version="1" changeset="188770272" timestamp="2026-09-09T12:12:19Z" user="HOC01" uid="9106353" lat="33.9813002" lon="131.1781533"/>
 <node id="14166507579" visible="true" version="1" changeset="188770272" timestamp="2026-09-09T12:12:19Z" user="HOC01" uid="9106353" lat="33.9813381" lon="131.1781504"/>
 <node id="14166507580" visible="true" version="1" changeset="188770272" timestamp="2026-09-09T12:12:19Z" user="HOC01" uid="9106353" lat="33.9813329" lon="131.1782195"/>
 <node id="14166507581" visible="true" version="1" changeset="188770272" timestamp="2026-09-09T12:12:19Z" user="HOC01" uid="9106353" lat="33.9813417" lon="131.1782189"/>
 <node id="14166507582" visible="true" version="1" changeset="188770272" timestamp="2026-09-09T12:12:19Z" user="HOC01" uid="9106353" lat="33.9813351" lon="131.1782617"/>
 <node id="14166507583" visible="true" version="1" changeset="188770272" timestamp="2026-09-09T12:12:19Z" user="HOC01" uid="9106353" lat="33.9813687" lon="131.1782591"/>
 <node id="14166507584" visible="true" version="1" changeset="188770272" timestamp="2026-09-09T12:12:19Z" user="HOC01" uid="9106353" lat="33.9813988" lon="131.1779276"/>
 <node id="14166507585" visible="true" version="1" changeset="188770272" timestamp="2026-09-09T12:12:19Z" user="HOC01" uid="9106353" lat="33.9813979" lon="131.1779109"/>
 <node id="14166507586" visible="true" version="1" changeset="188770272" timestamp="2026-09-09T12:12:19Z" user="HOC01" uid="9106353" lat="33.9812888" lon="131.1779359"/>
 <node id="14166507587" visible="true" version="1" changeset="188770272" timestamp="2026-09-09T12:12:19Z" user="HOC01" uid="9106353" lat="33.9813789" lon="131.1784544"/>
 <node id="14166507588" visible="true" version="1" changeset="188770272" timestamp="2026-09-09T12:12:19Z" user="HOC01" uid="9106353" lat="33.9814924" lon="131.1784282"/>
 <node id="14166507589" visible="true" version="1" changeset="188770272" timestamp="2026-09-09T12:12:19Z" user="HOC01" uid="9106353" lat="33.9814652" lon="131.1779058"/>
 <node id="14166943365" visible="true" version="1" changeset="188781873" timestamp="2026-09-09T16:10:39Z" user="HOC01" uid="9106353" lat="33.9790867" lon="131.1772871"/>
 <node id="14166943366" visible="true" version="1" changeset="188781873" timestamp="2026-09-09T16:10:39Z" user="HOC01" uid="9106353" lat="33.9791371" lon="131.1772904"/>
 <node id="14166943367" visible="true" version="1" changeset="188781873" timestamp="2026-09-09T16:10:39Z" user="HOC01" uid="9106353" lat="33.9790899" lon="131.1772165"/>
 <node id="14166943368" visible="true" version="1" changeset="188781873" timestamp="2026-09-09T16:10:39Z" user="HOC01" uid="9106353" lat="33.9791403" lon="131.1772198"/>
 <node id="14166943369" visible="true" version="1" changeset="188781873" timestamp="2026-09-09T16:10:39Z" user="HOC01" uid="9106353" lat="33.9791761" lon="131.1769053"/>
 <node id="14166943370" visible="true" version="1" changeset="188781873" timestamp="2026-09-09T16:10:39Z" user="HOC01" uid="9106353" lat="33.9791637" lon="131.1769045"/>
 <node id="14166943371" visible="true" version="1" changeset="188781873" timestamp="2026-09-09T16:10:39Z" user="HOC01" uid="9106353" lat="33.9791671" lon="131.1768309"/>
 <node id="14166943372" visible="true" version="1" changeset="188781873" timestamp="2026-09-09T16:10:39Z" user="HOC01" uid="9106353" lat="33.9791134" lon="131.1768274"/>
 <node id="14166943373" visible="true" version="1" changeset="188781873" timestamp="2026-09-09T16:10:39Z" user="HOC01" uid="9106353" lat="33.9791141" lon="131.1768122"/>
 <node id="14166943374" visible="true" version="1" changeset="188781873" timestamp="2026-09-09T16:10:39Z" user="HOC01" uid="9106353" lat="33.9791618" lon="131.1772212"/>
 <node id="14166943375" visible="true" version="1" changeset="188781873" timestamp="2026-09-09T16:10:39Z" user="HOC01" uid="9106353" lat="33.9789930" lon="131.1772101"/>
 <node id="14166943376" visible="true" version="1" changeset="188781873" timestamp="2026-09-09T16:10:39Z" user="HOC01" uid="9106353" lat="33.9790114" lon="131.1768054"/>
 <node id="14166970763" visible="true" version="1" changeset="188783148" timestamp="2026-09-09T16:38:03Z" user="HOC01" uid="9106353" lat="33.9804966" lon="131.1779720"/>
 <node id="14166970764" visible="true" version="1" changeset="188783148" timestamp="2026-09-09T16:38:03Z" user="HOC01" uid="9106353" lat="33.9805016" lon="131.1778380"/>
 <node id="14166970765" visible="true" version="1" changeset="188783148" timestamp="2026-09-09T16:38:03Z" user="HOC01" uid="9106353" lat="33.9805583" lon="131.1777067"/>
 <node id="14166970766" visible="true" version="1" changeset="188783148" timestamp="2026-09-09T16:38:03Z" user="HOC01" uid="9106353" lat="33.9805483" lon="131.1779748"/>
 <node id="14166970767" visible="true" version="1" changeset="188783148" timestamp="2026-09-09T16:38:03Z" user="HOC01" uid="9106353" lat="33.9804654" lon="131.1778361"/>
 <node id="14166970768" visible="true" version="1" changeset="188783148" timestamp="2026-09-09T16:38:03Z" user="HOC01" uid="9106353" lat="33.9804704" lon="131.1777019"/>
 <node id="14166970769" visible="true" version="1" changeset="188783148" timestamp="2026-09-09T16:38:03Z" user="HOC01" uid="9106353" lat="33.9806265" lon="131.1777851"/>
 <node id="14166970770" visible="true" version="1" changeset="188783148" timestamp="2026-09-09T16:38:03Z" user="HOC01" uid="9106353" lat="33.9806107" lon="131.1780459"/>
 <node id="14166970771" visible="true" version="1" changeset="188783148" timestamp="2026-09-09T16:38:03Z" user="HOC01" uid="9106353" lat="33.9806906" lon="131.1780530"/>
 <node id="14166970772" visible="true" version="1" changeset="188783148" timestamp="2026-09-09T16:38:03Z" user="HOC01" uid="9106353" lat="33.9807065" lon="131.1777921"/>
 <node id="14166970773" visible="true" version="1" changeset="188783148" timestamp="2026-09-09T16:38:03Z" user="HOC01" uid="9106353" lat="33.9809632" lon="131.1777918"/>
 <node id="14166970774" visible="true" version="1" changeset="188783148" timestamp="2026-09-09T16:38:03Z" user="HOC01" uid="9106353" lat="33.9809669" lon="131.1777903"/>
 <node id="14166970775" visible="true" version="1" changeset="188783148" timestamp="2026-09-09T16:38:03Z" user="HOC01" uid="9106353" lat="33.9809879" lon="131.1777411"/>
 <node id="14166970776" visible="true" version="1" changeset="188783148" timestamp="2026-09-09T16:38:03Z" user="HOC01" uid="9106353" lat="33.9809916" lon="131.1777545"/>
 <node id="14166970777" visible="true" version="1" changeset="188783148" timestamp="2026-09-09T16:38:03Z" user="HOC01" uid="9106353" lat="33.9810050" lon="131.1777491"/>
 <node id="14166970778" visible="true" version="1" changeset="188783148" timestamp="2026-09-09T16:38:03Z" user="HOC01" uid="9106353" lat="33.9810117" lon="131.1777732"/>
 <node id="14166970779" visible="true" version="1" changeset="188783148" timestamp="2026-09-09T16:38:03Z" user="HOC01" uid="9106353" lat="33.9810862" lon="131.1777430"/>
 <node id="14166970780" visible="true" version="1" changeset="188783148" timestamp="2026-09-09T16:38:03Z" user="HOC01" uid="9106353" lat="33.9809530" lon="131.1777552"/>
 <node id="14166970781" visible="true" version="1" changeset="188783148" timestamp="2026-09-09T16:38:03Z" user="HOC01" uid="9106353" lat="33.9809875" lon="131.1778642"/>
 <node id="14166970782" visible="true" version="1" changeset="188783148" timestamp="2026-09-09T16:38:03Z" user="HOC01" uid="9106353" lat="33.9811065" lon="131.1778159"/>
 <node id="14166970783" visible="true" version="1" changeset="188783148" timestamp="2026-09-09T16:38:03Z" user="HOC01" uid="9106353" lat="33.9812831" lon="131.1775756"/>
 <node id="14166970784" visible="true" version="1" changeset="188783148" timestamp="2026-09-09T16:38:03Z" user="HOC01" uid="9106353" lat="33.9812619" lon="131.1775756"/>
 <node id="14166970785" visible="true" version="1" changeset="188783148" timestamp="2026-09-09T16:38:03Z" user="HOC01" uid="9106353" lat="33.9812619" lon="131.1775548"/>
 <node id="14166970786" visible="true" version="1" changeset="188783148" timestamp="2026-09-09T16:38:03Z" user="HOC01" uid="9106353" lat="33.9812831" lon="131.1775548"/>
 <node id="14166970787" visible="true" version="1" changeset="188783148" timestamp="2026-09-09T16:38:03Z" user="HOC01" uid="9106353" lat="33.9810732" lon="131.1773393"/>
 <node id="14166970788" visible="true" version="1" changeset="188783148" timestamp="2026-09-09T16:38:03Z" user="HOC01" uid="9106353" lat="33.9811040" lon="131.1774604"/>
 <node id="14166970789" visible="true" version="1" changeset="188783148" timestamp="2026-09-09T16:38:03Z" user="HOC01" uid="9106353" lat="33.9811032" lon="131.1774249"/>
 <node id="14166970790" visible="true" version="1" changeset="188783148" timestamp="2026-09-09T16:38:03Z" user="HOC01" uid="9106353" lat="33.9810897" lon="131.1774254"/>
 <node id="14166970791" visible="true" version="1" changeset="188783148" timestamp="2026-09-09T16:38:03Z" user="HOC01" uid="9106353" lat="33.9810876" lon="131.1773388"/>
 <node id="14166970792" visible="true" version="1" changeset="188783148" timestamp="2026-09-09T16:38:03Z" user="HOC01" uid="9106353" lat="33.9812086" lon="131.1774567"/>
 <node id="14166970793" visible="true" version="1" changeset="188783148" timestamp="2026-09-09T16:38:03Z" user="HOC01" uid="9106353" lat="33.9812055" lon="131.1773305"/>
 <node id="14166970794" visible="true" version="1" changeset="188783148" timestamp="2026-09-09T16:38:03Z" user="HOC01" uid="9106353" lat="33.9812393" lon="131.1773293"/>
 <node id="14166970795" visible="true" version="1" changeset="188783148" timestamp="2026-09-09T16:38:03Z" user="HOC01" uid="9106353" lat="33.9810462" lon="131.1772470"/>
 <node id="14166970796" visible="true" version="1" changeset="188783148" timestamp="2026-09-09T16:38:03Z" user="HOC01" uid="9106353" lat="33.9812372" lon="131.1772403"/>
 <node id="14166970797" visible="true" version="1" changeset="188783148" timestamp="2026-09-09T16:38:03Z" user="HOC01" uid="9106353" lat="33.9812752" lon="131.1773128"/>
 <node id="14166970798" visible="true" version="1" changeset="188783148" timestamp="2026-09-09T16:38:03Z" user="HOC01" uid="9106353" lat="33.9813093" lon="131.1773127"/>
 <node id="14166970799" visible="true" version="1" changeset="188783148" timestamp="2026-09-09T16:38:03Z" user="HOC01" uid="9106353" lat="33.9813092" lon="131.1772650"/>
 <node id="14166970800" visible="true" version="1" changeset="188783148" timestamp="2026-09-09T16:38:03Z" user="HOC01" uid="9106353" lat="33.9812757" lon="131.1774887"/>
 <node id="14167009001" visible="true" version="1" changeset="188783148" timestamp="2026-09-09T16:38:03Z" user="HOC01" uid="9106353" lat="33.9813759" lon="131.1774884"/>
 <node id="14167009002" visible="true" version="1" changeset="188783148" timestamp="2026-09-09T16:38:03Z" user="HOC01" uid="9106353" lat="33.9813754" lon="131.1772647"/>
 <node id="14167009003" visible="true" version="1" changeset="188783148" timestamp="2026-09-09T16:38:03Z" user="HOC01" uid="9106353" lat="33.9808977" lon="131.1775279"/>
 <node id="14167009004" visible="true" version="1" changeset="188783148" timestamp="2026-09-09T16:38:03Z" user="HOC01" uid="9106353" lat="33.9809928" lon="131.1775588"/>
 <node id="14167009005" visible="true" version="1" changeset="188783148" timestamp="2026-09-09T16:38:03Z" user="HOC01" uid="9106353" lat="33.9810695" lon="131.1775154"/>
 <node id="14167009006" visible="true" version="1" changeset="188783148" timestamp="2026-09-09T16:38:03Z" user="HOC01" uid="9106353" lat="33.9810696" lon="131.1774959"/>
 <node id="14167009007" visible="true" version="1" changeset="188783148" timestamp="2026-09-09T16:38:03Z" user="HOC01" uid="9106353" lat="33.9810551" lon="131.1775152"/>
 <node id="14167009008" visible="true" version="1" changeset="188783148" timestamp="2026-09-09T16:38:03Z" user="HOC01" uid="9106353" lat="33.9810553" lon="131.1774957"/>
 <node id="14167009009" visible="true" version="1" changeset="188783148" timestamp="2026-09-09T16:38:03Z" user="HOC01" uid="9106353" lat="33.9810130" lon="131.1774582"/>
 <node id="14167009010" visible="true" version="1" changeset="188783148" timestamp="2026-09-09T16:38:03Z" user="HOC01" uid="9106353" lat="33.9809561" lon="131.1774735"/>
 <node id="14167009011" visible="true" version="1" changeset="188783148" timestamp="2026-09-09T16:38:03Z" user="HOC01" uid="9106353" lat="33.9810129" lon="131.1774741"/>
 <node id="14167009012" visible="true" version="1" changeset="188783148" timestamp="2026-09-09T16:38:03Z" user="HOC01" uid="9106353" lat="33.9808892" lon="131.1774993"/>
 <node id="14167009013" visible="true" version="1" changeset="188783148" timestamp="2026-09-09T16:38:03Z" user="HOC01" uid="9106353" lat="33.9809133" lon="131.1775483"/>
 <node id="14167009014" visible="true" version="1" changeset="188783148" timestamp="2026-09-09T16:38:03Z" user="HOC01" uid="9106353" lat="33.9810548" lon="131.1775595"/>
 <node id="14167009015" visible="true" version="1" changeset="188783148" timestamp="2026-09-09T16:38:03Z" user="HOC01" uid="9106353" lat="33.9810557" lon="131.1774471"/>
 <node id="14167009016" visible="true" version="1" changeset="188783148" timestamp="2026-09-09T16:38:03Z" user="HOC01" uid="9106353" lat="33.9808205" lon="131.1775277"/>
 <node id="14167009017" visible="true" version="1" changeset="188783148" timestamp="2026-09-09T16:38:03Z" user="HOC01" uid="9106353" lat="33.9808214" lon="131.1775002"/>
 <node id="14167009018" visible="true" version="1" changeset="188783148" timestamp="2026-09-09T16:38:03Z" user="HOC01" uid="9106353" lat="33.9808119" lon="131.1775273"/>
 <node id="14167009019" visible="true" version="1" changeset="188783148" timestamp="2026-09-09T16:38:03Z" user="HOC01" uid="9106353" lat="33.9808128" lon="131.1774998"/>
 <node id="14167009020" visible="true" version="1" changeset="188783148" timestamp="2026-09-09T16:38:03Z" user="HOC01" uid="9106353" lat="33.9807723" lon="131.1774593"/>
 <node id="14167009021" visible="true" version="1" changeset="188783148" timestamp="2026-09-09T16:38:03Z" user="HOC01" uid="9106353" lat="33.9807715" lon="131.1774860"/>
 <node id="14167009022" visible="true" version="1" changeset="188783148" timestamp="2026-09-09T16:38:03Z" user="HOC01" uid="9106353" lat="33.9807031" lon="131.1774829"/>
 <node id="14167009023" visible="true" version="1" changeset="188783148" timestamp="2026-09-09T16:38:03Z" user="HOC01" uid="9106353" lat="33.9808140" lon="131.1774612"/>
 <node id="14167009024" visible="true" version="1" changeset="188783148" timestamp="2026-09-09T16:38:03Z" user="HOC01" uid="9106353" lat="33.9808116" lon="131.1775393"/>
 <node id="14167009025" visible="true" version="1" changeset="188783148" timestamp="2026-09-09T16:38:03Z" user="HOC01" uid="9106353" lat="33.9807015" lon="131.1775343"/>
 <node id="14167009026" visible="true" version="1" changeset="188783148" timestamp="2026-09-09T16:38:03Z" user="HOC01" uid="9106353" lat="33.9805370" lon="131.1773090"/>
 <node id="14167009027" visible="true" version="1" changeset="188783148" timestamp="2026-09-09T16:38:03Z" user="HOC01" uid="9106353" lat="33.9805361" lon="131.1773283"/>
 <node id="14167009028" visible="true" version="1" changeset="188783148" timestamp="2026-09-09T16:38:03Z" user="HOC01" uid="9106353" lat="33.9805325" lon="131.1773281"/>
 <node id="14167009029" visible="true" version="1" changeset="188783148" timestamp="2026-09-09T16:38:03Z" user="HOC01" uid="9106353" lat="33.9805334" lon="131.1773087"/>
 <node id="14167009030" visible="true" version="1" changeset="188783148" timestamp="2026-09-09T16:38:03Z" user="HOC01" uid="9106353" lat="33.9806099" lon="131.1772998"/>
 <node id="14167009031" visible="true" version="1" changeset="188783148" timestamp="2026-09-09T16:38:03Z" user="HOC01" uid="9106353" lat="33.9805340" lon="131.1772948"/>
 <node id="14167009032" visible="true" version="1" changeset="188783148" timestamp="2026-09-09T16:38:03Z" user="HOC01" uid="9106353" lat="33.9805308" lon="131.1773670"/>
 <node id="14167009033" visible="true" version="1" changeset="188783148" timestamp="2026-09-09T16:38:03Z" user="HOC01" uid="9106353" lat="33.9806067" lon="131.1773720"/>
 <node id="14167009034" visible="true" version="1" changeset="188783148" timestamp="2026-09-09T16:38:03Z" user="HOC01" uid="9106353" lat="33.9804737" lon="131.1775057"/>
 <node id="14167009035" visible="true" version="1" changeset="188783148" timestamp="2026-09-09T16:38:03Z" user="HOC01" uid="9106353" lat="33.9804644" lon="131.1775051"/>
 <node id="14167009036" visible="true" version="1" changeset="188783148" timestamp="2026-09-09T16:38:03Z" user="HOC01" uid="9106353" lat="33.9804201" lon="131.1775142"/>
 <node id="14167009037" visible="true" version="1" changeset="188783148" timestamp="2026-09-09T16:38:03Z" user="HOC01" uid="9106353" lat="33.9804204" lon="131.1775076"/>
 <node id="14167009038" visible="true" version="1" changeset="188783148" timestamp="2026-09-09T16:38:03Z" user="HOC01" uid="9106353" lat="33.9804521" lon="131.1773929"/>
 <node id="14167009039" visible="true" version="1" changeset="188783148" timestamp="2026-09-09T16:38:03Z" user="HOC01" uid="9106353" lat="33.9804518" lon="131.1774001"/>
 <node id="14167009040" visible="true" version="1" changeset="188783148" timestamp="2026-09-09T16:38:03Z" user="HOC01" uid="9106353" lat="33.9803483" lon="131.1775030"/>
 <node id="14167009041" visible="true" version="1" changeset="188783148" timestamp="2026-09-09T16:38:03Z" user="HOC01" uid="9106353" lat="33.9804639" lon="131.1775170"/>
 <node id="14167009042" visible="true" version="1" changeset="188783148" timestamp="2026-09-09T16:38:03Z" user="HOC01" uid="9106353" lat="33.9804786" lon="131.1773946"/>
 <node id="14167009043" visible="true" version="1" changeset="188783148" timestamp="2026-09-09T16:38:03Z" user="HOC01" uid="9106353" lat="33.9803531" lon="131.1773938"/>
 <node id="14167009044" visible="true" version="1" changeset="188783148" timestamp="2026-09-09T16:38:03Z" user="HOC01" uid="9106353" lat="33.9803464" lon="131.1772975"/>
 <node id="14167009045" visible="true" version="1" changeset="188783148" timestamp="2026-09-09T16:38:03Z" user="HOC01" uid="9106353" lat="33.9803373" lon="131.1772969"/>
 <node id="14167009046" visible="true" version="1" changeset="188783148" timestamp="2026-09-09T16:38:03Z" user="HOC01" uid="9106353" lat="33.9802853" lon="131.1772320"/>
 <node id="14167009047" visible="true" version="1" changeset="188783148" timestamp="2026-09-09T16:38:03Z" user="HOC01" uid="9106353" lat="33.9802841" lon="131.1772557"/>
 <node id="14167009048" visible="true" version="1" changeset="188783148" timestamp="2026-09-09T16:38:03Z" user="HOC01" uid="9106353" lat="33.9802499" lon="131.1774748"/>
 <node id="14167009049" visible="true" version="1" changeset="188783148" timestamp="2026-09-09T16:38:03Z" user="HOC01" uid="9106353" lat="33.9802514" lon="131.1774438"/>
 <node id="14167009050" visible="true" version="1" changeset="188783148" timestamp="2026-09-09T16:38:03Z" user="HOC01" uid="9106353" lat="33.9803494" lon="131.1772366"/>
 <node id="14167009051" visible="true" version="1" changeset="188783148" timestamp="2026-09-09T16:38:03Z" user="HOC01" uid="9106353" lat="33.9803283" lon="131.1774804"/>
 <node id="14167009052" visible="true" version="1" changeset="188783148" timestamp="2026-09-09T16:38:03Z" user="HOC01" uid="9106353" lat="33.9802376" lon="131.1774428"/>
 <node id="14167009053" visible="true" version="1" changeset="188783148" timestamp="2026-09-09T16:38:03Z" user="HOC01" uid="9106353" lat="33.9802469" lon="131.1772530"/>
 <node id="14167009054" visible="true" version="1" changeset="188783148" timestamp="2026-09-09T16:38:03Z" user="HOC01" uid="9106353" lat="33.9801542" lon="131.1773479"/>
 <node id="14167009055" visible="true" version="1" changeset="188783148" timestamp="2026-09-09T16:38:03Z" user="HOC01" uid="9106353" lat="33.9801509" lon="131.1774268"/>
 <node id="14167009056" visible="true" version="1" changeset="188783148" timestamp="2026-09-09T16:38:03Z" user="HOC01" uid="9106353" lat="33.9801184" lon="131.1774248"/>
 <node id="14167009057" visible="true" version="1" changeset="188783148" timestamp="2026-09-09T16:38:03Z" user="HOC01" uid="9106353" lat="33.9801218" lon="131.1773459"/>
 <node id="14167009058" visible="true" version="1" changeset="188783148" timestamp="2026-09-09T16:38:03Z" user="HOC01" uid="9106353" lat="33.9798475" lon="131.1774373"/>
 <node id="14167009059" visible="true" version="1" changeset="188783148" timestamp="2026-09-09T16:38:03Z" user="HOC01" uid="9106353" lat="33.9799723" lon="131.1774470"/>
 <node id="14167009060" visible="true" version="1" changeset="188783148" timestamp="2026-09-09T16:38:03Z" user="HOC01" uid="9106353" lat="33.9799705" lon="131.1774800"/>
 <node id="14167009061" visible="true" version="1" changeset="188783148" timestamp="2026-09-09T16:38:03Z" user="HOC01" uid="9106353" lat="33.9798457" lon="131.1774703"/>
 <node id="14167009062" visible="true" version="1" changeset="188783148" timestamp="2026-09-09T16:38:03Z" user="HOC01" uid="9106353" lat="33.9796964" lon="131.1774100"/>
 <node id="14167009063" visible="true" version="1" changeset="188783148" timestamp="2026-09-09T16:38:03Z" user="HOC01" uid="9106353" lat="33.9797121" lon="131.1774116"/>
 <node id="14167009064" visible="true" version="1" changeset="188783148" timestamp="2026-09-09T16:38:03Z" user="HOC01" uid="9106353" lat="33.9797857" lon="131.1774658"/>
 <node id="14167009065" visible="true" version="1" changeset="188783148" timestamp="2026-09-09T16:38:03Z" user="HOC01" uid="9106353" lat="33.9796933" lon="131.1774567"/>
 <node id="14167009066" visible="true" version="1" changeset="188783148" timestamp="2026-09-09T16:38:03Z" user="HOC01" uid="9106353" lat="33.9797166" lon="131.1773444"/>
 <node id="14167009067" visible="true" version="1" changeset="188783148" timestamp="2026-09-09T16:38:03Z" user="HOC01" uid="9106353" lat="33.9797934" lon="131.1773519"/>
 <node id="14167009068" visible="true" version="1" changeset="188783148" timestamp="2026-09-09T16:38:03Z" user="HOC01" uid="9106353" lat="33.9795485" lon="131.1773755"/>
 <node id="14167009069" visible="true" version="1" changeset="188783148" timestamp="2026-09-09T16:38:03Z" user="HOC01" uid="9106353" lat="33.9795497" lon="131.1773578"/>
 <node id="14167009070" visible="true" version="1" changeset="188783148" timestamp="2026-09-09T16:38:03Z" user="HOC01" uid="9106353" lat="33.9795824" lon="131.1773253"/>
 <node id="14167009071" visible="true" version="1" changeset="188783148" timestamp="2026-09-09T16:38:03Z" user="HOC01" uid="9106353" lat="33.9795662" lon="131.1773237"/>
 <node id="14167009072" visible="true" version="1" changeset="188783148" timestamp="2026-09-09T16:38:03Z" user="HOC01" uid="9106353" lat="33.9795788" lon="131.1773785"/>
 <node id="14167009073" visible="true" version="1" changeset="188783148" timestamp="2026-09-09T16:38:03Z" user="HOC01" uid="9106353" lat="33.9795001" lon="131.1773529"/>
 <node id="14167009074" visible="true" version="1" changeset="188783148" timestamp="2026-09-09T16:38:03Z" user="HOC01" uid="9106353" lat="33.9795032" lon="131.1773081"/>
 <node id="14167009075" visible="true" version="1" changeset="188783148" timestamp="2026-09-09T16:38:03Z" user="HOC01" uid="9106353" lat="33.9795668" lon="131.1773144"/>
 <node id="14167009076" visible="true" version="1" changeset="188783148" timestamp="2026-09-09T16:38:03Z" user="HOC01" uid="9106353" lat="33.9796877" lon="131.1773309"/>
 <node id="14167009077" visible="true" version="1" changeset="188783148" timestamp="2026-09-09T16:38:03Z" user="HOC01" uid="9106353" lat="33.9796452" lon="131.1773267"/>
 <node id="14167009078" visible="true" version="1" changeset="188783148" timestamp="2026-09-09T16:38:03Z" user="HOC01" uid="9106353" lat="33.9796460" lon="131.1773156"/>
 <node id="14167009079" visible="true" version="1" changeset="188783148" timestamp="2026-09-09T16:38:03Z" user="HOC01" uid="9106353" lat="33.9796792" lon="131.1774576"/>
 <node id="14167009080" visible="true" version="1" changeset="188783148" timestamp="2026-09-09T16:38:03Z" user="HOC01" uid="9106353" lat="33.9796016" lon="131.1774500"/>
 <node id="14167009081" visible="true" version="1" changeset="188783148" timestamp="2026-09-09T16:38:03Z" user="HOC01" uid="9106353" lat="33.9796109" lon="131.1773122"/>
 <node id="14167875097" visible="true" version="1" changeset="188796303" timestamp="2026-09-09T22:56:33Z" user="HOC01" uid="9106353" lat="33.9790803" lon="131.1775963"/>
 <node id="14167875098" visible="true" version="1" changeset="188796303" timestamp="2026-09-09T22:56:33Z" user="HOC01" uid="9106353" lat="33.9790781" lon="131.1776483"/>
 <node id="14167875099" visible="true" version="1" changeset="188796303" timestamp="2026-09-09T22:56:33Z" user="HOC01" uid="9106353" lat="33.9790242" lon="131.1775928"/>
 <node id="14167875100" visible="true" version="1" changeset="188796303" timestamp="2026-09-09T22:56:33Z" user="HOC01" uid="9106353" lat="33.9792183" lon="131.1776570"/>
 <node id="14167875101" visible="true" version="1" changeset="188796303" timestamp="2026-09-09T22:56:33Z" user="HOC01" uid="9106353" lat="33.9792149" lon="131.1777375"/>
 <node id="14167875102" visible="true" version="1" changeset="188796303" timestamp="2026-09-09T22:56:33Z" user="HOC01" uid="9106353" lat="33.9790186" lon="131.1777254"/>
 <node id="14167875103" visible="true" version="1" changeset="188796303" timestamp="2026-09-09T22:56:33Z" user="HOC01" uid="9106353" lat="33.9795992" lon="131.1776476"/>
 <node id="14167875104" visible="true" version="1" changeset="188796303" timestamp="2026-09-09T22:56:33Z" user="HOC01" uid="9106353" lat="33.9795984" lon="131.1776666"/>
 <node id="14167875105" visible="true" version="1" changeset="188796303" timestamp="2026-09-09T22:56:33Z" user="HOC01" uid="9106353" lat="33.9796103" lon="131.1776483"/>
 <node id="14167875106" visible="true" version="1" changeset="188796303" timestamp="2026-09-09T22:56:33Z" user="HOC01" uid="9106353" lat="33.9796094" lon="131.1776673"/>
 <node id="14167875107" visible="true" version="1" changeset="188796303" timestamp="2026-09-09T22:56:33Z" user="HOC01" uid="9106353" lat="33.9796152" lon="131.1777426"/>
 <node id="14167875108" visible="true" version="1" changeset="188796303" timestamp="2026-09-09T22:56:33Z" user="HOC01" uid="9106353" lat="33.9796109" lon="131.1777423"/>
 <node id="14167875109" visible="true" version="1" changeset="188796303" timestamp="2026-09-09T22:56:33Z" user="HOC01" uid="9106353" lat="33.9796116" lon="131.1777263"/>
 <node id="14167875110" visible="true" version="1" changeset="188796303" timestamp="2026-09-09T22:56:33Z" user="HOC01" uid="9106353" lat="33.9796194" lon="131.1777268"/>
 <node id="14167875111" visible="true" version="1" changeset="188796303" timestamp="2026-09-09T22:56:33Z" user="HOC01" uid="9106353" lat="33.9796211" lon="131.1776883"/>
 <node id="14167875112" visible="true" version="1" changeset="188796303" timestamp="2026-09-09T22:56:33Z" user="HOC01" uid="9106353" lat="33.9796085" lon="131.1776875"/>
 <node id="14167875113" visible="true" version="1" changeset="188796303" timestamp="2026-09-09T22:56:33Z" user="HOC01" uid="9106353" lat="33.9796156" lon="131.1777770"/>
 <node id="14167875114" visible="true" version="1" changeset="188796303" timestamp="2026-09-09T22:56:33Z" user="HOC01" uid="9106353" lat="33.9797586" lon="131.1777863"/>
 <node id="14167875115" visible="true" version="1" changeset="188796303" timestamp="2026-09-09T22:56:33Z" user="HOC01" uid="9106353" lat="33.9796137" lon="131.1777768"/>
 <node id="14167875116" visible="true" version="1" changeset="188796303" timestamp="2026-09-09T22:56:33Z" user="HOC01" uid="9106353" lat="33.9796108" lon="131.1776376"/>
 <node id="14167875117" visible="true" version="1" changeset="188796303" timestamp="2026-09-09T22:56:33Z" user="HOC01" uid="9106353" lat="33.9797648" lon="131.1776476"/>
 <node id="14167875118" visible="true" version="1" changeset="188796303" timestamp="2026-09-09T22:56:33Z" user="HOC01" uid="9106353" lat="33.9799443" lon="131.1777627"/>
 <node id="14167875119" visible="true" version="1" changeset="188796303" timestamp="2026-09-09T22:56:33Z" user="HOC01" uid="9106353" lat="33.9799434" lon="131.1777969"/>
 <node id="14167875120" visible="true" version="1" changeset="188796303" timestamp="2026-09-09T22:56:33Z" user="HOC01" uid="9106353" lat="33.9799135" lon="131.1777958"/>
 <node id="14167875121" visible="true" version="1" changeset="188796303" timestamp="2026-09-09T22:56:33Z" user="HOC01" uid="9106353" lat="33.9799144" lon="131.1777616"/>
 <node id="14167875122" visible="true" version="1" changeset="188796303" timestamp="2026-09-09T22:56:33Z" user="HOC01" uid="9106353" lat="33.9798307" lon="131.1776832"/>
 <node id="14167875123" visible="true" version="1" changeset="188796303" timestamp="2026-09-09T22:56:33Z" user="HOC01" uid="9106353" lat="33.9798310" lon="131.1776527"/>
 <node id="14167875124" visible="true" version="1" changeset="188796303" timestamp="2026-09-09T22:56:33Z" user="HOC01" uid="9106353" lat="33.9798557" lon="131.1776530"/>
 <node id="14167875125" visible="true" version="1" changeset="188796303" timestamp="2026-09-09T22:56:33Z" user="HOC01" uid="9106353" lat="33.9798554" lon="131.1776835"/>
 <node id="14167875126" visible="true" version="1" changeset="188796303" timestamp="2026-09-09T22:56:33Z" user="HOC01" uid="9106353" lat="33.9798394" lon="131.1777451"/>
 <node id="14167875127" visible="true" version="1" changeset="188796303" timestamp="2026-09-09T22:56:33Z" user="HOC01" uid="9106353" lat="33.9799014" lon="131.1777485"/>
 <node id="14167875128" visible="true" version="1" changeset="188796303" timestamp="2026-09-09T22:56:33Z" user="HOC01" uid="9106353" lat="33.9799033" lon="131.1776989"/>
 <node id="14167875129" visible="true" version="1" changeset="188796303" timestamp="2026-09-09T22:56:33Z" user="HOC01" uid="9106353" lat="33.9798413" lon="131.1776956"/>
 <node id="14167875130" visible="true" version="1" changeset="188796303" timestamp="2026-09-09T22:56:33Z" user="HOC01" uid="9106353" lat="33.9799790" lon="131.1776918"/>
 <node id="14167875131" visible="true" version="1" changeset="188796303" timestamp="2026-09-09T22:56:33Z" user="HOC01" uid="9106353" lat="33.9799882" lon="131.1777114"/>
 <node id="14167875132" visible="true" version="1" changeset="188796303" timestamp="2026-09-09T22:56:33Z" user="HOC01" uid="9106353" lat="33.9799983" lon="131.1776733"/>
 <node id="14167875133" visible="true" version="1" changeset="188796303" timestamp="2026-09-09T22:56:33Z" user="HOC01" uid="9106353" lat="33.9799986" lon="131.1776678"/>
 <node id="14167875134" visible="true" version="1" changeset="188796303" timestamp="2026-09-09T22:56:33Z" user="HOC01" uid="9106353" lat="33.9800607" lon="131.1776737"/>
 <node id="14167875135" visible="true" version="1" changeset="188796303" timestamp="2026-09-09T22:56:33Z" user="HOC01" uid="9106353" lat="33.9799775" lon="131.1777808"/>
 <node id="14167875136" visible="true" version="1" changeset="188796303" timestamp="2026-09-09T22:56:33Z" user="HOC01" uid="9106353" lat="33.9799837" lon="131.1777814"/>
 <node id="14167875137" visible="true" version="1" changeset="188796303" timestamp="2026-09-09T22:56:33Z" user="HOC01" uid="9106353" lat="33.9799803" lon="131.1776716"/>
 <node id="14167875138" visible="true" version="1" changeset="188796303" timestamp="2026-09-09T22:56:33Z" user="HOC01" uid="9106353" lat="33.9799703" lon="131.1778918"/>
 <node id="14167875139" visible="true" version="1" changeset="188796303" timestamp="2026-09-09T22:56:33Z" user="HOC01" uid="9106353" lat="33.9800551" lon="131.1778998"/>
 <node id="14167875140" visible="true" version="1" changeset="188796303" timestamp="2026-09-09T22:56:33Z" user="HOC01" uid="9106353" lat="33.9800690" lon="131.1776852"/>
 <node id="14167875141" visible="true" version="1" changeset="188796303" timestamp="2026-09-09T22:56:33Z" user="HOC01" uid="9106353" lat="33.9803640" lon="131.1778497"/>
 <node id="14167875142" visible="true" version="1" changeset="188796303" timestamp="2026-09-09T22:56:33Z" user="HOC01" uid="9106353" lat="33.9803607" lon="131.1779007"/>
 <node id="14167875143" visible="true" version="1" changeset="188796303" timestamp="2026-09-09T22:56:33Z" user="HOC01" uid="9106353" lat="33.9803195" lon="131.1778967"/>
 <node id="14167875144" visible="true" version="1" changeset="188796303" timestamp="2026-09-09T22:56:33Z" user="HOC01" uid="9106353" lat="33.9803228" lon="131.1778458"/>
 <node id="14167875145" visible="true" version="1" changeset="188796303" timestamp="2026-09-09T22:56:33Z" user="HOC01" uid="9106353" lat="33.9803926" lon="131.1776985"/>
 <node id="14167875146" visible="true" version="1" changeset="188796303" timestamp="2026-09-09T22:56:33Z" user="HOC01" uid="9106353" lat="33.9803839" lon="131.1778303"/>
 <node id="14167875147" visible="true" version="1" changeset="188796303" timestamp="2026-09-09T22:56:33Z" user="HOC01" uid="9106353" lat="33.9803284" lon="131.1778250"/>
 <node id="14167875148" visible="true" version="1" changeset="188796303" timestamp="2026-09-09T22:56:33Z" user="HOC01" uid="9106353" lat="33.9803370" lon="131.1776932"/>
 <node id="14167875149" visible="true" version="1" changeset="188796303" timestamp="2026-09-09T22:56:33Z" user="HOC01" uid="9106353" lat="33.9803099" lon="131.1778531"/>
 <node id="14167875150" visible="true" version="1" changeset="188796303" timestamp="2026-09-09T22:56:33Z" user="HOC01" uid="9106353" lat="33.9802272" lon="131.1778473"/>
 <node id="14167875151" visible="true" version="1" changeset="188796303" timestamp="2026-09-09T22:56:33Z" user="HOC01" uid="9106353" lat="33.9802917" lon="131.1778816"/>
 <node id="14167875152" visible="true" version="1" changeset="188796303" timestamp="2026-09-09T22:56:33Z" user="HOC01" uid="9106353" lat="33.9802258" lon="131.1778769"/>
 <node id="14167875153" visible="true" version="1" changeset="188796303" timestamp="2026-09-09T22:56:33Z" user="HOC01" uid="9106353" lat="33.9803181" lon="131.1776862"/>
 <node id="14167875154" visible="true" version="1" changeset="188796303" timestamp="2026-09-09T22:56:33Z" user="HOC01" uid="9106353" lat="33.9802871" lon="131.1779751"/>
 <node id="14167875155" visible="true" version="1" changeset="188796303" timestamp="2026-09-09T22:56:33Z" user="HOC01" uid="9106353" lat="33.9801713" lon="131.1779668"/>
 <node id="14167875156" visible="true" version="1" changeset="188796303" timestamp="2026-09-09T22:56:33Z" user="HOC01" uid="9106353" lat="33.9801854" lon="131.1776768"/>
 <node id="14177745272" visible="true" version="1" changeset="188957534" timestamp="2026-09-13T11:58:16Z" user="HOC01" uid="9106353" lat="33.9789557" lon="131.1779445"/>
 <node id="14177745273" visible="true" version="1" changeset="188957534" timestamp="2026-09-13T11:58:16Z" user="HOC01" uid="9106353" lat="33.9790049" lon="131.1779474"/>
 <node id="14177745274" visible="true" version="1" changeset="188957534" timestamp="2026-09-13T11:58:16Z" user="HOC01" uid="9106353" lat="33.9793730" lon="131.1781513"/>
 <node id="14177745275" visible="true" version="1" changeset="188957534" timestamp="2026-09-13T11:58:16Z" user="HOC01" uid="9106353" lat="33.9789483" lon="131.1781259"/>
 <node id="14177745276" visible="true" version="1" changeset="188957534" timestamp="2026-09-13T11:58:16Z" user="HOC01" uid="9106353" lat="33.9790111" lon="131.1777962"/>
 <node id="14177745277" visible="true" version="1" changeset="188957534" timestamp="2026-09-13T11:58:16Z" user="HOC01" uid="9106353" lat="33.9793867" lon="131.1778186"/>
 <node id="14177745278" visible="true" version="1" changeset="188957534" timestamp="2026-09-13T11:58:16Z" user="HOC01" uid="9106353" lat="33.9794278" lon="131.1777928"/>
 <node id="14177745279" visible="true" version="1" changeset="188957534" timestamp="2026-09-13T11:58:16Z" user="HOC01" uid="9106353" lat="33.9794088" lon="131.1781665"/>
 <node id="14177745280" visible="true" version="1" changeset="188957534" timestamp="2026-09-13T11:58:16Z" user="HOC01" uid="9106353" lat="33.9795397" lon="131.1781762"/>
 <node id="14177745281" visible="true" version="1" changeset="188957534" timestamp="2026-09-13T11:58:16Z" user="HOC01" uid="9106353" lat="33.9795588" lon="131.1778025"/>
 <node id="14177745282" visible="true" version="1" changeset="188957534" timestamp="2026-09-13T11:58:16Z" user="HOC01" uid="9106353" lat="33.9796161" lon="131.1777915"/>
 <node id="14177745283" visible="true" version="1" changeset="188957534" timestamp="2026-09-13T11:58:16Z" user="HOC01" uid="9106353" lat="33.9796093" lon="131.1780196"/>
 <node id="14177745284" visible="true" version="1" changeset="188957534" timestamp="2026-09-13T11:58:16Z" user="HOC01" uid="9106353" lat="33.9795854" lon="131.1780185"/>
 <node id="14177745285" visible="true" version="1" changeset="188957534" timestamp="2026-09-13T11:58:16Z" user="HOC01" uid="9106353" lat="33.9795921" lon="131.1777905"/>
 <node id="14177754692" visible="true" version="1" changeset="188957534" timestamp="2026-09-13T11:58:16Z" user="HOC01" uid="9106353" lat="33.9815920" lon="131.1773625"/>
 <node id="14177754693" visible="true" version="1" changeset="188957534" timestamp="2026-09-13T11:58:16Z" user="HOC01" uid="9106353" lat="33.9815959" lon="131.1775559"/>
 <node id="14177754694" visible="true" version="1" changeset="188957534" timestamp="2026-09-13T11:58:16Z" user="HOC01" uid="9106353" lat="33.9814977" lon="131.1775588"/>
 <node id="14177754695" visible="true" version="1" changeset="188957534" timestamp="2026-09-13T11:58:16Z" user="HOC01" uid="9106353" lat="33.9814938" lon="131.1773653"/>
 <node id="14177754696" visible="true" version="1" changeset="188957534" timestamp="2026-09-13T11:58:16Z" user="HOC01" uid="9106353" lat="33.9800782" lon="131.1772983"/>
 <node id="14177754697" visible="true" version="1" changeset="188957534" timestamp="2026-09-13T11:58:16Z" user="HOC01" uid="9106353" lat="33.9800623" lon="131.1772965"/>
 <node id="14177754698" visible="true" version="1" changeset="188957534" timestamp="2026-09-13T11:58:16Z" user="HOC01" uid="9106353" lat="33.9799341" lon="131.1771959"/>
 <node id="14177754699" visible="true" version="1" changeset="188957534" timestamp="2026-09-13T11:58:16Z" user="HOC01" uid="9106353" lat="33.9799301" lon="131.1772499"/>
 <node id="14177754700" visible="true" version="1" changeset="188957534" timestamp="2026-09-13T11:58:16Z" user="HOC01" uid="9106353" lat="33.9800846" lon="131.1772124"/>
 <node id="14177754701" visible="true" version="1" changeset="188957534" timestamp="2026-09-13T11:58:16Z" user="HOC01" uid="9106353" lat="33.9799087" lon="131.1772476"/>
 <node id="14177754702" visible="true" version="1" changeset="188957534" timestamp="2026-09-13T11:58:16Z" user="HOC01" uid="9106353" lat="33.9799038" lon="131.1773129"/>
 <node id="14177754703" visible="true" version="1" changeset="188957534" timestamp="2026-09-13T11:58:16Z" user="HOC01" uid="9106353" lat="33.9800598" lon="131.1773300"/>
 <node id="14177754704" visible="true" version="1" changeset="188957534" timestamp="2026-09-13T11:58:16Z" user="HOC01" uid="9106353" lat="33.9799091" lon="131.1773769"/>
 <node id="14177754705" visible="true" version="1" changeset="188957534" timestamp="2026-09-13T11:58:16Z" user="HOC01" uid="9106353" lat="33.9799083" lon="131.1773987"/>
 <node id="14177754706" visible="true" version="1" changeset="188957534" timestamp="2026-09-13T11:58:16Z" user="HOC01" uid="9106353" lat="33.9799161" lon="131.1773992"/>
 <node id="14177754707" visible="true" version="1" changeset="188957534" timestamp="2026-09-13T11:58:16Z" user="HOC01" uid="9106353" lat="33.9799170" lon="131.1773774"/>
 <node id="14177754708" visible="true" version="1" changeset="188957534" timestamp="2026-09-13T11:58:16Z" user="HOC01" uid="9106353" lat="33.9799497" lon="131.1773386"/>
 <node id="14177754709" visible="true" version="1" changeset="188957534" timestamp="2026-09-13T11:58:16Z" user="HOC01" uid="9106353" lat="33.9799485" lon="131.1773679"/>
 <node id="14177754710" visible="true" version="1" changeset="188957534" timestamp="2026-09-13T11:58:16Z" user="HOC01" uid="9106353" lat="33.9799903" lon="131.1773409"/>
 <node id="14177754711" visible="true" version="1" changeset="188957534" timestamp="2026-09-13T11:58:16Z" user="HOC01" uid="9106353" lat="33.9799174" lon="131.1773662"/>
 <node id="14177754712" visible="true" version="1" changeset="188957534" timestamp="2026-09-13T11:58:16Z" user="HOC01" uid="9106353" lat="33.9799149" lon="131.1774300"/>
 <node id="14177754713" visible="true" version="1" changeset="188957534" timestamp="2026-09-13T11:58:16Z" user="HOC01" uid="9106353" lat="33.9799867" lon="131.1774341"/>
 <node id="14177754714" visible="true" version="1" changeset="188957534" timestamp="2026-09-13T11:58:16Z" user="HOC01" uid="9106353" lat="33.9802461" lon="131.1780850"/>
 <node id="14177754715" visible="true" version="1" changeset="188957534" timestamp="2026-09-13T11:58:16Z" user="HOC01" uid="9106353" lat="33.9802915" lon="131.1780847"/>
 <node id="14177754716" visible="true" version="1" changeset="188957534" timestamp="2026-09-13T11:58:16Z" user="HOC01" uid="9106353" lat="33.9802914" lon="131.1780548"/>
 <node id="14177754717" visible="true" version="1" changeset="188957534" timestamp="2026-09-13T11:58:16Z" user="HOC01" uid="9106353" lat="33.9802459" lon="131.1780552"/>
 <node id="14177754718" visible="true" version="1" changeset="188957534" timestamp="2026-09-13T11:58:16Z" user="HOC01" uid="9106353" lat="33.9808347" lon="131.1780133"/>
 <node id="14177754719" visible="true" version="1" changeset="188957534" timestamp="2026-09-13T11:58:16Z" user="HOC01" uid="9106353" lat="33.9807800" lon="131.1780341"/>
 <node id="14177754720" visible="true" version="1" changeset="188957534" timestamp="2026-09-13T11:58:16Z" user="HOC01" uid="9106353" lat="33.9807648" lon="131.1779762"/>
 <node id="14177754721" visible="true" version="1" changeset="188957534" timestamp="2026-09-13T11:58:16Z" user="HOC01" uid="9106353" lat="33.9808196" lon="131.1779554"/>
 <node id="14177754722" visible="true" version="1" changeset="188957534" timestamp="2026-09-13T11:58:16Z" user="HOC01" uid="9106353" lat="33.9808686" lon="131.1780054"/>
 <node id="14177754723" visible="true" version="1" changeset="188957534" timestamp="2026-09-13T11:58:16Z" user="HOC01" uid="9106353" lat="33.9809447" lon="131.1779846"/>
 <node id="14177754724" visible="true" version="1" changeset="188957534" timestamp="2026-09-13T11:58:16Z" user="HOC01" uid="9106353" lat="33.9809353" lon="131.1779346"/>
 <node id="14177754725" visible="true" version="1" changeset="188957534" timestamp="2026-09-13T11:58:16Z" user="HOC01" uid="9106353" lat="33.9808592" lon="131.1779554"/>
 <node id="14177754726" visible="true" version="1" changeset="188957534" timestamp="2026-09-13T11:58:16Z" user="HOC01" uid="9106353" lat="33.9811494" lon="131.1778856"/>
 <node id="14177754727" visible="true" version="1" changeset="188957534" timestamp="2026-09-13T11:58:16Z" user="HOC01" uid="9106353" lat="33.9811421" lon="131.1778568"/>
 <node id="14177754728" visible="true" version="1" changeset="188957534" timestamp="2026-09-13T11:58:16Z" user="HOC01" uid="9106353" lat="33.9810449" lon="131.1779242"/>
 <node id="14177754729" visible="true" version="1" changeset="188957534" timestamp="2026-09-13T11:58:16Z" user="HOC01" uid="9106353" lat="33.9811519" lon="131.1778532"/>
 <node id="14177754730" visible="true" version="1" changeset="188957534" timestamp="2026-09-13T11:58:16Z" user="HOC01" uid="9106353" lat="33.9811432" lon="131.1778193"/>
 <node id="14177754731" visible="true" version="1" changeset="188957534" timestamp="2026-09-13T11:58:16Z" user="HOC01" uid="9106353" lat="33.9810290" lon="131.1778615"/>
 <way id="120611658" visible="true" version="8" changeset="171484087" timestamp="2025-09-05T08:02:13Z" user="taketaketake" uid="4757277">
  <nd ref="1351961384"/>
  <nd ref="5526569115"/>
  <nd ref="1351961532"/>
  <nd ref="1351961577"/>
  <nd ref="1351961604"/>
  <nd ref="1351961627"/>
  <nd ref="1351961745"/>
  <nd ref="2019462493"/>
  <nd ref="1351961898"/>
  <tag k="highway" v="secondary"/>
  <tag k="lanes" v="2"/>
  <tag k="name" v="小野田港線"/>
  <tag k="name:en" v="Onoda Port Line"/>
  <tag k="name:ja" v="小野田港線"/>
  <tag k="name:ja-Hira" v="おのだこうせん"/>
  <tag k="name:ja_rm" v="Onodakō-sen"/>
  <tag k="old_name" v="国道190号"/>
  <tag k="old_name:en" v="National Highway Route 190"/>
  <tag k="old_name:ja" v="国道190号"/>
  <tag k="old_ref" v="190"/>
  <tag k="ref" v="223"/>
  <tag k="source" v="YahooJapan/ALPSMAP"/>
  <tag k="surface" v="asphalt"/>
  <tag k="wikidata" v="Q11467209"/>
  <tag k="wikipedia" v="ja:山口県道223号小野田港線"/>
 </way>
 <way id="120612714" visible="true" version="1" changeset="8653379" timestamp="2011-07-07T00:38:29Z" user="yamasan" uid="32308">
  <nd ref="1351961524"/>
  <nd ref="1351961541"/>
  <tag k="highway" v="unclassified"/>
  <tag k="source" v="YahooJapan/ALPSMAP"/>
  <tag k="yh:STRUCTURE" v="地上"/>
  <tag k="yh:TOTYUMONO" v="供用中"/>
  <tag k="yh:TYPE" v="その他一般道"/>
  <tag k="yh:WIDTH" v="3.0m〜5.5m"/>
  <tag k="yh:WIDTH_RANK" v="3"/>
 </way>
 <way id="120614021" visible="true" version="2" changeset="13096897" timestamp="2012-09-13T15:15:30Z" user="mklyr" uid="614924">
  <nd ref="1351961520"/>
  <nd ref="1351961524"/>
  <tag k="highway" v="unclassified"/>
  <tag k="source" v="YahooJapan/ALPSMAP"/>
  <tag k="yh:STRUCTURE" v="地上"/>
  <tag k="yh:TOTYUMONO" v="供用中"/>
  <tag k="yh:TYPE" v="その他一般道"/>
  <tag k="yh:WIDTH" v="3.0m〜5.5m"/>
  <tag k="yh:WIDTH_RANK" v="3"/>
 </way>
 <way id="120614256" visible="true" version="3" changeset="57788526" timestamp="2018-04-04T01:17:46Z" user="mklyr" uid="614924">
  <nd ref="1351961582"/>
  <nd ref="5526569140"/>
  <nd ref="1351961577"/>
  <tag k="highway" v="unclassified"/>
  <tag k="source" v="YahooJapan/ALPSMAP"/>
 </way>
 <way id="120614597" visible="true" version="4" changeset="13915636" timestamp="2012-11-18T09:35:51Z" user="mklyr" uid="614924">
  <nd ref="1351961604"/>
  <nd ref="1351961582"/>
  <tag k="highway" v="unclassified"/>
  <tag k="oneway" v="yes"/>
  <tag k="source" v="YahooJapan/ALPSMAP"/>
  <tag k="yh:WIDTH" v="3.0m〜5.5m"/>
 </way>
 <way id="120614920" visible="true" version="2" changeset="13066350" timestamp="2012-09-11T09:16:38Z" user="mklyr" uid="614924">
  <nd ref="1351961577"/>
  <nd ref="1351961570"/>
  <tag k="highway" v="unclassified"/>
  <tag k="source" v="YahooJapan/ALPSMAP"/>
  <tag k="yh:STRUCTURE" v="地上"/>
  <tag k="yh:TOTYUMONO" v="供用中"/>
  <tag k="yh:TYPE" v="その他一般道"/>
  <tag k="yh:WIDTH" v="3.0m〜5.5m"/>
  <tag k="yh:WIDTH_RANK" v="3"/>
 </way>
 <way id="120615082" visible="true" version="3" changeset="57788526" timestamp="2018-04-04T01:17:47Z" user="mklyr" uid="614924">
  <nd ref="1351961391"/>
  <nd ref="5526569116"/>
  <nd ref="1351961524"/>
  <tag k="highway" v="unclassified"/>
  <tag k="source" v="YahooJapan/ALPSMAP"/>
 </way>
 <way id="120615152" visible="true" version="2" changeset="11133979" timestamp="2012-03-29T06:41:57Z" user="mklyr" uid="614924">
  <nd ref="1351961532"/>
  <nd ref="1351961517"/>
  <tag k="highway" v="unclassified"/>
  <tag k="source" v="YahooJapan/ALPSMAP"/>
  <tag k="yh:STRUCTURE" v="地上"/>
  <tag k="yh:TOTYUMONO" v="供用中"/>
  <tag k="yh:TYPE" v="その他一般道"/>
  <tag k="yh:WIDTH" v="3.0m〜5.5m"/>
  <tag k="yh:WIDTH_RANK" v="3"/>
 </way>
 <way id="120615185" visible="true" version="4" changeset="76382222" timestamp="2019-10-30T09:08:58Z" user="mklyr" uid="614924">
  <nd ref="1351961582"/>
  <nd ref="1351961569"/>
  <nd ref="1351961541"/>
  <tag k="highway" v="unclassified"/>
  <tag k="oneway" v="yes"/>
  <tag k="source" v="YahooJapan/ALPSMAP"/>
 </way>
 <way id="120615326" visible="true" version="3" changeset="13915636" timestamp="2012-11-18T09:35:52Z" user="mklyr" uid="614924">
  <nd ref="1351961629"/>
  <nd ref="1351961604"/>
  <tag k="highway" v="unclassified"/>
  <tag k="oneway" v="yes"/>
  <tag k="source" v="YahooJapan/ALPSMAP"/>
  <tag k="yh:WIDTH" v="3.0m〜5.5m"/>
 </way>
 <way id="120615327" visible="true" version="2" changeset="11133979" timestamp="2012-03-29T06:42:00Z" user="mklyr" uid="614924">
  <nd ref="1351961627"/>
  <nd ref="1351961645"/>
  <tag k="highway" v="unclassified"/>
  <tag k="source" v="YahooJapan/ALPSMAP"/>
  <tag k="yh:STRUCTURE" v="地上"/>
  <tag k="yh:TOTYUMONO" v="供用中"/>
  <tag k="yh:TYPE" v="その他一般道"/>
  <tag k="yh:WIDTH" v="3.0m〜5.5m"/>
  <tag k="yh:WIDTH_RANK" v="3"/>
 </way>
 <way id="120615404" visible="true" version="5" changeset="76382222" timestamp="2019-10-30T09:08:58Z" user="mklyr" uid="614924">
  <nd ref="1351961591"/>
  <nd ref="1351961596"/>
  <nd ref="1351961603"/>
  <nd ref="1351961627"/>
  <tag k="highway" v="path"/>
  <tag k="source" v="YahooJapan/ALPSMAP"/>
 </way>
 <way id="120615547" visible="true" version="2" changeset="13066350" timestamp="2012-09-11T09:19:34Z" user="mklyr" uid="614924">
  <nd ref="1351961541"/>
  <nd ref="1351961532"/>
  <tag k="highway" v="unclassified"/>
  <tag k="source" v="YahooJapan/ALPSMAP"/>
  <tag k="yh:STRUCTURE" v="地上"/>
  <tag k="yh:TOTYUMONO" v="供用中"/>
  <tag k="yh:TYPE" v="その他一般道"/>
  <tag k="yh:WIDTH" v="3.0m〜5.5m"/>
  <tag k="yh:WIDTH_RANK" v="3"/>
 </way>
 <way id="741220123" visible="true" version="2" changeset="88521680" timestamp="2020-07-26T13:53:13Z" user="higa4" uid="162590">
  <nd ref="6939139908"/>
  <nd ref="6939139907"/>
  <nd ref="6939139906"/>
  <nd ref="6939139905"/>
  <nd ref="6939139904"/>
  <nd ref="6939139903"/>
  <nd ref="6939139902"/>
  <nd ref="6939139901"/>
  <nd ref="6939139900"/>
  <nd ref="6939139899"/>
  <nd ref="6939139898"/>
  <nd ref="6939139897"/>
  <nd ref="6939139908"/>
  <tag k="amenity" v="school"/>
  <tag k="name" v="県立小野田工業高等学校"/>
  <tag k="note" v="National-Land Numerical Information (Public Facility) 2006, MLIT Japan"/>
  <tag k="note:ja" v="国土数値情報（公共施設データ）平成19年　国土交通省"/>
  <tag k="source" v="KSJ2"/>
  <tag k="source_ref" v="http://nlftp.mlit.go.jp/ksj/jpgis/datalist/KsjTmplt-P02-v2_0.html"/>
  <tag k="wikidata" v="Q11467056"/>
  <tag k="wikipedia" v="ja:山口県立小野田工業高等学校"/>
 </way>
 <way id="1557607989" visible="true" version="1" changeset="188770272" timestamp="2026-09-09T12:12:19Z" user="HOC01" uid="9106353">
  <nd ref="14166507571"/>
  <nd ref="14166507570"/>
  <nd ref="14166507567"/>
  <nd ref="14166507566"/>
  <nd ref="14166507569"/>
  <nd ref="14166507565"/>
  <nd ref="14166507564"/>
  <nd ref="14166507568"/>
  <nd ref="14166507571"/>
  <tag k="building" v="yes"/>
 </way>
 <way id="1557607990" visible="true" version="1" changeset="188770272" timestamp="2026-09-09T12:12:19Z" user="HOC01" uid="9106353">
  <nd ref="14166507589"/>
  <nd ref="14166507574"/>
  <nd ref="14166507573"/>
  <nd ref="14166507572"/>
  <nd ref="14166507575"/>
  <nd ref="14166507588"/>
  <nd ref="14166507577"/>
  <nd ref="14166507576"/>
  <nd ref="14166507587"/>
  <nd ref="14166507583"/>
  <nd ref="14166507582"/>
  <nd ref="14166507580"/>
  <nd ref="14166507581"/>
  <nd ref="14166507579"/>
  <nd ref="14166507578"/>
  <nd ref="14166507586"/>
  <nd ref="14166507584"/>
  <nd ref="14166507585"/>
  <nd ref="14166507589"/>
  <tag k="building" v="yes"/>
 </way>
 <way id="1557659586" visible="true" version="1" changeset="188781873" timestamp="2026-09-09T16:10:39Z" user="HOC01" uid="9106353">
  <nd ref="14166943376"/>
  <nd ref="14166943373"/>
  <nd ref="14166943372"/>
  <nd ref="14166943371"/>
  <nd ref="14166943370"/>
  <nd ref="14166943369"/>
  <nd ref="14166943374"/>
  <nd ref="14166943368"/>
  <nd ref="14166943366"/>
  <nd ref="14166943365"/>
  <nd ref="14166943367"/>
  <nd ref="14166943375"/>
  <nd ref="14166943376"/>
  <tag k="building" v="yes"/>
 </way>
 <way id="1557664219" visible="true" version="1" changeset="188783148" timestamp="2026-09-09T16:38:03Z" user="HOC01" uid="9106353">
  <nd ref="14166970768"/>
  <nd ref="14166970765"/>
  <nd ref="14166970766"/>
  <nd ref="14166970763"/>
  <nd ref="14166970764"/>
  <nd ref="14166970767"/>
  <nd ref="14166970768"/>
  <tag k="building" v="yes"/>
 </way>
 <way id="1557664220" visible="true" version="1" changeset="188783148" timestamp="2026-09-09T16:38:03Z" user="HOC01" uid="9106353">
  <nd ref="14166970772"/>
  <nd ref="14166970771"/>
  <nd ref="14166970770"/>
  <nd ref="14166970769"/>
  <nd ref="14166970772"/>
  <tag k="building" v="yes"/>
 </way>
 <way id="1557664221" visible="true" version="1" changeset="188783148" timestamp="2026-09-09T16:38:03Z" user="HOC01" uid="9106353">
  <nd ref="14166970782"/>
  <nd ref="14166970781"/>
  <nd ref="14166970774"/>
  <nd ref="14166970773"/>
  <nd ref="14166970780"/>
  <nd ref="14166970775"/>
  <nd ref="14166970776"/>
  <nd ref="14166970777"/>
  <nd ref="14166970778"/>
  <nd ref="14166970779"/>
  <nd ref="14166970782"/>
  <tag k="building" v="yes"/>
 </way>
 <way id="1557664222" visible="true" version="1" changeset="188783148" timestamp="2026-09-09T16:38:03Z" user="HOC01" uid="9106353">
  <nd ref="14166970786"/>
  <nd ref="14166970783"/>
  <nd ref="14166970784"/>
  <nd ref="14166970785"/>
  <nd ref="14166970786"/>
  <tag k="building" v="yes"/>
 </way>
 <way id="1557664223" visible="true" version="1" changeset="188783148" timestamp="2026-09-09T16:38:03Z" user="HOC01" uid="9106353">
  <nd ref="14166970796"/>
  <nd ref="14166970794"/>
  <nd ref="14166970793"/>
  <nd ref="14166970792"/>
  <nd ref="14166970788"/>
  <nd ref="14166970789"/>
  <nd ref="14166970790"/>
  <nd ref="14166970791"/>
  <nd ref="14166970787"/>
  <nd ref="14166970795"/>
  <nd ref="14166970796"/>
  <tag k="building" v="yes"/>
 </way>
 <way id="1557664224" visible="true" version="1" changeset="188783148" timestamp="2026-09-09T16:38:03Z" user="HOC01" uid="9106353">
  <nd ref="14167009002"/>
  <nd ref="14167009001"/>
  <nd ref="14166970800"/>
  <nd ref="14166970797"/>
  <nd ref="14166970798"/>
  <nd ref="14166970799"/>
  <nd ref="14167009002"/>
  <tag k="building" v="yes"/>
 </way>
 <way id="1557664225" visible="true" version="1" changeset="188783148" timestamp="2026-09-09T16:38:03Z" user="HOC01" uid="9106353">
  <nd ref="14167009015"/>
  <nd ref="14167009008"/>
  <nd ref="14167009006"/>
  <nd ref="14167009005"/>
  <nd ref="14167009007"/>
  <nd ref="14167009014"/>
  <nd ref="14167009004"/>
  <nd ref="14167009013"/>
  <nd ref="14167009003"/>
  <nd ref="14167009012"/>
  <nd ref="14167009010"/>
  <nd ref="14167009011"/>
  <nd ref="14167009009"/>
  <nd ref="14167009015"/>
  <tag k="building" v="yes"/>
 </way>
 <way id="1557664226" visible="true" version="1" changeset="188783148" timestamp="2026-09-09T16:38:03Z" user="HOC01" uid="9106353">
  <nd ref="14167009025"/>
  <nd ref="14167009022"/>
  <nd ref="14167009021"/>
  <nd ref="14167009020"/>
  <nd ref="14167009023"/>
  <nd ref="14167009019"/>
  <nd ref="14167009017"/>
  <nd ref="14167009016"/>
  <nd ref="14167009018"/>
  <nd ref="14167009024"/>
  <nd ref="14167009025"/>
  <tag k="building" v="yes"/>
 </way>
 <way id="1557664227" visible="true" version="1" changeset="188783148" timestamp="2026-09-09T16:38:03Z" user="HOC01" uid="9106353">
  <nd ref="14167009033"/>
  <nd ref="14167009032"/>
  <nd ref="14167009028"/>
  <nd ref="14167009027"/>
  <nd ref="14167009026"/>
  <nd ref="14167009029"/>
  <nd ref="14167009031"/>
  <nd ref="14167009030"/>
  <nd ref="14167009033"/>
  <tag k="building" v="yes"/>
 </way>
 <way id="1557664228" visible="true" version="1" changeset="188783148" timestamp="2026-09-09T16:38:03Z" user="HOC01" uid="9106353">
  <nd ref="14167009043"/>
  <nd ref="14167009039"/>
  <nd ref="14167009038"/>
  <nd ref="14167009042"/>
  <nd ref="14167009034"/>
  <nd ref="14167009035"/>
  <nd ref="14167009041"/>
  <nd ref="14167009036"/>
  <nd ref="14167009037"/>
  <nd ref="14167009040"/>
  <nd ref="14167009043"/>
  <tag k="building" v="yes"/>
 </way>
 <way id="1557664229" visible="true" version="1" changeset="188783148" timestamp="2026-09-09T16:38:03Z" user="HOC01" uid="9106353">
  <nd ref="14167009053"/>
  <nd ref="14167009047"/>
  <nd ref="14167009046"/>
  <nd ref="14167009050"/>
  <nd ref="14167009044"/>
  <nd ref="14167009045"/>
  <nd ref="14167009051"/>
  <nd ref="14167009048"/>
  <nd ref="14167009049"/>
  <nd ref="14167009052"/>
  <nd ref="14167009053"/>
  <tag k="building" v="yes"/>
 </way>
 <way id="1557664230" visible="true" version="1" changeset="188783148" timestamp="2026-09-09T16:38:03Z" user="HOC01" uid="9106353">
  <nd ref="14167009057"/>
  <nd ref="14167009054"/>
  <nd ref="14167009055"/>
  <nd ref="14167009056"/>
  <nd ref="14167009057"/>
  <tag k="building" v="yes"/>
 </way>
 <way id="1557664231" visible="true" version="1" changeset="188783148" timestamp="2026-09-09T16:38:03Z" user="HOC01" uid="9106353">
  <nd ref="14167009061"/>
  <nd ref="14167009058"/>
  <nd ref="14167009059"/>
  <nd ref="14167009060"/>
  <nd ref="14167009061"/>
  <tag k="building" v="yes"/>
 </way>
 <way id="1557664232" visible="true" version="1" changeset="188783148" timestamp="2026-09-09T16:38:03Z" user="HOC01" uid="9106353">
  <nd ref="14167009067"/>
  <nd ref="14167009064"/>
  <nd ref="14167009065"/>
  <nd ref="14167009062"/>
  <nd ref="14167009063"/>
  <nd ref="14167009066"/>
  <nd ref="14167009067"/>
  <tag k="building" v="yes"/>
 </way>
 <way id="1557664233" visible="true" version="1" changeset="188783148" timestamp="2026-09-09T16:38:03Z" user="HOC01" uid="9106353">
  <nd ref="14167009075"/>
  <nd ref="14167009071"/>
  <nd ref="14167009070"/>
  <nd ref="14167009072"/>
  <nd ref="14167009068"/>
  <nd ref="14167009069"/>
  <nd ref="14167009073"/>
  <nd ref="14167009074"/>
  <nd ref="14167009075"/>
  <tag k="building" v="yes"/>
 </way>
 <way id="1557664234" visible="true" version="1" changeset="188783148" timestamp="2026-09-09T16:38:03Z" user="HOC01" uid="9106353">
  <nd ref="14167009081"/>
  <nd ref="14167009078"/>
  <nd ref="14167009077"/>
  <nd ref="14167009076"/>
  <nd ref="14167009079"/>
  <nd ref="14167009080"/>
  <nd ref="14167009081"/>
  <tag k="building" v="yes"/>
 </way>
 <way id="1557732970" visible="true" version="1" changeset="188796303" timestamp="2026-09-09T22:56:33Z" user="HOC01" uid="9106353">
  <nd ref="14167875102"/>
  <nd ref="14167875099"/>
  <nd ref="14167875097"/>
  <nd ref="14167875098"/>
  <nd ref="14167875100"/>
  <nd ref="14167875101"/>
  <nd ref="14167875102"/>
  <tag k="building" v="yes"/>
 </way>
 <way id="1557732971" visible="true" version="1" changeset="188796303" timestamp="2026-09-09T22:56:33Z" user="HOC01" uid="9106353">
  <nd ref="14167875117"/>
  <nd ref="14167875114"/>
  <nd ref="14167875113"/>
  <nd ref="14167875115"/>
  <nd ref="14167875107"/>
  <nd ref="14167875108"/>
  <nd ref="14167875109"/>
  <nd ref="14167875110"/>
  <nd ref="14167875111"/>
  <nd ref="14167875112"/>
  <nd ref="14167875106"/>
  <nd ref="14167875104"/>
  <nd ref="14167875103"/>
  <nd ref="14167875105"/>
  <nd ref="14167875116"/>
  <nd ref="14167875117"/>
  <tag k="building" v="yes"/>
 </way>
 <way id="1557732972" visible="true" version="1" changeset="188796303" timestamp="2026-09-09T22:56:33Z" user="HOC01" uid="9106353">
  <nd ref="14167875121"/>
  <nd ref="14167875118"/>
  <nd ref="14167875119"/>
  <nd ref="14167875120"/>
  <nd ref="14167875121"/>
  <tag k="building" v="yes"/>
 </way>
 <way id="1557732973" visible="true" version="1" changeset="188796303" timestamp="2026-09-09T22:56:33Z" user="HOC01" uid="9106353">
  <nd ref="14167875125"/>
  <nd ref="14167875122"/>
  <nd ref="14167875123"/>
  <nd ref="14167875124"/>
  <nd ref="14167875125"/>
  <tag k="building" v="yes"/>
 </way>
 <way id="1557732974" visible="true" version="1" changeset="188796303" timestamp="2026-09-09T22:56:33Z" user="HOC01" uid="9106353">
  <nd ref="14167875129"/>
  <nd ref="14167875128"/>
  <nd ref="14167875127"/>
  <nd ref="14167875126"/>
  <nd ref="14167875129"/>
  <tag k="building" v="yes"/>
 </way>
 <way id="1557732975" visible="true" version="1" changeset="188796303" timestamp="2026-09-09T22:56:33Z" user="HOC01" uid="9106353">
  <nd ref="14167875140"/>
  <nd ref="14167875139"/>
  <nd ref="14167875138"/>
  <nd ref="14167875135"/>
  <nd ref="14167875136"/>
  <nd ref="14167875131"/>
  <nd ref="14167875130"/>
  <nd ref="14167875137"/>
  <nd ref="14167875132"/>
  <nd ref="14167875133"/>
  <nd ref="14167875134"/>
  <nd ref="14167875140"/>
  <tag k="building" v="yes"/>
 </way>
 <way id="1557732976" visible="true" version="1" changeset="188796303" timestamp="2026-09-09T22:56:33Z" user="HOC01" uid="9106353">
  <nd ref="14167875144"/>
  <nd ref="14167875141"/>
  <nd ref="14167875142"/>
  <nd ref="14167875143"/>
  <nd ref="14167875144"/>
  <tag k="building" v="yes"/>
 </way>
 <way id="1557732977" visible="true" version="1" changeset="188796303" timestamp="2026-09-09T22:56:33Z" user="HOC01" uid="9106353">
  <nd ref="14167875148"/>
  <nd ref="14167875145"/>
  <nd ref="14167875146"/>
  <nd ref="14167875147"/>
  <nd ref="14167875148"/>
  <tag k="building" v="yes"/>
 </way>
 <way id="1557732978" visible="true" version="1" changeset="188796303" timestamp="2026-09-09T22:56:33Z" user="HOC01" uid="9106353">
  <nd ref="14167875156"/>
  <nd ref="14167875153"/>
  <nd ref="14167875149"/>
  <nd ref="14167875150"/>
  <nd ref="14167875152"/>
  <nd ref="14167875151"/>
  <nd ref="14167875154"/>
  <nd ref="14167875155"/>
  <nd ref="14167875156"/>
  <tag k="building" v="yes"/>
 </way>
 <way id="1558519106" visible="true" version="1" changeset="188957534" timestamp="2026-09-13T11:58:16Z" user="HOC01" uid="9106353">
  <nd ref="14177745277"/>
  <nd ref="14177745274"/>
  <nd ref="14177745275"/>
  <nd ref="14177745272"/>
  <nd ref="14177745273"/>
  <nd ref="14177745276"/>
  <nd ref="14177745277"/>
  <tag k="building" v="yes"/>
 </way>
 <way id="1558519107" visible="true" version="1" changeset="188957534" timestamp="2026-09-13T11:58:16Z" user="HOC01" uid="9106353">
  <nd ref="14177745281"/>
  <nd ref="14177745280"/>
  <nd ref="14177745279"/>
  <nd ref="14177745278"/>
  <nd ref="14177745281"/>
  <tag k="building" v="yes"/>
 </way>
 <way id="1558519108" visible="true" version="1" changeset="188957534" timestamp="2026-09-13T11:58:16Z" user="HOC01" uid="9106353">
  <nd ref="14177745285"/>
  <nd ref="14177745282"/>
  <nd ref="14177745283"/>
  <nd ref="14177745284"/>
  <nd ref="14177745285"/>
  <tag k="building" v="yes"/>
 </way>
 <way id="1558519123" visible="true" version="1" changeset="188957534" timestamp="2026-09-13T11:58:16Z" user="HOC01" uid="9106353">
  <nd ref="14177754695"/>
  <nd ref="14177754692"/>
  <nd ref="14177754693"/>
  <nd ref="14177754694"/>
  <nd ref="14177754695"/>
  <tag k="building" v="yes"/>
 </way>
 <way id="1558519124" visible="true" version="1" changeset="188957534" timestamp="2026-09-13T11:58:16Z" user="HOC01" uid="9106353">
  <nd ref="14177754703"/>
  <nd ref="14177754702"/>
  <nd ref="14177754701"/>
  <nd ref="14177754699"/>
  <nd ref="14177754698"/>
  <nd ref="14177754700"/>
  <nd ref="14177754696"/>
  <nd ref="14177754697"/>
  <nd ref="14177754703"/>
  <tag k="building" v="yes"/>
 </way>
 <way id="1558519125" visible="true" version="1" changeset="188957534" timestamp="2026-09-13T11:58:16Z" user="HOC01" uid="9106353">
  <nd ref="14177754713"/>
  <nd ref="14177754712"/>
  <nd ref="14177754706"/>
  <nd ref="14177754705"/>
  <nd ref="14177754704"/>
  <nd ref="14177754707"/>
  <nd ref="14177754711"/>
  <nd ref="14177754709"/>
  <nd ref="14177754708"/>
  <nd ref="14177754710"/>
  <nd ref="14177754713"/>
  <tag k="building" v="yes"/>
 </way>
 <way id="1558519126" visible="true" version="1" changeset="188957534" timestamp="2026-09-13T11:58:16Z" user="HOC01" uid="9106353">
  <nd ref="14177754717"/>
  <nd ref="14177754716"/>
  <nd ref="14177754715"/>
  <nd ref="14177754714"/>
  <nd ref="14177754717"/>
  <tag k="building" v="yes"/>
 </way>
 <way id="1558519127" visible="true" version="1" changeset="188957534" timestamp="2026-09-13T11:58:16Z" user="HOC01" uid="9106353">
  <nd ref="14177754721"/>
  <nd ref="14177754718"/>
  <nd ref="14177754719"/>
  <nd ref="14177754720"/>
  <nd ref="14177754721"/>
  <tag k="building" v="yes"/>
 </way>
 <way id="1558519128" visible="true" version="1" changeset="188957534" timestamp="2026-09-13T11:58:16Z" user="HOC01" uid="9106353">
  <nd ref="14177754725"/>
  <nd ref="14177754724"/>
  <nd ref="14177754723"/>
  <nd ref="14177754722"/>
  <nd ref="14177754725"/>
  <tag k="building" v="yes"/>
 </way>
 <way id="1558519129" visible="true" version="1" changeset="188957534" timestamp="2026-09-13T11:58:16Z" user="HOC01" uid="9106353">
  <nd ref="14177754731"/>
  <nd ref="14177754730"/>
  <nd ref="14177754729"/>
  <nd ref="14177754727"/>
  <nd ref="14177754726"/>
  <nd ref="14177754728"/>
  <nd ref="14177754731"/>
  <tag k="building" v="yes"/>
 </way>
 <relation id="19566936" visible="true" version="1" changeset="171484087" timestamp="2025-09-05T08:02:13Z" user="taketaketake" uid="4757277">
  <member type="way" ref="120611655" role=""/>
  <member type="way" ref="120611657" role=""/>
  <member type="way" ref="120611658" role=""/>
  <member type="way" ref="343115052" role=""/>
  <member type="way" ref="120611643" role=""/>
  <member type="way" ref="120611647" role=""/>
  <member type="way" ref="120611649" role=""/>
  <member type="way" ref="120611651" role=""/>
  <tag k="from" v="山口県山陽小野田市港町（小野田港）"/>
  <tag k="name" v="山口県道223号　小野田港線"/>
  <tag k="name:en" v="Yamaguchi Prefectural Route 223 Onoda Port Line"/>
  <tag k="name:ja" v="山口県道223号　小野田港線"/>
  <tag k="name:ja-Hira" v="やまぐちけんどう223ごう おのだこうせん"/>
  <tag k="name:ja_rm" v="Yamaguchikendō 223-gō Onodakō-sen"/>
  <tag k="network" v="JP:prefectural"/>
  <tag k="ref" v="223"/>
  <tag k="route" v="road"/>
  <tag k="to" v="山口県山陽小野田市新生1丁目"/>
  <tag k="type" v="route"/>
  <tag k="wikidata" v="Q11467209"/>
  <tag k="wikipedia" v="ja:山口県道223号小野田港線"/>
 </relation>
</osm>
