<?xml version="1.0" encoding="UTF-8"?>
<osm version="0.6" generator="openstreetmap-cgimap 2.1.0 (2942774 spike-08.openstreetmap.org)" copyright="OpenStreetMap and contributors" attribution="http://www.openstreetmap.org/copyright" license="http://opendatacommons.org/licenses/odbl/1-0/">
 <bounds minlat="33.9889950" minlon="131.1716260" maxlat="33.9913950" maxlon="131.1746260"/>
 <node id="1351961384" visible="true" version="10" changeset="55071543" timestamp="2018-01-01T09:14:42Z" user="mklyr" uid="614924" lat="33.9778079" lon="131.1774118">
  <tag k="highway" v="traffic_signals"/>
  <tag k="name:ja" v="公園通り"/>
 </node>
 <node id="1351961391" visible="true" version="6" changeset="55071543" timestamp="2018-01-01T09:14:42Z" user="mklyr" uid="614924" lat="33.9779219" lon="131.1760352"/>
 <node id="1351961392" visible="true" version="7" changeset="76482290" timestamp="2019-11-01T08:42:48Z" user="mklyr" uid="614924" lat="33.9779633" lon="131.1755399">
  <tag k="highway" v="traffic_signals"/>
 </node>
 <node id="1351961397" visible="true" version="3" changeset="55071543" timestamp="2018-01-01T09:14:42Z" user="mklyr" uid="614924" lat="33.9779836" lon="131.1745210"/>
 <node id="1351961400" visible="true" version="4" changeset="55071543" timestamp="2018-01-01T09:14:42Z" user="mklyr" uid="614924" lat="33.9780099" lon="131.1739397"/>
 <node id="1351961403" visible="true" version="4" changeset="55071543" timestamp="2018-01-01T09:14:42Z" user="mklyr" uid="614924" lat="33.9781316" lon="131.1737039"/>
 <node id="1351961404" visible="true" version="4" changeset="55071543" timestamp="2018-01-01T09:14:42Z" user="mklyr" uid="614924" lat="33.9782024" lon="131.1736356"/>
 <node id="1351961405" visible="true" version="4" changeset="55071543" timestamp="2018-01-01T09:14:42Z" user="mklyr" uid="614924" lat="33.9782574" lon="131.1735911"/>
 <node id="1351961426" visible="true" version="4" changeset="55071543" timestamp="2018-01-01T09:14:42Z" user="mklyr" uid="614924" lat="33.9783592" lon="131.1735371"/>
 <node id="1351961428" visible="true" version="3" changeset="14637212" timestamp="2013-01-13T16:57:38Z" user="mklyr" uid="614924" lat="33.9784930" lon="131.1735068"/>
 <node id="1351961433" visible="true" version="3" changeset="14637212" timestamp="2013-01-13T16:57:38Z" user="mklyr" uid="614924" lat="33.9786130" lon="131.1734953"/>
 <node id="1351961506" visible="true" version="5" changeset="55071543" timestamp="2018-01-01T09:14:42Z" user="mklyr" uid="614924" lat="33.9795829" lon="131.1734352">
  <tag k="highway" v="traffic_signals"/>
 </node>
 <node id="1351961593" visible="true" version="5" changeset="55071543" timestamp="2018-01-01T09:14:42Z" user="mklyr" uid="614924" lat="33.9807444" lon="131.1733716"/>
 <node id="1351961670" visible="true" version="4" changeset="55071543" timestamp="2018-01-01T09:14:42Z" user="mklyr" uid="614924" lat="33.9819159" lon="131.1732773"/>
 <node id="1351961722" visible="true" version="5" changeset="55071543" timestamp="2018-01-01T09:14:42Z" user="mklyr" uid="614924" lat="33.9830685" lon="131.1731819"/>
 <node id="1351961775" visible="true" version="6" changeset="127657726" timestamp="2022-10-17T08:51:43Z" user="mklyr" uid="614924" lat="33.9836840" lon="131.1731269"/>
 <node id="1351961882" visible="true" version="8" changeset="57195097" timestamp="2018-03-15T01:35:53Z" user="mklyr" uid="614924" lat="33.9854179" lon="131.1729749">
  <tag k="highway" v="traffic_signals"/>
 </node>
 <node id="1351962036" visible="true" version="9" changeset="55071543" timestamp="2018-01-01T09:14:42Z" user="mklyr" uid="614924" lat="33.9876840" lon="131.1728018">
  <tag k="highway" v="traffic_signals"/>
 </node>
 <node id="1351962045" visible="true" version="7" changeset="85056906" timestamp="2020-05-12T04:24:38Z" user="mklyr" uid="614924" lat="33.9877411" lon="131.1737901"/>
 <node id="1351962136" visible="true" version="4" changeset="76382222" timestamp="2019-10-30T09:08:58Z" user="mklyr" uid="614924" lat="33.9889364" lon="131.1737134"/>
 <node id="1351962253" visible="true" version="8" changeset="56817749" timestamp="2018-03-02T11:49:48Z" user="mklyr" uid="614924" lat="33.9899349" lon="131.1694080">
  <tag k="highway" v="traffic_signals"/>
  <tag k="name:ja" v="中川5丁目"/>
 </node>
 <node id="1351962273" visible="true" version="4" changeset="54987057" timestamp="2017-12-28T15:58:41Z" user="mklyr" uid="614924" lat="33.9899891" lon="131.1709426"/>
 <node id="1351962278" visible="true" version="4" changeset="54987057" timestamp="2017-12-28T15:58:41Z" user="mklyr" uid="614924" lat="33.9900317" lon="131.1713474"/>
 <node id="1351962294" visible="true" version="8" changeset="54987057" timestamp="2017-12-28T15:58:41Z" user="mklyr" uid="614924" lat="33.9901062" lon="131.1726030">
  <tag k="highway" v="traffic_signals"/>
 </node>
 <node id="1351962324" visible="true" version="7" changeset="54987057" timestamp="2017-12-28T15:58:41Z" user="mklyr" uid="614924" lat="33.9902374" lon="131.1749368"/>
 <node id="1908486771" visible="true" version="3" changeset="54987057" timestamp="2017-12-28T15:58:41Z" user="mklyr" uid="614924" lat="33.9899365" lon="131.1704945"/>
 <node id="1908486822" visible="true" version="5" changeset="55071543" timestamp="2018-01-01T09:14:43Z" user="mklyr" uid="614924" lat="33.9779569" lon="131.1756318"/>
 <node id="1912892893" visible="true" version="5" changeset="57195097" timestamp="2018-03-15T01:35:53Z" user="mklyr" uid="614924" lat="33.9839794" lon="131.1731046"/>
 <node id="1945469902" visible="true" version="4" changeset="55071543" timestamp="2018-01-01T09:14:43Z" user="mklyr" uid="614924" lat="33.9779906" lon="131.1749282">
  <tag k="railway" v="level_crossing"/>
 </node>
 <node id="2109173126" visible="true" version="2" changeset="55071543" timestamp="2018-01-01T09:14:43Z" user="mklyr" uid="614924" lat="33.9779764" lon="131.1741535"/>
 <node id="2109173129" visible="true" version="2" changeset="55071543" timestamp="2018-01-01T09:14:43Z" user="mklyr" uid="614924" lat="33.9779875" lon="131.1740368"/>
 <node id="2109173138" visible="true" version="2" changeset="55071543" timestamp="2018-01-01T09:14:43Z" user="mklyr" uid="614924" lat="33.9780390" lon="131.1738632"/>
 <node id="2109173139" visible="true" version="2" changeset="55071543" timestamp="2018-01-01T09:14:43Z" user="mklyr" uid="614924" lat="33.9780728" lon="131.1737883"/>
 <node id="2315541970" visible="true" version="2" changeset="54987057" timestamp="2017-12-28T15:58:42Z" user="mklyr" uid="614924" lat="33.9899192" lon="131.1699827"/>
 <node id="3265420337" visible="true" version="2" changeset="55071543" timestamp="2018-01-01T09:14:44Z" user="mklyr" uid="614924" lat="33.9779888" lon="131.1750086"/>
 <node id="4267863789" visible="true" version="2" changeset="56817749" timestamp="2018-03-02T11:49:54Z" user="mklyr" uid="614924" lat="33.9911925" lon="131.1745076"/>
 <node id="4267863790" visible="true" version="2" changeset="56817749" timestamp="2018-03-02T11:49:54Z" user="mklyr" uid="614924" lat="33.9907864" lon="131.1745450"/>
 <node id="4267863791" visible="true" version="3" changeset="56817749" timestamp="2018-03-02T11:49:54Z" user="mklyr" uid="614924" lat="33.9908045" lon="131.1748312"/>
 <node id="4267863792" visible="true" version="2" changeset="56817749" timestamp="2018-03-02T11:49:54Z" user="mklyr" uid="614924" lat="33.9912106" lon="131.1747939"/>
 <node id="4267864208" visible="true" version="4" changeset="85056906" timestamp="2020-05-12T04:24:38Z" user="mklyr" uid="614924" lat="33.9904681" lon="131.1748804"/>
 <node id="4267864209" visible="true" version="4" changeset="85056906" timestamp="2020-05-12T04:24:38Z" user="mklyr" uid="614924" lat="33.9905848" lon="131.1748733"/>
 <node id="4267864210" visible="true" version="4" changeset="85056906" timestamp="2020-05-12T04:24:38Z" user="mklyr" uid="614924" lat="33.9905713" lon="131.1745526"/>
 <node id="4267864211" visible="true" version="4" changeset="85056906" timestamp="2020-05-12T04:24:38Z" user="mklyr" uid="614924" lat="33.9906084" lon="131.1745504"/>
 <node id="4267864212" visible="true" version="4" changeset="85056906" timestamp="2020-05-12T04:24:38Z" user="mklyr" uid="614924" lat="33.9905738" lon="131.1737256"/>
 <node id="4267864213" visible="true" version="4" changeset="85056906" timestamp="2020-05-12T04:24:38Z" user="mklyr" uid="614924" lat="33.9905285" lon="131.1737283"/>
 <node id="4267864214" visible="true" version="4" changeset="85056906" timestamp="2020-05-12T04:24:38Z" user="mklyr" uid="614924" lat="33.9905235" lon="131.1736101"/>
 <node id="4267864215" visible="true" version="4" changeset="85056906" timestamp="2020-05-12T04:24:38Z" user="mklyr" uid="614924" lat="33.9909602" lon="131.1735835"/>
 <node id="4267864216" visible="true" version="4" changeset="85056906" timestamp="2020-05-12T04:24:38Z" user="mklyr" uid="614924" lat="33.9909539" lon="131.1734338"/>
 <node id="4267864217" visible="true" version="4" changeset="85056906" timestamp="2020-05-12T04:24:38Z" user="mklyr" uid="614924" lat="33.9904593" lon="131.1734640"/>
 <node id="4267864218" visible="true" version="4" changeset="85056906" timestamp="2020-05-12T04:24:38Z" user="mklyr" uid="614924" lat="33.9904664" lon="131.1736334"/>
 <node id="4267864219" visible="true" version="4" changeset="85056906" timestamp="2020-05-12T04:24:38Z" user="mklyr" uid="614924" lat="33.9904159" lon="131.1736364"/>
 <node id="4267869307" visible="true" version="2" changeset="85056906" timestamp="2020-05-12T04:24:38Z" user="mklyr" uid="614924" lat="33.9911369" lon="131.1736025"/>
 <node id="4267869308" visible="true" version="2" changeset="85056906" timestamp="2020-05-12T04:24:38Z" user="mklyr" uid="614924" lat="33.9906110" lon="131.1736439"/>
 <node id="4267869309" visible="true" version="2" changeset="85056906" timestamp="2020-05-12T04:24:38Z" user="mklyr" uid="614924" lat="33.9906474" lon="131.1743158"/>
 <node id="4267869310" visible="true" version="2" changeset="85056906" timestamp="2020-05-12T04:24:38Z" user="mklyr" uid="614924" lat="33.9911733" lon="131.1742744"/>
 <node id="4267870380" visible="true" version="2" changeset="56817749" timestamp="2018-03-02T11:49:54Z" user="mklyr" uid="614924" lat="33.9911456" lon="131.1726428"/>
 <node id="4267870381" visible="true" version="2" changeset="56817749" timestamp="2018-03-02T11:49:55Z" user="mklyr" uid="614924" lat="33.9906963" lon="131.1726748"/>
 <node id="4267870382" visible="true" version="2" changeset="56817749" timestamp="2018-03-02T11:49:55Z" user="mklyr" uid="614924" lat="33.9907067" lon="131.1728873"/>
 <node id="4267870383" visible="true" version="2" changeset="56817749" timestamp="2018-03-02T11:49:55Z" user="mklyr" uid="614924" lat="33.9911560" lon="131.1728553"/>
 <node id="4267870384" visible="true" version="2" changeset="56817749" timestamp="2018-03-02T11:49:55Z" user="mklyr" uid="614924" lat="33.9909085" lon="131.1724215"/>
 <node id="4267870385" visible="true" version="2" changeset="56817749" timestamp="2018-03-02T11:49:55Z" user="mklyr" uid="614924" lat="33.9906852" lon="131.1724375"/>
 <node id="4267870386" visible="true" version="2" changeset="56817749" timestamp="2018-03-02T11:49:55Z" user="mklyr" uid="614924" lat="33.9906910" lon="131.1725545"/>
 <node id="4267870387" visible="true" version="2" changeset="56817749" timestamp="2018-03-02T11:49:55Z" user="mklyr" uid="614924" lat="33.9909142" lon="131.1725385"/>
 <node id="4267870388" visible="true" version="3" changeset="85056906" timestamp="2020-05-12T04:24:38Z" user="mklyr" uid="614924" lat="33.9908910" lon="131.1721157"/>
 <node id="4267870889" visible="true" version="2" changeset="56817749" timestamp="2018-03-02T11:49:55Z" user="mklyr" uid="614924" lat="33.9909034" lon="131.1723277"/>
 <node id="4267870890" visible="true" version="2" changeset="56817749" timestamp="2018-03-02T11:49:55Z" user="mklyr" uid="614924" lat="33.9908902" lon="131.1723702"/>
 <node id="4267870891" visible="true" version="3" changeset="85056906" timestamp="2020-05-12T04:24:38Z" user="mklyr" uid="614924" lat="33.9908681" lon="131.1723883"/>
 <node id="4267870892" visible="true" version="2" changeset="56817749" timestamp="2018-03-02T11:49:55Z" user="mklyr" uid="614924" lat="33.9907185" lon="131.1723985"/>
 <node id="4267870893" visible="true" version="3" changeset="85056906" timestamp="2020-05-12T04:24:38Z" user="mklyr" uid="614924" lat="33.9906902" lon="131.1723846"/>
 <node id="4267870894" visible="true" version="3" changeset="85056906" timestamp="2020-05-12T04:24:38Z" user="mklyr" uid="614924" lat="33.9906777" lon="131.1723520"/>
 <node id="4267870895" visible="true" version="3" changeset="85056906" timestamp="2020-05-12T04:24:38Z" user="mklyr" uid="614924" lat="33.9906692" lon="131.1721328"/>
 <node id="4267870896" visible="true" version="3" changeset="85056906" timestamp="2020-05-12T04:24:38Z" user="mklyr" uid="614924" lat="33.9906835" lon="131.1721057"/>
 <node id="4267870897" visible="true" version="3" changeset="85056906" timestamp="2020-05-12T04:24:38Z" user="mklyr" uid="614924" lat="33.9907180" lon="131.1720977"/>
 <node id="4267870898" visible="true" version="3" changeset="85056906" timestamp="2020-05-12T04:24:38Z" user="mklyr" uid="614924" lat="33.9907471" lon="131.1721284"/>
 <node id="4267870899" visible="true" version="3" changeset="85056906" timestamp="2020-05-12T04:24:38Z" user="mklyr" uid="614924" lat="33.9907501" lon="131.1721651"/>
 <node id="4267870900" visible="true" version="3" changeset="85056906" timestamp="2020-05-12T04:24:38Z" user="mklyr" uid="614924" lat="33.9907701" lon="131.1721924"/>
 <node id="4267870901" visible="true" version="3" changeset="85056906" timestamp="2020-05-12T04:24:38Z" user="mklyr" uid="614924" lat="33.9907869" lon="131.1721945"/>
 <node id="4267870902" visible="true" version="3" changeset="85056906" timestamp="2020-05-12T04:24:38Z" user="mklyr" uid="614924" lat="33.9908105" lon="131.1721702"/>
 <node id="4267870903" visible="true" version="3" changeset="85056906" timestamp="2020-05-12T04:24:38Z" user="mklyr" uid="614924" lat="33.9908102" lon="131.1721223"/>
 <node id="4267870904" visible="true" version="3" changeset="85056906" timestamp="2020-05-12T04:24:38Z" user="mklyr" uid="614924" lat="33.9908223" lon="131.1721017"/>
 <node id="4267870905" visible="true" version="3" changeset="85056906" timestamp="2020-05-12T04:24:38Z" user="mklyr" uid="614924" lat="33.9908719" lon="131.1720927"/>
 <node id="4267870906" visible="true" version="3" changeset="85056906" timestamp="2020-05-12T04:24:38Z" user="mklyr" uid="614924" lat="33.9908845" lon="131.1721039"/>
 <node id="4267870907" visible="true" version="3" changeset="85056906" timestamp="2020-05-12T04:24:38Z" user="mklyr" uid="614924" lat="33.9908396" lon="131.1720921"/>
 <node id="4267870908" visible="true" version="3" changeset="85056906" timestamp="2020-05-12T04:24:38Z" user="mklyr" uid="614924" lat="33.9908017" lon="131.1721822"/>
 <node id="4267870909" visible="true" version="3" changeset="85056906" timestamp="2020-05-12T04:24:38Z" user="mklyr" uid="614924" lat="33.9907368" lon="131.1721095"/>
 <node id="4267870910" visible="true" version="3" changeset="85056906" timestamp="2020-05-12T04:24:38Z" user="mklyr" uid="614924" lat="33.9906964" lon="131.1720973"/>
 <node id="4267870911" visible="true" version="3" changeset="85056906" timestamp="2020-05-12T04:24:38Z" user="mklyr" uid="614924" lat="33.9906718" lon="131.1721184"/>
 <node id="4267870912" visible="true" version="3" changeset="85056906" timestamp="2020-05-12T04:24:38Z" user="mklyr" uid="614924" lat="33.9906816" lon="131.1723702"/>
 <node id="4267870913" visible="true" version="2" changeset="56817749" timestamp="2018-03-02T11:49:55Z" user="mklyr" uid="614924" lat="33.9907014" lon="131.1723954"/>
 <node id="4267870914" visible="true" version="2" changeset="56817749" timestamp="2018-03-02T11:49:55Z" user="mklyr" uid="614924" lat="33.9908796" lon="131.1723813"/>
 <node id="4267870915" visible="true" version="2" changeset="56817749" timestamp="2018-03-02T11:49:55Z" user="mklyr" uid="614924" lat="33.9909012" lon="131.1723536"/>
 <node id="4267872184" visible="true" version="4" changeset="85056906" timestamp="2020-05-12T04:24:38Z" user="mklyr" uid="614924" lat="33.9912105" lon="131.1715471"/>
 <node id="4267872185" visible="true" version="4" changeset="85056906" timestamp="2020-05-12T04:24:38Z" user="mklyr" uid="614924" lat="33.9906005" lon="131.1716047"/>
 <node id="4267872186" visible="true" version="4" changeset="85056906" timestamp="2020-05-12T04:24:38Z" user="mklyr" uid="614924" lat="33.9906250" lon="131.1719834"/>
 <node id="4267872187" visible="true" version="4" changeset="85056906" timestamp="2020-05-12T04:24:38Z" user="mklyr" uid="614924" lat="33.9912350" lon="131.1719258"/>
 <node id="4267873657" visible="true" version="3" changeset="85056906" timestamp="2020-05-12T04:24:38Z" user="mklyr" uid="614924" lat="33.9910501" lon="131.1720373"/>
 <node id="4267873658" visible="true" version="3" changeset="85056906" timestamp="2020-05-12T04:24:38Z" user="mklyr" uid="614924" lat="33.9909630" lon="131.1720425"/>
 <node id="4267873659" visible="true" version="3" changeset="85056906" timestamp="2020-05-12T04:24:38Z" user="mklyr" uid="614924" lat="33.9909792" lon="131.1724395"/>
 <node id="4267873660" visible="true" version="3" changeset="85056906" timestamp="2020-05-12T04:24:38Z" user="mklyr" uid="614924" lat="33.9910672" lon="131.1724343"/>
 <node id="4267873661" visible="true" version="3" changeset="85056906" timestamp="2020-05-12T04:24:38Z" user="mklyr" uid="614924" lat="33.9910637" lon="131.1723497"/>
 <node id="4267873662" visible="true" version="3" changeset="85056906" timestamp="2020-05-12T04:24:38Z" user="mklyr" uid="614924" lat="33.9911093" lon="131.1723469"/>
 <node id="4267873663" visible="true" version="3" changeset="85056906" timestamp="2020-05-12T04:24:38Z" user="mklyr" uid="614924" lat="33.9911064" lon="131.1722759"/>
 <node id="4267873664" visible="true" version="3" changeset="85056906" timestamp="2020-05-12T04:24:38Z" user="mklyr" uid="614924" lat="33.9910751" lon="131.1722777"/>
 <node id="4267873665" visible="true" version="3" changeset="85056906" timestamp="2020-05-12T04:24:38Z" user="mklyr" uid="614924" lat="33.9910717" lon="131.1721935"/>
 <node id="4267873666" visible="true" version="3" changeset="85056906" timestamp="2020-05-12T04:24:38Z" user="mklyr" uid="614924" lat="33.9911063" lon="131.1721914"/>
 <node id="4267873667" visible="true" version="3" changeset="85056906" timestamp="2020-05-12T04:24:38Z" user="mklyr" uid="614924" lat="33.9911032" lon="131.1721160"/>
 <node id="4267873668" visible="true" version="3" changeset="85056906" timestamp="2020-05-12T04:24:38Z" user="mklyr" uid="614924" lat="33.9910534" lon="131.1721189"/>
 <node id="5127585173" visible="true" version="1" changeset="52343321" timestamp="2017-09-25T03:41:37Z" user="f213022" uid="6068404" lat="33.9892045" lon="131.1727531">
  <tag k="highway" v="bus_stop"/>
  <tag k="name" v="スポーツセンター前"/>
 </node>
 <node id="5127585174" visible="true" version="1" changeset="52343321" timestamp="2017-09-25T03:41:37Z" user="f213022" uid="6068404" lat="33.9901853" lon="131.1731987">
  <tag k="highway" v="bus_stop"/>
  <tag k="name" v="スポーツセンター前"/>
 </node>
 <node id="5448079693" visible="true" version="1" changeset="56817749" timestamp="2018-03-02T11:49:42Z" user="mklyr" uid="614924" lat="33.9899283" lon="131.1702509"/>
 <node id="5526569121" visible="true" version="1" changeset="57788526" timestamp="2018-04-04T01:17:35Z" user="mklyr" uid="614924" lat="33.9778991" lon="131.1763105"/>
 <node id="6021668469" visible="true" version="2" changeset="76382222" timestamp="2019-10-30T09:08:58Z" user="mklyr" uid="614924" lat="33.9891359" lon="131.1741458"/>
 <node id="6021668470" visible="true" version="2" changeset="76382222" timestamp="2019-10-30T09:08:58Z" user="mklyr" uid="614924" lat="33.9890610" lon="131.1741504"/>
 <node id="6021668471" visible="true" version="2" changeset="76382222" timestamp="2019-10-30T09:08:58Z" user="mklyr" uid="614924" lat="33.9890602" lon="131.1741322"/>
 <node id="6021668472" visible="true" version="2" changeset="76382222" timestamp="2019-10-30T09:08:58Z" user="mklyr" uid="614924" lat="33.9890312" lon="131.1741340"/>
 <node id="6021668473" visible="true" version="2" changeset="76382222" timestamp="2019-10-30T09:08:58Z" user="mklyr" uid="614924" lat="33.9890176" lon="131.1738107"/>
 <node id="6021668474" visible="true" version="2" changeset="76382222" timestamp="2019-10-30T09:08:58Z" user="mklyr" uid="614924" lat="33.9891216" lon="131.1738044"/>
 <node id="6021668475" visible="true" version="2" changeset="76382222" timestamp="2019-10-30T09:08:58Z" user="mklyr" uid="614924" lat="33.9893739" lon="131.1741224"/>
 <node id="6021668476" visible="true" version="2" changeset="76382222" timestamp="2019-10-30T09:08:58Z" user="mklyr" uid="614924" lat="33.9893673" lon="131.1741227"/>
 <node id="6021668477" visible="true" version="2" changeset="76382222" timestamp="2019-10-30T09:08:58Z" user="mklyr" uid="614924" lat="33.9893675" lon="131.1741274"/>
 <node id="6021668478" visible="true" version="2" changeset="76382222" timestamp="2019-10-30T09:08:58Z" user="mklyr" uid="614924" lat="33.9893014" lon="131.1741304"/>
 <node id="6021668479" visible="true" version="2" changeset="76382222" timestamp="2019-10-30T09:08:58Z" user="mklyr" uid="614924" lat="33.9893006" lon="131.1741061"/>
 <node id="6021668480" visible="true" version="2" changeset="76382222" timestamp="2019-10-30T09:08:58Z" user="mklyr" uid="614924" lat="33.9892678" lon="131.1741076"/>
 <node id="6021668481" visible="true" version="2" changeset="76382222" timestamp="2019-10-30T09:08:58Z" user="mklyr" uid="614924" lat="33.9892574" lon="131.1737847"/>
 <node id="6021668482" visible="true" version="2" changeset="76382222" timestamp="2019-10-30T09:08:58Z" user="mklyr" uid="614924" lat="33.9893630" lon="131.1737798"/>
 <node id="6021668483" visible="true" version="2" changeset="76382222" timestamp="2019-10-30T09:08:58Z" user="mklyr" uid="614924" lat="33.9893589" lon="131.1747061"/>
 <node id="6021668484" visible="true" version="2" changeset="76382222" timestamp="2019-10-30T09:08:58Z" user="mklyr" uid="614924" lat="33.9892499" lon="131.1747149"/>
 <node id="6021668485" visible="true" version="2" changeset="76382222" timestamp="2019-10-30T09:08:58Z" user="mklyr" uid="614924" lat="33.9892248" lon="131.1742592"/>
 <node id="6021668486" visible="true" version="2" changeset="76382222" timestamp="2019-10-30T09:08:58Z" user="mklyr" uid="614924" lat="33.9893338" lon="131.1742505"/>
 <node id="6021668487" visible="true" version="3" changeset="128380669" timestamp="2022-11-02T09:26:30Z" user="mklyr" uid="614924" lat="33.9890312" lon="131.1743644"/>
 <node id="6021668488" visible="true" version="3" changeset="128380669" timestamp="2022-11-02T09:26:30Z" user="mklyr" uid="614924" lat="33.9890329" lon="131.1744841"/>
 <node id="6021668489" visible="true" version="3" changeset="128380669" timestamp="2022-11-02T09:26:30Z" user="mklyr" uid="614924" lat="33.9891155" lon="131.1744825"/>
 <node id="6021668490" visible="true" version="3" changeset="128380669" timestamp="2022-11-02T09:26:30Z" user="mklyr" uid="614924" lat="33.9891151" lon="131.1744557"/>
 <node id="6021668491" visible="true" version="3" changeset="128380669" timestamp="2022-11-02T09:26:30Z" user="mklyr" uid="614924" lat="33.9891287" lon="131.1744555"/>
 <node id="6021668492" visible="true" version="3" changeset="128380669" timestamp="2022-11-02T09:26:30Z" user="mklyr" uid="614924" lat="33.9891274" lon="131.1743625"/>
 <node id="6054467765" visible="true" version="1" changeset="64399245" timestamp="2018-11-12T10:01:46Z" user="TUSY2016" uid="4144350" lat="33.9902340" lon="131.1731489">
  <tag k="information" v="map"/>
  <tag k="name" v="住居表示街区案内図"/>
  <tag k="tourism" v="information"/>
 </node>
 <node id="6054467766" visible="true" version="2" changeset="85056906" timestamp="2020-05-12T04:24:38Z" user="mklyr" uid="614924" lat="33.9912146" lon="131.1719888"/>
 <node id="6054467767" visible="true" version="2" changeset="85056906" timestamp="2020-05-12T04:24:38Z" user="mklyr" uid="614924" lat="33.9906009" lon="131.1720315"/>
 <node id="6054467768" visible="true" version="2" changeset="85056906" timestamp="2020-05-12T04:24:38Z" user="mklyr" uid="614924" lat="33.9906477" lon="131.1730107"/>
 <node id="6054467769" visible="true" version="2" changeset="85056906" timestamp="2020-05-12T04:24:38Z" user="mklyr" uid="614924" lat="33.9912614" lon="131.1729680"/>
 <node id="6054467770" visible="true" version="2" changeset="76526591" timestamp="2019-11-02T12:26:45Z" user="mklyr" uid="614924" lat="33.9895359" lon="131.1728302"/>
 <node id="6054467771" visible="true" version="2" changeset="76526591" timestamp="2019-11-02T12:26:45Z" user="mklyr" uid="614924" lat="33.9895432" lon="131.1730888"/>
 <node id="6054467772" visible="true" version="2" changeset="76526591" timestamp="2019-11-02T12:26:45Z" user="mklyr" uid="614924" lat="33.9894662" lon="131.1730919"/>
 <node id="6054467773" visible="true" version="2" changeset="76526591" timestamp="2019-11-02T12:26:45Z" user="mklyr" uid="614924" lat="33.9894590" lon="131.1728333"/>
 <node id="6054467774" visible="true" version="2" changeset="76526591" timestamp="2019-11-02T12:26:45Z" user="mklyr" uid="614924" lat="33.9891487" lon="131.1728848"/>
 <node id="6054467775" visible="true" version="2" changeset="76526591" timestamp="2019-11-02T12:26:45Z" user="mklyr" uid="614924" lat="33.9891597" lon="131.1730960"/>
 <node id="6054467776" visible="true" version="2" changeset="76526591" timestamp="2019-11-02T12:26:45Z" user="mklyr" uid="614924" lat="33.9892386" lon="131.1730901"/>
 <node id="6054467777" visible="true" version="2" changeset="76526591" timestamp="2019-11-02T12:26:45Z" user="mklyr" uid="614924" lat="33.9892269" lon="131.1728626"/>
 <node id="6054467778" visible="true" version="3" changeset="76526591" timestamp="2019-11-02T12:26:45Z" user="mklyr" uid="614924" lat="33.9896326" lon="131.1716488"/>
 <node id="6054467779" visible="true" version="3" changeset="76526591" timestamp="2019-11-02T12:26:45Z" user="mklyr" uid="614924" lat="33.9896374" lon="131.1718072"/>
 <node id="6054467780" visible="true" version="3" changeset="76526591" timestamp="2019-11-02T12:26:45Z" user="mklyr" uid="614924" lat="33.9895577" lon="131.1718107"/>
 <node id="6054467781" visible="true" version="3" changeset="76526591" timestamp="2019-11-02T12:26:45Z" user="mklyr" uid="614924" lat="33.9895529" lon="131.1716523"/>
 <node id="6054467782" visible="true" version="3" changeset="76526591" timestamp="2019-11-02T12:26:45Z" user="mklyr" uid="614924" lat="33.9896437" lon="131.1718224"/>
 <node id="6054467783" visible="true" version="3" changeset="76526591" timestamp="2019-11-02T12:26:45Z" user="mklyr" uid="614924" lat="33.9896466" lon="131.1719814"/>
 <node id="6054467784" visible="true" version="3" changeset="76526591" timestamp="2019-11-02T12:26:45Z" user="mklyr" uid="614924" lat="33.9895669" lon="131.1719835"/>
 <node id="6054468285" visible="true" version="3" changeset="76526591" timestamp="2019-11-02T12:26:45Z" user="mklyr" uid="614924" lat="33.9895639" lon="131.1718246"/>
 <node id="6054468286" visible="true" version="3" changeset="85056906" timestamp="2020-05-12T04:24:38Z" user="mklyr" uid="614924" lat="33.9896792" lon="131.1719978"/>
 <node id="6054468287" visible="true" version="3" changeset="85056906" timestamp="2020-05-12T04:24:38Z" user="mklyr" uid="614924" lat="33.9896860" lon="131.1722195"/>
 <node id="6054468288" visible="true" version="3" changeset="85056906" timestamp="2020-05-12T04:24:38Z" user="mklyr" uid="614924" lat="33.9895927" lon="131.1722236"/>
 <node id="6054468289" visible="true" version="3" changeset="85056906" timestamp="2020-05-12T04:24:38Z" user="mklyr" uid="614924" lat="33.9895860" lon="131.1720019"/>
 <node id="6054468290" visible="true" version="4" changeset="85056906" timestamp="2020-05-12T04:24:38Z" user="mklyr" uid="614924" lat="33.9895217" lon="131.1720118"/>
 <node id="6054468291" visible="true" version="4" changeset="85056906" timestamp="2020-05-12T04:24:38Z" user="mklyr" uid="614924" lat="33.9895262" lon="131.1721969"/>
 <node id="6054468292" visible="true" version="4" changeset="85056906" timestamp="2020-05-12T04:24:38Z" user="mklyr" uid="614924" lat="33.9894353" lon="131.1722001"/>
 <node id="6054468293" visible="true" version="4" changeset="85056906" timestamp="2020-05-12T04:24:38Z" user="mklyr" uid="614924" lat="33.9894309" lon="131.1720150"/>
 <node id="6054468298" visible="true" version="3" changeset="85056906" timestamp="2020-05-12T04:24:38Z" user="mklyr" uid="614924" lat="33.9888413" lon="131.1718957"/>
 <node id="6054468299" visible="true" version="3" changeset="85056906" timestamp="2020-05-12T04:24:38Z" user="mklyr" uid="614924" lat="33.9888624" lon="131.1723827"/>
 <node id="6054468300" visible="true" version="3" changeset="85056906" timestamp="2020-05-12T04:24:38Z" user="mklyr" uid="614924" lat="33.9891281" lon="131.1723833"/>
 <node id="6054468301" visible="true" version="3" changeset="85056906" timestamp="2020-05-12T04:24:38Z" user="mklyr" uid="614924" lat="33.9890951" lon="131.1718637"/>
 <node id="6054468302" visible="true" version="3" changeset="85056906" timestamp="2020-05-12T04:24:38Z" user="mklyr" uid="614924" lat="33.9894380" lon="131.1724197"/>
 <node id="6054468303" visible="true" version="3" changeset="85056906" timestamp="2020-05-12T04:24:38Z" user="mklyr" uid="614924" lat="33.9894365" lon="131.1725072"/>
 <node id="6054468304" visible="true" version="3" changeset="85056906" timestamp="2020-05-12T04:24:38Z" user="mklyr" uid="614924" lat="33.9895327" lon="131.1725097"/>
 <node id="6054468305" visible="true" version="3" changeset="85056906" timestamp="2020-05-12T04:24:38Z" user="mklyr" uid="614924" lat="33.9895342" lon="131.1724222"/>
 <node id="6054468306" visible="true" version="3" changeset="85056906" timestamp="2020-05-12T04:24:38Z" user="mklyr" uid="614924" lat="33.9896883" lon="131.1724080"/>
 <node id="6054468307" visible="true" version="3" changeset="85056906" timestamp="2020-05-12T04:24:38Z" user="mklyr" uid="614924" lat="33.9896903" lon="131.1725010"/>
 <node id="6054468308" visible="true" version="3" changeset="85056906" timestamp="2020-05-12T04:24:38Z" user="mklyr" uid="614924" lat="33.9897872" lon="131.1724850"/>
 <node id="6054468309" visible="true" version="3" changeset="85056906" timestamp="2020-05-12T04:24:38Z" user="mklyr" uid="614924" lat="33.9897869" lon="131.1724053"/>
 <node id="6929668029" visible="true" version="1" changeset="76380862" timestamp="2019-10-30T08:36:19Z" user="mklyr" uid="614924" lat="33.9784313" lon="131.1735208"/>
 <node id="6929742537" visible="true" version="1" changeset="76382222" timestamp="2019-10-30T09:08:58Z" user="mklyr" uid="614924" lat="33.9885549" lon="131.1737403"/>
 <node id="6929742580" visible="true" version="1" changeset="76382222" timestamp="2019-10-30T09:08:58Z" user="mklyr" uid="614924" lat="33.9894222" lon="131.1741923"/>
 <node id="6929742581" visible="true" version="1" changeset="76382222" timestamp="2019-10-30T09:08:58Z" user="mklyr" uid="614924" lat="33.9891564" lon="131.1742057"/>
 <node id="6929742582" visible="true" version="1" changeset="76382222" timestamp="2019-10-30T09:08:58Z" user="mklyr" uid="614924" lat="33.9891186" lon="131.1742392"/>
 <node id="6929742583" visible="true" version="1" changeset="76382222" timestamp="2019-10-30T09:08:58Z" user="mklyr" uid="614924" lat="33.9890486" lon="131.1742406"/>
 <node id="6929742584" visible="true" version="1" changeset="76382222" timestamp="2019-10-30T09:08:58Z" user="mklyr" uid="614924" lat="33.9890130" lon="131.1742137"/>
 <node id="6929743385" visible="true" version="1" changeset="76382222" timestamp="2019-10-30T09:08:58Z" user="mklyr" uid="614924" lat="33.9887172" lon="131.1742365"/>
 <node id="6929743386" visible="true" version="1" changeset="76382222" timestamp="2019-10-30T09:08:58Z" user="mklyr" uid="614924" lat="33.9886850" lon="131.1742218"/>
 <node id="6929743387" visible="true" version="1" changeset="76382222" timestamp="2019-10-30T09:08:58Z" user="mklyr" uid="614924" lat="33.9886527" lon="131.1741990"/>
 <node id="6929743388" visible="true" version="1" changeset="76382222" timestamp="2019-10-30T09:08:58Z" user="mklyr" uid="614924" lat="33.9885449" lon="131.1740810"/>
 <node id="6929743389" visible="true" version="1" changeset="76382222" timestamp="2019-10-30T09:08:58Z" user="mklyr" uid="614924" lat="33.9885160" lon="131.1740246"/>
 <node id="6929743390" visible="true" version="1" changeset="76382222" timestamp="2019-10-30T09:08:58Z" user="mklyr" uid="614924" lat="33.9889607" lon="131.1742178"/>
 <node id="6929743391" visible="true" version="1" changeset="76382222" timestamp="2019-10-30T09:08:58Z" user="mklyr" uid="614924" lat="33.9894867" lon="131.1736518"/>
 <node id="6929743392" visible="true" version="1" changeset="76382222" timestamp="2019-10-30T09:08:58Z" user="mklyr" uid="614924" lat="33.9894645" lon="131.1736371"/>
 <node id="6929743393" visible="true" version="1" changeset="76382222" timestamp="2019-10-30T09:08:58Z" user="mklyr" uid="614924" lat="33.9891564" lon="131.1736464"/>
 <node id="6929743394" visible="true" version="1" changeset="76382222" timestamp="2019-10-30T09:08:58Z" user="mklyr" uid="614924" lat="33.9889763" lon="131.1736719"/>
 <node id="6929743395" visible="true" version="1" changeset="76382222" timestamp="2019-10-30T09:08:58Z" user="mklyr" uid="614924" lat="33.9884948" lon="131.1737242"/>
 <node id="6929743396" visible="true" version="2" changeset="85056906" timestamp="2020-05-12T04:24:38Z" user="mklyr" uid="614924" lat="33.9878076" lon="131.1737739"/>
 <node id="6936642183" visible="true" version="1" changeset="76482290" timestamp="2019-11-01T08:42:48Z" user="mklyr" uid="614924" lat="33.9779827" lon="131.1752571"/>
 <node id="6936739225" visible="true" version="2" changeset="127657726" timestamp="2022-10-17T08:51:43Z" user="mklyr" uid="614924" lat="33.9863720" lon="131.1729081"/>
 <node id="6936739269" visible="true" version="1" changeset="76484045" timestamp="2019-11-01T09:28:01Z" user="mklyr" uid="614924" lat="33.9867054" lon="131.1728766"/>
 <node id="6939139934" visible="true" version="2" changeset="85056906" timestamp="2020-05-12T04:24:38Z" user="mklyr" uid="614924" lat="33.9890583" lon="131.1723811"/>
 <node id="6939139935" visible="true" version="2" changeset="85056906" timestamp="2020-05-12T04:24:38Z" user="mklyr" uid="614924" lat="33.9890550" lon="131.1723912"/>
 <node id="6939139936" visible="true" version="2" changeset="85056906" timestamp="2020-05-12T04:24:38Z" user="mklyr" uid="614924" lat="33.9889554" lon="131.1723932"/>
 <node id="6939139937" visible="true" version="2" changeset="85056906" timestamp="2020-05-12T04:24:38Z" user="mklyr" uid="614924" lat="33.9889421" lon="131.1723811"/>
 <node id="6939139938" visible="true" version="2" changeset="85056906" timestamp="2020-05-12T04:24:38Z" user="mklyr" uid="614924" lat="33.9890352" lon="131.1718671"/>
 <node id="6939139939" visible="true" version="2" changeset="85056906" timestamp="2020-05-12T04:24:38Z" user="mklyr" uid="614924" lat="33.9890359" lon="131.1718860"/>
 <node id="6939139940" visible="true" version="1" changeset="76526591" timestamp="2019-11-02T12:26:45Z" user="mklyr" uid="614924" lat="33.9897174" lon="131.1724978"/>
 <node id="6939139941" visible="true" version="2" changeset="85056906" timestamp="2020-05-12T04:24:38Z" user="mklyr" uid="614924" lat="33.9897225" lon="131.1724858"/>
 <node id="6939139942" visible="true" version="1" changeset="76526591" timestamp="2019-11-02T12:26:45Z" user="mklyr" uid="614924" lat="33.9894053" lon="131.1723892"/>
 <node id="6939139943" visible="true" version="1" changeset="76526591" timestamp="2019-11-02T12:26:45Z" user="mklyr" uid="614924" lat="33.9893994" lon="131.1723892"/>
 <node id="6939139944" visible="true" version="1" changeset="76526591" timestamp="2019-11-02T12:26:45Z" user="mklyr" uid="614924" lat="33.9893994" lon="131.1724023"/>
 <node id="6939139945" visible="true" version="1" changeset="76526591" timestamp="2019-11-02T12:26:45Z" user="mklyr" uid="614924" lat="33.9894110" lon="131.1724022"/>
 <node id="6939139946" visible="true" version="1" changeset="76526591" timestamp="2019-11-02T12:26:45Z" user="mklyr" uid="614924" lat="33.9894111" lon="131.1724612"/>
 <node id="6939139947" visible="true" version="1" changeset="76526591" timestamp="2019-11-02T12:26:45Z" user="mklyr" uid="614924" lat="33.9893705" lon="131.1724613"/>
 <node id="6939139948" visible="true" version="1" changeset="76526591" timestamp="2019-11-02T12:26:45Z" user="mklyr" uid="614924" lat="33.9893705" lon="131.1724853"/>
 <node id="6939139949" visible="true" version="1" changeset="76526591" timestamp="2019-11-02T12:26:45Z" user="mklyr" uid="614924" lat="33.9893349" lon="131.1724854"/>
 <node id="6939139950" visible="true" version="1" changeset="76526591" timestamp="2019-11-02T12:26:45Z" user="mklyr" uid="614924" lat="33.9893349" lon="131.1724689"/>
 <node id="6939139951" visible="true" version="1" changeset="76526591" timestamp="2019-11-02T12:26:45Z" user="mklyr" uid="614924" lat="33.9893127" lon="131.1724690"/>
 <node id="6939139952" visible="true" version="1" changeset="76526591" timestamp="2019-11-02T12:26:45Z" user="mklyr" uid="614924" lat="33.9893127" lon="131.1724461"/>
 <node id="6939139953" visible="true" version="1" changeset="76526591" timestamp="2019-11-02T12:26:45Z" user="mklyr" uid="614924" lat="33.9892980" lon="131.1724462"/>
 <node id="6939139954" visible="true" version="1" changeset="76526591" timestamp="2019-11-02T12:26:45Z" user="mklyr" uid="614924" lat="33.9892979" lon="131.1724153"/>
 <node id="6939139955" visible="true" version="1" changeset="76526591" timestamp="2019-11-02T12:26:45Z" user="mklyr" uid="614924" lat="33.9893225" lon="131.1724153"/>
 <node id="6939139956" visible="true" version="1" changeset="76526591" timestamp="2019-11-02T12:26:45Z" user="mklyr" uid="614924" lat="33.9893223" lon="131.1723329"/>
 <node id="6939139957" visible="true" version="1" changeset="76526591" timestamp="2019-11-02T12:26:45Z" user="mklyr" uid="614924" lat="33.9894052" lon="131.1723327"/>
 <node id="6939139958" visible="true" version="1" changeset="76526591" timestamp="2019-11-02T12:26:45Z" user="mklyr" uid="614924" lat="33.9891816" lon="131.1728823"/>
 <node id="6939139959" visible="true" version="1" changeset="76526591" timestamp="2019-11-02T12:26:45Z" user="mklyr" uid="614924" lat="33.9891807" lon="131.1728661"/>
 <node id="7509289074" visible="true" version="1" changeset="85056906" timestamp="2020-05-12T04:24:38Z" user="mklyr" uid="614924" lat="33.9907596" lon="131.1721833"/>
 <node id="7509290891" visible="true" version="1" changeset="85056906" timestamp="2020-05-12T04:24:38Z" user="mklyr" uid="614924" lat="33.9871888" lon="131.1728397"/>
 <node id="7509290893" visible="true" version="1" changeset="85056906" timestamp="2020-05-12T04:24:38Z" user="mklyr" uid="614924" lat="33.9872734" lon="131.1728332"/>
 <way id="120611512" visible="true" version="10" changeset="169801235" timestamp="2025-08-01T07:05:34Z" user="taketaketake" uid="4757277">
  <nd ref="1351961384"/>
  <nd ref="5526569121"/>
  <nd ref="1351961391"/>
  <nd ref="1908486822"/>
  <nd ref="1351961392"/>
  <nd ref="6936642183"/>
  <nd ref="3265420337"/>
  <nd ref="1945469902"/>
  <nd ref="1351961397"/>
  <nd ref="2109173126"/>
  <nd ref="2109173129"/>
  <nd ref="1351961400"/>
  <nd ref="2109173138"/>
  <nd ref="2109173139"/>
  <nd ref="1351961403"/>
  <nd ref="1351961404"/>
  <nd ref="1351961405"/>
  <nd ref="1351961426"/>
  <nd ref="6929668029"/>
  <nd ref="1351961428"/>
  <nd ref="1351961433"/>
  <nd ref="1351961506"/>
  <nd ref="1351961593"/>
  <nd ref="1351961670"/>
  <nd ref="1351961722"/>
  <nd ref="1351961775"/>
  <nd ref="1912892893"/>
  <nd ref="1351961882"/>
  <nd ref="6936739225"/>
  <nd ref="6936739269"/>
  <nd ref="7509290891"/>
  <nd ref="7509290893"/>
  <nd ref="1351962036"/>
  <nd ref="1351962294"/>
  <tag k="highway" v="secondary"/>
  <tag k="lanes" v="2"/>
  <tag k="name" v="妻崎開作小野田線"/>
  <tag k="name:en" v="Tsumazakigaisaku Onoda Line"/>
  <tag k="name:ja" v="妻崎開作小野田線"/>
  <tag k="name:ja-Hira" v="つまざきがいさくおのだせん"/>
  <tag k="name:ja_rm" v="Tsumazakigaisaku Onoda-sen"/>
  <tag k="ref" v="354"/>
  <tag k="source" v="YahooJapan/ALPSMAP"/>
  <tag k="surface" v="asphalt"/>
  <tag k="wikidata" v="Q11467323"/>
  <tag k="wikipedia" v="ja:山口県道354号妻崎開作小野田線"/>
 </way>
 <way id="120611540" visible="true" version="5" changeset="169801235" timestamp="2025-08-01T07:05:34Z" user="taketaketake" uid="4757277">
  <nd ref="1351962294"/>
  <nd ref="1351962278"/>
  <nd ref="1351962273"/>
  <nd ref="1908486771"/>
  <nd ref="5448079693"/>
  <nd ref="2315541970"/>
  <nd ref="1351962253"/>
  <tag k="highway" v="secondary"/>
  <tag k="lanes" v="2"/>
  <tag k="name" v="妻崎開作小野田線"/>
  <tag k="name:en" v="Tsumazakigaisaku Onoda Line"/>
  <tag k="name:ja" v="妻崎開作小野田線"/>
  <tag k="name:ja-Hira" v="つまざきがいさくおのだせん"/>
  <tag k="name:ja_rm" v="Tsumazakigaisaku Onoda-sen"/>
  <tag k="ref" v="354"/>
  <tag k="source" v="YahooJapan/ALPSMAP"/>
  <tag k="surface" v="asphalt"/>
  <tag k="wikidata" v="Q11467323"/>
  <tag k="wikipedia" v="ja:山口県道354号妻崎開作小野田線"/>
 </way>
 <way id="120613967" visible="true" version="3" changeset="14637212" timestamp="2013-01-13T16:57:37Z" user="mklyr" uid="614924">
  <nd ref="1351962294"/>
  <nd ref="1351962324"/>
  <tag k="highway" v="tertiary"/>
  <tag k="source" v="YahooJapan/ALPSMAP"/>
  <tag k="yh:WIDTH" v="5.5m〜13.0m"/>
 </way>
 <way id="120615167" visible="true" version="3" changeset="76382222" timestamp="2019-10-30T09:08:58Z" user="mklyr" uid="614924">
  <nd ref="1351962045"/>
  <nd ref="6929743396"/>
  <nd ref="6929743395"/>
  <nd ref="6929742537"/>
  <nd ref="1351962136"/>
  <nd ref="6929743394"/>
  <nd ref="6929743393"/>
  <nd ref="6929743392"/>
  <nd ref="6929743391"/>
  <tag k="highway" v="unclassified"/>
  <tag k="source" v="YahooJapan/ALPSMAP"/>
 </way>
 <way id="427587504" visible="true" version="2" changeset="56817749" timestamp="2018-03-02T11:50:01Z" user="mklyr" uid="614924">
  <nd ref="4267863789"/>
  <nd ref="4267863790"/>
  <nd ref="4267863791"/>
  <nd ref="4267863792"/>
  <nd ref="4267863789"/>
  <tag k="access" v="customers"/>
  <tag k="amenity" v="parking"/>
  <tag k="source" v="GSImaps/ort"/>
 </way>
 <way id="427587923" visible="true" version="2" changeset="56817749" timestamp="2018-03-02T11:50:01Z" user="mklyr" uid="614924">
  <nd ref="4267864208"/>
  <nd ref="4267864209"/>
  <nd ref="4267864210"/>
  <nd ref="4267864211"/>
  <nd ref="4267864212"/>
  <nd ref="4267864213"/>
  <nd ref="4267864214"/>
  <nd ref="4267864215"/>
  <nd ref="4267864216"/>
  <nd ref="4267864217"/>
  <nd ref="4267864218"/>
  <nd ref="4267864219"/>
  <nd ref="4267864208"/>
  <tag k="access" v="customers"/>
  <tag k="amenity" v="parking"/>
  <tag k="source" v="GSImaps/ort"/>
 </way>
 <way id="427588421" visible="true" version="1" changeset="40317758" timestamp="2016-06-27T10:29:10Z" user="mmkato" uid="3760104">
  <nd ref="4267869307"/>
  <nd ref="4267869308"/>
  <nd ref="4267869309"/>
  <nd ref="4267869310"/>
  <nd ref="4267869307"/>
  <tag k="addr:city" v="山陽小野田市中川"/>
  <tag k="addr:housenumber" v="5-2-1"/>
  <tag k="building" v="public"/>
  <tag k="name" v="山陽小野田市民体育館"/>
 </way>
 <way id="427588662" visible="true" version="1" changeset="40317806" timestamp="2016-06-27T10:32:26Z" user="mmkato" uid="3760104">
  <nd ref="4267870380"/>
  <nd ref="4267870381"/>
  <nd ref="4267870382"/>
  <nd ref="4267870383"/>
  <nd ref="4267870380"/>
 </way>
 <way id="427588663" visible="true" version="1" changeset="40317806" timestamp="2016-06-27T10:32:26Z" user="mmkato" uid="3760104">
  <nd ref="4267870384"/>
  <nd ref="4267870385"/>
  <nd ref="4267870386"/>
  <nd ref="4267870387"/>
  <nd ref="4267870384"/>
 </way>
 <way id="427588664" visible="true" version="2" changeset="85056906" timestamp="2020-05-12T04:24:38Z" user="mklyr" uid="614924">
  <nd ref="4267870388"/>
  <nd ref="4267870889"/>
  <nd ref="4267870915"/>
  <nd ref="4267870890"/>
  <nd ref="4267870914"/>
  <nd ref="4267870891"/>
  <nd ref="4267870892"/>
  <nd ref="4267870913"/>
  <nd ref="4267870893"/>
  <nd ref="4267870912"/>
  <nd ref="4267870894"/>
  <nd ref="4267870895"/>
  <nd ref="4267870911"/>
  <nd ref="4267870896"/>
  <nd ref="4267870910"/>
  <nd ref="4267870897"/>
  <nd ref="4267870909"/>
  <nd ref="4267870898"/>
  <nd ref="4267870899"/>
  <nd ref="7509289074"/>
  <nd ref="4267870900"/>
  <nd ref="4267870901"/>
  <nd ref="4267870908"/>
  <nd ref="4267870902"/>
  <nd ref="4267870903"/>
  <nd ref="4267870904"/>
  <nd ref="4267870907"/>
  <nd ref="4267870905"/>
  <nd ref="4267870906"/>
  <nd ref="4267870388"/>
 </way>
 <way id="427588912" visible="true" version="2" changeset="56817749" timestamp="2018-03-02T11:50:01Z" user="mklyr" uid="614924">
  <nd ref="4267872184"/>
  <nd ref="4267872185"/>
  <nd ref="4267872186"/>
  <nd ref="4267872187"/>
  <nd ref="4267872184"/>
  <tag k="access" v="customers"/>
  <tag k="amenity" v="parking"/>
  <tag k="source" v="GSImaps/ort"/>
 </way>
 <way id="427589275" visible="true" version="1" changeset="40317904" timestamp="2016-06-27T10:39:04Z" user="mmkato" uid="3760104">
  <nd ref="4267873657"/>
  <nd ref="4267873658"/>
  <nd ref="4267873659"/>
  <nd ref="4267873660"/>
  <nd ref="4267873661"/>
  <nd ref="4267873662"/>
  <nd ref="4267873663"/>
  <nd ref="4267873664"/>
  <nd ref="4267873665"/>
  <nd ref="4267873666"/>
  <nd ref="4267873667"/>
  <nd ref="4267873668"/>
  <nd ref="4267873657"/>
  <tag k="building" v="yes"/>
 </way>
 <way id="638999531" visible="true" version="2" changeset="76382222" timestamp="2019-10-30T09:08:58Z" user="mklyr" uid="614924">
  <nd ref="6021668474"/>
  <nd ref="6021668473"/>
  <nd ref="6021668472"/>
  <nd ref="6021668471"/>
  <nd ref="6021668470"/>
  <nd ref="6021668469"/>
  <nd ref="6021668474"/>
  <tag k="building" v="yes"/>
  <tag k="source" v="GSImaps/std"/>
 </way>
 <way id="638999532" visible="true" version="2" changeset="76382222" timestamp="2019-10-30T09:08:58Z" user="mklyr" uid="614924">
  <nd ref="6021668482"/>
  <nd ref="6021668481"/>
  <nd ref="6021668480"/>
  <nd ref="6021668479"/>
  <nd ref="6021668478"/>
  <nd ref="6021668477"/>
  <nd ref="6021668476"/>
  <nd ref="6021668475"/>
  <nd ref="6021668482"/>
  <tag k="building" v="yes"/>
  <tag k="source" v="GSImaps/std"/>
 </way>
 <way id="638999533" visible="true" version="2" changeset="76382222" timestamp="2019-10-30T09:08:58Z" user="mklyr" uid="614924">
  <nd ref="6021668486"/>
  <nd ref="6021668485"/>
  <nd ref="6021668484"/>
  <nd ref="6021668483"/>
  <nd ref="6021668486"/>
  <tag k="building" v="yes"/>
  <tag k="source" v="GSImaps/std"/>
 </way>
 <way id="638999534" visible="true" version="2" changeset="76382222" timestamp="2019-10-30T09:08:58Z" user="mklyr" uid="614924">
  <nd ref="6021668492"/>
  <nd ref="6021668491"/>
  <nd ref="6021668490"/>
  <nd ref="6021668489"/>
  <nd ref="6021668488"/>
  <nd ref="6021668487"/>
  <nd ref="6021668492"/>
  <tag k="building" v="yes"/>
  <tag k="source" v="GSImaps/std"/>
 </way>
 <way id="643336444" visible="true" version="1" changeset="64399245" timestamp="2018-11-12T10:01:47Z" user="TUSY2016" uid="4144350">
  <nd ref="6054467769"/>
  <nd ref="6054467768"/>
  <nd ref="6054467767"/>
  <nd ref="6054467766"/>
  <nd ref="6054467769"/>
  <tag k="leisure" v="swimming_pool"/>
 </way>
 <way id="643336445" visible="true" version="1" changeset="64399245" timestamp="2018-11-12T10:01:47Z" user="TUSY2016" uid="4144350">
  <nd ref="6054467773"/>
  <nd ref="6054467770"/>
  <nd ref="6054467771"/>
  <nd ref="6054467772"/>
  <nd ref="6054467773"/>
  <tag k="building" v="yes"/>
 </way>
 <way id="643336446" visible="true" version="2" changeset="76526591" timestamp="2019-11-02T12:26:45Z" user="mklyr" uid="614924">
  <nd ref="6054467777"/>
  <nd ref="6054467776"/>
  <nd ref="6054467775"/>
  <nd ref="6054467774"/>
  <nd ref="6939139958"/>
  <nd ref="6939139959"/>
  <nd ref="6054467777"/>
  <tag k="building" v="yes"/>
 </way>
 <way id="643336447" visible="true" version="1" changeset="64399245" timestamp="2018-11-12T10:01:47Z" user="TUSY2016" uid="4144350">
  <nd ref="6054467781"/>
  <nd ref="6054467778"/>
  <nd ref="6054467779"/>
  <nd ref="6054467780"/>
  <nd ref="6054467781"/>
  <tag k="building" v="yes"/>
 </way>
 <way id="643336448" visible="true" version="1" changeset="64399245" timestamp="2018-11-12T10:01:47Z" user="TUSY2016" uid="4144350">
  <nd ref="6054468285"/>
  <nd ref="6054467782"/>
  <nd ref="6054467783"/>
  <nd ref="6054467784"/>
  <nd ref="6054468285"/>
  <tag k="building" v="yes"/>
 </way>
 <way id="643336449" visible="true" version="1" changeset="64399245" timestamp="2018-11-12T10:01:47Z" user="TUSY2016" uid="4144350">
  <nd ref="6054468289"/>
  <nd ref="6054468286"/>
  <nd ref="6054468287"/>
  <nd ref="6054468288"/>
  <nd ref="6054468289"/>
  <tag k="building" v="yes"/>
 </way>
 <way id="643336450" visible="true" version="1" changeset="64399245" timestamp="2018-11-12T10:01:47Z" user="TUSY2016" uid="4144350">
  <nd ref="6054468293"/>
  <nd ref="6054468290"/>
  <nd ref="6054468291"/>
  <nd ref="6054468292"/>
  <nd ref="6054468293"/>
  <tag k="building" v="yes"/>
 </way>
 <way id="643336452" visible="true" version="2" changeset="76526591" timestamp="2019-11-02T12:26:45Z" user="mklyr" uid="614924">
  <nd ref="6054468301"/>
  <nd ref="6054468300"/>
  <nd ref="6939139934"/>
  <nd ref="6939139935"/>
  <nd ref="6939139936"/>
  <nd ref="6939139937"/>
  <nd ref="6054468299"/>
  <nd ref="6054468298"/>
  <nd ref="6939139939"/>
  <nd ref="6939139938"/>
  <nd ref="6054468301"/>
  <tag k="building" v="yes"/>
  <tag k="name" v="しまむら"/>
  <tag k="opening_hours" v="10:00-19:00"/>
  <tag k="shop" v="clothes"/>
 </way>
 <way id="643336453" visible="true" version="1" changeset="64399245" timestamp="2018-11-12T10:01:47Z" user="TUSY2016" uid="4144350">
  <nd ref="6054468305"/>
  <nd ref="6054468304"/>
  <nd ref="6054468303"/>
  <nd ref="6054468302"/>
  <nd ref="6054468305"/>
  <tag k="amenity" v="veterinary"/>
  <tag k="building" v="yes"/>
  <tag k="name" v="おおたに動物病院"/>
  <tag k="opening_hours" v="Mo-We,Fr,Sa 09:30-12:00,16:00-19:00; Th 09:30-12:00"/>
 </way>
 <way id="643336454" visible="true" version="2" changeset="76526591" timestamp="2019-11-02T12:26:45Z" user="mklyr" uid="614924">
  <nd ref="6054468309"/>
  <nd ref="6054468308"/>
  <nd ref="6939139941"/>
  <nd ref="6939139940"/>
  <nd ref="6054468307"/>
  <nd ref="6054468306"/>
  <nd ref="6054468309"/>
  <tag k="building" v="yes"/>
  <tag k="name" v="美容室　さくら"/>
  <tag k="shop" v="hairdresser"/>
 </way>
 <way id="740128151" visible="true" version="1" changeset="76382222" timestamp="2019-10-30T09:08:58Z" user="mklyr" uid="614924">
  <nd ref="6929743395"/>
  <nd ref="6929743389"/>
  <nd ref="6929743388"/>
  <nd ref="6929743387"/>
  <nd ref="6929743386"/>
  <nd ref="6929743385"/>
  <nd ref="6929743390"/>
  <nd ref="6929742584"/>
  <nd ref="6929742583"/>
  <nd ref="6929742582"/>
  <nd ref="6929742581"/>
  <nd ref="6929742580"/>
  <tag k="highway" v="residential"/>
  <tag k="source" v="GSImaps/std"/>
 </way>
 <way id="741220124" visible="true" version="1" changeset="76526591" timestamp="2019-11-02T12:26:45Z" user="mklyr" uid="614924">
  <nd ref="6939139957"/>
  <nd ref="6939139956"/>
  <nd ref="6939139955"/>
  <nd ref="6939139954"/>
  <nd ref="6939139953"/>
  <nd ref="6939139952"/>
  <nd ref="6939139951"/>
  <nd ref="6939139950"/>
  <nd ref="6939139949"/>
  <nd ref="6939139948"/>
  <nd ref="6939139947"/>
  <nd ref="6939139946"/>
  <nd ref="6939139945"/>
  <nd ref="6939139944"/>
  <nd ref="6939139943"/>
  <nd ref="6939139942"/>
  <nd ref="6939139957"/>
  <tag k="building" v="yes"/>
 </way>
 <relation id="6361095" visible="true" version="3" changeset="48001636" timestamp="2017-04-21T12:27:37Z" user="TiggerGermany" uid="407463">
  <member type="way" ref="427588662" role="outer"/>
  <member type="way" ref="427588663" role="outer"/>
  <member type="way" ref="427588664" role="outer"/>
  <tag k="addr:city" v="山陽小野田市中川"/>
  <tag k="addr:housenumber" v="5-4-1"/>
  <tag k="addr:postcode" v="7560806"/>
  <tag k="leisure" v="swimming_pool"/>
  <tag k="name" v="山陽小野田市民プール"/>
  <tag k="type" v="multipolygon"/>
 </relation>
 <relation id="19413933" visible="true" version="1" changeset="169801235" timestamp="2025-08-01T07:05:34Z" user="taketaketake" uid="4757277">
  <member type="way" ref="120499091" role=""/>
  <member type="way" ref="120499100" role=""/>
  <member type="way" ref="120499083" role=""/>
  <member type="way" ref="686430188" role="forward"/>
  <member type="way" ref="686430187" role="forward"/>
  <member type="way" ref="120499096" role="forward"/>
  <member type="way" ref="120499106" role="forward"/>
  <member type="way" ref="222601506" role="forward"/>
  <member type="way" ref="120499107" role="forward"/>
  <member type="way" ref="222601501" role="forward"/>
  <member type="way" ref="120499094" role="forward"/>
  <member type="way" ref="686430185" role="forward"/>
  <member type="way" ref="686430186" role="forward"/>
  <member type="way" ref="184102136" role=""/>
  <member type="way" ref="822260882" role=""/>
  <member type="way" ref="179395308" role=""/>
  <member type="way" ref="120499103" role=""/>
  <member type="way" ref="222601504" role=""/>
  <member type="way" ref="222601502" role=""/>
  <member type="way" ref="1419090323" role=""/>
  <member type="way" ref="740911389" role=""/>
  <member type="way" ref="740911386" role=""/>
  <member type="way" ref="740911385" role=""/>
  <member type="way" ref="1419090324" role=""/>
  <member type="way" ref="99268415" role=""/>
  <member type="way" ref="1419090326" role=""/>
  <member type="way" ref="1419090325" role=""/>
  <member type="way" ref="120611541" role=""/>
  <member type="way" ref="120611655" role=""/>
  <member type="way" ref="120611657" role=""/>
  <member type="way" ref="120611512" role=""/>
  <member type="way" ref="120611540" role=""/>
  <member type="way" ref="120611529" role=""/>
  <member type="way" ref="182975205" role=""/>
  <member type="way" ref="1419090328" role=""/>
  <member type="way" ref="320038568" role="forward"/>
  <member type="way" ref="120611517" role="forward"/>
  <tag k="from" v="山口県宇部市大字妻崎開作"/>
  <tag k="name" v="山口県道354号　妻崎開作小野田線"/>
  <tag k="name:en" v="Yamaguchi Prefectural Route 354 Tsumazakigaisaku Onoda Line"/>
  <tag k="name:ja" v="山口県道354号　妻崎開作小野田線"/>
  <tag k="name:ja-Hira" v="やまぐちけんどう354ごう つまざきがいさくおのだせん"/>
  <tag k="name:ja_rm" v="Yamaguchikendō 354-gō Tsumazakigaisaku Onoda-sen"/>
  <tag k="network" v="JP:prefectural"/>
  <tag k="ref" v="354"/>
  <tag k="route" v="road"/>
  <tag k="to" v="山口県山陽小野田市新生三丁目"/>
  <tag k="type" v="route"/>
  <tag k="wikidata" v="Q11467323"/>
  <tag k="wikipedia" v="ja:山口県道354号妻崎開作小野田線"/>
 </relation>
</osm>
