<?xml version="1.0" encoding="UTF-8"?>
<osm version="0.6" generator="openstreetmap-cgimap 2.1.0 (2942763 spike-08.openstreetmap.org)" copyright="OpenStreetMap and contributors" attribution="http://www.openstreetmap.org/copyright" license="http://opendatacommons.org/licenses/odbl/1-0/">
 <bounds minlat="34.0086340" minlon="131.1881560" maxlat="34.0110340" maxlon="131.1911560"/>
 <node id="749232126" visible="true" version="4" changeset="15578754" timestamp="2013-04-02T08:56:08Z" user="mklyr" uid="614924" lat="33.9972750" lon="131.1700095"/>
 <node id="1351965357" visible="true" version="8" changeset="156548688" timestamp="2024-09-12T23:04:26Z" user="taketaketake" uid="4757277" lat="34.0076596" lon="131.1887721"/>
 <node id="1351965586" visible="true" version="6" changeset="55071839" timestamp="2018-01-01T09:38:01Z" user="mklyr" uid="614924" lat="34.0088145" lon="131.1871280"/>
 <node id="1351965603" visible="true" version="5" changeset="55071839" timestamp="2018-01-01T09:38:01Z" user="mklyr" uid="614924" lat="34.0089354" lon="131.1874634"/>
 <node id="1351965628" visible="true" version="5" changeset="55071839" timestamp="2018-01-01T09:38:01Z" user="mklyr" uid="614924" lat="34.0090533" lon="131.1878364"/>
 <node id="1351965678" visible="true" version="5" changeset="62414707" timestamp="2018-09-09T01:45:30Z" user="mklyr" uid="614924" lat="34.0092855" lon="131.1922276"/>
 <node id="1351965696" visible="true" version="7" changeset="55071839" timestamp="2018-01-01T09:38:01Z" user="mklyr" uid="614924" lat="34.0092879" lon="131.1886405"/>
 <node id="1351965756" visible="true" version="3" changeset="110608047" timestamp="2021-09-02T09:31:50Z" user="mklyr" uid="614924" lat="34.0096590" lon="131.1884514"/>
 <node id="1351965765" visible="true" version="6" changeset="55073237" timestamp="2018-01-01T11:04:52Z" user="mklyr" uid="614924" lat="34.0093988" lon="131.1891665"/>
 <node id="1351965791" visible="true" version="4" changeset="110608047" timestamp="2021-09-02T09:31:50Z" user="mklyr" uid="614924" lat="34.0097915" lon="131.1882883"/>
 <node id="1351965799" visible="true" version="5" changeset="55073237" timestamp="2018-01-01T11:04:53Z" user="mklyr" uid="614924" lat="34.0098342" lon="131.1895257"/>
 <node id="1351965808" visible="true" version="3" changeset="20943350" timestamp="2014-03-06T05:08:14Z" user="mklyr" uid="614924" lat="34.0098825" lon="131.1882457"/>
 <node id="1351965837" visible="true" version="4" changeset="110608047" timestamp="2021-09-02T09:31:50Z" user="mklyr" uid="614924" lat="34.0100641" lon="131.1882216"/>
 <node id="1351965857" visible="true" version="4" changeset="110608047" timestamp="2021-09-02T09:31:50Z" user="mklyr" uid="614924" lat="34.0101303" lon="131.1882295"/>
 <node id="1351965888" visible="true" version="4" changeset="110608047" timestamp="2021-09-02T09:31:50Z" user="mklyr" uid="614924" lat="34.0102404" lon="131.1882812"/>
 <node id="1351965905" visible="true" version="5" changeset="55073237" timestamp="2018-01-01T11:04:53Z" user="mklyr" uid="614924" lat="34.0105575" lon="131.1906708"/>
 <node id="1351965910" visible="true" version="4" changeset="110608047" timestamp="2021-09-02T09:31:50Z" user="mklyr" uid="614924" lat="34.0103050" lon="131.1882802"/>
 <node id="1351965923" visible="true" version="4" changeset="62414707" timestamp="2018-09-09T01:45:31Z" user="mklyr" uid="614924" lat="34.0104816" lon="131.1882293"/>
 <node id="1351965931" visible="true" version="4" changeset="62414707" timestamp="2018-09-09T01:45:31Z" user="mklyr" uid="614924" lat="34.0105226" lon="131.1881845"/>
 <node id="1351965936" visible="true" version="4" changeset="62414707" timestamp="2018-09-09T01:45:31Z" user="mklyr" uid="614924" lat="34.0105774" lon="131.1880183"/>
 <node id="1351965945" visible="true" version="3" changeset="62414707" timestamp="2018-09-09T01:45:31Z" user="mklyr" uid="614924" lat="34.0106127" lon="131.1878953"/>
 <node id="1351965950" visible="true" version="5" changeset="55073237" timestamp="2018-01-01T11:04:53Z" user="mklyr" uid="614924" lat="34.0106321" lon="131.1908248"/>
 <node id="1351965957" visible="true" version="3" changeset="62414707" timestamp="2018-09-09T01:45:31Z" user="mklyr" uid="614924" lat="34.0106571" lon="131.1878311"/>
 <node id="1351965975" visible="true" version="4" changeset="62414707" timestamp="2018-09-09T01:45:31Z" user="mklyr" uid="614924" lat="34.0107223" lon="131.1877760"/>
 <node id="1351966004" visible="true" version="4" changeset="62414707" timestamp="2018-09-09T01:45:31Z" user="mklyr" uid="614924" lat="34.0108090" lon="131.1877358"/>
 <node id="1351966018" visible="true" version="5" changeset="55073237" timestamp="2018-01-01T11:04:53Z" user="mklyr" uid="614924" lat="34.0109517" lon="131.1914654"/>
 <node id="1351966055" visible="true" version="4" changeset="62414707" timestamp="2018-09-09T01:45:31Z" user="mklyr" uid="614924" lat="34.0110973" lon="131.1875671"/>
 <node id="1351966080" visible="true" version="3" changeset="20943350" timestamp="2014-03-06T05:08:15Z" user="mklyr" uid="614924" lat="34.0111476" lon="131.1875539"/>
 <node id="1351966088" visible="true" version="6" changeset="127657726" timestamp="2022-10-17T08:51:43Z" user="mklyr" uid="614924" lat="34.0114730" lon="131.1925195"/>
 <node id="1351966097" visible="true" version="6" changeset="127657726" timestamp="2022-10-17T08:51:43Z" user="mklyr" uid="614924" lat="34.0115462" lon="131.1926703"/>
 <node id="1351966102" visible="true" version="3" changeset="110608047" timestamp="2021-09-02T09:31:50Z" user="mklyr" uid="614924" lat="34.0113762" lon="131.1875713"/>
 <node id="1351966127" visible="true" version="4" changeset="110608047" timestamp="2021-09-02T09:31:50Z" user="mklyr" uid="614924" lat="34.0114904" lon="131.1876032"/>
 <node id="1351966128" visible="true" version="6" changeset="127657726" timestamp="2022-10-17T08:51:43Z" user="mklyr" uid="614924" lat="34.0116381" lon="131.1928484"/>
 <node id="1351966156" visible="true" version="3" changeset="110608047" timestamp="2021-09-02T09:31:50Z" user="mklyr" uid="614924" lat="34.0115380" lon="131.1876067"/>
 <node id="1351966171" visible="true" version="3" changeset="55073237" timestamp="2018-01-01T11:04:53Z" user="mklyr" uid="614924" lat="34.0117707" lon="131.1930867"/>
 <node id="1351966188" visible="true" version="4" changeset="56817749" timestamp="2018-03-02T11:49:50Z" user="mklyr" uid="614924" lat="34.0115782" lon="131.1876103"/>
 <node id="1351966286" visible="true" version="5" changeset="55073237" timestamp="2018-01-01T11:04:53Z" user="mklyr" uid="614924" lat="34.0121279" lon="131.1936071"/>
 <node id="1351966300" visible="true" version="3" changeset="16830376" timestamp="2013-07-05T04:28:08Z" user="mklyr" uid="614924" lat="34.0121855" lon="131.1936856"/>
 <node id="1351966496" visible="true" version="3" changeset="16830376" timestamp="2013-07-05T04:28:08Z" user="mklyr" uid="614924" lat="34.0131445" lon="131.1950056"/>
 <node id="1351966764" visible="true" version="7" changeset="55073237" timestamp="2018-01-01T11:04:53Z" user="mklyr" uid="614924" lat="34.0143461" lon="131.1966532">
  <tag k="highway" v="traffic_signals"/>
 </node>
 <node id="1351967452" visible="true" version="6" changeset="156548688" timestamp="2024-09-12T23:04:26Z" user="taketaketake" uid="4757277" lat="34.0173513" lon="131.2009240"/>
 <node id="1617286496" visible="true" version="1" changeset="10580899" timestamp="2012-02-04T03:11:12Z" user="yamasan" uid="32308" lat="34.0106276" lon="131.1890874"/>
 <node id="1617286497" visible="true" version="1" changeset="10580899" timestamp="2012-02-04T03:11:12Z" user="yamasan" uid="32308" lat="34.0106356" lon="131.1886381"/>
 <node id="1617286510" visible="true" version="1" changeset="10580899" timestamp="2012-02-04T03:11:12Z" user="yamasan" uid="32308" lat="34.0107902" lon="131.1896445"/>
 <node id="1617286516" visible="true" version="1" changeset="10580899" timestamp="2012-02-04T03:11:12Z" user="yamasan" uid="32308" lat="34.0109464" lon="131.1881449"/>
 <node id="1617286542" visible="true" version="1" changeset="10580899" timestamp="2012-02-04T03:11:14Z" user="yamasan" uid="32308" lat="34.0114407" lon="131.1878466"/>
 <node id="1617286547" visible="true" version="1" changeset="10580899" timestamp="2012-02-04T03:11:14Z" user="yamasan" uid="32308" lat="34.0115199" lon="131.1906656"/>
 <node id="1617286553" visible="true" version="1" changeset="10580899" timestamp="2012-02-04T03:11:14Z" user="yamasan" uid="32308" lat="34.0117150" lon="131.1910163"/>
 <node id="1617286559" visible="true" version="3" changeset="76542411" timestamp="2019-11-03T03:20:31Z" user="mklyr" uid="614924" lat="34.0117399" lon="131.1878714"/>
 <node id="1617286576" visible="true" version="1" changeset="10580899" timestamp="2012-02-04T03:11:15Z" user="yamasan" uid="32308" lat="34.0123162" lon="131.1887505"/>
 <node id="1617286580" visible="true" version="1" changeset="10580899" timestamp="2012-02-04T03:11:15Z" user="yamasan" uid="32308" lat="34.0124386" lon="131.1891511"/>
 <node id="1617286581" visible="true" version="2" changeset="15796394" timestamp="2013-04-20T11:53:39Z" user="mklyr" uid="614924" lat="34.0120685" lon="131.1881537"/>
 <node id="1617286593" visible="true" version="1" changeset="10580899" timestamp="2012-02-04T03:11:16Z" user="yamasan" uid="32308" lat="34.0125780" lon="131.1885844"/>
 <node id="1617286595" visible="true" version="1" changeset="10580899" timestamp="2012-02-04T03:11:16Z" user="yamasan" uid="32308" lat="34.0126404" lon="131.1923536"/>
 <node id="1617286597" visible="true" version="2" changeset="28436961" timestamp="2015-01-27T08:25:57Z" user="mklyr" uid="614924" lat="34.0129660" lon="131.1900718"/>
 <node id="1617286598" visible="true" version="3" changeset="76542411" timestamp="2019-11-03T03:20:31Z" user="mklyr" uid="614924" lat="34.0124341" lon="131.1884643"/>
 <node id="1617286606" visible="true" version="2" changeset="15796394" timestamp="2013-04-20T11:53:39Z" user="mklyr" uid="614924" lat="34.0125609" lon="131.1885292"/>
 <node id="1617286609" visible="true" version="1" changeset="10580899" timestamp="2012-02-04T03:11:16Z" user="yamasan" uid="32308" lat="34.0128976" lon="131.1924466"/>
 <node id="1617286621" visible="true" version="2" changeset="28436961" timestamp="2015-01-27T08:25:57Z" user="mklyr" uid="614924" lat="34.0131255" lon="131.1901331"/>
 <node id="1617286630" visible="true" version="1" changeset="10580899" timestamp="2012-02-04T03:11:17Z" user="yamasan" uid="32308" lat="34.0133007" lon="131.1924224"/>
 <node id="1617286644" visible="true" version="2" changeset="28436961" timestamp="2015-01-27T08:25:57Z" user="mklyr" uid="614924" lat="34.0131764" lon="131.1901978"/>
 <node id="1617286647" visible="true" version="1" changeset="10580899" timestamp="2012-02-04T03:11:18Z" user="yamasan" uid="32308" lat="34.0135766" lon="131.1922739"/>
 <node id="1617286651" visible="true" version="1" changeset="10580899" timestamp="2012-02-04T03:11:18Z" user="yamasan" uid="32308" lat="34.0137754" lon="131.1924173"/>
 <node id="1617286663" visible="true" version="1" changeset="10580899" timestamp="2012-02-04T03:11:19Z" user="yamasan" uid="32308" lat="34.0139154" lon="131.1926283"/>
 <node id="1617286666" visible="true" version="2" changeset="28436961" timestamp="2015-01-27T08:25:57Z" user="mklyr" uid="614924" lat="34.0137921" lon="131.1904834"/>
 <node id="1617286682" visible="true" version="2" changeset="28436961" timestamp="2015-01-27T08:25:57Z" user="mklyr" uid="614924" lat="34.0141880" lon="131.1906570"/>
 <node id="1617286683" visible="true" version="2" changeset="147959900" timestamp="2024-02-27T07:12:02Z" user="paopao234" uid="8303738" lat="34.0138664" lon="131.1920026"/>
 <node id="1617286687" visible="true" version="2" changeset="28436961" timestamp="2015-01-27T08:25:57Z" user="mklyr" uid="614924" lat="34.0142212" lon="131.1907371"/>
 <node id="1617286689" visible="true" version="2" changeset="147959900" timestamp="2024-02-27T07:12:02Z" user="paopao234" uid="8303738" lat="34.0139875" lon="131.1919588"/>
 <node id="1617286698" visible="true" version="2" changeset="147959900" timestamp="2024-02-27T07:12:02Z" user="paopao234" uid="8303738" lat="34.0139940" lon="131.1914826"/>
 <node id="1617286705" visible="true" version="2" changeset="28436961" timestamp="2015-01-27T08:25:57Z" user="mklyr" uid="614924" lat="34.0141056" lon="131.1914307"/>
 <node id="1774652407" visible="true" version="8" changeset="156548688" timestamp="2024-09-12T23:04:26Z" user="taketaketake" uid="4757277" lat="34.0173289" lon="131.2008919"/>
 <node id="1945480109" visible="true" version="5" changeset="17141555" timestamp="2013-07-29T16:21:29Z" user="mklyr" uid="614924" lat="34.0093256" lon="131.1891302">
  <tag k="highway" v="traffic_signals"/>
 </node>
 <node id="1945480114" visible="true" version="4" changeset="56543774" timestamp="2018-02-21T09:49:45Z" user="mklyr" uid="614924" lat="34.0093085" lon="131.1887901"/>
 <node id="1956268693" visible="true" version="4" changeset="55073237" timestamp="2018-01-01T11:04:56Z" user="mklyr" uid="614924" lat="34.0114030" lon="131.1923865"/>
 <node id="1973362494" visible="true" version="2" changeset="55073237" timestamp="2018-01-01T11:04:56Z" user="mklyr" uid="614924" lat="34.0149525" lon="131.1975442"/>
 <node id="2002009300" visible="true" version="3" changeset="55073237" timestamp="2018-01-01T11:04:57Z" user="mklyr" uid="614924" lat="34.0094928" lon="131.1892184"/>
 <node id="2002009302" visible="true" version="2" changeset="20943350" timestamp="2014-03-06T05:08:15Z" user="mklyr" uid="614924" lat="34.0094913" lon="131.1885522"/>
 <node id="2002009305" visible="true" version="3" changeset="55073237" timestamp="2018-01-01T11:04:57Z" user="mklyr" uid="614924" lat="34.0096047" lon="131.1892977"/>
 <node id="2002009307" visible="true" version="3" changeset="55073237" timestamp="2018-01-01T11:04:57Z" user="mklyr" uid="614924" lat="34.0097018" lon="131.1893718"/>
 <node id="2002009309" visible="true" version="3" changeset="55073237" timestamp="2018-01-01T11:04:57Z" user="mklyr" uid="614924" lat="34.0097746" lon="131.1894512"/>
 <node id="2002009312" visible="true" version="2" changeset="110608047" timestamp="2021-09-02T09:31:50Z" user="mklyr" uid="614924" lat="34.0097101" lon="131.1883912"/>
 <node id="2002009315" visible="true" version="3" changeset="55073237" timestamp="2018-01-01T11:04:57Z" user="mklyr" uid="614924" lat="34.0099039" lon="131.1896119"/>
 <node id="2002009318" visible="true" version="4" changeset="127657726" timestamp="2022-10-17T08:51:43Z" user="mklyr" uid="614924" lat="34.0100129" lon="131.1897768"/>
 <node id="2013400669" visible="true" version="3" changeset="55073237" timestamp="2018-01-01T11:04:57Z" user="mklyr" uid="614924" lat="34.0119514" lon="131.1933682"/>
 <node id="2345443794" visible="true" version="5" changeset="127657726" timestamp="2022-10-17T08:51:43Z" user="mklyr" uid="614924" lat="34.0088120" lon="131.1889968"/>
 <node id="2345443798" visible="true" version="1" changeset="16562978" timestamp="2013-06-15T13:26:41Z" user="mklyr" uid="614924" lat="34.0090750" lon="131.1890429"/>
 <node id="2345443800" visible="true" version="1" changeset="16562978" timestamp="2013-06-15T13:26:41Z" user="mklyr" uid="614924" lat="34.0091863" lon="131.1890689"/>
 <node id="2345443801" visible="true" version="3" changeset="55071839" timestamp="2018-01-01T09:38:02Z" user="mklyr" uid="614924" lat="34.0092192" lon="131.1883770"/>
 <node id="2374479467" visible="true" version="1" changeset="16830376" timestamp="2013-07-05T04:28:00Z" user="mklyr" uid="614924" lat="34.0092697" lon="131.1891023"/>
 <node id="2374479470" visible="true" version="2" changeset="55073237" timestamp="2018-01-01T11:04:58Z" user="mklyr" uid="614924" lat="34.0104809" lon="131.1905182"/>
 <node id="2374479476" visible="true" version="2" changeset="55073237" timestamp="2018-01-01T11:04:58Z" user="mklyr" uid="614924" lat="34.0118475" lon="131.1932061"/>
 <node id="2374479477" visible="true" version="2" changeset="55073237" timestamp="2018-01-01T11:04:58Z" user="mklyr" uid="614924" lat="34.0135838" lon="131.1956144"/>
 <node id="2374479479" visible="true" version="2" changeset="55073237" timestamp="2018-01-01T11:04:58Z" user="mklyr" uid="614924" lat="34.0161535" lon="131.1992301"/>
 <node id="2703676141" visible="true" version="2" changeset="110608047" timestamp="2021-09-02T09:31:50Z" user="mklyr" uid="614924" lat="34.0098351" lon="131.1882605"/>
 <node id="2703676142" visible="true" version="2" changeset="110608047" timestamp="2021-09-02T09:31:50Z" user="mklyr" uid="614924" lat="34.0099773" lon="131.1882246"/>
 <node id="2703676144" visible="true" version="1" changeset="20943350" timestamp="2014-03-06T05:08:12Z" user="mklyr" uid="614924" lat="34.0104338" lon="131.1882481"/>
 <node id="2703676145" visible="true" version="2" changeset="62414707" timestamp="2018-09-09T01:45:31Z" user="mklyr" uid="614924" lat="34.0109278" lon="131.1876642"/>
 <node id="2703676146" visible="true" version="2" changeset="110608047" timestamp="2021-09-02T09:31:50Z" user="mklyr" uid="614924" lat="34.0113222" lon="131.1875582"/>
 <node id="3397666374" visible="true" version="1" changeset="29462344" timestamp="2015-03-14T00:54:29Z" user="Human65536" uid="1502046" lat="34.0084561" lon="131.1909504"/>
 <node id="3397666375" visible="true" version="1" changeset="29462344" timestamp="2015-03-14T00:54:29Z" user="Human65536" uid="1502046" lat="34.0085674" lon="131.1911077"/>
 <node id="3397666376" visible="true" version="1" changeset="29462344" timestamp="2015-03-14T00:54:29Z" user="Human65536" uid="1502046" lat="34.0095154" lon="131.1898596"/>
 <node id="3397666377" visible="true" version="1" changeset="29462344" timestamp="2015-03-14T00:54:29Z" user="Human65536" uid="1502046" lat="34.0096267" lon="131.1900168"/>
 <node id="4597231416" visible="true" version="1" changeset="45015082" timestamp="2017-01-09T00:43:23Z" user="show1017" uid="3244669" lat="34.0001843" lon="131.1820928"/>
 <node id="5127958073" visible="true" version="1" changeset="52348658" timestamp="2017-09-25T08:44:56Z" user="f213022" uid="6068404" lat="34.0096428" lon="131.1892280">
  <tag k="highway" v="bus_stop"/>
  <tag k="name" v="楴山"/>
 </node>
 <node id="5127958074" visible="true" version="1" changeset="52348658" timestamp="2017-09-25T08:44:56Z" user="f213022" uid="6068404" lat="34.0098282" lon="131.1895959">
  <tag k="highway" v="bus_stop"/>
  <tag k="name" v="楴山"/>
 </node>
 <node id="5711036766" visible="true" version="2" changeset="127773484" timestamp="2022-10-19T10:42:41Z" user="mklyr" uid="614924" lat="34.0090939" lon="131.1882980"/>
 <node id="5711036767" visible="true" version="2" changeset="127773484" timestamp="2022-10-19T10:42:41Z" user="mklyr" uid="614924" lat="34.0090192" lon="131.1882966"/>
 <node id="5711036768" visible="true" version="2" changeset="127773484" timestamp="2022-10-19T10:42:41Z" user="mklyr" uid="614924" lat="34.0090175" lon="131.1884356"/>
 <node id="5711036769" visible="true" version="2" changeset="127773484" timestamp="2022-10-19T10:42:41Z" user="mklyr" uid="614924" lat="34.0090942" lon="131.1882808"/>
 <node id="5711036770" visible="true" version="2" changeset="127773484" timestamp="2022-10-19T10:42:41Z" user="mklyr" uid="614924" lat="34.0091052" lon="131.1884520"/>
 <node id="5711036771" visible="true" version="2" changeset="127773484" timestamp="2022-10-19T10:42:41Z" user="mklyr" uid="614924" lat="34.0091074" lon="131.1882811"/>
 <node id="5711036788" visible="true" version="3" changeset="127773484" timestamp="2022-10-19T10:42:41Z" user="mklyr" uid="614924" lat="34.0090372" lon="131.1882626"/>
 <node id="5711036789" visible="true" version="3" changeset="127773484" timestamp="2022-10-19T10:42:41Z" user="mklyr" uid="614924" lat="34.0089410" lon="131.1883142"/>
 <node id="5711036790" visible="true" version="3" changeset="127773484" timestamp="2022-10-19T10:42:41Z" user="mklyr" uid="614924" lat="34.0088899" lon="131.1881982"/>
 <node id="5711036791" visible="true" version="3" changeset="127773484" timestamp="2022-10-19T10:42:41Z" user="mklyr" uid="614924" lat="34.0089786" lon="131.1881506"/>
 <node id="5711046755" visible="true" version="1" changeset="60071471" timestamp="2018-06-22T10:26:16Z" user="TUSY2016" uid="4144350" lat="34.0093832" lon="131.1897178"/>
 <node id="5711046756" visible="true" version="1" changeset="60071471" timestamp="2018-06-22T10:26:16Z" user="TUSY2016" uid="4144350" lat="34.0088940" lon="131.1892162"/>
 <node id="5711046757" visible="true" version="1" changeset="60071471" timestamp="2018-06-22T10:26:16Z" user="TUSY2016" uid="4144350" lat="34.0087917" lon="131.1893718"/>
 <node id="5711046758" visible="true" version="1" changeset="60071471" timestamp="2018-06-22T10:26:16Z" user="TUSY2016" uid="4144350" lat="34.0092786" lon="131.1898680"/>
 <node id="5711046759" visible="true" version="2" changeset="110608047" timestamp="2021-09-02T09:31:50Z" user="mklyr" uid="614924" lat="34.0087425" lon="131.1881152"/>
 <node id="5711046760" visible="true" version="2" changeset="110608047" timestamp="2021-09-02T09:31:50Z" user="mklyr" uid="614924" lat="34.0086318" lon="131.1881614"/>
 <node id="5711046761" visible="true" version="2" changeset="110608047" timestamp="2021-09-02T09:31:50Z" user="mklyr" uid="614924" lat="34.0086655" lon="131.1883120"/>
 <node id="5711046762" visible="true" version="2" changeset="110608047" timestamp="2021-09-02T09:31:50Z" user="mklyr" uid="614924" lat="34.0087937" lon="131.1882666"/>
 <node id="5711046763" visible="true" version="2" changeset="110608047" timestamp="2021-09-02T09:31:50Z" user="mklyr" uid="614924" lat="34.0087716" lon="131.1883015"/>
 <node id="5711046764" visible="true" version="2" changeset="110608047" timestamp="2021-09-02T09:31:50Z" user="mklyr" uid="614924" lat="34.0087135" lon="131.1883238"/>
 <node id="5711046765" visible="true" version="2" changeset="110608047" timestamp="2021-09-02T09:31:50Z" user="mklyr" uid="614924" lat="34.0087582" lon="131.1884931"/>
 <node id="5711046766" visible="true" version="2" changeset="110608047" timestamp="2021-09-02T09:31:50Z" user="mklyr" uid="614924" lat="34.0088163" lon="131.1884708"/>
 <node id="6341088533" visible="true" version="1" changeset="68197898" timestamp="2019-03-16T08:34:14Z" user="Otenkiya" uid="4702051" lat="34.0105315" lon="131.1909181"/>
 <node id="6341088534" visible="true" version="1" changeset="68197898" timestamp="2019-03-16T08:34:14Z" user="Otenkiya" uid="4702051" lat="34.0104746" lon="131.1909796"/>
 <node id="6341088535" visible="true" version="2" changeset="127657726" timestamp="2022-10-17T08:51:43Z" user="mklyr" uid="614924" lat="34.0089931" lon="131.1890297"/>
 <node id="6341088564" visible="true" version="1" changeset="68197898" timestamp="2019-03-16T08:34:15Z" user="Otenkiya" uid="4702051" lat="33.9972451" lon="131.1724082"/>
 <node id="6341088565" visible="true" version="1" changeset="68197898" timestamp="2019-03-16T08:34:15Z" user="Otenkiya" uid="4702051" lat="33.9971961" lon="131.1728296"/>
 <node id="6341088566" visible="true" version="1" changeset="68197898" timestamp="2019-03-16T08:34:15Z" user="Otenkiya" uid="4702051" lat="33.9971722" lon="131.1732522"/>
 <node id="6341088567" visible="true" version="1" changeset="68197898" timestamp="2019-03-16T08:34:15Z" user="Otenkiya" uid="4702051" lat="33.9972018" lon="131.1735837"/>
 <node id="6341088568" visible="true" version="1" changeset="68197898" timestamp="2019-03-16T08:34:15Z" user="Otenkiya" uid="4702051" lat="33.9972303" lon="131.1736771"/>
 <node id="6341088569" visible="true" version="1" changeset="68197898" timestamp="2019-03-16T08:34:15Z" user="Otenkiya" uid="4702051" lat="33.9972770" lon="131.1737705"/>
 <node id="6341088570" visible="true" version="1" changeset="68197898" timestamp="2019-03-16T08:34:15Z" user="Otenkiya" uid="4702051" lat="33.9973579" lon="131.1738604"/>
 <node id="6341088571" visible="true" version="1" changeset="68197898" timestamp="2019-03-16T08:34:15Z" user="Otenkiya" uid="4702051" lat="33.9982565" lon="131.1744220"/>
 <node id="6341088572" visible="true" version="1" changeset="68197898" timestamp="2019-03-16T08:34:15Z" user="Otenkiya" uid="4702051" lat="33.9984581" lon="131.1745883"/>
 <node id="6341088573" visible="true" version="1" changeset="68197898" timestamp="2019-03-16T08:34:15Z" user="Otenkiya" uid="4702051" lat="33.9985880" lon="131.1747363"/>
 <node id="6341088574" visible="true" version="1" changeset="68197898" timestamp="2019-03-16T08:34:15Z" user="Otenkiya" uid="4702051" lat="33.9988329" lon="131.1751543"/>
 <node id="6341088575" visible="true" version="1" changeset="68197898" timestamp="2019-03-16T08:34:15Z" user="Otenkiya" uid="4702051" lat="33.9990447" lon="131.1755735"/>
 <node id="6341088576" visible="true" version="1" changeset="68197898" timestamp="2019-03-16T08:34:15Z" user="Otenkiya" uid="4702051" lat="33.9992087" lon="131.1759425"/>
 <node id="6341088577" visible="true" version="1" changeset="68197898" timestamp="2019-03-16T08:34:15Z" user="Otenkiya" uid="4702051" lat="33.9992646" lon="131.1762056"/>
 <node id="6341088578" visible="true" version="1" changeset="68197898" timestamp="2019-03-16T08:34:15Z" user="Otenkiya" uid="4702051" lat="33.9992611" lon="131.1763640"/>
 <node id="6341088579" visible="true" version="1" changeset="68197898" timestamp="2019-03-16T08:34:15Z" user="Otenkiya" uid="4702051" lat="33.9991108" lon="131.1770485"/>
 <node id="6341088580" visible="true" version="1" changeset="68197898" timestamp="2019-03-16T08:34:15Z" user="Otenkiya" uid="4702051" lat="33.9989923" lon="131.1781727"/>
 <node id="6341088581" visible="true" version="1" changeset="68197898" timestamp="2019-03-16T08:34:15Z" user="Otenkiya" uid="4702051" lat="33.9990197" lon="131.1786590"/>
 <node id="6341088582" visible="true" version="1" changeset="68197898" timestamp="2019-03-16T08:34:15Z" user="Otenkiya" uid="4702051" lat="33.9990288" lon="131.1791659"/>
 <node id="6341088583" visible="true" version="1" changeset="68197898" timestamp="2019-03-16T08:34:15Z" user="Otenkiya" uid="4702051" lat="33.9990459" lon="131.1792468"/>
 <node id="6341088584" visible="true" version="1" changeset="68197898" timestamp="2019-03-16T08:34:15Z" user="Otenkiya" uid="4702051" lat="33.9992384" lon="131.1794245"/>
 <node id="6341088685" visible="true" version="1" changeset="68197898" timestamp="2019-03-16T08:34:15Z" user="Otenkiya" uid="4702051" lat="33.9993101" lon="131.1795179"/>
 <node id="6341088686" visible="true" version="1" changeset="68197898" timestamp="2019-03-16T08:34:15Z" user="Otenkiya" uid="4702051" lat="33.9993500" lon="131.1796181"/>
 <node id="6341088687" visible="true" version="1" changeset="68197898" timestamp="2019-03-16T08:34:15Z" user="Otenkiya" uid="4702051" lat="33.9993671" lon="131.1797115"/>
 <node id="6341088688" visible="true" version="1" changeset="68197898" timestamp="2019-03-16T08:34:15Z" user="Otenkiya" uid="4702051" lat="33.9993728" lon="131.1799735"/>
 <node id="6341088689" visible="true" version="1" changeset="68197898" timestamp="2019-03-16T08:34:15Z" user="Otenkiya" uid="4702051" lat="33.9993830" lon="131.1803117"/>
 <node id="6341088690" visible="true" version="1" changeset="68197898" timestamp="2019-03-16T08:34:15Z" user="Otenkiya" uid="4702051" lat="33.9993614" lon="131.1806102"/>
 <node id="6341088691" visible="true" version="1" changeset="68197898" timestamp="2019-03-16T08:34:15Z" user="Otenkiya" uid="4702051" lat="33.9993261" lon="131.1809929"/>
 <node id="6341088692" visible="true" version="1" changeset="68197898" timestamp="2019-03-16T08:34:15Z" user="Otenkiya" uid="4702051" lat="33.9993204" lon="131.1812161"/>
 <node id="6341088693" visible="true" version="1" changeset="68197898" timestamp="2019-03-16T08:34:15Z" user="Otenkiya" uid="4702051" lat="33.9993397" lon="131.1813972"/>
 <node id="6341088694" visible="true" version="1" changeset="68197898" timestamp="2019-03-16T08:34:15Z" user="Otenkiya" uid="4702051" lat="33.9993876" lon="131.1815191"/>
 <node id="6341088695" visible="true" version="1" changeset="68197898" timestamp="2019-03-16T08:34:15Z" user="Otenkiya" uid="4702051" lat="33.9994775" lon="131.1816466"/>
 <node id="6341088696" visible="true" version="1" changeset="68197898" timestamp="2019-03-16T08:34:15Z" user="Otenkiya" uid="4702051" lat="33.9995812" lon="131.1817423"/>
 <node id="6341088697" visible="true" version="1" changeset="68197898" timestamp="2019-03-16T08:34:15Z" user="Otenkiya" uid="4702051" lat="33.9997099" lon="131.1818198"/>
 <node id="6341088698" visible="true" version="1" changeset="68197898" timestamp="2019-03-16T08:34:15Z" user="Otenkiya" uid="4702051" lat="34.0004935" lon="131.1822731"/>
 <node id="6341088699" visible="true" version="1" changeset="68197898" timestamp="2019-03-16T08:34:15Z" user="Otenkiya" uid="4702051" lat="34.0007247" lon="131.1824143"/>
 <node id="6341088700" visible="true" version="1" changeset="68197898" timestamp="2019-03-16T08:34:15Z" user="Otenkiya" uid="4702051" lat="34.0009309" lon="131.1825578"/>
 <node id="6341088701" visible="true" version="1" changeset="68197898" timestamp="2019-03-16T08:34:15Z" user="Otenkiya" uid="4702051" lat="34.0013899" lon="131.1828768"/>
 <node id="6341088702" visible="true" version="1" changeset="68197898" timestamp="2019-03-16T08:34:15Z" user="Otenkiya" uid="4702051" lat="34.0015585" lon="131.1829895"/>
 <node id="6341088703" visible="true" version="1" changeset="68197898" timestamp="2019-03-16T08:34:15Z" user="Otenkiya" uid="4702051" lat="34.0016735" lon="131.1830408"/>
 <node id="6341088704" visible="true" version="1" changeset="68197898" timestamp="2019-03-16T08:34:15Z" user="Otenkiya" uid="4702051" lat="34.0018079" lon="131.1830590"/>
 <node id="6341088705" visible="true" version="1" changeset="68197898" timestamp="2019-03-16T08:34:15Z" user="Otenkiya" uid="4702051" lat="34.0019287" lon="131.1830556"/>
 <node id="6341088706" visible="true" version="1" changeset="68197898" timestamp="2019-03-16T08:34:15Z" user="Otenkiya" uid="4702051" lat="34.0023239" lon="131.1829838"/>
 <node id="6341088707" visible="true" version="1" changeset="68197898" timestamp="2019-03-16T08:34:15Z" user="Otenkiya" uid="4702051" lat="34.0025540" lon="131.1829519"/>
 <node id="6341088708" visible="true" version="1" changeset="68197898" timestamp="2019-03-16T08:34:15Z" user="Otenkiya" uid="4702051" lat="34.0026907" lon="131.1829485"/>
 <node id="6341088709" visible="true" version="1" changeset="68197898" timestamp="2019-03-16T08:34:15Z" user="Otenkiya" uid="4702051" lat="34.0028444" lon="131.1829690"/>
 <node id="6341088710" visible="true" version="1" changeset="68197898" timestamp="2019-03-16T08:34:15Z" user="Otenkiya" uid="4702051" lat="34.0029458" lon="131.1829952"/>
 <node id="6341088711" visible="true" version="1" changeset="68197898" timestamp="2019-03-16T08:34:15Z" user="Otenkiya" uid="4702051" lat="34.0030597" lon="131.1830488"/>
 <node id="6341088712" visible="true" version="1" changeset="68197898" timestamp="2019-03-16T08:34:15Z" user="Otenkiya" uid="4702051" lat="34.0037055" lon="131.1833893"/>
 <node id="6341088713" visible="true" version="1" changeset="68197898" timestamp="2019-03-16T08:34:15Z" user="Otenkiya" uid="4702051" lat="34.0040723" lon="131.1835864"/>
 <node id="6341088714" visible="true" version="1" changeset="68197898" timestamp="2019-03-16T08:34:16Z" user="Otenkiya" uid="4702051" lat="34.0045347" lon="131.1838722"/>
 <node id="6341088715" visible="true" version="1" changeset="68197898" timestamp="2019-03-16T08:34:16Z" user="Otenkiya" uid="4702051" lat="34.0047523" lon="131.1840534"/>
 <node id="6341088716" visible="true" version="1" changeset="68197898" timestamp="2019-03-16T08:34:16Z" user="Otenkiya" uid="4702051" lat="34.0050871" lon="131.1843711"/>
 <node id="6341088717" visible="true" version="1" changeset="68197898" timestamp="2019-03-16T08:34:16Z" user="Otenkiya" uid="4702051" lat="34.0054960" lon="131.1847709"/>
 <node id="6341088718" visible="true" version="1" changeset="68197898" timestamp="2019-03-16T08:34:16Z" user="Otenkiya" uid="4702051" lat="34.0056430" lon="131.1849179"/>
 <node id="6341088719" visible="true" version="1" changeset="68197898" timestamp="2019-03-16T08:34:16Z" user="Otenkiya" uid="4702051" lat="34.0059687" lon="131.1852618"/>
 <node id="6341088720" visible="true" version="1" changeset="68197898" timestamp="2019-03-16T08:34:16Z" user="Otenkiya" uid="4702051" lat="34.0061988" lon="131.1855158"/>
 <node id="6341088721" visible="true" version="1" changeset="68197898" timestamp="2019-03-16T08:34:16Z" user="Otenkiya" uid="4702051" lat="34.0064004" lon="131.1857083"/>
 <node id="6341088722" visible="true" version="1" changeset="68197898" timestamp="2019-03-16T08:34:16Z" user="Otenkiya" uid="4702051" lat="34.0066100" lon="131.1858883"/>
 <node id="6341088723" visible="true" version="1" changeset="68197898" timestamp="2019-03-16T08:34:16Z" user="Otenkiya" uid="4702051" lat="34.0066965" lon="131.1859783"/>
 <node id="6341088724" visible="true" version="1" changeset="68197898" timestamp="2019-03-16T08:34:16Z" user="Otenkiya" uid="4702051" lat="34.0071225" lon="131.1864874"/>
 <node id="6341088725" visible="true" version="1" changeset="68197898" timestamp="2019-03-16T08:34:16Z" user="Otenkiya" uid="4702051" lat="34.0071954" lon="131.1865546"/>
 <node id="6341088726" visible="true" version="1" changeset="68197898" timestamp="2019-03-16T08:34:16Z" user="Otenkiya" uid="4702051" lat="34.0073378" lon="131.1866628"/>
 <node id="6341088727" visible="true" version="1" changeset="68197898" timestamp="2019-03-16T08:34:16Z" user="Otenkiya" uid="4702051" lat="34.0074972" lon="131.1867699"/>
 <node id="6341088728" visible="true" version="1" changeset="68197898" timestamp="2019-03-16T08:34:16Z" user="Otenkiya" uid="4702051" lat="34.0075314" lon="131.1867904"/>
 <node id="6341088730" visible="true" version="2" changeset="110608047" timestamp="2021-09-02T09:31:50Z" user="mklyr" uid="614924" lat="34.0081632" lon="131.1869094"/>
 <node id="6341088731" visible="true" version="1" changeset="68197898" timestamp="2019-03-16T08:34:16Z" user="Otenkiya" uid="4702051" lat="34.0081875" lon="131.1869236"/>
 <node id="6341088732" visible="true" version="2" changeset="110608047" timestamp="2021-09-02T09:31:50Z" user="mklyr" uid="614924" lat="34.0082286" lon="131.1869944"/>
 <node id="6341088733" visible="true" version="2" changeset="110608047" timestamp="2021-09-02T09:31:50Z" user="mklyr" uid="614924" lat="34.0082510" lon="131.1870474"/>
 <node id="6341088735" visible="true" version="1" changeset="68197898" timestamp="2019-03-16T08:34:16Z" user="Otenkiya" uid="4702051" lat="34.0085132" lon="131.1879453"/>
 <node id="6341088736" visible="true" version="1" changeset="68197898" timestamp="2019-03-16T08:34:16Z" user="Otenkiya" uid="4702051" lat="34.0085269" lon="131.1880455"/>
 <node id="6341088737" visible="true" version="1" changeset="68197898" timestamp="2019-03-16T08:34:16Z" user="Otenkiya" uid="4702051" lat="34.0086602" lon="131.1884943"/>
 <node id="6341088738" visible="true" version="1" changeset="68197898" timestamp="2019-03-16T08:34:16Z" user="Otenkiya" uid="4702051" lat="34.0087319" lon="131.1886777"/>
 <node id="6341088739" visible="true" version="1" changeset="68197898" timestamp="2019-03-16T08:34:16Z" user="Otenkiya" uid="4702051" lat="34.0088310" lon="131.1888895"/>
 <node id="6341088740" visible="true" version="1" changeset="68197898" timestamp="2019-03-16T08:34:16Z" user="Otenkiya" uid="4702051" lat="34.0089791" lon="131.1891276"/>
 <node id="6341088741" visible="true" version="1" changeset="68197898" timestamp="2019-03-16T08:34:16Z" user="Otenkiya" uid="4702051" lat="34.0090657" lon="131.1892335"/>
 <node id="6341088742" visible="true" version="1" changeset="68197898" timestamp="2019-03-16T08:34:16Z" user="Otenkiya" uid="4702051" lat="34.0094199" lon="131.1896128"/>
 <node id="6341088743" visible="true" version="1" changeset="68197898" timestamp="2019-03-16T08:34:16Z" user="Otenkiya" uid="4702051" lat="34.0097297" lon="131.1899192"/>
 <node id="6341088744" visible="true" version="1" changeset="68197898" timestamp="2019-03-16T08:34:16Z" user="Otenkiya" uid="4702051" lat="34.0098755" lon="131.1900627"/>
 <node id="6341088745" visible="true" version="1" changeset="68197898" timestamp="2019-03-16T08:34:16Z" user="Otenkiya" uid="4702051" lat="34.0102115" lon="131.1904488"/>
 <node id="6341088746" visible="true" version="1" changeset="68197898" timestamp="2019-03-16T08:34:16Z" user="Otenkiya" uid="4702051" lat="34.0104245" lon="131.1907473"/>
 <node id="6341088747" visible="true" version="1" changeset="68197898" timestamp="2019-03-16T08:34:16Z" user="Otenkiya" uid="4702051" lat="34.0104757" lon="131.1908429"/>
 <node id="6341088748" visible="true" version="2" changeset="127657726" timestamp="2022-10-17T08:51:43Z" user="mklyr" uid="614924" lat="34.0105407" lon="131.1910847"/>
 <node id="6341088749" visible="true" version="1" changeset="68197898" timestamp="2019-03-16T08:34:16Z" user="Otenkiya" uid="4702051" lat="34.0106614" lon="131.1917314"/>
 <node id="6341088750" visible="true" version="1" changeset="68197898" timestamp="2019-03-16T08:34:16Z" user="Otenkiya" uid="4702051" lat="34.0108824" lon="131.1922747"/>
 <node id="6341088751" visible="true" version="1" changeset="68197898" timestamp="2019-03-16T08:34:16Z" user="Otenkiya" uid="4702051" lat="34.0110316" lon="131.1927325"/>
 <node id="6341088752" visible="true" version="1" changeset="68197898" timestamp="2019-03-16T08:34:16Z" user="Otenkiya" uid="4702051" lat="34.0110623" lon="131.1928567"/>
 <node id="6341088753" visible="true" version="1" changeset="68197898" timestamp="2019-03-16T08:34:16Z" user="Otenkiya" uid="4702051" lat="34.0110771" lon="131.1930344"/>
 <node id="6341088754" visible="true" version="1" changeset="68197898" timestamp="2019-03-16T08:34:16Z" user="Otenkiya" uid="4702051" lat="34.0110726" lon="131.1938533"/>
 <node id="6341088755" visible="true" version="1" changeset="68197898" timestamp="2019-03-16T08:34:16Z" user="Otenkiya" uid="4702051" lat="34.0110509" lon="131.1940185"/>
 <node id="6341088756" visible="true" version="1" changeset="68197898" timestamp="2019-03-16T08:34:16Z" user="Otenkiya" uid="4702051" lat="34.0109894" lon="131.1941848"/>
 <node id="9055674427" visible="true" version="2" changeset="127773484" timestamp="2022-10-19T10:42:41Z" user="mklyr" uid="614924" lat="34.0089200" lon="131.1882799"/>
 <node id="9055674428" visible="true" version="2" changeset="127773484" timestamp="2022-10-19T10:42:41Z" user="mklyr" uid="614924" lat="34.0089270" lon="131.1882762"/>
 <node id="9055674429" visible="true" version="2" changeset="127773484" timestamp="2022-10-19T10:42:41Z" user="mklyr" uid="614924" lat="34.0090126" lon="131.1881958"/>
 <node id="9055674430" visible="true" version="2" changeset="127773484" timestamp="2022-10-19T10:42:41Z" user="mklyr" uid="614924" lat="34.0089981" lon="131.1882036"/>
 <node id="9055674431" visible="true" version="1" changeset="110608047" timestamp="2021-09-02T09:31:50Z" user="mklyr" uid="614924" lat="34.0087770" lon="131.1882355"/>
 <node id="9055674432" visible="true" version="1" changeset="110608047" timestamp="2021-09-02T09:31:50Z" user="mklyr" uid="614924" lat="34.0087840" lon="131.1882326"/>
 <node id="9055674433" visible="true" version="1" changeset="110608047" timestamp="2021-09-02T09:31:50Z" user="mklyr" uid="614924" lat="34.0086847" lon="131.1883121"/>
 <node id="9055674434" visible="true" version="1" changeset="110608047" timestamp="2021-09-02T09:31:50Z" user="mklyr" uid="614924" lat="34.0086826" lon="131.1883048"/>
 <node id="9055674435" visible="true" version="1" changeset="110608047" timestamp="2021-09-02T09:31:50Z" user="mklyr" uid="614924" lat="34.0086451" lon="131.1882409"/>
 <node id="9055674436" visible="true" version="1" changeset="110608047" timestamp="2021-09-02T09:31:50Z" user="mklyr" uid="614924" lat="34.0086536" lon="131.1882374"/>
 <node id="9055674437" visible="true" version="1" changeset="110608047" timestamp="2021-09-02T09:31:50Z" user="mklyr" uid="614924" lat="34.0083354" lon="131.1886987"/>
 <node id="9055674440" visible="true" version="1" changeset="110608047" timestamp="2021-09-02T09:31:50Z" user="mklyr" uid="614924" lat="34.0080294" lon="131.1886353"/>
 <node id="9055674441" visible="true" version="1" changeset="110608047" timestamp="2021-09-02T09:31:50Z" user="mklyr" uid="614924" lat="34.0082788" lon="131.1886896"/>
 <node id="9055674442" visible="true" version="1" changeset="110608047" timestamp="2021-09-02T09:31:50Z" user="mklyr" uid="614924" lat="34.0084085" lon="131.1886997"/>
 <node id="9055674443" visible="true" version="1" changeset="110608047" timestamp="2021-09-02T09:31:50Z" user="mklyr" uid="614924" lat="34.0084780" lon="131.1886829"/>
 <node id="9055674444" visible="true" version="1" changeset="110608047" timestamp="2021-09-02T09:31:50Z" user="mklyr" uid="614924" lat="34.0085503" lon="131.1886588"/>
 <node id="9055674445" visible="true" version="1" changeset="110608047" timestamp="2021-09-02T09:31:50Z" user="mklyr" uid="614924" lat="34.0086537" lon="131.1886212"/>
 <node id="9055674446" visible="true" version="1" changeset="110608047" timestamp="2021-09-02T09:31:50Z" user="mklyr" uid="614924" lat="34.0087582" lon="131.1885756"/>
 <node id="9055674447" visible="true" version="1" changeset="110608047" timestamp="2021-09-02T09:31:50Z" user="mklyr" uid="614924" lat="34.0089249" lon="131.1885180"/>
 <node id="9055674448" visible="true" version="1" changeset="110608047" timestamp="2021-09-02T09:31:50Z" user="mklyr" uid="614924" lat="34.0089928" lon="131.1885019"/>
 <node id="9055674449" visible="true" version="1" changeset="110608047" timestamp="2021-09-02T09:31:50Z" user="mklyr" uid="614924" lat="34.0091017" lon="131.1885126"/>
 <node id="9055674450" visible="true" version="1" changeset="110608047" timestamp="2021-09-02T09:31:50Z" user="mklyr" uid="614924" lat="34.0091773" lon="131.1885139"/>
 <node id="9055674451" visible="true" version="1" changeset="110608047" timestamp="2021-09-02T09:31:50Z" user="mklyr" uid="614924" lat="34.0092474" lon="131.1884850"/>
 <node id="9927011517" visible="true" version="1" changeset="124390954" timestamp="2022-08-02T12:47:00Z" user="mklyr" uid="614924" lat="34.0126586" lon="131.1943368"/>
 <node id="9927011521" visible="true" version="1" changeset="124390954" timestamp="2022-08-02T12:47:00Z" user="mklyr" uid="614924" lat="34.0138426" lon="131.1959671"/>
 <node id="9927011649" visible="true" version="1" changeset="124390954" timestamp="2022-08-02T12:47:00Z" user="mklyr" uid="614924" lat="34.0117146" lon="131.1929844"/>
 <node id="9927011650" visible="true" version="1" changeset="124390954" timestamp="2022-08-02T12:47:00Z" user="mklyr" uid="614924" lat="34.0153022" lon="131.1980340"/>
 <node id="9927011654" visible="true" version="1" changeset="124390954" timestamp="2022-08-02T12:47:00Z" user="mklyr" uid="614924" lat="34.0149624" lon="131.1975581"/>
 <node id="9927011758" visible="true" version="1" changeset="124390954" timestamp="2022-08-02T12:47:00Z" user="mklyr" uid="614924" lat="34.0152553" lon="131.1979680"/>
 <node id="9927011762" visible="true" version="2" changeset="169402464" timestamp="2025-07-24T14:25:35Z" user="Gracy Oswal" uid="22889535" lat="34.0157833" lon="131.1987102"/>
 <node id="9927011766" visible="true" version="1" changeset="124390954" timestamp="2022-08-02T12:47:00Z" user="mklyr" uid="614924" lat="34.0159555" lon="131.1989522"/>
 <node id="9927011776" visible="true" version="1" changeset="124390954" timestamp="2022-08-02T12:47:00Z" user="mklyr" uid="614924" lat="34.0148935" lon="131.1974575"/>
 <node id="10113793199" visible="true" version="1" changeset="127773484" timestamp="2022-10-19T10:42:41Z" user="mklyr" uid="614924" lat="34.0090173" lon="131.1884504"/>
 <node id="10113793200" visible="true" version="1" changeset="127773484" timestamp="2022-10-19T10:42:41Z" user="mklyr" uid="614924" lat="34.0090062" lon="131.1884354"/>
 <node id="10113793201" visible="true" version="1" changeset="127773484" timestamp="2022-10-19T10:42:41Z" user="mklyr" uid="614924" lat="34.0090066" lon="131.1884062"/>
 <node id="10113793202" visible="true" version="1" changeset="127773484" timestamp="2022-10-19T10:42:41Z" user="mklyr" uid="614924" lat="34.0090178" lon="131.1884064"/>
 <node id="10113793385" visible="true" version="1" changeset="127773484" timestamp="2022-10-19T10:42:41Z" user="mklyr" uid="614924" lat="34.0107848" lon="131.1862609"/>
 <node id="10113793386" visible="true" version="1" changeset="127773484" timestamp="2022-10-19T10:42:41Z" user="mklyr" uid="614924" lat="34.0108760" lon="131.1860973"/>
 <node id="10113793387" visible="true" version="1" changeset="127773484" timestamp="2022-10-19T10:42:41Z" user="mklyr" uid="614924" lat="34.0108382" lon="131.1855675"/>
 <node id="10113793388" visible="true" version="1" changeset="127773484" timestamp="2022-10-19T10:42:41Z" user="mklyr" uid="614924" lat="34.0101434" lon="131.1856171"/>
 <node id="10113793389" visible="true" version="1" changeset="127773484" timestamp="2022-10-19T10:42:41Z" user="mklyr" uid="614924" lat="34.0100689" lon="131.1849882"/>
 <node id="10113793390" visible="true" version="1" changeset="127773484" timestamp="2022-10-19T10:42:41Z" user="mklyr" uid="614924" lat="34.0099277" lon="131.1850163"/>
 <node id="10113793391" visible="true" version="1" changeset="127773484" timestamp="2022-10-19T10:42:41Z" user="mklyr" uid="614924" lat="34.0096598" lon="131.1850841"/>
 <node id="10113793392" visible="true" version="1" changeset="127773484" timestamp="2022-10-19T10:42:41Z" user="mklyr" uid="614924" lat="34.0095631" lon="131.1851357"/>
 <node id="10113793393" visible="true" version="1" changeset="127773484" timestamp="2022-10-19T10:42:41Z" user="mklyr" uid="614924" lat="34.0095658" lon="131.1851773"/>
 <node id="10113793394" visible="true" version="1" changeset="127773484" timestamp="2022-10-19T10:42:41Z" user="mklyr" uid="614924" lat="34.0095992" lon="131.1854643"/>
 <node id="10113793395" visible="true" version="1" changeset="127773484" timestamp="2022-10-19T10:42:41Z" user="mklyr" uid="614924" lat="34.0096070" lon="131.1858404"/>
 <node id="10113793396" visible="true" version="1" changeset="127773484" timestamp="2022-10-19T10:42:41Z" user="mklyr" uid="614924" lat="34.0096220" lon="131.1859041"/>
 <node id="10113793397" visible="true" version="1" changeset="127773484" timestamp="2022-10-19T10:42:41Z" user="mklyr" uid="614924" lat="34.0096209" lon="131.1859343"/>
 <node id="10113793398" visible="true" version="1" changeset="127773484" timestamp="2022-10-19T10:42:41Z" user="mklyr" uid="614924" lat="34.0096147" lon="131.1859457"/>
 <node id="10113793399" visible="true" version="1" changeset="127773484" timestamp="2022-10-19T10:42:41Z" user="mklyr" uid="614924" lat="34.0094335" lon="131.1862213"/>
 <node id="10113793400" visible="true" version="1" changeset="127773484" timestamp="2022-10-19T10:42:41Z" user="mklyr" uid="614924" lat="34.0093741" lon="131.1862984"/>
 <node id="10113793401" visible="true" version="1" changeset="127773484" timestamp="2022-10-19T10:42:41Z" user="mklyr" uid="614924" lat="34.0093535" lon="131.1863031"/>
 <node id="10113793402" visible="true" version="1" changeset="127773484" timestamp="2022-10-19T10:42:41Z" user="mklyr" uid="614924" lat="34.0093240" lon="131.1867685"/>
 <node id="10113793403" visible="true" version="1" changeset="127773484" timestamp="2022-10-19T10:42:41Z" user="mklyr" uid="614924" lat="34.0092851" lon="131.1871299"/>
 <node id="10113793404" visible="true" version="1" changeset="127773484" timestamp="2022-10-19T10:42:41Z" user="mklyr" uid="614924" lat="34.0091790" lon="131.1873512"/>
 <node id="10113793405" visible="true" version="1" changeset="127773484" timestamp="2022-10-19T10:42:41Z" user="mklyr" uid="614924" lat="34.0092390" lon="131.1876610"/>
 <node id="10113793406" visible="true" version="1" changeset="127773484" timestamp="2022-10-19T10:42:41Z" user="mklyr" uid="614924" lat="34.0095419" lon="131.1875584"/>
 <node id="10113793407" visible="true" version="1" changeset="127773484" timestamp="2022-10-19T10:42:41Z" user="mklyr" uid="614924" lat="34.0096781" lon="131.1879346"/>
 <node id="10113793408" visible="true" version="1" changeset="127773484" timestamp="2022-10-19T10:42:41Z" user="mklyr" uid="614924" lat="34.0098471" lon="131.1879513"/>
 <node id="10113793409" visible="true" version="1" changeset="127773484" timestamp="2022-10-19T10:42:41Z" user="mklyr" uid="614924" lat="34.0098638" lon="131.1880687"/>
 <node id="10113793410" visible="true" version="1" changeset="127773484" timestamp="2022-10-19T10:42:41Z" user="mklyr" uid="614924" lat="34.0099232" lon="131.1882108"/>
 <node id="10113793411" visible="true" version="1" changeset="127773484" timestamp="2022-10-19T10:42:41Z" user="mklyr" uid="614924" lat="34.0099688" lon="131.1881968"/>
 <node id="10113793412" visible="true" version="1" changeset="127773484" timestamp="2022-10-19T10:42:41Z" user="mklyr" uid="614924" lat="34.0100539" lon="131.1881948"/>
 <node id="10113793413" visible="true" version="1" changeset="127773484" timestamp="2022-10-19T10:42:41Z" user="mklyr" uid="614924" lat="34.0101172" lon="131.1882055"/>
 <node id="10113793414" visible="true" version="1" changeset="127773484" timestamp="2022-10-19T10:42:41Z" user="mklyr" uid="614924" lat="34.0101889" lon="131.1882283"/>
 <node id="10113793415" visible="true" version="1" changeset="127773484" timestamp="2022-10-19T10:42:41Z" user="mklyr" uid="614924" lat="34.0102312" lon="131.1877871"/>
 <node id="10113793416" visible="true" version="1" changeset="127773484" timestamp="2022-10-19T10:42:41Z" user="mklyr" uid="614924" lat="34.0102779" lon="131.1875899"/>
 <node id="10113793417" visible="true" version="1" changeset="127773484" timestamp="2022-10-19T10:42:41Z" user="mklyr" uid="614924" lat="34.0105536" lon="131.1872788"/>
 <node id="10113793418" visible="true" version="1" changeset="127773484" timestamp="2022-10-19T10:42:41Z" user="mklyr" uid="614924" lat="34.0110349" lon="131.1869127"/>
 <node id="10113793419" visible="true" version="1" changeset="127773484" timestamp="2022-10-19T10:42:41Z" user="mklyr" uid="614924" lat="34.0107615" lon="131.1863749"/>
 <way id="120611678" visible="true" version="6" changeset="170042622" timestamp="2025-08-06T07:56:43Z" user="taketaketake" uid="4757277">
  <nd ref="6341088535"/>
  <nd ref="2345443798"/>
  <nd ref="2345443800"/>
  <nd ref="2374479467"/>
  <nd ref="1945480109"/>
  <nd ref="1351965765"/>
  <nd ref="2002009300"/>
  <nd ref="2002009305"/>
  <nd ref="2002009307"/>
  <nd ref="2002009309"/>
  <nd ref="1351965799"/>
  <nd ref="2002009315"/>
  <nd ref="2002009318"/>
  <nd ref="2374479470"/>
  <nd ref="1351965905"/>
  <nd ref="1351965950"/>
  <nd ref="1351966018"/>
  <nd ref="1956268693"/>
  <nd ref="1351966088"/>
  <nd ref="1351966097"/>
  <nd ref="1351966128"/>
  <nd ref="9927011649"/>
  <nd ref="1351966171"/>
  <nd ref="2374479476"/>
  <nd ref="2013400669"/>
  <nd ref="1351966286"/>
  <nd ref="1351966300"/>
  <nd ref="9927011517"/>
  <nd ref="1351966496"/>
  <nd ref="2374479477"/>
  <nd ref="9927011521"/>
  <nd ref="1351966764"/>
  <nd ref="9927011776"/>
  <nd ref="1973362494"/>
  <nd ref="9927011654"/>
  <nd ref="9927011758"/>
  <nd ref="9927011650"/>
  <nd ref="9927011762"/>
  <nd ref="9927011766"/>
  <nd ref="2374479479"/>
  <nd ref="1774652407"/>
  <nd ref="1351967452"/>
  <tag k="highway" v="primary"/>
  <tag k="lanes" v="2"/>
  <tag k="name" v="小野田美東線"/>
  <tag k="name:en" v="Onoda Mito Line"/>
  <tag k="name:ja" v="小野田美東線"/>
  <tag k="name:ja-Hira" v="おのだみとうせん"/>
  <tag k="name:ja_rm" v="Onoda Mitō-sen"/>
  <tag k="ref" v="30"/>
  <tag k="source" v="YahooJapan/ALPSMAP"/>
  <tag k="surface" v="asphalt"/>
  <tag k="wikidata" v="Q11467283"/>
  <tag k="wikipedia" v="ja:山口県道30号小野田美東線"/>
 </way>
 <way id="120614336" visible="true" version="4" changeset="16830376" timestamp="2013-07-05T04:28:03Z" user="mklyr" uid="614924">
  <nd ref="1945480109"/>
  <nd ref="1945480114"/>
  <nd ref="1351965696"/>
  <tag k="highway" v="tertiary"/>
  <tag k="source" v="YahooJapan/ALPSMAP"/>
  <tag k="yh:WIDTH" v="3.0m〜5.5m"/>
 </way>
 <way id="120614417" visible="true" version="4" changeset="110608047" timestamp="2021-09-02T09:31:50Z" user="mklyr" uid="614924">
  <nd ref="1351965696"/>
  <nd ref="9055674451"/>
  <nd ref="2345443801"/>
  <nd ref="1351965628"/>
  <nd ref="1351965603"/>
  <nd ref="1351965586"/>
  <tag k="highway" v="tertiary"/>
  <tag k="source" v="YahooJapan/ALPSMAP"/>
 </way>
 <way id="120614906" visible="true" version="3" changeset="127773484" timestamp="2022-10-19T10:42:41Z" user="mklyr" uid="614924">
  <nd ref="1351966188"/>
  <nd ref="1351966156"/>
  <nd ref="1351966127"/>
  <nd ref="1351966102"/>
  <nd ref="2703676146"/>
  <nd ref="1351966080"/>
  <nd ref="1351966055"/>
  <nd ref="2703676145"/>
  <nd ref="1351966004"/>
  <nd ref="1351965975"/>
  <nd ref="1351965957"/>
  <nd ref="1351965945"/>
  <nd ref="1351965936"/>
  <nd ref="1351965931"/>
  <nd ref="1351965923"/>
  <nd ref="2703676144"/>
  <nd ref="1351965910"/>
  <nd ref="1351965888"/>
  <nd ref="1351965857"/>
  <nd ref="1351965837"/>
  <nd ref="2703676142"/>
  <nd ref="1351965808"/>
  <nd ref="2703676141"/>
  <nd ref="1351965791"/>
  <nd ref="2002009312"/>
  <nd ref="1351965756"/>
  <nd ref="2002009302"/>
  <nd ref="1351965696"/>
  <tag k="highway" v="residential"/>
  <tag k="source" v="YahooJapan/ALPSMAP"/>
 </way>
 <way id="120615427" visible="true" version="3" changeset="68197898" timestamp="2019-03-16T08:34:34Z" user="Otenkiya" uid="4702051">
  <nd ref="1351965678"/>
  <nd ref="6341088534"/>
  <tag k="highway" v="residential"/>
  <tag k="source" v="YahooJapan/ALPSMAP"/>
 </way>
 <way id="148652915" visible="true" version="1" changeset="10580899" timestamp="2012-02-04T03:13:53Z" user="yamasan" uid="32308">
  <nd ref="1617286496"/>
  <nd ref="1617286510"/>
  <nd ref="1617286547"/>
  <nd ref="1617286553"/>
  <nd ref="1617286595"/>
  <nd ref="1617286609"/>
  <nd ref="1617286630"/>
  <nd ref="1617286647"/>
  <nd ref="1617286651"/>
  <nd ref="1617286663"/>
  <nd ref="1617286683"/>
  <nd ref="1617286689"/>
  <nd ref="1617286698"/>
  <nd ref="1617286705"/>
  <nd ref="1617286687"/>
  <nd ref="1617286682"/>
  <nd ref="1617286666"/>
  <nd ref="1617286644"/>
  <nd ref="1617286621"/>
  <nd ref="1617286597"/>
  <nd ref="1617286580"/>
  <nd ref="1617286576"/>
  <nd ref="1617286593"/>
  <nd ref="1617286606"/>
  <nd ref="1617286598"/>
  <nd ref="1617286581"/>
  <nd ref="1617286559"/>
  <nd ref="1617286542"/>
  <nd ref="1617286516"/>
  <nd ref="1617286497"/>
  <nd ref="1617286496"/>
  <tag k="KSJ2:curve_id" v="c01135"/>
  <tag k="natural" v="wood"/>
  <tag k="note" v="A13-06_35.xml"/>
  <tag k="source" v="MLIT, Japan"/>
  <tag k="source:ja" v="国土数値情報（森林地域データ）平成18年　国土交通省"/>
  <tag k="source_ref" v="http://nlftp.mlit.go.jp/ksj/jpgis/datalist/KsjTmplt-A13.html"/>
 </way>
 <way id="332618153" visible="true" version="1" changeset="29462344" timestamp="2015-03-14T00:54:31Z" user="Human65536" uid="1502046">
  <nd ref="3397666374"/>
  <nd ref="3397666376"/>
  <nd ref="3397666377"/>
  <nd ref="3397666375"/>
  <nd ref="3397666374"/>
  <tag k="building" v="yes"/>
 </way>
 <way id="600685761" visible="true" version="2" changeset="127773484" timestamp="2022-10-19T10:42:41Z" user="mklyr" uid="614924">
  <nd ref="5711036770"/>
  <nd ref="10113793199"/>
  <nd ref="5711036768"/>
  <nd ref="10113793200"/>
  <nd ref="10113793201"/>
  <nd ref="10113793202"/>
  <nd ref="5711036767"/>
  <nd ref="5711036766"/>
  <nd ref="5711036769"/>
  <nd ref="5711036771"/>
  <nd ref="5711036770"/>
  <tag k="building" v="yes"/>
 </way>
 <way id="600685767" visible="true" version="2" changeset="110608047" timestamp="2021-09-02T09:31:50Z" user="mklyr" uid="614924">
  <nd ref="5711036791"/>
  <nd ref="9055674430"/>
  <nd ref="9055674429"/>
  <nd ref="5711036788"/>
  <nd ref="5711036789"/>
  <nd ref="9055674428"/>
  <nd ref="9055674427"/>
  <nd ref="5711036790"/>
  <nd ref="5711036791"/>
  <tag k="building" v="yes"/>
 </way>
 <way id="600688734" visible="true" version="1" changeset="60071471" timestamp="2018-06-22T10:26:18Z" user="TUSY2016" uid="4144350">
  <nd ref="5711046758"/>
  <nd ref="5711046757"/>
  <nd ref="5711046756"/>
  <nd ref="5711046755"/>
  <nd ref="5711046758"/>
  <tag k="building" v="yes"/>
 </way>
 <way id="600688736" visible="true" version="2" changeset="110608047" timestamp="2021-09-02T09:31:50Z" user="mklyr" uid="614924">
  <nd ref="5711046762"/>
  <nd ref="9055674433"/>
  <nd ref="9055674434"/>
  <nd ref="5711046761"/>
  <nd ref="9055674435"/>
  <nd ref="9055674436"/>
  <nd ref="5711046760"/>
  <nd ref="5711046759"/>
  <nd ref="9055674431"/>
  <nd ref="9055674432"/>
  <nd ref="5711046762"/>
  <tag k="building" v="yes"/>
 </way>
 <way id="600688738" visible="true" version="1" changeset="60071471" timestamp="2018-06-22T10:26:18Z" user="TUSY2016" uid="4144350">
  <nd ref="5711046766"/>
  <nd ref="5711046765"/>
  <nd ref="5711046764"/>
  <nd ref="5711046763"/>
  <nd ref="5711046766"/>
  <tag k="building" v="yes"/>
 </way>
 <way id="677207848" visible="true" version="1" changeset="68197898" timestamp="2019-03-16T08:34:18Z" user="Otenkiya" uid="4702051">
  <nd ref="6341088533"/>
  <nd ref="1351965950"/>
  <tag k="highway" v="residential"/>
  <tag k="source" v="YahooJapan/ALPSMAP"/>
 </way>
 <way id="677207849" visible="true" version="1" changeset="68197898" timestamp="2019-03-16T08:34:18Z" user="Otenkiya" uid="4702051">
  <nd ref="6341088534"/>
  <nd ref="6341088533"/>
  <tag k="bridge" v="yes"/>
  <tag k="highway" v="residential"/>
  <tag k="layer" v="1"/>
  <tag k="source" v="YahooJapan/ALPSMAP"/>
 </way>
 <way id="677207850" visible="true" version="2" changeset="170042622" timestamp="2025-08-06T07:56:43Z" user="taketaketake" uid="4757277">
  <nd ref="2345443794"/>
  <nd ref="6341088535"/>
  <tag k="bridge" v="yes"/>
  <tag k="highway" v="primary"/>
  <tag k="lanes" v="2"/>
  <tag k="layer" v="1"/>
  <tag k="name" v="小野田美東線"/>
  <tag k="name:en" v="Onoda Mito Line"/>
  <tag k="name:ja" v="小野田美東線"/>
  <tag k="name:ja-Hira" v="おのだみとうせん"/>
  <tag k="name:ja_rm" v="Onoda Mitō-sen"/>
  <tag k="ref" v="30"/>
  <tag k="source" v="YahooJapan/ALPSMAP"/>
  <tag k="surface" v="asphalt"/>
  <tag k="wikidata" v="Q11467283"/>
  <tag k="wikipedia" v="ja:山口県道30号小野田美東線"/>
 </way>
 <way id="677207851" visible="true" version="2" changeset="170042622" timestamp="2025-08-06T07:56:43Z" user="taketaketake" uid="4757277">
  <nd ref="1351965357"/>
  <nd ref="2345443794"/>
  <tag k="highway" v="primary"/>
  <tag k="lanes" v="2"/>
  <tag k="name" v="小野田美東線"/>
  <tag k="name:en" v="Onoda Mito Line"/>
  <tag k="name:ja" v="小野田美東線"/>
  <tag k="name:ja-Hira" v="おのだみとうせん"/>
  <tag k="name:ja_rm" v="Onoda Mitō-sen"/>
  <tag k="ref" v="30"/>
  <tag k="source" v="YahooJapan/ALPSMAP"/>
  <tag k="surface" v="asphalt"/>
  <tag k="wikidata" v="Q11467283"/>
  <tag k="wikipedia" v="ja:山口県道30号小野田美東線"/>
 </way>
 <way id="677207876" visible="true" version="2" changeset="110608047" timestamp="2021-09-02T09:31:50Z" user="mklyr" uid="614924">
  <nd ref="6341088756"/>
  <nd ref="6341088755"/>
  <nd ref="6341088754"/>
  <nd ref="6341088753"/>
  <nd ref="6341088752"/>
  <nd ref="6341088751"/>
  <nd ref="6341088750"/>
  <nd ref="6341088749"/>
  <nd ref="6341088748"/>
  <nd ref="6341088747"/>
  <nd ref="6341088746"/>
  <nd ref="6341088745"/>
  <nd ref="6341088744"/>
  <nd ref="6341088743"/>
  <nd ref="6341088742"/>
  <nd ref="6341088741"/>
  <nd ref="6341088740"/>
  <nd ref="6341088739"/>
  <nd ref="6341088738"/>
  <nd ref="6341088737"/>
  <nd ref="6341088736"/>
  <nd ref="6341088735"/>
  <nd ref="6341088733"/>
  <nd ref="6341088732"/>
  <nd ref="6341088731"/>
  <nd ref="6341088730"/>
  <nd ref="6341088728"/>
  <nd ref="6341088727"/>
  <nd ref="6341088726"/>
  <nd ref="6341088725"/>
  <nd ref="6341088724"/>
  <nd ref="6341088723"/>
  <nd ref="6341088722"/>
  <nd ref="6341088721"/>
  <nd ref="6341088720"/>
  <nd ref="6341088719"/>
  <nd ref="6341088718"/>
  <nd ref="6341088717"/>
  <nd ref="6341088716"/>
  <nd ref="6341088715"/>
  <nd ref="6341088714"/>
  <nd ref="6341088713"/>
  <nd ref="6341088712"/>
  <nd ref="6341088711"/>
  <nd ref="6341088710"/>
  <nd ref="6341088709"/>
  <nd ref="6341088708"/>
  <nd ref="6341088707"/>
  <nd ref="6341088706"/>
  <nd ref="6341088705"/>
  <nd ref="6341088704"/>
  <nd ref="6341088703"/>
  <nd ref="6341088702"/>
  <nd ref="6341088701"/>
  <nd ref="6341088700"/>
  <nd ref="6341088699"/>
  <nd ref="6341088698"/>
  <nd ref="4597231416"/>
  <nd ref="6341088697"/>
  <nd ref="6341088696"/>
  <nd ref="6341088695"/>
  <nd ref="6341088694"/>
  <nd ref="6341088693"/>
  <nd ref="6341088692"/>
  <nd ref="6341088691"/>
  <nd ref="6341088690"/>
  <nd ref="6341088689"/>
  <nd ref="6341088688"/>
  <nd ref="6341088687"/>
  <nd ref="6341088686"/>
  <nd ref="6341088685"/>
  <nd ref="6341088584"/>
  <nd ref="6341088583"/>
  <nd ref="6341088582"/>
  <nd ref="6341088581"/>
  <nd ref="6341088580"/>
  <nd ref="6341088579"/>
  <nd ref="6341088578"/>
  <nd ref="6341088577"/>
  <nd ref="6341088576"/>
  <nd ref="6341088575"/>
  <nd ref="6341088574"/>
  <nd ref="6341088573"/>
  <nd ref="6341088572"/>
  <nd ref="6341088571"/>
  <nd ref="6341088570"/>
  <nd ref="6341088569"/>
  <nd ref="6341088568"/>
  <nd ref="6341088567"/>
  <nd ref="6341088566"/>
  <nd ref="6341088565"/>
  <nd ref="6341088564"/>
  <nd ref="749232126"/>
  <tag k="waterway" v="river"/>
 </way>
 <way id="978678616" visible="true" version="1" changeset="110608047" timestamp="2021-09-02T09:31:50Z" user="mklyr" uid="614924">
  <nd ref="9055674446"/>
  <nd ref="9055674445"/>
  <tag k="bridge" v="yes"/>
  <tag k="highway" v="residential"/>
  <tag k="layer" v="1"/>
  <tag k="source" v="GSImaps/std"/>
 </way>
 <way id="978678617" visible="true" version="1" changeset="110608047" timestamp="2021-09-02T09:31:50Z" user="mklyr" uid="614924">
  <nd ref="9055674445"/>
  <nd ref="9055674444"/>
  <nd ref="9055674443"/>
  <nd ref="9055674442"/>
  <nd ref="9055674437"/>
  <nd ref="9055674441"/>
  <nd ref="9055674440"/>
  <tag k="highway" v="service"/>
  <tag k="source" v="GSImaps/std"/>
 </way>
 <way id="978678618" visible="true" version="1" changeset="110608047" timestamp="2021-09-02T09:31:50Z" user="mklyr" uid="614924">
  <nd ref="9055674451"/>
  <nd ref="9055674450"/>
  <nd ref="9055674449"/>
  <nd ref="9055674448"/>
  <nd ref="9055674447"/>
  <nd ref="9055674446"/>
  <tag k="highway" v="residential"/>
  <tag k="source" v="GSImaps/std"/>
 </way>
 <way id="1105186215" visible="true" version="1" changeset="127773484" timestamp="2022-10-19T10:42:41Z" user="mklyr" uid="614924">
  <nd ref="10113793419"/>
  <nd ref="10113793418"/>
  <nd ref="10113793417"/>
  <nd ref="10113793416"/>
  <nd ref="10113793415"/>
  <nd ref="10113793414"/>
  <nd ref="10113793413"/>
  <nd ref="10113793412"/>
  <nd ref="10113793411"/>
  <nd ref="10113793410"/>
  <nd ref="10113793409"/>
  <nd ref="10113793408"/>
  <nd ref="10113793407"/>
  <nd ref="10113793406"/>
  <nd ref="10113793405"/>
  <nd ref="10113793404"/>
  <nd ref="10113793403"/>
  <nd ref="10113793402"/>
  <nd ref="10113793401"/>
  <nd ref="10113793400"/>
  <nd ref="10113793399"/>
  <nd ref="10113793398"/>
  <nd ref="10113793397"/>
  <nd ref="10113793396"/>
  <nd ref="10113793395"/>
  <nd ref="10113793394"/>
  <nd ref="10113793393"/>
  <nd ref="10113793392"/>
  <nd ref="10113793391"/>
  <nd ref="10113793390"/>
  <nd ref="10113793389"/>
  <nd ref="10113793388"/>
  <nd ref="10113793387"/>
  <nd ref="10113793386"/>
  <nd ref="10113793385"/>
  <nd ref="10113793419"/>
  <tag k="amenity" v="school"/>
  <tag k="name" v="県立小野田高等学校"/>
  <tag k="note" v="National-Land Numerical Information (Public Facility) 2006, MLIT Japan"/>
  <tag k="note:ja" v="国土数値情報（公共施設データ）平成19年　国土交通省"/>
  <tag k="source" v="KSJ2"/>
  <tag k="source_ref" v="http://nlftp.mlit.go.jp/ksj/jpgis/datalist/KsjTmplt-P02-v2_0.html"/>
  <tag k="wikidata" v="Q11467057"/>
  <tag k="wikipedia" v="ja:山口県立小野田高等学校"/>
 </way>
 <relation id="19430823" visible="true" version="2" changeset="179781543" timestamp="2026-03-13T00:22:01Z" user="foldedbike" uid="23754301">
  <member type="way" ref="120611683" role=""/>
  <member type="way" ref="677207862" role=""/>
  <member type="way" ref="677207861" role=""/>
  <member type="way" ref="120611672" role=""/>
  <member type="way" ref="120611694" role=""/>
  <member type="way" ref="677207851" role=""/>
  <member type="way" ref="677207850" role=""/>
  <member type="way" ref="120611678" role=""/>
  <member type="way" ref="120611686" role=""/>
  <member type="way" ref="120611682" role=""/>
  <member type="way" ref="120487637" role=""/>
  <member type="way" ref="1488453629" role=""/>
  <member type="way" ref="1488453628" role=""/>
  <member type="way" ref="407820370" role=""/>
  <member type="way" ref="120487704" role=""/>
  <member type="way" ref="120487692" role=""/>
  <member type="way" ref="425375630" role=""/>
  <member type="way" ref="120487695" role=""/>
  <member type="way" ref="120487714" role=""/>
  <member type="way" ref="1315218852" role=""/>
  <member type="way" ref="120487747" role=""/>
  <member type="way" ref="1315218853" role=""/>
  <member type="way" ref="120487678" role=""/>
  <member type="way" ref="1315218854" role=""/>
  <member type="way" ref="120487684" role=""/>
  <member type="way" ref="120487730" role=""/>
  <member type="way" ref="120487686" role=""/>
  <member type="way" ref="796871531" role=""/>
  <member type="way" ref="1315218855" role=""/>
  <member type="way" ref="1315218856" role=""/>
  <member type="way" ref="120487683" role=""/>
  <member type="way" ref="120487713" role=""/>
  <member type="way" ref="120487732" role=""/>
  <member type="way" ref="1420336828" role=""/>
  <member type="way" ref="120388563" role=""/>
  <member type="way" ref="120386967" role=""/>
  <member type="way" ref="120387113" role=""/>
  <member type="way" ref="120387980" role=""/>
  <member type="way" ref="120387460" role=""/>
  <member type="way" ref="432587045" role=""/>
  <member type="way" ref="120387598" role=""/>
  <member type="way" ref="120387106" role=""/>
  <member type="way" ref="120387198" role=""/>
  <member type="way" ref="120387943" role=""/>
  <tag k="from" v="山口県山陽小野田市日の出1丁目"/>
  <tag k="name" v="山口県道30号　小野田美東線"/>
  <tag k="name:en" v="Yamaguchi Prefectural Route 30 Onoda Mito Line"/>
  <tag k="name:ja" v="山口県道30号　小野田美東線"/>
  <tag k="name:ja-Hira" v="やまぐちけんどう30ごう おのだみとうせん"/>
  <tag k="name:ja_rm" v="Yamaguchikendō 30-gō Onoda Mitō-sen"/>
  <tag k="network" v="JP:prefectural"/>
  <tag k="ref" v="30"/>
  <tag k="route" v="road"/>
  <tag k="to" v="山口県美祢市美東町大田"/>
  <tag k="type" v="route"/>
  <tag k="wikidata" v="Q11467283"/>
  <tag k="wikipedia" v="ja:山口県道30号小野田美東線"/>
 </relation>
</osm>
