<?xml version="1.0" encoding="UTF-8"?>
<osm version="0.6" generator="openstreetmap-cgimap 2.1.0 (2942772 spike-08.openstreetmap.org)" copyright="OpenStreetMap and contributors" attribution="http://www.openstreetmap.org/copyright" license="http://opendatacommons.org/licenses/odbl/1-0/">
 <bounds minlat="33.9654890" minlon="131.1745930" maxlat="33.9678890" maxlon="131.1775930"/>
 <node id="266062023" visible="true" version="7" changeset="67281302" timestamp="2019-02-17T14:42:39Z" user="LuxuryCoop" uid="7245212" lat="33.9720219" lon="131.1749764">
  <tag k="KSJ2:LIN" v="小野田線"/>
  <tag k="name" v="小野田港"/>
  <tag k="name:en" v="Onodakō"/>
  <tag k="name:ja" v="小野田港"/>
  <tag k="name:ko" v="오노다코"/>
  <tag k="note" v="National-Land Numerical Information (Railway) 2007, MLIT Japan"/>
  <tag k="note:ja" v="国土数値情報（鉄道データ）平成19年　国土交通省"/>
  <tag k="public_transport" v="station"/>
  <tag k="railway" v="station"/>
  <tag k="source" v="KSJ2"/>
  <tag k="source_ref" v="http://nlftp.mlit.go.jp/ksj/jpgis/datalist/KsjTmplt-N02-v1_1.html"/>
  <tag k="wikidata" v="Q7094443"/>
  <tag k="wikipedia" v="ja:小野田港駅"/>
 </node>
 <node id="266062025" visible="true" version="4" changeset="60153673" timestamp="2018-06-25T14:47:05Z" user="mklyr" uid="614924" lat="33.9711640" lon="131.1748478"/>
 <node id="266062166" visible="true" version="5" changeset="58160328" timestamp="2018-04-17T08:17:37Z" user="mklyr" uid="614924" lat="33.9604643" lon="131.1864328"/>
 <node id="266062168" visible="true" version="7" changeset="58160328" timestamp="2018-04-17T08:17:37Z" user="mklyr" uid="614924" lat="33.9605585" lon="131.1866550"/>
 <node id="266062469" visible="true" version="4" changeset="85056906" timestamp="2020-05-12T04:24:38Z" user="mklyr" uid="614924" lat="33.9668635" lon="131.1744626"/>
 <node id="266062471" visible="true" version="4" changeset="58160328" timestamp="2018-04-17T08:17:37Z" user="mklyr" uid="614924" lat="33.9671711" lon="131.1743766"/>
 <node id="266062473" visible="true" version="4" changeset="58160328" timestamp="2018-04-17T08:17:37Z" user="mklyr" uid="614924" lat="33.9674614" lon="131.1743473"/>
 <node id="266062475" visible="true" version="5" changeset="58160328" timestamp="2018-04-17T08:17:37Z" user="mklyr" uid="614924" lat="33.9677021" lon="131.1743487"/>
 <node id="266062477" visible="true" version="4" changeset="56542525" timestamp="2018-02-21T08:51:37Z" user="mklyr" uid="614924" lat="33.9651804" lon="131.1752467"/>
 <node id="266062479" visible="true" version="5" changeset="31410172" timestamp="2015-05-24T01:23:44Z" user="nyampire" uid="378532" lat="33.9654083" lon="131.1750838"/>
 <node id="266062481" visible="true" version="5" changeset="31410172" timestamp="2015-05-24T01:23:44Z" user="nyampire" uid="378532" lat="33.9656449" lon="131.1749467"/>
 <node id="266062484" visible="true" version="6" changeset="56542525" timestamp="2018-02-21T08:51:37Z" user="mklyr" uid="614924" lat="33.9644600" lon="131.1761108"/>
 <node id="266062485" visible="true" version="6" changeset="76482290" timestamp="2019-11-01T08:42:48Z" user="mklyr" uid="614924" lat="33.9647464" lon="131.1756790"/>
 <node id="266062486" visible="true" version="6" changeset="56542525" timestamp="2018-02-21T08:51:37Z" user="mklyr" uid="614924" lat="33.9649520" lon="131.1754599"/>
 <node id="266062519" visible="true" version="5" changeset="58160328" timestamp="2018-04-17T08:17:37Z" user="mklyr" uid="614924" lat="33.9678832" lon="131.1743640"/>
 <node id="266062522" visible="true" version="4" changeset="60153673" timestamp="2018-06-25T14:47:05Z" user="mklyr" uid="614924" lat="33.9709003" lon="131.1748078"/>
 <node id="266062529" visible="true" version="6" changeset="57788526" timestamp="2018-04-04T01:17:37Z" user="mklyr" uid="614924" lat="33.9616591" lon="131.1809349"/>
 <node id="266062532" visible="true" version="4" changeset="31410172" timestamp="2015-05-24T01:23:44Z" user="nyampire" uid="378532" lat="33.9614125" lon="131.1813981"/>
 <node id="266062541" visible="true" version="5" changeset="56542525" timestamp="2018-02-21T08:51:37Z" user="mklyr" uid="614924" lat="33.9604392" lon="131.1836753"/>
 <node id="266062544" visible="true" version="5" changeset="56542525" timestamp="2018-02-21T08:51:37Z" user="mklyr" uid="614924" lat="33.9602841" lon="131.1842123"/>
 <node id="266062547" visible="true" version="4" changeset="56542525" timestamp="2018-02-21T08:51:37Z" user="mklyr" uid="614924" lat="33.9602271" lon="131.1845767"/>
 <node id="266062550" visible="true" version="5" changeset="56542525" timestamp="2018-02-21T08:51:37Z" user="mklyr" uid="614924" lat="33.9602116" lon="131.1851358"/>
 <node id="266062553" visible="true" version="7" changeset="56542525" timestamp="2018-02-21T08:51:37Z" user="mklyr" uid="614924" lat="33.9603015" lon="131.1858347"/>
 <node id="266062556" visible="true" version="6" changeset="56542525" timestamp="2018-02-21T08:51:38Z" user="mklyr" uid="614924" lat="33.9603453" lon="131.1860383"/>
 <node id="266062559" visible="true" version="5" changeset="58160328" timestamp="2018-04-17T08:17:37Z" user="mklyr" uid="614924" lat="33.9604042" lon="131.1862996"/>
 <node id="1351960372" visible="true" version="2" changeset="58157178" timestamp="2018-04-17T05:33:51Z" user="mklyr" uid="614924" lat="33.9622335" lon="131.1799377">
  <tag k="railway" v="crossing"/>
 </node>
 <node id="1351960542" visible="true" version="6" changeset="56542525" timestamp="2018-02-21T08:51:42Z" user="mklyr" uid="614924" lat="33.9641756" lon="131.1757676"/>
 <node id="1351960645" visible="true" version="6" changeset="76482290" timestamp="2019-11-01T08:42:48Z" user="mklyr" uid="614924" lat="33.9661528" lon="131.1777215"/>
 <node id="1351960648" visible="true" version="4" changeset="57788526" timestamp="2018-04-04T01:17:40Z" user="mklyr" uid="614924" lat="33.9661855" lon="131.1773722"/>
 <node id="1351960662" visible="true" version="4" changeset="57788526" timestamp="2018-04-04T01:17:40Z" user="mklyr" uid="614924" lat="33.9663126" lon="131.1760856"/>
 <node id="1351960665" visible="true" version="3" changeset="57788526" timestamp="2018-04-04T01:17:40Z" user="mklyr" uid="614924" lat="33.9664097" lon="131.1760977"/>
 <node id="1351960682" visible="true" version="4" changeset="85056906" timestamp="2020-05-12T04:24:38Z" user="mklyr" uid="614924" lat="33.9666648" lon="131.1745372">
  <tag k="railway" v="level_crossing"/>
 </node>
 <node id="1351960701" visible="true" version="3" changeset="24074632" timestamp="2014-07-11T02:59:18Z" user="mklyr" uid="614924" lat="33.9671087" lon="131.1775108"/>
 <node id="1351960759" visible="true" version="5" changeset="57788526" timestamp="2018-04-04T01:17:40Z" user="mklyr" uid="614924" lat="33.9681155" lon="131.1776384">
  <tag k="highway" v="traffic_signals"/>
 </node>
 <node id="1351960764" visible="true" version="4" changeset="57788526" timestamp="2018-04-04T01:17:40Z" user="mklyr" uid="614924" lat="33.9682457" lon="131.1763676"/>
 <node id="1908486857" visible="true" version="3" changeset="57788526" timestamp="2018-04-04T01:17:41Z" user="mklyr" uid="614924" lat="33.9664815" lon="131.1752583"/>
 <node id="1912892895" visible="true" version="2" changeset="57788526" timestamp="2018-04-04T01:17:41Z" user="mklyr" uid="614924" lat="33.9677768" lon="131.1754270"/>
 <node id="1912892912" visible="true" version="2" changeset="57788526" timestamp="2018-04-04T01:17:41Z" user="mklyr" uid="614924" lat="33.9678234" lon="131.1749474"/>
 <node id="1940980201" visible="true" version="5" changeset="69730372" timestamp="2019-04-30T11:42:18Z" user="MY5DVrAr0e599Japan" uid="8657210" lat="33.9609285" lon="131.1872363">
  <tag k="railway" v="switch"/>
 </node>
 <node id="2013400511" visible="true" version="2" changeset="56542525" timestamp="2018-02-21T08:51:42Z" user="mklyr" uid="614924" lat="33.9602082" lon="131.1848464"/>
 <node id="2013400513" visible="true" version="2" changeset="56542525" timestamp="2018-02-21T08:51:42Z" user="mklyr" uid="614924" lat="33.9602232" lon="131.1853263"/>
 <node id="2013400515" visible="true" version="2" changeset="56542525" timestamp="2018-02-21T08:51:42Z" user="mklyr" uid="614924" lat="33.9602443" lon="131.1855213"/>
 <node id="2013400519" visible="true" version="2" changeset="56542525" timestamp="2018-02-21T08:51:42Z" user="mklyr" uid="614924" lat="33.9607045" lon="131.1869392"/>
 <node id="2508701015" visible="true" version="2" changeset="27639366" timestamp="2014-12-22T21:33:44Z" user="42429" uid="42429" lat="34.0669181" lon="131.2563912">
  <tag k="power" v="tower"/>
  <tag k="source" v="Bing"/>
 </node>
 <node id="2785237911" visible="true" version="2" changeset="56542525" timestamp="2018-02-21T08:51:43Z" user="mklyr" uid="614924" lat="33.9602665" lon="131.1856671">
  <tag k="railway" v="level_crossing"/>
 </node>
 <node id="2958034179" visible="true" version="4" changeset="69730372" timestamp="2019-04-30T11:45:13Z" user="MY5DVrAr0e599Japan" uid="8657210" lat="33.9705354" lon="131.1747485">
  <tag k="railway" v="switch"/>
 </node>
 <node id="2958034190" visible="true" version="3" changeset="57788526" timestamp="2018-04-04T01:17:41Z" user="mklyr" uid="614924" lat="33.9729171" lon="131.1751038"/>
 <node id="2958034192" visible="true" version="4" changeset="69730372" timestamp="2019-04-30T11:45:13Z" user="MY5DVrAr0e599Japan" uid="8657210" lat="33.9732207" lon="131.1751444">
  <tag k="railway" v="switch"/>
 </node>
 <node id="3248376071" visible="true" version="1" changeset="27639366" timestamp="2014-12-22T21:29:36Z" user="42429" uid="42429" lat="33.9667881" lon="131.1721454">
  <tag k="power" v="tower"/>
  <tag k="source" v="Bing"/>
 </node>
 <node id="3248376072" visible="true" version="1" changeset="27639366" timestamp="2014-12-22T21:29:38Z" user="42429" uid="42429" lat="33.9669189" lon="131.1740231">
  <tag k="power" v="tower"/>
  <tag k="source" v="Bing"/>
 </node>
 <node id="3248376084" visible="true" version="1" changeset="27639366" timestamp="2014-12-22T21:30:29Z" user="42429" uid="42429" lat="34.0177571" lon="131.2126937">
  <tag k="power" v="tower"/>
  <tag k="source" v="Bing"/>
 </node>
 <node id="3248376098" visible="true" version="1" changeset="27639366" timestamp="2014-12-22T21:30:47Z" user="42429" uid="42429" lat="34.0497867" lon="131.2492127">
  <tag k="power" v="tower"/>
  <tag k="source" v="Bing"/>
 </node>
 <node id="3248376104" visible="true" version="2" changeset="111302974" timestamp="2021-09-16T17:45:34Z" user="AYAGE" uid="521665" lat="34.0626370" lon="131.2519967">
  <tag k="power" v="tower"/>
  <tag k="source" v="Bing"/>
 </node>
 <node id="3248382282" visible="true" version="1" changeset="27639366" timestamp="2014-12-22T21:29:34Z" user="42429" uid="42429" lat="33.9646875" lon="131.1831367">
  <tag k="power" v="tower"/>
  <tag k="source" v="Bing"/>
 </node>
 <node id="3248382284" visible="true" version="1" changeset="27639366" timestamp="2014-12-22T21:29:35Z" user="42429" uid="42429" lat="33.9659793" lon="131.1871136">
  <tag k="power" v="tower"/>
  <tag k="source" v="Bing"/>
 </node>
 <node id="3248382287" visible="true" version="1" changeset="27639366" timestamp="2014-12-22T21:29:36Z" user="42429" uid="42429" lat="33.9666341" lon="131.1772309">
  <tag k="power" v="tower"/>
  <tag k="source" v="Bing"/>
 </node>
 <node id="3248382289" visible="true" version="1" changeset="27639366" timestamp="2014-12-22T21:29:40Z" user="42429" uid="42429" lat="33.9685726" lon="131.1902080">
  <tag k="power" v="tower"/>
  <tag k="source" v="Bing"/>
 </node>
 <node id="3248382329" visible="true" version="1" changeset="27639366" timestamp="2014-12-22T21:30:31Z" user="42429" uid="42429" lat="34.0211449" lon="131.2146683">
  <tag k="power" v="tower"/>
  <tag k="source" v="Bing"/>
 </node>
 <node id="3248382335" visible="true" version="1" changeset="27639366" timestamp="2014-12-22T21:30:54Z" user="42429" uid="42429" lat="34.0577875" lon="131.2517504">
  <tag k="power" v="tower"/>
  <tag k="source" v="Bing"/>
 </node>
 <node id="3248382579" visible="true" version="1" changeset="27639366" timestamp="2014-12-22T21:29:41Z" user="42429" uid="42429" lat="33.9699833" lon="131.1777525">
  <tag k="power" v="tower"/>
  <tag k="source" v="Bing"/>
 </node>
 <node id="3248382580" visible="true" version="1" changeset="27639366" timestamp="2014-12-22T21:29:42Z" user="42429" uid="42429" lat="33.9703697" lon="131.1913465">
  <tag k="power" v="tower"/>
  <tag k="source" v="Bing"/>
 </node>
 <node id="3248382601" visible="true" version="1" changeset="27639366" timestamp="2014-12-22T21:30:39Z" user="42429" uid="42429" lat="34.0354792" lon="131.2375449">
  <tag k="power" v="tower"/>
  <tag k="source" v="Bing"/>
 </node>
 <node id="3248382605" visible="true" version="2" changeset="112663353" timestamp="2021-10-18T17:36:22Z" user="AYAGE" uid="521665" lat="34.0385111" lon="131.2418424">
  <tag k="power" v="tower"/>
  <tag k="source" v="Bing"/>
 </node>
 <node id="3248383170" visible="true" version="1" changeset="27639366" timestamp="2014-12-22T21:29:38Z" user="42429" uid="42429" lat="33.9670838" lon="131.1731594"/>
 <node id="3248383171" visible="true" version="1" changeset="27639366" timestamp="2014-12-22T21:29:39Z" user="42429" uid="42429" lat="33.9673714" lon="131.1738399">
  <tag k="power" v="tower"/>
  <tag k="source" v="Bing"/>
 </node>
 <node id="3248383174" visible="true" version="1" changeset="27639366" timestamp="2014-12-22T21:29:40Z" user="42429" uid="42429" lat="33.9678106" lon="131.1670320">
  <tag k="power" v="tower"/>
  <tag k="source" v="Bing"/>
 </node>
 <node id="3248383182" visible="true" version="1" changeset="27639366" timestamp="2014-12-22T21:30:07Z" user="42429" uid="42429" lat="33.9880289" lon="131.1947333">
  <tag k="power" v="tower"/>
  <tag k="source" v="Bing"/>
 </node>
 <node id="3248383275" visible="true" version="1" changeset="27639366" timestamp="2014-12-22T21:29:34Z" user="42429" uid="42429" lat="33.9653899" lon="131.1804835">
  <tag k="power" v="tower"/>
  <tag k="source" v="Bing"/>
 </node>
 <node id="3248383278" visible="true" version="1" changeset="27639366" timestamp="2014-12-22T21:29:44Z" user="42429" uid="42429" lat="33.9716180" lon="131.1778942">
  <tag k="power" v="tower"/>
  <tag k="source" v="Bing"/>
 </node>
 <node id="3248383286" visible="true" version="1" changeset="27639366" timestamp="2014-12-22T21:30:15Z" user="42429" uid="42429" lat="33.9991260" lon="131.1983740">
  <tag k="power" v="tower"/>
  <tag k="source" v="Bing"/>
 </node>
 <node id="3248383394" visible="true" version="1" changeset="27639366" timestamp="2014-12-22T21:30:18Z" user="42429" uid="42429" lat="34.0022303" lon="131.2001082">
  <tag k="power" v="tower"/>
  <tag k="source" v="Bing"/>
 </node>
 <node id="3248383397" visible="true" version="1" changeset="27639366" timestamp="2014-12-22T21:30:19Z" user="42429" uid="42429" lat="34.0038845" lon="131.2014211">
  <tag k="power" v="tower"/>
  <tag k="source" v="Bing"/>
 </node>
 <node id="3248383399" visible="true" version="1" changeset="27639366" timestamp="2014-12-22T21:30:20Z" user="42429" uid="42429" lat="34.0053843" lon="131.2028868">
  <tag k="power" v="tower"/>
  <tag k="source" v="Bing"/>
 </node>
 <node id="3248383406" visible="true" version="2" changeset="112956866" timestamp="2021-10-25T16:42:38Z" user="AYAGE" uid="521665" lat="34.0079217" lon="131.2051128">
  <tag k="power" v="tower"/>
  <tag k="source" v="Bing"/>
 </node>
 <node id="3248424966" visible="true" version="1" changeset="27639366" timestamp="2014-12-22T21:29:37Z" user="42429" uid="42429" lat="33.9668436" lon="131.1755059">
  <tag k="power" v="tower"/>
  <tag k="source" v="Bing"/>
 </node>
 <node id="3248424968" visible="true" version="1" changeset="27639366" timestamp="2014-12-22T21:29:39Z" user="42429" uid="42429" lat="33.9673095" lon="131.1703173">
  <tag k="power" v="tower"/>
  <tag k="source" v="Bing"/>
 </node>
 <node id="3248424982" visible="true" version="2" changeset="112719364" timestamp="2021-10-19T22:21:36Z" user="AYAGE" uid="521665" lat="34.0255196" lon="131.2200472">
  <tag k="power" v="tower"/>
  <tag k="source" v="Bing"/>
 </node>
 <node id="3248424984" visible="true" version="1" changeset="27639366" timestamp="2014-12-22T21:30:36Z" user="42429" uid="42429" lat="34.0311761" lon="131.2315717">
  <tag k="power" v="tower"/>
  <tag k="source" v="Bing"/>
 </node>
 <node id="3248424989" visible="true" version="1" changeset="27639366" timestamp="2014-12-22T21:30:37Z" user="42429" uid="42429" lat="34.0328326" lon="131.2338982">
  <tag k="power" v="tower"/>
  <tag k="source" v="Bing"/>
 </node>
 <node id="3248425002" visible="true" version="1" changeset="27639366" timestamp="2014-12-22T21:30:48Z" user="42429" uid="42429" lat="34.0518407" lon="131.2504439">
  <tag k="power" v="tower"/>
  <tag k="source" v="Bing"/>
 </node>
 <node id="3248425006" visible="true" version="2" changeset="111383684" timestamp="2021-09-18T17:08:33Z" user="AYAGE" uid="521665" lat="34.0546220" lon="131.2516500">
  <tag k="power" v="tower"/>
  <tag k="source" v="Bing"/>
 </node>
 <node id="3248425069" visible="true" version="1" changeset="27639366" timestamp="2014-12-22T21:29:39Z" user="42429" uid="42429" lat="33.9675942" lon="131.1773189">
  <tag k="power" v="tower"/>
  <tag k="source" v="Bing"/>
 </node>
 <node id="3248425070" visible="true" version="1" changeset="27639366" timestamp="2014-12-22T21:29:52Z" user="42429" uid="42429" lat="33.9738102" lon="131.1923681">
  <tag k="power" v="tower"/>
  <tag k="source" v="Bing"/>
 </node>
 <node id="3248425076" visible="true" version="1" changeset="27639366" timestamp="2014-12-22T21:30:00Z" user="42429" uid="42429" lat="33.9791462" lon="131.1928360">
  <tag k="power" v="tower"/>
  <tag k="source" v="Bing"/>
 </node>
 <node id="3248425080" visible="true" version="1" changeset="27639366" timestamp="2014-12-22T21:30:03Z" user="42429" uid="42429" lat="33.9841651" lon="131.1938013">
  <tag k="power" v="tower"/>
  <tag k="source" v="Bing"/>
 </node>
 <node id="3248425090" visible="true" version="1" changeset="27639366" timestamp="2014-12-22T21:30:12Z" user="42429" uid="42429" lat="33.9955579" lon="131.1969498">
  <tag k="power" v="tower"/>
  <tag k="source" v="Bing"/>
 </node>
 <node id="3248425092" visible="true" version="2" changeset="112806209" timestamp="2021-10-21T18:58:45Z" user="AYAGE" uid="521665" lat="34.0242164" lon="131.2180466">
  <tag k="power" v="tower"/>
  <tag k="source" v="Bing"/>
 </node>
 <node id="3248425096" visible="true" version="1" changeset="27639366" timestamp="2014-12-22T21:30:34Z" user="42429" uid="42429" lat="34.0273346" lon="131.2246157">
  <tag k="power" v="tower"/>
  <tag k="source" v="Bing"/>
 </node>
 <node id="3248425099" visible="true" version="1" changeset="27639366" timestamp="2014-12-22T21:30:44Z" user="42429" uid="42429" lat="34.0443251" lon="131.2461070">
  <tag k="power" v="tower"/>
  <tag k="source" v="Bing"/>
 </node>
 <node id="3248425115" visible="true" version="1" changeset="27639366" timestamp="2014-12-22T21:31:09Z" user="42429" uid="42429" lat="34.0645431" lon="131.2537341">
  <tag k="power" v="tower"/>
  <tag k="source" v="Bing"/>
 </node>
 <node id="3248425166" visible="true" version="1" changeset="27639366" timestamp="2014-12-22T21:29:53Z" user="42429" uid="42429" lat="33.9739839" lon="131.1781770">
  <tag k="power" v="tower"/>
  <tag k="source" v="Bing"/>
 </node>
 <node id="3248425171" visible="true" version="1" changeset="27639366" timestamp="2014-12-22T21:29:57Z" user="42429" uid="42429" lat="33.9755871" lon="131.1784678">
  <tag k="power" v="tower"/>
  <tag k="source" v="Bing"/>
 </node>
 <node id="3248425180" visible="true" version="1" changeset="27639366" timestamp="2014-12-22T21:30:27Z" user="42429" uid="42429" lat="34.0151137" lon="131.2113109">
  <tag k="power" v="tower"/>
  <tag k="source" v="Bing"/>
 </node>
 <node id="3248425276" visible="true" version="1" changeset="27639366" timestamp="2014-12-22T21:30:09Z" user="42429" uid="42429" lat="33.9910814" lon="131.1962074">
  <tag k="power" v="tower"/>
  <tag k="source" v="Bing"/>
 </node>
 <node id="3248425281" visible="true" version="1" changeset="27639366" timestamp="2014-12-22T21:30:25Z" user="42429" uid="42429" lat="34.0108017" lon="131.2073271">
  <tag k="power" v="tower"/>
  <tag k="source" v="Bing"/>
 </node>
 <node id="3248425284" visible="true" version="2" changeset="112806209" timestamp="2021-10-21T18:58:45Z" user="AYAGE" uid="521665" lat="34.0127687" lon="131.2098020">
  <tag k="power" v="tower"/>
  <tag k="source" v="Bing"/>
 </node>
 <node id="3248425289" visible="true" version="1" changeset="27639366" timestamp="2014-12-22T21:30:35Z" user="42429" uid="42429" lat="34.0287408" lon="131.2281121">
  <tag k="power" v="tower"/>
  <tag k="source" v="Bing"/>
 </node>
 <node id="3248425293" visible="true" version="1" changeset="27639366" timestamp="2014-12-22T21:30:42Z" user="42429" uid="42429" lat="34.0411801" lon="131.2443956">
  <tag k="power" v="tower"/>
  <tag k="source" v="Bing"/>
 </node>
 <node id="3248425298" visible="true" version="1" changeset="27639366" timestamp="2014-12-22T21:30:45Z" user="42429" uid="42429" lat="34.0467610" lon="131.2475208">
  <tag k="power" v="tower"/>
  <tag k="source" v="Bing"/>
 </node>
 <node id="5119111122" visible="true" version="1" changeset="52235934" timestamp="2017-09-21T07:29:17Z" user="f213022" uid="6068404" lat="33.9664629" lon="131.1761398">
  <tag k="highway" v="bus_stop"/>
  <tag k="name" v="竜王町"/>
 </node>
 <node id="5119111123" visible="true" version="1" changeset="52235934" timestamp="2017-09-21T07:29:17Z" user="f213022" uid="6068404" lat="33.9667587" lon="131.1761223">
  <tag k="highway" v="bus_stop"/>
  <tag k="name" v="竜王町"/>
 </node>
 <node id="5426194631" visible="true" version="2" changeset="76482290" timestamp="2019-11-01T08:42:48Z" user="mklyr" uid="614924" lat="33.9646329" lon="131.1758287">
  <tag k="railway" v="level_crossing"/>
 </node>
 <node id="5426194632" visible="true" version="1" changeset="56542525" timestamp="2018-02-21T08:51:37Z" user="mklyr" uid="614924" lat="33.9641638" lon="131.1766112">
  <tag k="railway" v="level_crossing"/>
 </node>
 <node id="5426194636" visible="true" version="1" changeset="56542525" timestamp="2018-02-21T08:51:37Z" user="mklyr" uid="614924" lat="33.9603560" lon="131.1839394"/>
 <node id="5718039344" visible="true" version="1" changeset="60153673" timestamp="2018-06-25T14:47:04Z" user="mklyr" uid="614924" lat="33.9699917" lon="131.1746737">
  <tag k="railway" v="level_crossing"/>
 </node>
 <node id="6936659528" visible="true" version="1" changeset="76482290" timestamp="2019-11-01T08:42:48Z" user="mklyr" uid="614924" lat="33.9665476" lon="131.1776696"/>
 <node id="6936659530" visible="true" version="1" changeset="76482290" timestamp="2019-11-01T08:42:48Z" user="mklyr" uid="614924" lat="33.9663325" lon="131.1782731"/>
 <node id="6936659532" visible="true" version="1" changeset="76482290" timestamp="2019-11-01T08:42:48Z" user="mklyr" uid="614924" lat="33.9660875" lon="131.1784116"/>
 <node id="6936659533" visible="true" version="1" changeset="76482290" timestamp="2019-11-01T08:42:48Z" user="mklyr" uid="614924" lat="33.9662780" lon="131.1784261"/>
 <node id="6936659534" visible="true" version="1" changeset="76482290" timestamp="2019-11-01T08:42:48Z" user="mklyr" uid="614924" lat="33.9666050" lon="131.1775088"/>
 <node id="6936659538" visible="true" version="1" changeset="76482290" timestamp="2019-11-01T08:42:48Z" user="mklyr" uid="614924" lat="33.9652114" lon="131.1759172"/>
 <node id="6936659540" visible="true" version="1" changeset="76482290" timestamp="2019-11-01T08:42:48Z" user="mklyr" uid="614924" lat="33.9654141" lon="131.1764623"/>
 <node id="6936659541" visible="true" version="1" changeset="76482290" timestamp="2019-11-01T08:42:48Z" user="mklyr" uid="614924" lat="33.9657018" lon="131.1764963"/>
 <node id="6936659542" visible="true" version="1" changeset="76482290" timestamp="2019-11-01T08:42:48Z" user="mklyr" uid="614924" lat="33.9653785" lon="131.1768189"/>
 <node id="6936659543" visible="true" version="1" changeset="76482290" timestamp="2019-11-01T08:42:48Z" user="mklyr" uid="614924" lat="33.9656873" lon="131.1768597"/>
 <node id="6936659544" visible="true" version="1" changeset="76482290" timestamp="2019-11-01T08:42:48Z" user="mklyr" uid="614924" lat="33.9653475" lon="131.1771301"/>
 <node id="6936659545" visible="true" version="1" changeset="76482290" timestamp="2019-11-01T08:42:48Z" user="mklyr" uid="614924" lat="33.9656328" lon="131.1771709"/>
 <node id="6936659546" visible="true" version="1" changeset="76482290" timestamp="2019-11-01T08:42:48Z" user="mklyr" uid="614924" lat="33.9655928" lon="131.1775115"/>
 <node id="6936659547" visible="true" version="1" changeset="76482290" timestamp="2019-11-01T08:42:48Z" user="mklyr" uid="614924" lat="33.9653136" lon="131.1774699"/>
 <node id="6936659548" visible="true" version="1" changeset="76482290" timestamp="2019-11-01T08:42:48Z" user="mklyr" uid="614924" lat="33.9654646" lon="131.1759559"/>
 <node id="8571532184" visible="true" version="2" changeset="181792300" timestamp="2026-04-25T05:55:28Z" user="FajrAl" uid="2649988" lat="33.9663791" lon="131.1762481">
  <tag k="name" v="南竜王町"/>
  <tag k="name:en" v="Minami-Ryuocho"/>
  <tag k="name:id" v="Minami-Ryuocho"/>
  <tag k="name:ja" v="南竜王町"/>
  <tag k="name:ja-Hira" v="みなみりゅうおうちょう"/>
  <tag k="place" v="quarter"/>
 </node>
 <way id="24473821" visible="true" version="13" changeset="60153673" timestamp="2018-06-25T14:47:06Z" user="mklyr" uid="614924">
  <nd ref="2958034192"/>
  <nd ref="2958034190"/>
  <nd ref="266062023"/>
  <nd ref="266062025"/>
  <nd ref="266062522"/>
  <nd ref="2958034179"/>
  <nd ref="5718039344"/>
  <nd ref="266062519"/>
  <nd ref="266062475"/>
  <nd ref="266062473"/>
  <nd ref="266062471"/>
  <nd ref="266062469"/>
  <nd ref="1351960682"/>
  <nd ref="266062481"/>
  <nd ref="266062479"/>
  <nd ref="266062477"/>
  <nd ref="266062486"/>
  <nd ref="266062485"/>
  <nd ref="5426194631"/>
  <nd ref="266062484"/>
  <nd ref="5426194632"/>
  <nd ref="1351960372"/>
  <nd ref="266062529"/>
  <nd ref="266062532"/>
  <nd ref="266062541"/>
  <nd ref="5426194636"/>
  <nd ref="266062544"/>
  <nd ref="266062547"/>
  <nd ref="2013400511"/>
  <nd ref="266062550"/>
  <nd ref="2013400513"/>
  <nd ref="2013400515"/>
  <nd ref="2785237911"/>
  <nd ref="266062553"/>
  <nd ref="266062556"/>
  <nd ref="266062559"/>
  <nd ref="266062166"/>
  <nd ref="266062168"/>
  <nd ref="2013400519"/>
  <nd ref="1940980201"/>
  <tag k="electrified" v="contact_line"/>
  <tag k="frequency" v="0"/>
  <tag k="gauge" v="1067"/>
  <tag k="KSJ2:LIN" v="小野田線"/>
  <tag k="maxspeed" v="45"/>
  <tag k="name" v="JR小野田線"/>
  <tag k="name:en" v="JR Onoda Line"/>
  <tag k="name:ja" v="JR小野田線"/>
  <tag k="note" v="National-Land Numerical Information (Railway) 2007, MLIT Japan"/>
  <tag k="note:ja" v="国土数値情報（鉄道データ）平成19年　国土交通省"/>
  <tag k="operator" v="西日本旅客鉄道"/>
  <tag k="operator:en" v="West Japan Railway Company"/>
  <tag k="operator:ja" v="西日本旅客鉄道"/>
  <tag k="railway" v="rail"/>
  <tag k="source" v="KSJ2"/>
  <tag k="source_ref" v="http://nlftp.mlit.go.jp/ksj/jpgis/datalist/KsjTmplt-N02-v1_1.html"/>
  <tag k="usage" v="main"/>
  <tag k="voltage" v="1500"/>
 </way>
 <way id="120612779" visible="true" version="1" changeset="8653379" timestamp="2011-07-07T00:38:44Z" user="yamasan" uid="32308">
  <nd ref="1351960665"/>
  <nd ref="1351960662"/>
  <tag k="highway" v="tertiary"/>
  <tag k="source" v="YahooJapan/ALPSMAP"/>
  <tag k="yh:STRUCTURE" v="地上"/>
  <tag k="yh:TOTYUMONO" v="供用中"/>
  <tag k="yh:TYPE" v="その他一般道"/>
  <tag k="yh:WIDTH" v="5.5m〜13.0m"/>
  <tag k="yh:WIDTH_RANK" v="2"/>
 </way>
 <way id="120613081" visible="true" version="1" changeset="8653379" timestamp="2011-07-07T00:40:55Z" user="yamasan" uid="32308">
  <nd ref="1351960645"/>
  <nd ref="1351960648"/>
  <tag k="highway" v="tertiary"/>
  <tag k="source" v="YahooJapan/ALPSMAP"/>
  <tag k="yh:STRUCTURE" v="地上"/>
  <tag k="yh:TOTYUMONO" v="供用中"/>
  <tag k="yh:TYPE" v="その他一般道"/>
  <tag k="yh:WIDTH" v="5.5m〜13.0m"/>
  <tag k="yh:WIDTH_RANK" v="2"/>
 </way>
 <way id="120613771" visible="true" version="2" changeset="24074632" timestamp="2014-07-11T02:59:16Z" user="mklyr" uid="614924">
  <nd ref="1351960648"/>
  <nd ref="1351960662"/>
  <tag k="highway" v="tertiary"/>
  <tag k="source" v="YahooJapan/ALPSMAP"/>
  <tag k="yh:WIDTH" v="5.5m〜13.0m"/>
 </way>
 <way id="120614355" visible="true" version="3" changeset="24074632" timestamp="2014-07-11T02:59:16Z" user="mklyr" uid="614924">
  <nd ref="1351960648"/>
  <nd ref="1351960701"/>
  <nd ref="1351960759"/>
  <tag k="highway" v="tertiary"/>
  <tag k="source" v="YahooJapan/ALPSMAP"/>
  <tag k="yh:WIDTH" v="5.5m〜13.0m"/>
 </way>
 <way id="120614677" visible="true" version="3" changeset="13096897" timestamp="2012-09-13T15:15:31Z" user="mklyr" uid="614924">
  <nd ref="1912892912"/>
  <nd ref="1912892895"/>
  <nd ref="1908486857"/>
  <nd ref="1351960665"/>
  <tag k="highway" v="unclassified"/>
  <tag k="source" v="YahooJapan/ALPSMAP"/>
  <tag k="yh:STRUCTURE" v="地上"/>
  <tag k="yh:TOTYUMONO" v="供用中"/>
  <tag k="yh:TYPE" v="その他一般道"/>
  <tag k="yh:WIDTH" v="3.0m〜5.5m"/>
  <tag k="yh:WIDTH_RANK" v="3"/>
 </way>
 <way id="120615169" visible="true" version="2" changeset="13058170" timestamp="2012-09-10T15:12:52Z" user="mklyr" uid="614924">
  <nd ref="1351960764"/>
  <nd ref="1351960665"/>
  <tag k="highway" v="tertiary"/>
  <tag k="source" v="YahooJapan/ALPSMAP"/>
  <tag k="yh:STRUCTURE" v="地上"/>
  <tag k="yh:TOTYUMONO" v="供用中"/>
  <tag k="yh:TYPE" v="その他一般道"/>
  <tag k="yh:WIDTH" v="5.5m〜13.0m"/>
  <tag k="yh:WIDTH_RANK" v="2"/>
 </way>
 <way id="120615193" visible="true" version="5" changeset="76482290" timestamp="2019-11-01T08:42:48Z" user="mklyr" uid="614924">
  <nd ref="1351960662"/>
  <nd ref="6936659548"/>
  <nd ref="6936659538"/>
  <nd ref="5426194631"/>
  <nd ref="1351960542"/>
  <tag k="highway" v="tertiary"/>
  <tag k="source" v="YahooJapan/ALPSMAP"/>
 </way>
 <way id="318438197" visible="true" version="2" changeset="160774119" timestamp="2024-12-30T02:24:45Z" user="setomaps" uid="21931672">
  <nd ref="2508701015"/>
  <nd ref="3248425115"/>
  <nd ref="3248376104"/>
  <nd ref="3248382335"/>
  <nd ref="3248425006"/>
  <nd ref="3248425002"/>
  <nd ref="3248376098"/>
  <nd ref="3248425298"/>
  <nd ref="3248425099"/>
  <nd ref="3248425293"/>
  <nd ref="3248382605"/>
  <nd ref="3248382601"/>
  <nd ref="3248424989"/>
  <nd ref="3248424984"/>
  <nd ref="3248425289"/>
  <nd ref="3248425096"/>
  <nd ref="3248424982"/>
  <nd ref="3248425092"/>
  <nd ref="3248382329"/>
  <nd ref="3248376084"/>
  <nd ref="3248425180"/>
  <nd ref="3248425284"/>
  <nd ref="3248425281"/>
  <nd ref="3248383406"/>
  <nd ref="3248383399"/>
  <nd ref="3248383397"/>
  <nd ref="3248383394"/>
  <nd ref="3248383286"/>
  <nd ref="3248425090"/>
  <nd ref="3248425276"/>
  <nd ref="3248383182"/>
  <nd ref="3248425080"/>
  <nd ref="3248425076"/>
  <nd ref="3248425070"/>
  <nd ref="3248382580"/>
  <nd ref="3248382289"/>
  <nd ref="3248382284"/>
  <nd ref="3248382282"/>
  <nd ref="3248383275"/>
  <nd ref="3248382287"/>
  <nd ref="3248376072"/>
  <nd ref="3248376071"/>
  <nd ref="3248424968"/>
  <nd ref="3248383174"/>
  <tag k="cables" v="6"/>
  <tag k="circuits" v="2"/>
  <tag k="frequency" v="60"/>
  <tag k="operator" v="中国電力ネットワーク"/>
  <tag k="operator:en" v="Chugoku Electric Power Transmission &amp; Distribution Company"/>
  <tag k="operator:ja" v="中国電力ネットワーク"/>
  <tag k="operator:wikidata" v="Q65093799"/>
  <tag k="power" v="line"/>
  <tag k="source" v="Bing"/>
  <tag k="voltage" v="220000"/>
 </way>
 <way id="318438209" visible="true" version="2" changeset="160774119" timestamp="2024-12-30T02:24:45Z" user="setomaps" uid="21931672">
  <nd ref="3248425171"/>
  <nd ref="3248425166"/>
  <nd ref="3248383278"/>
  <nd ref="3248382579"/>
  <nd ref="3248425069"/>
  <nd ref="3248424966"/>
  <nd ref="3248383171"/>
  <nd ref="3248383170"/>
  <tag k="frequency" v="60"/>
  <tag k="operator" v="中国電力ネットワーク"/>
  <tag k="operator:en" v="Chugoku Electric Power Transmission &amp; Distribution Company"/>
  <tag k="operator:ja" v="中国電力ネットワーク"/>
  <tag k="operator:wikidata" v="Q65093799"/>
  <tag k="power" v="line"/>
  <tag k="voltage" v="110000"/>
 </way>
 <way id="740911370" visible="true" version="1" changeset="76482290" timestamp="2019-11-01T08:42:48Z" user="mklyr" uid="614924">
  <nd ref="6936659534"/>
  <nd ref="6936659528"/>
  <nd ref="6936659530"/>
  <nd ref="6936659533"/>
  <nd ref="6936659532"/>
  <tag k="highway" v="residential"/>
  <tag k="source" v="GSImaps/std"/>
 </way>
 <way id="740911373" visible="true" version="1" changeset="76482290" timestamp="2019-11-01T08:42:48Z" user="mklyr" uid="614924">
  <nd ref="6936659541"/>
  <nd ref="6936659540"/>
  <tag k="highway" v="residential"/>
  <tag k="source" v="GSImaps/std"/>
 </way>
 <way id="740911374" visible="true" version="1" changeset="76482290" timestamp="2019-11-01T08:42:48Z" user="mklyr" uid="614924">
  <nd ref="6936659543"/>
  <nd ref="6936659542"/>
  <tag k="highway" v="residential"/>
  <tag k="source" v="GSImaps/std"/>
 </way>
 <way id="740911375" visible="true" version="1" changeset="76482290" timestamp="2019-11-01T08:42:48Z" user="mklyr" uid="614924">
  <nd ref="6936659545"/>
  <nd ref="6936659544"/>
  <tag k="highway" v="residential"/>
  <tag k="source" v="GSImaps/std"/>
 </way>
 <way id="740911376" visible="true" version="1" changeset="76482290" timestamp="2019-11-01T08:42:48Z" user="mklyr" uid="614924">
  <nd ref="6936659548"/>
  <nd ref="6936659540"/>
  <nd ref="6936659542"/>
  <nd ref="6936659544"/>
  <nd ref="6936659547"/>
  <nd ref="6936659546"/>
  <tag k="highway" v="residential"/>
  <tag k="source" v="GSImaps/std"/>
 </way>
 <relation id="1855478" visible="true" version="18" changeset="138117975" timestamp="2023-07-04T18:01:29Z" user="ivanbranco" uid="11220113">
  <member type="node" ref="266062183" role="stop"/>
  <member type="node" ref="266061999" role="stop"/>
  <member type="node" ref="266062065" role="stop"/>
  <member type="node" ref="266062023" role="stop"/>
  <member type="node" ref="266062172" role="stop"/>
  <member type="node" ref="266062149" role="stop"/>
  <member type="node" ref="266062275" role="stop"/>
  <member type="node" ref="266061995" role="stop"/>
  <member type="node" ref="266062512" role="stop"/>
  <member type="node" ref="266061191" role="stop"/>
  <member type="way" ref="24473828" role=""/>
  <member type="way" ref="221454733" role=""/>
  <member type="way" ref="221454735" role=""/>
  <member type="way" ref="276957873" role=""/>
  <member type="way" ref="276957874" role=""/>
  <member type="way" ref="221454734" role=""/>
  <member type="way" ref="221454732" role=""/>
  <member type="way" ref="292249635" role=""/>
  <member type="way" ref="24473809" role=""/>
  <member type="way" ref="24473821" role=""/>
  <member type="way" ref="24473818" role=""/>
  <member type="way" ref="228771150" role=""/>
  <member type="way" ref="228771146" role=""/>
  <member type="way" ref="228771152" role=""/>
  <member type="way" ref="228771148" role=""/>
  <member type="way" ref="228771151" role=""/>
  <member type="way" ref="228771147" role=""/>
  <member type="way" ref="24473811" role=""/>
  <member type="way" ref="228771149" role=""/>
  <member type="way" ref="24473808" role=""/>
  <member type="way" ref="24473814" role=""/>
  <member type="way" ref="244156674" role=""/>
  <member type="way" ref="244156675" role=""/>
  <member type="way" ref="235479981" role=""/>
  <member type="way" ref="235479982" role=""/>
  <member type="way" ref="24473820" role=""/>
  <member type="way" ref="677207855" role=""/>
  <member type="way" ref="677207856" role=""/>
  <member type="way" ref="270880383" role=""/>
  <member type="way" ref="409897820" role=""/>
  <member type="way" ref="409897828" role=""/>
  <member type="way" ref="451516086" role=""/>
  <member type="way" ref="451516068" role=""/>
  <member type="way" ref="740911392" role=""/>
  <member type="way" ref="740911391" role=""/>
  <member type="way" ref="292249637" role=""/>
  <tag k="name" v="JR小野田線"/>
  <tag k="name:en" v="JR Onoda Line"/>
  <tag k="name:ja" v="JR小野田線"/>
  <tag k="operator" v="西日本旅客鉄道"/>
  <tag k="operator:en" v="West Japan Railway Company"/>
  <tag k="operator:ja" v="西日本旅客鉄道"/>
  <tag k="operator:wikidata" v="Q502125"/>
  <tag k="public_transport:version" v="1"/>
  <tag k="route" v="railway"/>
  <tag k="type" v="route"/>
 </relation>
 <relation id="6050653" visible="true" version="34" changeset="179175824" timestamp="2026-02-28T15:45:54Z" user="Rukkhadevata" uid="13203370">
  <member type="relation" ref="1864758" role=""/>
  <member type="relation" ref="5331507" role=""/>
  <member type="relation" ref="1843088" role=""/>
  <member type="relation" ref="1839588" role=""/>
  <member type="relation" ref="1839656" role=""/>
  <member type="relation" ref="1868625" role=""/>
  <member type="relation" ref="19132425" role=""/>
  <member type="relation" ref="3344075" role=""/>
  <member type="relation" ref="11799163" role=""/>
  <member type="relation" ref="1832686" role=""/>
  <member type="relation" ref="1839669" role=""/>
  <member type="relation" ref="1839646" role=""/>
  <member type="relation" ref="1855481" role=""/>
  <member type="relation" ref="1832486" role=""/>
  <member type="relation" ref="5329254" role=""/>
  <member type="relation" ref="19082927" role=""/>
  <member type="relation" ref="6088924" role=""/>
  <member type="relation" ref="1839595" role=""/>
  <member type="relation" ref="1839695" role=""/>
  <member type="relation" ref="1837932" role=""/>
  <member type="relation" ref="1841854" role=""/>
  <member type="relation" ref="11809905" role=""/>
  <member type="relation" ref="1855483" role=""/>
  <member type="relation" ref="1855485" role=""/>
  <member type="relation" ref="1864761" role=""/>
  <member type="relation" ref="1843090" role=""/>
  <member type="relation" ref="6095295" role=""/>
  <member type="relation" ref="6105714" role=""/>
  <member type="relation" ref="1855476" role=""/>
  <member type="relation" ref="19256474" role=""/>
  <member type="relation" ref="1855478" role=""/>
  <member type="relation" ref="1855477" role=""/>
  <tag k="name" v="西日本旅客鉄道"/>
  <tag k="name:en" v="West Japan Railway Company"/>
  <tag k="name:ja" v="西日本旅客鉄道"/>
  <tag k="operator" v="西日本旅客鉄道"/>
  <tag k="operator:en" v="West Japan Railway Company"/>
  <tag k="operator:ja" v="西日本旅客鉄道"/>
  <tag k="route_master" v="train"/>
  <tag k="type" v="network"/>
 </relation>
</osm>
