<?xml version="1.0" encoding="UTF-8"?>
<osm version="0.6" generator="openstreetmap-cgimap 2.1.0 (2942775 spike-08.openstreetmap.org)" copyright="OpenStreetMap and contributors" attribution="http://www.openstreetmap.org/copyright" license="http://opendatacommons.org/licenses/odbl/1-0/">
 <bounds minlat="33.9936650" minlon="131.1786910" maxlat="33.9960650" maxlon="131.1816910"/>
 <node id="1351961898" visible="true" version="7" changeset="54987057" timestamp="2017-12-28T15:58:40Z" user="mklyr" uid="614924" lat="33.9856489" lon="131.1776175">
  <tag k="highway" v="traffic_signals"/>
 </node>
 <node id="1351962065" visible="true" version="8" changeset="76382222" timestamp="2019-10-30T09:08:58Z" user="mklyr" uid="614924" lat="33.9879467" lon="131.1774334">
  <tag k="highway" v="traffic_signals"/>
  <tag k="name:ja" v="中川"/>
 </node>
 <node id="1351962161" visible="true" version="7" changeset="56817749" timestamp="2018-03-02T11:49:48Z" user="mklyr" uid="614924" lat="33.9891478" lon="131.1773251"/>
 <node id="1351962367" visible="true" version="11" changeset="156708803" timestamp="2024-09-16T23:32:18Z" user="taketaketake" uid="4757277" lat="33.9903203" lon="131.1772436">
  <tag k="highway" v="traffic_signals"/>
  <tag k="name" v="栄町"/>
 </node>
 <node id="1351962489" visible="true" version="4" changeset="129390158" timestamp="2022-11-26T05:59:58Z" user="mklyr" uid="614924" lat="33.9917873" lon="131.1782957"/>
 <node id="1351962523" visible="true" version="6" changeset="129390158" timestamp="2022-11-26T05:59:58Z" user="mklyr" uid="614924" lat="33.9920660" lon="131.1785037">
  <tag k="highway" v="traffic_signals"/>
 </node>
 <node id="1351962544" visible="true" version="3" changeset="129390158" timestamp="2022-11-26T05:59:58Z" user="mklyr" uid="614924" lat="33.9923261" lon="131.1786824"/>
 <node id="1351962559" visible="true" version="2" changeset="129390158" timestamp="2022-11-26T05:59:58Z" user="mklyr" uid="614924" lat="33.9924426" lon="131.1787490"/>
 <node id="1351962572" visible="true" version="2" changeset="56817749" timestamp="2018-03-02T11:49:49Z" user="mklyr" uid="614924" lat="33.9925656" lon="131.1804487"/>
 <node id="1351962577" visible="true" version="4" changeset="129390158" timestamp="2022-11-26T05:59:58Z" user="mklyr" uid="614924" lat="33.9926787" lon="131.1788178"/>
 <node id="1351962587" visible="true" version="2" changeset="56817749" timestamp="2018-03-02T11:49:49Z" user="mklyr" uid="614924" lat="33.9928355" lon="131.1803240"/>
 <node id="1351962588" visible="true" version="2" changeset="15578754" timestamp="2013-04-02T08:56:03Z" user="mklyr" uid="614924" lat="33.9927569" lon="131.1788269"/>
 <node id="1351962608" visible="true" version="2" changeset="56817749" timestamp="2018-03-02T11:49:49Z" user="mklyr" uid="614924" lat="33.9928934" lon="131.1803195"/>
 <node id="1351962615" visible="true" version="2" changeset="15578754" timestamp="2013-04-02T08:56:03Z" user="mklyr" uid="614924" lat="33.9929787" lon="131.1788535"/>
 <node id="1351962623" visible="true" version="2" changeset="56817749" timestamp="2018-03-02T11:49:49Z" user="mklyr" uid="614924" lat="33.9932080" lon="131.1803054"/>
 <node id="1351962629" visible="true" version="2" changeset="56817749" timestamp="2018-03-02T11:49:49Z" user="mklyr" uid="614924" lat="33.9933124" lon="131.1803017"/>
 <node id="1351962632" visible="true" version="2" changeset="15578754" timestamp="2013-04-02T08:56:03Z" user="mklyr" uid="614924" lat="33.9932409" lon="131.1789231"/>
 <node id="1351962642" visible="true" version="2" changeset="56817749" timestamp="2018-03-02T11:49:49Z" user="mklyr" uid="614924" lat="33.9933998" lon="131.1803110"/>
 <node id="1351962662" visible="true" version="2" changeset="56817749" timestamp="2018-03-02T11:49:49Z" user="mklyr" uid="614924" lat="33.9935534" lon="131.1803876"/>
 <node id="1351962671" visible="true" version="2" changeset="56817749" timestamp="2018-03-02T11:49:49Z" user="mklyr" uid="614924" lat="33.9936665" lon="131.1804742"/>
 <node id="1351962685" visible="true" version="2" changeset="56817749" timestamp="2018-03-02T11:49:49Z" user="mklyr" uid="614924" lat="33.9937506" lon="131.1805001"/>
 <node id="1351962689" visible="true" version="3" changeset="56817749" timestamp="2018-03-02T11:49:49Z" user="mklyr" uid="614924" lat="33.9939240" lon="131.1805941"/>
 <node id="1351962695" visible="true" version="3" changeset="56817749" timestamp="2018-03-02T11:49:49Z" user="mklyr" uid="614924" lat="33.9939544" lon="131.1806289"/>
 <node id="1351962702" visible="true" version="3" changeset="56817749" timestamp="2018-03-02T11:49:49Z" user="mklyr" uid="614924" lat="33.9940107" lon="131.1807117"/>
 <node id="1351962703" visible="true" version="3" changeset="56817749" timestamp="2018-03-02T11:49:49Z" user="mklyr" uid="614924" lat="33.9940600" lon="131.1804255"/>
 <node id="1351962706" visible="true" version="4" changeset="56817749" timestamp="2018-03-02T11:49:49Z" user="mklyr" uid="614924" lat="33.9940839" lon="131.1807730"/>
 <node id="1351962710" visible="true" version="3" changeset="69639704" timestamp="2019-04-27T13:25:42Z" user="mklyr" uid="614924" lat="33.9941175" lon="131.1803551"/>
 <node id="1351962716" visible="true" version="3" changeset="56817749" timestamp="2018-03-02T11:49:49Z" user="mklyr" uid="614924" lat="33.9943098" lon="131.1807436"/>
 <node id="1351962719" visible="true" version="3" changeset="69639704" timestamp="2019-04-27T13:25:42Z" user="mklyr" uid="614924" lat="33.9942272" lon="131.1801762"/>
 <node id="1351962726" visible="true" version="2" changeset="69639704" timestamp="2019-04-27T13:25:42Z" user="mklyr" uid="614924" lat="33.9942917" lon="131.1798940"/>
 <node id="1351962734" visible="true" version="3" changeset="56817749" timestamp="2018-03-02T11:49:49Z" user="mklyr" uid="614924" lat="33.9943679" lon="131.1807931"/>
 <node id="1351962738" visible="true" version="3" changeset="54987057" timestamp="2017-12-28T15:58:41Z" user="mklyr" uid="614924" lat="33.9943858" lon="131.1797066"/>
 <node id="1351962752" visible="true" version="2" changeset="15773806" timestamp="2013-04-18T14:05:39Z" user="mklyr" uid="614924" lat="33.9945028" lon="131.1807610"/>
 <node id="1351962775" visible="true" version="1" changeset="8653379" timestamp="2011-07-07T00:03:54Z" user="yamasan" uid="32308" lat="33.9945650" lon="131.1798630"/>
 <node id="1351962782" visible="true" version="3" changeset="27927122" timestamp="2015-01-05T08:08:25Z" user="mklyr" uid="614924" lat="33.9946652" lon="131.1807467"/>
 <node id="1351962789" visible="true" version="2" changeset="27927122" timestamp="2015-01-05T08:08:25Z" user="mklyr" uid="614924" lat="33.9949184" lon="131.1809051"/>
 <node id="1351962794" visible="true" version="2" changeset="13138869" timestamp="2012-09-17T06:06:21Z" user="mklyr" uid="614924" lat="33.9948786" lon="131.1784005"/>
 <node id="1351962799" visible="true" version="3" changeset="54987057" timestamp="2017-12-28T15:58:41Z" user="mklyr" uid="614924" lat="33.9948397" lon="131.1801118"/>
 <node id="1351962814" visible="true" version="3" changeset="27927122" timestamp="2015-01-05T08:08:25Z" user="mklyr" uid="614924" lat="33.9951171" lon="131.1809359"/>
 <node id="1351962820" visible="true" version="3" changeset="27927122" timestamp="2015-01-05T08:08:25Z" user="mklyr" uid="614924" lat="33.9952585" lon="131.1809341"/>
 <node id="1351962824" visible="true" version="3" changeset="27927122" timestamp="2015-01-05T08:08:25Z" user="mklyr" uid="614924" lat="33.9953251" lon="131.1809567"/>
 <node id="1351962830" visible="true" version="1" changeset="8653379" timestamp="2011-07-07T00:03:57Z" user="yamasan" uid="32308" lat="33.9952350" lon="131.1805420"/>
 <node id="1351962839" visible="true" version="3" changeset="27927122" timestamp="2015-01-05T08:08:25Z" user="mklyr" uid="614924" lat="33.9954515" lon="131.1809888"/>
 <node id="1351962842" visible="true" version="1" changeset="8653379" timestamp="2011-07-07T00:03:58Z" user="yamasan" uid="32308" lat="33.9953420" lon="131.1795030"/>
 <node id="1351962849" visible="true" version="5" changeset="56817749" timestamp="2018-03-02T11:49:49Z" user="mklyr" uid="614924" lat="33.9955466" lon="131.1809672"/>
 <node id="1351962854" visible="true" version="2" changeset="13066350" timestamp="2012-09-11T08:47:05Z" user="mklyr" uid="614924" lat="33.9955771" lon="131.1807661"/>
 <node id="1351962860" visible="true" version="5" changeset="69633999" timestamp="2019-04-27T08:53:14Z" user="mklyr" uid="614924" lat="33.9956288" lon="131.1813233"/>
 <node id="1351962867" visible="true" version="3" changeset="14636917" timestamp="2013-01-13T16:39:26Z" user="mklyr" uid="614924" lat="33.9957123" lon="131.1808032"/>
 <node id="1351962870" visible="true" version="4" changeset="14636917" timestamp="2013-01-13T16:39:26Z" user="mklyr" uid="614924" lat="33.9959542" lon="131.1807977"/>
 <node id="1351962872" visible="true" version="5" changeset="69633999" timestamp="2019-04-27T08:53:14Z" user="mklyr" uid="614924" lat="33.9957780" lon="131.1817016"/>
 <node id="1351962912" visible="true" version="4" changeset="56817749" timestamp="2018-03-02T11:49:49Z" user="mklyr" uid="614924" lat="33.9961056" lon="131.1807660"/>
 <node id="1695778891" visible="true" version="5" changeset="56817749" timestamp="2018-03-02T11:49:51Z" user="mklyr" uid="614924" lat="33.9870570" lon="131.1775063"/>
 <node id="1909636349" visible="true" version="1" changeset="13066350" timestamp="2012-09-11T08:46:50Z" user="mklyr" uid="614924" lat="33.9954186" lon="131.1806882"/>
 <node id="2019462503" visible="true" version="5" changeset="55071543" timestamp="2018-01-01T09:14:43Z" user="mklyr" uid="614924" lat="33.9887542" lon="131.1773619"/>
 <node id="2109124505" visible="true" version="4" changeset="86407373" timestamp="2020-06-09T11:59:53Z" user="mklyr" uid="614924" lat="33.9955590" lon="131.1811140"/>
 <node id="2109124506" visible="true" version="1" changeset="14636917" timestamp="2013-01-13T16:39:22Z" user="mklyr" uid="614924" lat="33.9957965" lon="131.1808136"/>
 <node id="2109124508" visible="true" version="1" changeset="14636917" timestamp="2013-01-13T16:39:22Z" user="mklyr" uid="614924" lat="33.9958720" lon="131.1808122"/>
 <node id="2244510692" visible="true" version="1" changeset="15578754" timestamp="2013-04-02T08:55:45Z" user="mklyr" uid="614924" lat="33.9931101" lon="131.1788775"/>
 <node id="2244510695" visible="true" version="1" changeset="15578754" timestamp="2013-04-02T08:55:45Z" user="mklyr" uid="614924" lat="33.9933566" lon="131.1789755"/>
 <node id="2244510697" visible="true" version="3" changeset="55071543" timestamp="2018-01-01T09:14:43Z" user="mklyr" uid="614924" lat="33.9934904" lon="131.1790506"/>
 <node id="3270016110" visible="true" version="1" changeset="27927122" timestamp="2015-01-05T08:08:13Z" user="mklyr" uid="614924" lat="33.9947144" lon="131.1807662"/>
 <node id="3270016111" visible="true" version="1" changeset="27927122" timestamp="2015-01-05T08:08:13Z" user="mklyr" uid="614924" lat="33.9948338" lon="131.1808370"/>
 <node id="3270016112" visible="true" version="1" changeset="27927122" timestamp="2015-01-05T08:08:13Z" user="mklyr" uid="614924" lat="33.9950329" lon="131.1809271"/>
 <node id="3270016113" visible="true" version="1" changeset="27927122" timestamp="2015-01-05T08:08:13Z" user="mklyr" uid="614924" lat="33.9953693" lon="131.1809847"/>
 <node id="3270016114" visible="true" version="1" changeset="27927122" timestamp="2015-01-05T08:08:13Z" user="mklyr" uid="614924" lat="33.9954115" lon="131.1809915"/>
 <node id="5127585177" visible="true" version="1" changeset="52343321" timestamp="2017-09-25T03:41:37Z" user="f213022" uid="6068404" lat="33.9945352" lon="131.1797684">
  <tag k="highway" v="bus_stop"/>
  <tag k="name" v="目出"/>
 </node>
 <node id="5127585178" visible="true" version="1" changeset="52343321" timestamp="2017-09-25T03:41:38Z" user="f213022" uid="6068404" lat="33.9946378" lon="131.1799830">
  <tag k="highway" v="bus_stop"/>
  <tag k="name" v="目出"/>
 </node>
 <node id="5448079590" visible="true" version="1" changeset="56817749" timestamp="2018-03-02T11:49:41Z" user="mklyr" uid="614924" lat="33.9931617" lon="131.1823207"/>
 <node id="5448079591" visible="true" version="1" changeset="56817749" timestamp="2018-03-02T11:49:41Z" user="mklyr" uid="614924" lat="33.9933118" lon="131.1821598"/>
 <node id="5448079592" visible="true" version="1" changeset="56817749" timestamp="2018-03-02T11:49:41Z" user="mklyr" uid="614924" lat="33.9937754" lon="131.1817735"/>
 <node id="5448079593" visible="true" version="1" changeset="56817749" timestamp="2018-03-02T11:49:41Z" user="mklyr" uid="614924" lat="33.9938188" lon="131.1816958"/>
 <node id="5448079594" visible="true" version="1" changeset="56817749" timestamp="2018-03-02T11:49:41Z" user="mklyr" uid="614924" lat="33.9939900" lon="131.1814865"/>
 <node id="5448079595" visible="true" version="1" changeset="56817749" timestamp="2018-03-02T11:49:41Z" user="mklyr" uid="614924" lat="33.9940378" lon="131.1813994"/>
 <node id="5448079596" visible="true" version="1" changeset="56817749" timestamp="2018-03-02T11:49:41Z" user="mklyr" uid="614924" lat="33.9940490" lon="131.1813270"/>
 <node id="5448079597" visible="true" version="1" changeset="56817749" timestamp="2018-03-02T11:49:41Z" user="mklyr" uid="614924" lat="33.9940345" lon="131.1810721"/>
 <node id="5448079598" visible="true" version="1" changeset="56817749" timestamp="2018-03-02T11:49:41Z" user="mklyr" uid="614924" lat="33.9939178" lon="131.1808240"/>
 <node id="5448079599" visible="true" version="1" changeset="56817749" timestamp="2018-03-02T11:49:41Z" user="mklyr" uid="614924" lat="33.9939111" lon="131.1807597"/>
 <node id="5448079600" visible="true" version="1" changeset="56817749" timestamp="2018-03-02T11:49:41Z" user="mklyr" uid="614924" lat="33.9910466" lon="131.1777545"/>
 <node id="5448079603" visible="true" version="1" changeset="56817749" timestamp="2018-03-02T11:49:41Z" user="mklyr" uid="614924" lat="33.9926279" lon="131.1804257"/>
 <node id="5448079604" visible="true" version="1" changeset="56817749" timestamp="2018-03-02T11:49:41Z" user="mklyr" uid="614924" lat="33.9934730" lon="131.1803251"/>
 <node id="5448079605" visible="true" version="1" changeset="56817749" timestamp="2018-03-02T11:49:41Z" user="mklyr" uid="614924" lat="33.9941490" lon="131.1807999"/>
 <node id="5448079606" visible="true" version="1" changeset="56817749" timestamp="2018-03-02T11:49:41Z" user="mklyr" uid="614924" lat="33.9941991" lon="131.1808026"/>
 <node id="5448079607" visible="true" version="1" changeset="56817749" timestamp="2018-03-02T11:49:41Z" user="mklyr" uid="614924" lat="33.9942680" lon="131.1807838"/>
 <node id="5448079658" visible="true" version="1" changeset="56817749" timestamp="2018-03-02T11:49:42Z" user="mklyr" uid="614924" lat="33.9925790" lon="131.1700281"/>
 <node id="5448079659" visible="true" version="1" changeset="56817749" timestamp="2018-03-02T11:49:42Z" user="mklyr" uid="614924" lat="33.9930438" lon="131.1707872"/>
 <node id="5448079660" visible="true" version="1" changeset="56817749" timestamp="2018-03-02T11:49:42Z" user="mklyr" uid="614924" lat="33.9936376" lon="131.1716804"/>
 <node id="5448079661" visible="true" version="2" changeset="129390158" timestamp="2022-11-26T05:59:58Z" user="mklyr" uid="614924" lat="33.9940101" lon="131.1734989"/>
 <node id="5448079662" visible="true" version="3" changeset="129390158" timestamp="2022-11-26T05:59:58Z" user="mklyr" uid="614924" lat="33.9942080" lon="131.1746342"/>
 <node id="5448079663" visible="true" version="2" changeset="129390158" timestamp="2022-11-26T05:59:58Z" user="mklyr" uid="614924" lat="33.9945367" lon="131.1766757"/>
 <node id="5448079664" visible="true" version="1" changeset="56817749" timestamp="2018-03-02T11:49:42Z" user="mklyr" uid="614924" lat="33.9957012" lon="131.1797217"/>
 <node id="5448079665" visible="true" version="2" changeset="129390158" timestamp="2022-11-26T05:59:58Z" user="mklyr" uid="614924" lat="33.9950202" lon="131.1801883"/>
 <node id="5448079666" visible="true" version="2" changeset="129390158" timestamp="2022-11-26T05:59:58Z" user="mklyr" uid="614924" lat="33.9945127" lon="131.1796988"/>
 <node id="5448079667" visible="true" version="2" changeset="129390158" timestamp="2022-11-26T05:59:58Z" user="mklyr" uid="614924" lat="33.9936008" lon="131.1790230"/>
 <node id="5448079668" visible="true" version="2" changeset="129390158" timestamp="2022-11-26T05:59:58Z" user="mklyr" uid="614924" lat="33.9933051" lon="131.1788526"/>
 <node id="5448079669" visible="true" version="2" changeset="129390158" timestamp="2022-11-26T05:59:58Z" user="mklyr" uid="614924" lat="33.9928153" lon="131.1787487"/>
 <node id="5448079670" visible="true" version="2" changeset="129390158" timestamp="2022-11-26T05:59:58Z" user="mklyr" uid="614924" lat="33.9928070" lon="131.1786629"/>
 <node id="5448079671" visible="true" version="2" changeset="129390158" timestamp="2022-11-26T05:59:58Z" user="mklyr" uid="614924" lat="33.9924545" lon="131.1786387"/>
 <node id="5448079672" visible="true" version="1" changeset="56817749" timestamp="2018-03-02T11:49:42Z" user="mklyr" uid="614924" lat="33.9923299" lon="131.1783135"/>
 <node id="5448079673" visible="true" version="2" changeset="129390158" timestamp="2022-11-26T05:59:58Z" user="mklyr" uid="614924" lat="33.9921537" lon="131.1783262"/>
 <node id="5448079674" visible="true" version="1" changeset="56817749" timestamp="2018-03-02T11:49:42Z" user="mklyr" uid="614924" lat="33.9920275" lon="131.1758432"/>
 <node id="5448079675" visible="true" version="1" changeset="56817749" timestamp="2018-03-02T11:49:42Z" user="mklyr" uid="614924" lat="33.9915694" lon="131.1758727"/>
 <node id="5448079676" visible="true" version="1" changeset="56817749" timestamp="2018-03-02T11:49:42Z" user="mklyr" uid="614924" lat="33.9914293" lon="131.1735687"/>
 <node id="5448079677" visible="true" version="1" changeset="56817749" timestamp="2018-03-02T11:49:42Z" user="mklyr" uid="614924" lat="33.9915605" lon="131.1735472"/>
 <node id="5448079678" visible="true" version="1" changeset="56817749" timestamp="2018-03-02T11:49:42Z" user="mklyr" uid="614924" lat="33.9916695" lon="131.1736652"/>
 <node id="5448079679" visible="true" version="1" changeset="56817749" timestamp="2018-03-02T11:49:42Z" user="mklyr" uid="614924" lat="33.9923833" lon="131.1735794"/>
 <node id="5448079680" visible="true" version="1" changeset="56817749" timestamp="2018-03-02T11:49:42Z" user="mklyr" uid="614924" lat="33.9923722" lon="131.1732012"/>
 <node id="5448079681" visible="true" version="1" changeset="56817749" timestamp="2018-03-02T11:49:42Z" user="mklyr" uid="614924" lat="33.9922232" lon="131.1730805"/>
 <node id="5448079682" visible="true" version="1" changeset="56817749" timestamp="2018-03-02T11:49:42Z" user="mklyr" uid="614924" lat="33.9922054" lon="131.1726621"/>
 <node id="5448079683" visible="true" version="1" changeset="56817749" timestamp="2018-03-02T11:49:42Z" user="mklyr" uid="614924" lat="33.9924033" lon="131.1725521"/>
 <node id="5448079684" visible="true" version="1" changeset="56817749" timestamp="2018-03-02T11:49:42Z" user="mklyr" uid="614924" lat="33.9924967" lon="131.1719164"/>
 <node id="5448079685" visible="true" version="1" changeset="56817749" timestamp="2018-03-02T11:49:42Z" user="mklyr" uid="614924" lat="33.9923589" lon="131.1711600"/>
 <node id="5448079686" visible="true" version="1" changeset="56817749" timestamp="2018-03-02T11:49:42Z" user="mklyr" uid="614924" lat="33.9919852" lon="131.1711735"/>
 <node id="5448079687" visible="true" version="1" changeset="56817749" timestamp="2018-03-02T11:49:42Z" user="mklyr" uid="614924" lat="33.9919119" lon="131.1706799"/>
 <node id="5448079688" visible="true" version="1" changeset="56817749" timestamp="2018-03-02T11:49:42Z" user="mklyr" uid="614924" lat="33.9917050" lon="131.1707041"/>
 <node id="5448079689" visible="true" version="1" changeset="56817749" timestamp="2018-03-02T11:49:42Z" user="mklyr" uid="614924" lat="33.9913937" lon="131.1703098"/>
 <node id="5448079690" visible="true" version="1" changeset="56817749" timestamp="2018-03-02T11:49:42Z" user="mklyr" uid="614924" lat="33.9913670" lon="131.1699074"/>
 <node id="5448079691" visible="true" version="1" changeset="56817749" timestamp="2018-03-02T11:49:42Z" user="mklyr" uid="614924" lat="33.9914137" lon="131.1698779"/>
 <node id="6092342832" visible="true" version="2" changeset="76380862" timestamp="2019-10-30T08:36:19Z" user="mklyr" uid="614924" lat="33.9866707" lon="131.1775356"/>
 <node id="7605525009" visible="true" version="1" changeset="86407373" timestamp="2020-06-09T11:59:53Z" user="mklyr" uid="614924" lat="33.9955456" lon="131.1810426"/>
 <node id="10219100045" visible="true" version="1" changeset="129390158" timestamp="2022-11-26T05:59:58Z" user="mklyr" uid="614924" lat="33.9926518" lon="131.1786333"/>
 <node id="10219100046" visible="true" version="1" changeset="129390158" timestamp="2022-11-26T05:59:58Z" user="mklyr" uid="614924" lat="33.9930560" lon="131.1787748"/>
 <node id="10219100047" visible="true" version="1" changeset="129390158" timestamp="2022-11-26T05:59:58Z" user="mklyr" uid="614924" lat="33.9931416" lon="131.1787936"/>
 <node id="10219100048" visible="true" version="1" changeset="129390158" timestamp="2022-11-26T05:59:58Z" user="mklyr" uid="614924" lat="33.9934363" lon="131.1789143"/>
 <node id="10219100049" visible="true" version="1" changeset="129390158" timestamp="2022-11-26T05:59:58Z" user="mklyr" uid="614924" lat="33.9948106" lon="131.1799711"/>
 <node id="10219100051" visible="true" version="1" changeset="129390158" timestamp="2022-11-26T05:59:58Z" user="mklyr" uid="614924" lat="33.9944381" lon="131.1761905"/>
 <node id="10219100052" visible="true" version="1" changeset="129390158" timestamp="2022-11-26T05:59:58Z" user="mklyr" uid="614924" lat="33.9941874" lon="131.1746114"/>
 <node id="10219100053" visible="true" version="1" changeset="129390158" timestamp="2022-11-26T05:59:58Z" user="mklyr" uid="614924" lat="33.9940823" lon="131.1745141"/>
 <node id="12181133885" visible="true" version="1" changeset="156708803" timestamp="2024-09-16T23:32:18Z" user="taketaketake" uid="4757277" lat="33.9904371" lon="131.1773057"/>
 <node id="12181133886" visible="true" version="1" changeset="156708803" timestamp="2024-09-16T23:32:18Z" user="taketaketake" uid="4757277" lat="33.9901848" lon="131.1772343"/>
 <way id="120612171" visible="true" version="3" changeset="56817749" timestamp="2018-03-02T11:49:57Z" user="mklyr" uid="614924">
  <nd ref="1351962849"/>
  <nd ref="1351962839"/>
  <nd ref="3270016114"/>
  <nd ref="3270016113"/>
  <nd ref="1351962824"/>
  <nd ref="1351962820"/>
  <nd ref="1351962814"/>
  <nd ref="3270016112"/>
  <nd ref="1351962789"/>
  <nd ref="3270016111"/>
  <nd ref="3270016110"/>
  <nd ref="1351962782"/>
  <nd ref="1351962752"/>
  <nd ref="1351962734"/>
  <nd ref="1351962716"/>
  <nd ref="5448079607"/>
  <nd ref="5448079606"/>
  <nd ref="5448079605"/>
  <nd ref="1351962706"/>
  <nd ref="1351962702"/>
  <nd ref="1351962695"/>
  <nd ref="1351962689"/>
  <tag k="highway" v="unclassified"/>
  <tag k="source" v="YahooJapan/ALPSMAP"/>
 </way>
 <way id="120613230" visible="true" version="1" changeset="8653379" timestamp="2011-07-07T00:41:27Z" user="yamasan" uid="32308">
  <nd ref="1351962854"/>
  <nd ref="1351962849"/>
  <tag k="highway" v="unclassified"/>
  <tag k="source" v="YahooJapan/ALPSMAP"/>
  <tag k="yh:STRUCTURE" v="地上"/>
  <tag k="yh:TOTYUMONO" v="供用中"/>
  <tag k="yh:TYPE" v="その他一般道"/>
  <tag k="yh:WIDTH" v="3.0m〜5.5m"/>
  <tag k="yh:WIDTH_RANK" v="3"/>
 </way>
 <way id="120613935" visible="true" version="2" changeset="13138869" timestamp="2012-09-17T06:06:26Z" user="mklyr" uid="614924">
  <nd ref="1351962842"/>
  <nd ref="1351962794"/>
  <tag k="highway" v="service"/>
  <tag k="source" v="YahooJapan/ALPSMAP"/>
  <tag k="yh:STRUCTURE" v="地上"/>
  <tag k="yh:TOTYUMONO" v="供用中"/>
  <tag k="yh:TYPE" v="構内道路"/>
  <tag k="yh:WIDTH" v="3.0m〜5.5m"/>
  <tag k="yh:WIDTH_RANK" v="3"/>
 </way>
 <way id="120613942" visible="true" version="3" changeset="86407373" timestamp="2020-06-09T11:59:53Z" user="mklyr" uid="614924">
  <nd ref="1351962872"/>
  <nd ref="1351962860"/>
  <nd ref="2109124505"/>
  <nd ref="7605525009"/>
  <nd ref="1351962849"/>
  <tag k="highway" v="unclassified"/>
  <tag k="source" v="YahooJapan/ALPSMAP"/>
 </way>
 <way id="120615195" visible="true" version="1" changeset="8653379" timestamp="2011-07-07T00:49:50Z" user="yamasan" uid="32308">
  <nd ref="1351962689"/>
  <nd ref="1351962703"/>
  <nd ref="1351962710"/>
  <nd ref="1351962719"/>
  <nd ref="1351962726"/>
  <nd ref="1351962738"/>
  <tag k="highway" v="unclassified"/>
  <tag k="source" v="YahooJapan/ALPSMAP"/>
  <tag k="yh:STRUCTURE" v="地上"/>
  <tag k="yh:TOTYUMONO" v="供用中"/>
  <tag k="yh:TYPE" v="その他一般道"/>
  <tag k="yh:WIDTH" v="3.0m〜5.5m"/>
  <tag k="yh:WIDTH_RANK" v="3"/>
 </way>
 <way id="343115052" visible="true" version="6" changeset="171484087" timestamp="2025-09-05T08:02:13Z" user="taketaketake" uid="4757277">
  <nd ref="1351961898"/>
  <nd ref="6092342832"/>
  <nd ref="1695778891"/>
  <nd ref="1351962065"/>
  <nd ref="2019462503"/>
  <nd ref="1351962161"/>
  <nd ref="12181133886"/>
  <nd ref="1351962367"/>
  <nd ref="12181133885"/>
  <nd ref="5448079600"/>
  <nd ref="1351962489"/>
  <nd ref="1351962523"/>
  <nd ref="1351962544"/>
  <nd ref="1351962559"/>
  <nd ref="1351962577"/>
  <nd ref="1351962588"/>
  <nd ref="1351962615"/>
  <nd ref="2244510692"/>
  <nd ref="1351962632"/>
  <nd ref="2244510695"/>
  <nd ref="2244510697"/>
  <nd ref="1351962738"/>
  <nd ref="1351962775"/>
  <nd ref="1351962799"/>
  <nd ref="1351962830"/>
  <nd ref="1909636349"/>
  <nd ref="1351962854"/>
  <nd ref="1351962867"/>
  <nd ref="2109124506"/>
  <nd ref="2109124508"/>
  <nd ref="1351962870"/>
  <nd ref="1351962912"/>
  <tag k="highway" v="secondary"/>
  <tag k="lanes" v="2"/>
  <tag k="name" v="小野田港線"/>
  <tag k="name:en" v="Onoda Port Line"/>
  <tag k="name:ja" v="小野田港線"/>
  <tag k="name:ja-Hira" v="おのだこうせん"/>
  <tag k="name:ja_rm" v="Onodakō-sen"/>
  <tag k="old_name" v="国道190号"/>
  <tag k="old_name:en" v="National Highway Route 190"/>
  <tag k="old_name:ja" v="国道190号"/>
  <tag k="old_ref" v="190"/>
  <tag k="ref" v="223"/>
  <tag k="source" v="YahooJapan/ALPSMAP"/>
  <tag k="surface" v="asphalt"/>
  <tag k="wikidata" v="Q11467209"/>
  <tag k="wikipedia" v="ja:山口県道223号小野田港線"/>
 </way>
 <way id="565771336" visible="true" version="1" changeset="56817749" timestamp="2018-03-02T11:49:44Z" user="mklyr" uid="614924">
  <nd ref="1351962689"/>
  <nd ref="5448079599"/>
  <nd ref="5448079598"/>
  <nd ref="5448079597"/>
  <nd ref="5448079596"/>
  <nd ref="5448079595"/>
  <nd ref="5448079594"/>
  <nd ref="5448079593"/>
  <nd ref="5448079592"/>
  <nd ref="5448079591"/>
  <nd ref="5448079590"/>
  <tag k="highway" v="residential"/>
  <tag k="source" v="GSImaps/ort"/>
 </way>
 <way id="565771344" visible="true" version="1" changeset="56817749" timestamp="2018-03-02T11:49:44Z" user="mklyr" uid="614924">
  <nd ref="1351962703"/>
  <nd ref="1351962716"/>
  <tag k="highway" v="residential"/>
  <tag k="source" v="GSImaps/ort"/>
 </way>
 <way id="565771345" visible="true" version="1" changeset="56817749" timestamp="2018-03-02T11:49:44Z" user="mklyr" uid="614924">
  <nd ref="1351962689"/>
  <nd ref="1351962685"/>
  <nd ref="1351962671"/>
  <nd ref="1351962662"/>
  <nd ref="5448079604"/>
  <nd ref="1351962642"/>
  <nd ref="1351962629"/>
  <nd ref="1351962623"/>
  <nd ref="1351962608"/>
  <nd ref="1351962587"/>
  <nd ref="5448079603"/>
  <nd ref="1351962572"/>
  <tag k="highway" v="residential"/>
  <tag k="source" v="YahooJapan/ALPSMAP"/>
 </way>
 <way id="565771368" visible="true" version="2" changeset="129390158" timestamp="2022-11-26T05:59:58Z" user="mklyr" uid="614924">
  <nd ref="5448079691"/>
  <nd ref="5448079690"/>
  <nd ref="5448079689"/>
  <nd ref="5448079688"/>
  <nd ref="5448079687"/>
  <nd ref="5448079686"/>
  <nd ref="5448079685"/>
  <nd ref="5448079684"/>
  <nd ref="5448079683"/>
  <nd ref="5448079682"/>
  <nd ref="5448079681"/>
  <nd ref="5448079680"/>
  <nd ref="5448079679"/>
  <nd ref="5448079678"/>
  <nd ref="5448079677"/>
  <nd ref="5448079676"/>
  <nd ref="5448079675"/>
  <nd ref="5448079674"/>
  <nd ref="5448079673"/>
  <nd ref="5448079672"/>
  <nd ref="5448079671"/>
  <nd ref="10219100045"/>
  <nd ref="5448079670"/>
  <nd ref="5448079669"/>
  <nd ref="10219100046"/>
  <nd ref="10219100047"/>
  <nd ref="5448079668"/>
  <nd ref="10219100048"/>
  <nd ref="5448079667"/>
  <nd ref="5448079666"/>
  <nd ref="10219100049"/>
  <nd ref="5448079665"/>
  <nd ref="5448079664"/>
  <nd ref="5448079663"/>
  <nd ref="10219100051"/>
  <nd ref="5448079662"/>
  <nd ref="10219100052"/>
  <nd ref="10219100053"/>
  <nd ref="5448079661"/>
  <nd ref="5448079660"/>
  <nd ref="5448079659"/>
  <nd ref="5448079658"/>
  <nd ref="5448079691"/>
  <tag k="landuse" v="industrial"/>
  <tag k="name" v="日産化学工業 小野田工場"/>
 </way>
 <relation id="4868521" visible="true" version="51" changeset="187783332" timestamp="2026-08-21T09:04:30Z" user="taketaketake" uid="4757277">
  <member type="node" ref="3172062644" role="platform"/>
  <member type="node" ref="2306332771" role="platform"/>
  <member type="node" ref="2306332769" role="platform"/>
  <member type="node" ref="3508302366" role="platform"/>
  <member type="node" ref="2749535899" role="platform"/>
  <member type="node" ref="3508302369" role="platform"/>
  <member type="node" ref="3508302355" role="platform"/>
  <member type="node" ref="3498205799" role="platform"/>
  <member type="node" ref="10727249905" role="platform"/>
  <member type="node" ref="10727233382" role="platform"/>
  <member type="node" ref="10727241860" role="platform"/>
  <member type="node" ref="3794663233" role="platform"/>
  <member type="node" ref="10727154640" role="platform"/>
  <member type="node" ref="3498205798" role="platform"/>
  <member type="node" ref="3500214594" role="platform"/>
  <member type="node" ref="10727172195" role="platform"/>
  <member type="node" ref="10727166743" role="platform"/>
  <member type="node" ref="3500214608" role="platform"/>
  <member type="node" ref="3800518285" role="platform"/>
  <member type="node" ref="3670988284" role="platform"/>
  <member type="node" ref="3506568533" role="platform"/>
  <member type="node" ref="2582068069" role="platform"/>
  <member type="node" ref="3498205794" role="platform"/>
  <member type="node" ref="5591247922" role="platform"/>
  <member type="node" ref="3172055451" role="platform"/>
  <member type="node" ref="5149249996" role="platform"/>
  <member type="node" ref="5149249993" role="platform"/>
  <member type="node" ref="5149249991" role="platform"/>
  <member type="node" ref="5149249989" role="platform"/>
  <member type="node" ref="5149249987" role="platform"/>
  <member type="node" ref="5149249986" role="platform"/>
  <member type="node" ref="5132602533" role="platform"/>
  <member type="node" ref="5132602531" role="platform"/>
  <member type="node" ref="5132602529" role="platform"/>
  <member type="node" ref="5129858291" role="platform"/>
  <member type="node" ref="5129858289" role="platform"/>
  <member type="node" ref="5129858287" role="platform"/>
  <member type="node" ref="5129858286" role="platform"/>
  <member type="node" ref="5129858284" role="platform"/>
  <member type="node" ref="5129858282" role="platform"/>
  <member type="node" ref="5129858279" role="platform"/>
  <member type="node" ref="5127900956" role="platform"/>
  <member type="node" ref="5127900955" role="platform"/>
  <member type="node" ref="3500214606" role="stop"/>
  <member type="node" ref="5127585179" role="platform"/>
  <member type="node" ref="5127585178" role="platform"/>
  <member type="node" ref="5127585175" role="platform"/>
  <member type="node" ref="5127585170" role="platform"/>
  <member type="node" ref="5127585172" role="platform"/>
  <member type="way" ref="344021094" role=""/>
  <member type="way" ref="311532614" role=""/>
  <member type="way" ref="1257751242" role=""/>
  <member type="way" ref="274255500" role=""/>
  <member type="way" ref="290790592" role=""/>
  <member type="way" ref="1257807952" role=""/>
  <member type="way" ref="290790589" role=""/>
  <member type="way" ref="363572410" role=""/>
  <member type="way" ref="342866410" role=""/>
  <member type="way" ref="363572428" role=""/>
  <member type="way" ref="344073192" role=""/>
  <member type="way" ref="344073176" role=""/>
  <member type="way" ref="711559897" role=""/>
  <member type="way" ref="376649552" role=""/>
  <member type="way" ref="750646141" role=""/>
  <member type="way" ref="750646139" role=""/>
  <member type="way" ref="376097730" role=""/>
  <member type="way" ref="376649555" role=""/>
  <member type="way" ref="376649550" role=""/>
  <member type="way" ref="290790597" role=""/>
  <member type="way" ref="290790590" role=""/>
  <member type="way" ref="1257265583" role=""/>
  <member type="way" ref="290790594" role=""/>
  <member type="way" ref="1257265582" role=""/>
  <member type="way" ref="290790598" role=""/>
  <member type="way" ref="596094211" role=""/>
  <member type="way" ref="290790583" role=""/>
  <member type="way" ref="290790596" role=""/>
  <member type="way" ref="290790582" role=""/>
  <member type="way" ref="376649546" role=""/>
  <member type="way" ref="93326661" role=""/>
  <member type="way" ref="709859892" role=""/>
  <member type="way" ref="709859891" role=""/>
  <member type="way" ref="1230244429" role=""/>
  <member type="way" ref="263621400" role=""/>
  <member type="way" ref="1420648841" role=""/>
  <member type="way" ref="263621394" role=""/>
  <member type="way" ref="263621399" role=""/>
  <member type="way" ref="263621392" role=""/>
  <member type="way" ref="120781137" role=""/>
  <member type="way" ref="252089405" role=""/>
  <member type="way" ref="120781137" role=""/>
  <member type="way" ref="262056508" role=""/>
  <member type="way" ref="262056506" role=""/>
  <member type="way" ref="262056504" role=""/>
  <member type="way" ref="262056507" role=""/>
  <member type="way" ref="93326649" role=""/>
  <member type="way" ref="120781079" role=""/>
  <member type="way" ref="262056483" role=""/>
  <member type="way" ref="262056482" role=""/>
  <member type="way" ref="376649541" role=""/>
  <member type="way" ref="262056481" role=""/>
  <member type="way" ref="93326647" role=""/>
  <member type="way" ref="93326651" role=""/>
  <member type="way" ref="120781621" role=""/>
  <member type="way" ref="1169221281" role=""/>
  <member type="way" ref="1169221280" role=""/>
  <member type="way" ref="120781119" role=""/>
  <member type="way" ref="1442053727" role=""/>
  <member type="way" ref="120611375" role=""/>
  <member type="way" ref="120611387" role=""/>
  <member type="way" ref="120611357" role=""/>
  <member type="way" ref="120611364" role=""/>
  <member type="way" ref="120611373" role=""/>
  <member type="way" ref="120611263" role=""/>
  <member type="way" ref="120611281" role=""/>
  <member type="way" ref="120611257" role=""/>
  <member type="way" ref="120611262" role=""/>
  <member type="way" ref="120615357" role=""/>
  <member type="way" ref="235485662" role=""/>
  <member type="way" ref="120612821" role=""/>
  <member type="way" ref="120611620" role=""/>
  <member type="way" ref="225935891" role=""/>
  <member type="way" ref="218059974" role=""/>
  <member type="way" ref="343115089" role=""/>
  <member type="way" ref="343115087" role=""/>
  <member type="way" ref="120611620" role=""/>
  <member type="way" ref="120611683" role=""/>
  <member type="way" ref="120611651" role=""/>
  <member type="way" ref="120611649" role=""/>
  <member type="way" ref="120611647" role=""/>
  <member type="way" ref="120613352" role=""/>
  <member type="way" ref="120612540" role=""/>
  <member type="way" ref="120613559" role=""/>
  <member type="way" ref="677207873" role=""/>
  <member type="way" ref="677207872" role=""/>
  <member type="way" ref="551380085" role=""/>
  <member type="way" ref="343115098" role=""/>
  <member type="way" ref="551380085" role=""/>
  <member type="way" ref="677207872" role=""/>
  <member type="way" ref="677207873" role=""/>
  <member type="way" ref="120613559" role=""/>
  <member type="way" ref="120612540" role=""/>
  <member type="way" ref="120613352" role=""/>
  <member type="way" ref="120611643" role=""/>
  <member type="way" ref="343115052" role=""/>
  <member type="way" ref="120614934" role=""/>
  <member type="way" ref="120614235" role=""/>
  <member type="way" ref="120613808" role=""/>
  <member type="way" ref="740920373" role=""/>
  <member type="way" ref="180831766" role=""/>
  <member type="way" ref="1169221277" role=""/>
  <tag k="from" v="下関駅"/>
  <tag k="name" v="国道線 20 下関駅 =&gt;　おのだサンパーク"/>
  <tag k="network" v="サンデン交通"/>
  <tag k="network:en" v="Sanden Kotsu"/>
  <tag k="network:ja" v="サンデン交通"/>
  <tag k="network:wikidata" v="Q11305725"/>
  <tag k="operator" v="サンデン交通"/>
  <tag k="public_transport:version" v="2"/>
  <tag k="ref" v="20"/>
  <tag k="route" v="bus"/>
  <tag k="to" v="おのだサンパーク"/>
  <tag k="type" v="route"/>
 </relation>
 <relation id="5611493" visible="true" version="39" changeset="187783332" timestamp="2026-08-21T09:04:30Z" user="taketaketake" uid="4757277">
  <member type="node" ref="5127585172" role="platform"/>
  <member type="node" ref="5127585169" role="platform"/>
  <member type="node" ref="5127585176" role="platform"/>
  <member type="node" ref="5127585177" role="platform"/>
  <member type="node" ref="5127585179" role="platform"/>
  <member type="node" ref="3500214606" role="stop"/>
  <member type="node" ref="6924153222" role="platform"/>
  <member type="node" ref="5127900954" role="platform"/>
  <member type="node" ref="3500214601" role="platform"/>
  <member type="node" ref="5129858280" role="platform"/>
  <member type="node" ref="5129858281" role="platform"/>
  <member type="node" ref="5129858283" role="platform"/>
  <member type="node" ref="5129858285" role="platform"/>
  <member type="node" ref="5129858288" role="platform"/>
  <member type="node" ref="5129858290" role="platform"/>
  <member type="node" ref="5129858292" role="platform"/>
  <member type="node" ref="5132602530" role="platform"/>
  <member type="node" ref="5132602532" role="platform"/>
  <member type="node" ref="5132602534" role="platform"/>
  <member type="node" ref="5132602535" role="platform"/>
  <member type="node" ref="5149249986" role="platform"/>
  <member type="node" ref="5149249988" role="platform"/>
  <member type="node" ref="5149249990" role="platform"/>
  <member type="node" ref="5149249992" role="platform"/>
  <member type="node" ref="5149249994" role="platform"/>
  <member type="node" ref="5149249995" role="platform"/>
  <member type="node" ref="3172060554" role="platform"/>
  <member type="node" ref="5594290160" role="platform"/>
  <member type="node" ref="3498205793" role="platform"/>
  <member type="node" ref="1353503115" role="platform"/>
  <member type="node" ref="3506568532" role="platform"/>
  <member type="node" ref="3670988285" role="platform"/>
  <member type="node" ref="3800518284" role="platform"/>
  <member type="node" ref="3500214607" role="platform"/>
  <member type="node" ref="10727180437" role="platform"/>
  <member type="node" ref="10727143386" role="platform"/>
  <member type="node" ref="3500214593" role="platform"/>
  <member type="node" ref="3498205797" role="platform"/>
  <member type="node" ref="10727150523" role="platform"/>
  <member type="node" ref="10727163180" role="platform"/>
  <member type="node" ref="10727256395" role="platform"/>
  <member type="node" ref="10727226273" role="platform"/>
  <member type="node" ref="10727249544" role="platform"/>
  <member type="node" ref="10727249543" role="platform"/>
  <member type="node" ref="2749799462" role="platform"/>
  <member type="node" ref="2749787243" role="platform"/>
  <member type="node" ref="2749727054" role="platform"/>
  <member type="node" ref="3498204588" role="platform"/>
  <member type="node" ref="2749473642" role="platform"/>
  <member type="node" ref="2306332769" role="platform"/>
  <member type="node" ref="2306332771" role="platform"/>
  <member type="node" ref="3172062644" role="platform"/>
  <member type="way" ref="740920416" role=""/>
  <member type="way" ref="120613808" role=""/>
  <member type="way" ref="120614235" role=""/>
  <member type="way" ref="120614934" role=""/>
  <member type="way" ref="343115052" role=""/>
  <member type="way" ref="120611643" role=""/>
  <member type="way" ref="120613352" role=""/>
  <member type="way" ref="120612540" role=""/>
  <member type="way" ref="120613559" role=""/>
  <member type="way" ref="677207873" role=""/>
  <member type="way" ref="677207872" role=""/>
  <member type="way" ref="551380085" role=""/>
  <member type="way" ref="343115098" role=""/>
  <member type="way" ref="551380085" role=""/>
  <member type="way" ref="677207872" role=""/>
  <member type="way" ref="677207873" role=""/>
  <member type="way" ref="120613559" role=""/>
  <member type="way" ref="120612540" role=""/>
  <member type="way" ref="120613352" role=""/>
  <member type="way" ref="120611647" role=""/>
  <member type="way" ref="120611649" role=""/>
  <member type="way" ref="120611651" role=""/>
  <member type="way" ref="120611683" role=""/>
  <member type="way" ref="120611620" role=""/>
  <member type="way" ref="343115087" role=""/>
  <member type="way" ref="343115089" role=""/>
  <member type="way" ref="218059974" role=""/>
  <member type="way" ref="225935891" role=""/>
  <member type="way" ref="120611620" role=""/>
  <member type="way" ref="120612821" role=""/>
  <member type="way" ref="235485662" role=""/>
  <member type="way" ref="120615357" role=""/>
  <member type="way" ref="120611262" role=""/>
  <member type="way" ref="120611257" role=""/>
  <member type="way" ref="120611281" role=""/>
  <member type="way" ref="120611263" role=""/>
  <member type="way" ref="120611373" role=""/>
  <member type="way" ref="120611364" role=""/>
  <member type="way" ref="120611357" role=""/>
  <member type="way" ref="120611387" role=""/>
  <member type="way" ref="120611375" role=""/>
  <member type="way" ref="120781126" role=""/>
  <member type="way" ref="1169221279" role=""/>
  <member type="way" ref="120781621" role=""/>
  <member type="way" ref="93326651" role=""/>
  <member type="way" ref="93326647" role=""/>
  <member type="way" ref="262056481" role=""/>
  <member type="way" ref="376649541" role=""/>
  <member type="way" ref="262056482" role=""/>
  <member type="way" ref="262056483" role=""/>
  <member type="way" ref="120781079" role=""/>
  <member type="way" ref="93326649" role=""/>
  <member type="way" ref="262056507" role=""/>
  <member type="way" ref="262056504" role=""/>
  <member type="way" ref="262056506" role=""/>
  <member type="way" ref="262056508" role=""/>
  <member type="way" ref="120781137" role=""/>
  <member type="way" ref="252089405" role=""/>
  <member type="way" ref="120781137" role=""/>
  <member type="way" ref="263621392" role=""/>
  <member type="way" ref="263621399" role=""/>
  <member type="way" ref="263621394" role=""/>
  <member type="way" ref="1420648841" role=""/>
  <member type="way" ref="263621400" role=""/>
  <member type="way" ref="1230244429" role=""/>
  <member type="way" ref="709859891" role=""/>
  <member type="way" ref="709859892" role=""/>
  <member type="way" ref="93326661" role=""/>
  <member type="way" ref="93326654" role=""/>
  <member type="way" ref="68860105" role=""/>
  <member type="way" ref="376649545" role=""/>
  <member type="way" ref="68860091" role=""/>
  <member type="way" ref="68860090" role=""/>
  <member type="way" ref="596094212" role=""/>
  <member type="way" ref="68860103" role=""/>
  <member type="way" ref="1257265584" role=""/>
  <member type="way" ref="290790595" role=""/>
  <member type="way" ref="68860109" role=""/>
  <member type="way" ref="68860108" role=""/>
  <member type="way" ref="376129393" role=""/>
  <member type="way" ref="376649556" role=""/>
  <member type="way" ref="376649551" role=""/>
  <member type="way" ref="750646140" role=""/>
  <member type="way" ref="376129396" role=""/>
  <member type="way" ref="376649554" role=""/>
  <member type="way" ref="711559898" role=""/>
  <member type="way" ref="342866409" role=""/>
  <member type="way" ref="290790600" role=""/>
  <member type="way" ref="1257807951" role=""/>
  <member type="way" ref="290790591" role=""/>
  <member type="way" ref="290790588" role=""/>
  <member type="way" ref="274255501" role=""/>
  <member type="way" ref="311532620" role=""/>
  <tag k="from" v="おのだサンパーク"/>
  <tag k="name" v="国道線 20 おのだサンパーク =&gt;下関駅"/>
  <tag k="network" v="サンデン交通"/>
  <tag k="network:en" v="Sanden Kotsu"/>
  <tag k="network:ja" v="サンデン交通"/>
  <tag k="network:wikidata" v="Q11305725"/>
  <tag k="operator" v="サンデン交通"/>
  <tag k="public_transport:version" v="2"/>
  <tag k="ref" v="20"/>
  <tag k="route" v="bus"/>
  <tag k="to" v="下関駅"/>
  <tag k="type" v="route"/>
 </relation>
 <relation id="15816804" visible="true" version="1" changeset="135761479" timestamp="2023-05-06T02:44:55Z" user="U20" uid="1687166">
  <member type="relation" ref="5611493" role=""/>
  <member type="relation" ref="4868521" role=""/>
  <tag k="name" v="国道線　20　下関駅 &lt;=&gt; おのだサンパーク"/>
  <tag k="network" v="サンデン交通"/>
  <tag k="network:en" v="Sanden Kotsu"/>
  <tag k="network:ja" v="サンデン交通"/>
  <tag k="network:wikidata" v="Q11305725"/>
  <tag k="operator" v="サンデン交通"/>
  <tag k="public_transport:version" v="2"/>
  <tag k="ref" v="20"/>
  <tag k="route_master" v="bus"/>
  <tag k="type" v="route_master"/>
 </relation>
 <relation id="19566936" visible="true" version="1" changeset="171484087" timestamp="2025-09-05T08:02:13Z" user="taketaketake" uid="4757277">
  <member type="way" ref="120611655" role=""/>
  <member type="way" ref="120611657" role=""/>
  <member type="way" ref="120611658" role=""/>
  <member type="way" ref="343115052" role=""/>
  <member type="way" ref="120611643" role=""/>
  <member type="way" ref="120611647" role=""/>
  <member type="way" ref="120611649" role=""/>
  <member type="way" ref="120611651" role=""/>
  <tag k="from" v="山口県山陽小野田市港町（小野田港）"/>
  <tag k="name" v="山口県道223号　小野田港線"/>
  <tag k="name:en" v="Yamaguchi Prefectural Route 223 Onoda Port Line"/>
  <tag k="name:ja" v="山口県道223号　小野田港線"/>
  <tag k="name:ja-Hira" v="やまぐちけんどう223ごう おのだこうせん"/>
  <tag k="name:ja_rm" v="Yamaguchikendō 223-gō Onodakō-sen"/>
  <tag k="network" v="JP:prefectural"/>
  <tag k="ref" v="223"/>
  <tag k="route" v="road"/>
  <tag k="to" v="山口県山陽小野田市新生1丁目"/>
  <tag k="type" v="route"/>
  <tag k="wikidata" v="Q11467209"/>
  <tag k="wikipedia" v="ja:山口県道223号小野田港線"/>
 </relation>
</osm>
