<?xml version="1.0" encoding="UTF-8"?>
<osm version="0.6" generator="openstreetmap-cgimap 2.1.0 (2942772 spike-08.openstreetmap.org)" copyright="OpenStreetMap and contributors" attribution="http://www.openstreetmap.org/copyright" license="http://opendatacommons.org/licenses/odbl/1-0/">
 <bounds minlat="34.1618550" minlon="132.2139489" maxlat="34.1642550" maxlon="132.2169489"/>
 <node id="1338102170" visible="true" version="3" changeset="133259244" timestamp="2023-03-03T15:30:50Z" user="AYAGE" uid="521665" lat="34.1627538" lon="132.2155301"/>
 <node id="1338102172" visible="true" version="2" changeset="133259244" timestamp="2023-03-03T15:30:50Z" user="AYAGE" uid="521665" lat="34.1632330" lon="132.2135150"/>
 <node id="1338102231" visible="true" version="2" changeset="133259244" timestamp="2023-03-03T15:30:50Z" user="AYAGE" uid="521665" lat="34.1631737" lon="132.2153420"/>
 <node id="1338102235" visible="true" version="2" changeset="133178979" timestamp="2023-03-01T16:24:37Z" user="AYAGE" uid="521665" lat="34.1600952" lon="132.2106455"/>
 <node id="1338102261" visible="true" version="3" changeset="133259244" timestamp="2023-03-03T15:30:50Z" user="AYAGE" uid="521665" lat="34.1642336" lon="132.2142506"/>
 <node id="1338102265" visible="true" version="3" changeset="133380517" timestamp="2023-03-06T21:34:26Z" user="AYAGE" uid="521665" lat="34.1676167" lon="132.2148844"/>
 <node id="1338102284" visible="true" version="3" changeset="133380517" timestamp="2023-03-06T21:34:26Z" user="AYAGE" uid="521665" lat="34.1651309" lon="132.2179561"/>
 <node id="1338102309" visible="true" version="3" changeset="133380517" timestamp="2023-03-06T21:34:26Z" user="AYAGE" uid="521665" lat="34.1646229" lon="132.2150656"/>
 <node id="1338102320" visible="true" version="3" changeset="133380517" timestamp="2023-03-06T21:34:26Z" user="AYAGE" uid="521665" lat="34.1677840" lon="132.2148775"/>
 <node id="1338102408" visible="true" version="4" changeset="133388276" timestamp="2023-03-07T05:29:33Z" user="AYAGE" uid="521665" lat="34.1698945" lon="132.2149224"/>
 <node id="1338102465" visible="true" version="2" changeset="133178979" timestamp="2023-03-01T16:24:37Z" user="AYAGE" uid="521665" lat="34.1618104" lon="132.2142647"/>
 <node id="1338102515" visible="true" version="2" changeset="133178979" timestamp="2023-03-01T16:24:37Z" user="AYAGE" uid="521665" lat="34.1616268" lon="132.2127651"/>
 <node id="1338102566" visible="true" version="2" changeset="133178979" timestamp="2023-03-01T16:24:37Z" user="AYAGE" uid="521665" lat="34.1609609" lon="132.2117243"/>
 <node id="1338102582" visible="true" version="2" changeset="133259244" timestamp="2023-03-03T15:30:50Z" user="AYAGE" uid="521665" lat="34.1637429" lon="132.2152920"/>
 <node id="1338102608" visible="true" version="2" changeset="133178979" timestamp="2023-03-01T16:24:37Z" user="AYAGE" uid="521665" lat="34.1599702" lon="132.2104736"/>
 <node id="1338102648" visible="true" version="3" changeset="133178979" timestamp="2023-03-01T16:24:37Z" user="AYAGE" uid="521665" lat="34.1620488" lon="132.2131145"/>
 <node id="1338102658" visible="true" version="2" changeset="133380517" timestamp="2023-03-06T21:34:26Z" user="AYAGE" uid="521665" lat="34.1634837" lon="132.2178177"/>
 <node id="1338102660" visible="true" version="3" changeset="133380517" timestamp="2023-03-06T21:34:26Z" user="AYAGE" uid="521665" lat="34.1663250" lon="132.2149684"/>
 <node id="1338102663" visible="true" version="3" changeset="133259244" timestamp="2023-03-03T15:30:50Z" user="AYAGE" uid="521665" lat="34.1633882" lon="132.2146880"/>
 <node id="1338102682" visible="true" version="6" changeset="175985176" timestamp="2025-12-16T02:19:17Z" user="市川ゆり子" uid="388809" lat="34.1598288" lon="132.2079372">
  <tag k="highway" v="traffic_signals"/>
  <tag k="name" v="山手"/>
  <tag k="name:en" v="Yamate"/>
  <tag k="name:ja" v="山手"/>
  <tag k="name:ja-Hira" v="やまて"/>
  <tag k="name:ja_rm" v="Yamate"/>
 </node>
 <node id="1338102705" visible="true" version="3" changeset="133380517" timestamp="2023-03-06T21:34:26Z" user="AYAGE" uid="521665" lat="34.1636201" lon="132.2181160"/>
 <node id="1338102713" visible="true" version="2" changeset="62407819" timestamp="2018-09-08T17:38:42Z" user="nmaruichi" uid="317331" lat="34.1651787" lon="132.2173595"/>
 <node id="1338102743" visible="true" version="2" changeset="133259244" timestamp="2023-03-03T15:30:50Z" user="AYAGE" uid="521665" lat="34.1625514" lon="132.2150625"/>
 <node id="1338102751" visible="true" version="2" changeset="62407819" timestamp="2018-09-08T17:38:42Z" user="nmaruichi" uid="317331" lat="34.1650004" lon="132.2171043"/>
 <node id="1338102793" visible="true" version="2" changeset="133178979" timestamp="2023-03-01T16:24:37Z" user="AYAGE" uid="521665" lat="34.1621124" lon="132.2170977"/>
 <node id="1338102811" visible="true" version="3" changeset="133380517" timestamp="2023-03-06T21:34:26Z" user="AYAGE" uid="521665" lat="34.1654905" lon="132.2150356">
  <tag k="highway" v="traffic_signals"/>
  <tag k="name" v="山手中央フード"/>
  <tag k="name:ja" v="山手中央フード"/>
 </node>
 <node id="1338102813" visible="true" version="3" changeset="133380517" timestamp="2023-03-06T21:34:26Z" user="AYAGE" uid="521665" lat="34.1685737" lon="132.2148384"/>
 <node id="1338102817" visible="true" version="2" changeset="133178979" timestamp="2023-03-01T16:24:37Z" user="AYAGE" uid="521665" lat="34.1616314" lon="132.2155429"/>
 <node id="1338102823" visible="true" version="2" changeset="133380517" timestamp="2023-03-06T21:34:26Z" user="AYAGE" uid="521665" lat="34.1641411" lon="132.2167173"/>
 <node id="1338102948" visible="true" version="3" changeset="133259244" timestamp="2023-03-03T15:30:50Z" user="AYAGE" uid="521665" lat="34.1636200" lon="132.2150994">
  <tag k="highway" v="traffic_signals"/>
  <tag k="name" v="今津3丁目"/>
  <tag k="name:en" v="Imazu 3-chome"/>
  <tag k="name:ja" v="今津3丁目"/>
  <tag k="name:ja_rm" v="Imazu 3-chome"/>
 </node>
 <node id="1338102985" visible="true" version="3" changeset="133259244" timestamp="2023-03-03T15:30:50Z" user="AYAGE" uid="521665" lat="34.1631442" lon="132.2152630"/>
 <node id="1338103002" visible="true" version="2" changeset="133178979" timestamp="2023-03-01T16:24:37Z" user="AYAGE" uid="521665" lat="34.1620773" lon="132.2169291"/>
 <node id="1338103138" visible="true" version="3" changeset="133259244" timestamp="2023-03-03T15:30:50Z" user="AYAGE" uid="521665" lat="34.1628691" lon="132.2140410"/>
 <node id="1338103142" visible="true" version="4" changeset="133411045" timestamp="2023-03-07T17:02:32Z" user="AYAGE" uid="521665" lat="34.1689450" lon="132.2148124"/>
 <node id="1338103164" visible="true" version="2" changeset="133178979" timestamp="2023-03-01T16:24:37Z" user="AYAGE" uid="521665" lat="34.1615428" lon="132.2126449"/>
 <node id="1338103172" visible="true" version="2" changeset="133259244" timestamp="2023-03-03T15:30:50Z" user="AYAGE" uid="521665" lat="34.1624916" lon="132.2157123"/>
 <node id="1338103186" visible="true" version="3" changeset="133178979" timestamp="2023-03-01T16:24:37Z" user="AYAGE" uid="521665" lat="34.1594969" lon="132.2094405"/>
 <node id="1338103206" visible="true" version="3" changeset="133178979" timestamp="2023-03-01T16:24:37Z" user="AYAGE" uid="521665" lat="34.1617781" lon="132.2129084"/>
 <node id="1338103315" visible="true" version="2" changeset="133380517" timestamp="2023-03-06T21:34:26Z" user="AYAGE" uid="521665" lat="34.1650191" lon="132.2150556"/>
 <node id="1338103335" visible="true" version="2" changeset="133349817" timestamp="2023-03-06T06:33:01Z" user="AYAGE" uid="521665" lat="34.1623776" lon="132.2169893"/>
 <node id="1338103370" visible="true" version="3" changeset="133380517" timestamp="2023-03-06T21:34:26Z" user="AYAGE" uid="521665" lat="34.1618473" lon="132.2161493"/>
 <node id="1338103398" visible="true" version="3" changeset="133178979" timestamp="2023-03-01T16:24:37Z" user="AYAGE" uid="521665" lat="34.1619399" lon="132.2130215"/>
 <node id="1338103460" visible="true" version="3" changeset="133178979" timestamp="2023-03-01T16:24:37Z" user="AYAGE" uid="521665" lat="34.1594521" lon="132.2089714"/>
 <node id="1338103487" visible="true" version="3" changeset="133380517" timestamp="2023-03-06T21:34:26Z" user="AYAGE" uid="521665" lat="34.1617150" lon="132.2162216"/>
 <node id="1338103549" visible="true" version="3" changeset="133380517" timestamp="2023-03-06T21:34:26Z" user="AYAGE" uid="521665" lat="34.1637657" lon="132.2150858"/>
 <node id="1338103580" visible="true" version="3" changeset="133178979" timestamp="2023-03-01T16:24:37Z" user="AYAGE" uid="521665" lat="34.1594765" lon="132.2088096"/>
 <node id="1338103644" visible="true" version="4" changeset="133259244" timestamp="2023-03-03T15:30:50Z" user="AYAGE" uid="521665" lat="34.1622588" lon="132.2133483"/>
 <node id="1338103704" visible="true" version="2" changeset="133380517" timestamp="2023-03-06T21:34:26Z" user="AYAGE" uid="521665" lat="34.1671234" lon="132.2149173"/>
 <node id="1338103747" visible="true" version="2" changeset="133178979" timestamp="2023-03-01T16:24:37Z" user="AYAGE" uid="521665" lat="34.1619550" lon="132.2164968"/>
 <node id="1338103772" visible="true" version="2" changeset="42976741" timestamp="2016-10-18T07:24:46Z" user="gaku" uid="19532" lat="34.1664933" lon="132.2149619"/>
 <node id="1338103800" visible="true" version="2" changeset="133178979" timestamp="2023-03-01T16:24:37Z" user="AYAGE" uid="521665" lat="34.1611917" lon="132.2120826"/>
 <node id="1338103829" visible="true" version="2" changeset="42976741" timestamp="2016-10-18T07:24:46Z" user="gaku" uid="19532" lat="34.1647390" lon="132.2139994"/>
 <node id="1338103903" visible="true" version="2" changeset="133178979" timestamp="2023-03-01T16:24:37Z" user="AYAGE" uid="521665" lat="34.1617055" lon="132.2128498"/>
 <node id="1338103940" visible="true" version="3" changeset="133178979" timestamp="2023-03-01T16:24:37Z" user="AYAGE" uid="521665" lat="34.1597095" lon="132.2082733"/>
 <node id="1338103942" visible="true" version="3" changeset="133178979" timestamp="2023-03-01T16:24:37Z" user="AYAGE" uid="521665" lat="34.1597733" lon="132.2081079"/>
 <node id="1338103960" visible="true" version="2" changeset="133380517" timestamp="2023-03-06T21:34:26Z" user="AYAGE" uid="521665" lat="34.1634164" lon="132.2157599"/>
 <node id="1338103968" visible="true" version="1" changeset="8540490" timestamp="2011-06-25T09:53:35Z" user="yamasan" uid="32308" lat="34.1645750" lon="132.2172810"/>
 <node id="1338104089" visible="true" version="3" changeset="133178979" timestamp="2023-03-01T16:24:37Z" user="AYAGE" uid="521665" lat="34.1594614" lon="132.2092963"/>
 <node id="1338104196" visible="true" version="4" changeset="133259244" timestamp="2023-03-03T15:30:50Z" user="AYAGE" uid="521665" lat="34.1621420" lon="132.2132168"/>
 <node id="1338104210" visible="true" version="3" changeset="133178979" timestamp="2023-03-01T16:24:37Z" user="AYAGE" uid="521665" lat="34.1605315" lon="132.2111367"/>
 <node id="1338104234" visible="true" version="5" changeset="133380517" timestamp="2023-03-06T21:34:26Z" user="AYAGE" uid="521665" lat="34.1712943" lon="132.2151206">
  <tag k="highway" v="traffic_signals"/>
  <tag k="name" v="室ノ木一丁目"/>
  <tag k="name:en" v="Muronoki 1-chome"/>
  <tag k="name:ja" v="室ノ木一丁目"/>
  <tag k="name:ja_rm" v="Muronoki 1-chome"/>
 </node>
 <node id="1338104241" visible="true" version="4" changeset="133411045" timestamp="2023-03-07T17:02:32Z" user="AYAGE" uid="521665" lat="34.1691824" lon="132.2148211"/>
 <node id="1338104317" visible="true" version="2" changeset="133259244" timestamp="2023-03-03T15:30:50Z" user="AYAGE" uid="521665" lat="34.1637087" lon="132.2145065"/>
 <node id="1338104364" visible="true" version="1" changeset="8540490" timestamp="2011-06-25T09:53:44Z" user="yamasan" uid="32308" lat="34.1644530" lon="132.2163140"/>
 <node id="1338104381" visible="true" version="1" changeset="8540490" timestamp="2011-06-25T09:53:44Z" user="yamasan" uid="32308" lat="34.1648040" lon="132.2168280"/>
 <node id="1338104382" visible="true" version="2" changeset="62407819" timestamp="2018-09-08T17:38:44Z" user="nmaruichi" uid="317331" lat="34.1636763" lon="132.2131358"/>
 <node id="1338104417" visible="true" version="3" changeset="133380517" timestamp="2023-03-06T21:34:26Z" user="AYAGE" uid="521665" lat="34.1706193" lon="132.2150245"/>
 <node id="1338104430" visible="true" version="2" changeset="133380517" timestamp="2023-03-06T21:34:26Z" user="AYAGE" uid="521665" lat="34.1635231" lon="132.2159141"/>
 <node id="1338104442" visible="true" version="3" changeset="133380517" timestamp="2023-03-06T21:34:26Z" user="AYAGE" uid="521665" lat="34.1638189" lon="132.2173545"/>
 <node id="1338104570" visible="true" version="2" changeset="133380517" timestamp="2023-03-06T21:34:26Z" user="AYAGE" uid="521665" lat="34.1673899" lon="132.2149020"/>
 <node id="1338104599" visible="true" version="2" changeset="133178979" timestamp="2023-03-01T16:24:37Z" user="AYAGE" uid="521665" lat="34.1622519" lon="132.2152301"/>
 <node id="1338104668" visible="true" version="3" changeset="133178979" timestamp="2023-03-01T16:24:37Z" user="AYAGE" uid="521665" lat="34.1595897" lon="132.2096805"/>
 <node id="1338104676" visible="true" version="3" changeset="133259244" timestamp="2023-03-03T15:30:50Z" user="AYAGE" uid="521665" lat="34.1608430" lon="132.2115541"/>
 <node id="1338104713" visible="true" version="2" changeset="133349817" timestamp="2023-03-06T06:33:01Z" user="AYAGE" uid="521665" lat="34.1629325" lon="132.2166586"/>
 <node id="1338104722" visible="true" version="3" changeset="133178979" timestamp="2023-03-01T16:24:37Z" user="AYAGE" uid="521665" lat="34.1597827" lon="132.2100933"/>
 <node id="1338104798" visible="true" version="2" changeset="62407819" timestamp="2018-09-08T17:38:44Z" user="nmaruichi" uid="317331" lat="34.1645569" lon="132.2140880"/>
 <node id="1338104836" visible="true" version="1" changeset="8540490" timestamp="2011-06-25T09:53:59Z" user="yamasan" uid="32308" lat="34.1643130" lon="132.2169420"/>
 <node id="1423654144" visible="true" version="2" changeset="184640105" timestamp="2026-06-26T11:14:47Z" user="gc27" uid="7130304" lat="34.1627640" lon="132.2152280">
  <tag k="amenity" v="kindergarten"/>
  <tag k="KSJ2:AdminArea" v="山口県岩国市"/>
  <tag k="KSJ2:ADS" v="今津町5-2-9"/>
  <tag k="name" v="今津幼稚園"/>
  <tag k="note" v="National-Land Numerical Information (Public Facility) 2006, MLIT Japan"/>
  <tag k="note:ja" v="国土数値情報（公共施設データ）平成19年　国土交通省"/>
  <tag k="operator:type" v="private"/>
  <tag k="source" v="KSJ2"/>
  <tag k="source_ref" v="http://nlftp.mlit.go.jp/ksj/jpgis/datalist/KsjTmplt-P02-v2_0.html"/>
 </node>
 <node id="1423654269" visible="true" version="2" changeset="184640105" timestamp="2026-06-26T11:14:47Z" user="gc27" uid="7130304" lat="34.1639030" lon="132.2142560">
  <tag k="amenity" v="hospital"/>
  <tag k="KSJ2:AdminArea" v="山口県岩国市"/>
  <tag k="KSJ2:ADS" v="今津町4-15-3"/>
  <tag k="name" v="光風会岩国中央病院"/>
  <tag k="note" v="National-Land Numerical Information (Public Facility) 2006, MLIT Japan"/>
  <tag k="note:ja" v="国土数値情報（公共施設データ）平成19年　国土交通省"/>
  <tag k="operator:type" v="private"/>
  <tag k="source" v="KSJ2"/>
  <tag k="source_ref" v="http://nlftp.mlit.go.jp/ksj/jpgis/datalist/KsjTmplt-P02-v2_0.html"/>
 </node>
 <node id="1423656068" visible="true" version="3" changeset="170134820" timestamp="2025-08-08T04:24:07Z" user="pseek" uid="21586509" lat="34.1619074" lon="132.2158876">
  <tag k="addr:block_number" v="4"/>
  <tag k="addr:city" v="岩国市"/>
  <tag k="addr:housenumber" v="10"/>
  <tag k="addr:neighbourhood" v="今津町5丁目"/>
  <tag k="addr:postcode" v="740-0017"/>
  <tag k="addr:province" v="山口県"/>
  <tag k="amenity" v="post_office"/>
  <tag k="name" v="岩国今津郵便局"/>
  <tag k="name:en" v="Iwakuni Imazu Post Office"/>
  <tag k="name:es" v="Oficina de Correos de Iwakuni Imazu"/>
  <tag k="name:ja" v="岩国今津郵便局"/>
  <tag k="name:ja-Hira" v="いわくに いまづ ゆうびんきょく"/>
  <tag k="name:pt" v="Correio de Iwakuni Imazu"/>
  <tag k="note" v="National-Land Numerical Information (Public Facility) 2006, MLIT Japan"/>
  <tag k="note:ja" v="国土数値情報（公共施設データ）平成19年　国土交通省"/>
  <tag k="opening_hours" v="Mo-Fr 09:00-17:00"/>
  <tag k="operator" v="日本郵便"/>
  <tag k="operator:en" v="Japan Post"/>
  <tag k="operator:ja" v="日本郵便"/>
  <tag k="operator:short" v="郵便局"/>
  <tag k="operator:short:en" v="JP"/>
  <tag k="operator:short:ja" v="郵便局"/>
  <tag k="operator:wikidata" v="Q11509260"/>
  <tag k="phone" v="+81-827-22-5402"/>
  <tag k="source" v="KSJ2"/>
  <tag k="source_ref" v="http://nlftp.mlit.go.jp/ksj/jpgis/datalist/KsjTmplt-P02-v2_0.html"/>
 </node>
 <node id="2508234538" visible="true" version="1" changeset="18534487" timestamp="2013-10-25T11:53:47Z" user="yoshimap" uid="1776043" lat="34.1622363" lon="132.2167337">
  <tag k="name" v="八百新酒造(株）"/>
 </node>
 <node id="2879442184" visible="true" version="2" changeset="133259244" timestamp="2023-03-03T15:30:50Z" user="AYAGE" uid="521665" lat="34.1632679" lon="132.2151956"/>
 <node id="2879443237" visible="true" version="4" changeset="175985176" timestamp="2025-12-16T02:19:17Z" user="市川ゆり子" uid="388809" lat="34.1677113" lon="132.2148812">
  <tag k="name" v="今津踏切"/>
  <tag k="name:ja" v="今津踏切"/>
  <tag k="name:ja-Hira" v="いまづふみきり"/>
  <tag k="railway" v="level_crossing"/>
 </node>
 <node id="3846767556" visible="true" version="2" changeset="133259244" timestamp="2023-03-03T15:30:50Z" user="AYAGE" uid="521665" lat="34.1626914" lon="132.2138258"/>
 <node id="4452947713" visible="true" version="2" changeset="133380517" timestamp="2023-03-06T21:34:26Z" user="AYAGE" uid="521665" lat="34.1669716" lon="132.2149261"/>
 <node id="6089778507" visible="true" version="4" changeset="133463533" timestamp="2023-03-09T05:04:42Z" user="AYAGE" uid="521665" lat="34.1697384" lon="132.2148995"/>
 <node id="10702263464" visible="true" version="1" changeset="133178979" timestamp="2023-03-01T16:24:37Z" user="AYAGE" uid="521665" lat="34.1624684" lon="132.2156659"/>
 <node id="10702263469" visible="true" version="1" changeset="133178979" timestamp="2023-03-01T16:24:37Z" user="AYAGE" uid="521665" lat="34.1606896" lon="132.2113341"/>
 <node id="10702263470" visible="true" version="1" changeset="133178979" timestamp="2023-03-01T16:24:37Z" user="AYAGE" uid="521665" lat="34.1602573" lon="132.2108299"/>
 <node id="10702263471" visible="true" version="1" changeset="133178979" timestamp="2023-03-01T16:24:37Z" user="AYAGE" uid="521665" lat="34.1604488" lon="132.2110350"/>
 <node id="10702263481" visible="true" version="1" changeset="133178979" timestamp="2023-03-01T16:24:37Z" user="AYAGE" uid="521665" lat="34.1598762" lon="132.2102907"/>
 <node id="10702263482" visible="true" version="1" changeset="133178979" timestamp="2023-03-01T16:24:37Z" user="AYAGE" uid="521665" lat="34.1594517" lon="132.2091608"/>
 <node id="10702263483" visible="true" version="1" changeset="133178979" timestamp="2023-03-01T16:24:37Z" user="AYAGE" uid="521665" lat="34.1595127" lon="132.2087015"/>
 <node id="10702263484" visible="true" version="1" changeset="133178979" timestamp="2023-03-01T16:24:37Z" user="AYAGE" uid="521665" lat="34.1596009" lon="132.2085071"/>
 <node id="10702263494" visible="true" version="2" changeset="133387231" timestamp="2023-03-07T04:29:15Z" user="AYAGE" uid="521665" lat="34.1617932" lon="132.2161829"/>
 <node id="10707008175" visible="true" version="1" changeset="133259244" timestamp="2023-03-03T15:30:50Z" user="AYAGE" uid="521665" lat="34.1641219" lon="132.2150828"/>
 <node id="10707008176" visible="true" version="1" changeset="133259244" timestamp="2023-03-03T15:30:50Z" user="AYAGE" uid="521665" lat="34.1641252" lon="132.2149967"/>
 <node id="10707008177" visible="true" version="1" changeset="133259244" timestamp="2023-03-03T15:30:50Z" user="AYAGE" uid="521665" lat="34.1641163" lon="132.2147459"/>
 <node id="10707008178" visible="true" version="1" changeset="133259244" timestamp="2023-03-03T15:30:50Z" user="AYAGE" uid="521665" lat="34.1641019" lon="132.2146453"/>
 <node id="10707008179" visible="true" version="1" changeset="133259244" timestamp="2023-03-03T15:30:50Z" user="AYAGE" uid="521665" lat="34.1640381" lon="132.2143482"/>
 <node id="10707008180" visible="true" version="1" changeset="133259244" timestamp="2023-03-03T15:30:50Z" user="AYAGE" uid="521665" lat="34.1634267" lon="132.2146513"/>
 <node id="10707008181" visible="true" version="1" changeset="133259244" timestamp="2023-03-03T15:30:50Z" user="AYAGE" uid="521665" lat="34.1634927" lon="132.2151335"/>
 <node id="10707008184" visible="true" version="1" changeset="133259244" timestamp="2023-03-03T15:30:50Z" user="AYAGE" uid="521665" lat="34.1613219" lon="132.2122911"/>
 <node id="10713644821" visible="true" version="1" changeset="133349817" timestamp="2023-03-06T06:33:01Z" user="AYAGE" uid="521665" lat="34.1624729" lon="132.2169372"/>
 <node id="10713644822" visible="true" version="1" changeset="133349817" timestamp="2023-03-06T06:33:01Z" user="AYAGE" uid="521665" lat="34.1625262" lon="132.2168742"/>
 <node id="10717760354" visible="true" version="1" changeset="133380517" timestamp="2023-03-06T21:34:26Z" user="AYAGE" uid="521665" lat="34.1711991" lon="132.2151026"/>
 <node id="10717760355" visible="true" version="3" changeset="133411045" timestamp="2023-03-07T17:02:32Z" user="AYAGE" uid="521665" lat="34.1690376" lon="132.2148089"/>
 <node id="10717760373" visible="true" version="1" changeset="133380517" timestamp="2023-03-06T21:34:26Z" user="AYAGE" uid="521665" lat="34.1654008" lon="132.2150423"/>
 <node id="10717760374" visible="true" version="1" changeset="133380517" timestamp="2023-03-06T21:34:26Z" user="AYAGE" uid="521665" lat="34.1655739" lon="132.2150215"/>
 <node id="10717760381" visible="true" version="1" changeset="133380517" timestamp="2023-03-06T21:34:26Z" user="AYAGE" uid="521665" lat="34.1618786" lon="132.2162486"/>
 <node id="10717760387" visible="true" version="1" changeset="133380517" timestamp="2023-03-06T21:34:26Z" user="AYAGE" uid="521665" lat="34.1650684" lon="132.2179230"/>
 <node id="13618914525" visible="true" version="1" changeset="179369510" timestamp="2026-03-04T21:20:04Z" user="foldedbike" uid="23754301" lat="34.1712101" lon="132.2151047">
  <tag k="highway" v="crossing"/>
 </node>
 <way id="119024834" visible="true" version="7" changeset="169940948" timestamp="2025-08-04T08:41:19Z" user="taketaketake" uid="4757277">
  <nd ref="1338102948"/>
  <nd ref="1338102663"/>
  <nd ref="1338103138"/>
  <nd ref="3846767556"/>
  <nd ref="1338103644"/>
  <nd ref="1338104196"/>
  <nd ref="1338102648"/>
  <nd ref="1338103398"/>
  <nd ref="1338103206"/>
  <nd ref="1338103903"/>
  <nd ref="1338102515"/>
  <nd ref="1338103164"/>
  <nd ref="10707008184"/>
  <nd ref="1338103800"/>
  <nd ref="1338102566"/>
  <nd ref="1338104676"/>
  <nd ref="10702263469"/>
  <nd ref="1338104210"/>
  <nd ref="10702263471"/>
  <nd ref="10702263470"/>
  <nd ref="1338102235"/>
  <nd ref="1338102608"/>
  <nd ref="10702263481"/>
  <nd ref="1338104722"/>
  <nd ref="1338104668"/>
  <nd ref="1338103186"/>
  <nd ref="1338104089"/>
  <nd ref="10702263482"/>
  <nd ref="1338103460"/>
  <nd ref="1338103580"/>
  <nd ref="10702263483"/>
  <nd ref="10702263484"/>
  <nd ref="1338103940"/>
  <nd ref="1338103942"/>
  <nd ref="1338102682"/>
  <tag k="highway" v="primary"/>
  <tag k="lanes" v="2"/>
  <tag k="name" v="岩国玖珂線"/>
  <tag k="name:en" v="Iwakuni Kuga Line"/>
  <tag k="name:ja" v="岩国玖珂線"/>
  <tag k="name:ja-Hira" v="いわくにくがせん"/>
  <tag k="name:ja_rm" v="Iwakuni Kuga-sen"/>
  <tag k="ref" v="15;113"/>
  <tag k="source" v="YahooJapan/ALPSMAP"/>
  <tag k="surface" v="asphalt"/>
  <tag k="wikidata" v="Q11467160"/>
  <tag k="wikipedia" v="ja:山口県道15号岩国玖珂線"/>
 </way>
 <way id="119024884" visible="true" version="2" changeset="133259244" timestamp="2023-03-03T15:30:50Z" user="AYAGE" uid="521665">
  <nd ref="1338103138"/>
  <nd ref="1338102172"/>
  <tag k="highway" v="unclassified"/>
  <tag k="source" v="YahooJapan/ALPSMAP"/>
 </way>
 <way id="119024945" visible="true" version="1" changeset="8540490" timestamp="2011-06-25T09:54:17Z" user="yamasan" uid="32308">
  <nd ref="1338102170"/>
  <nd ref="1338102743"/>
  <nd ref="1338104599"/>
  <tag k="highway" v="unclassified"/>
  <tag k="source" v="YahooJapan/ALPSMAP"/>
  <tag k="yh:STRUCTURE" v="地上"/>
  <tag k="yh:TOTYUMONO" v="供用中"/>
  <tag k="yh:TYPE" v="その他一般道"/>
  <tag k="yh:WIDTH" v="3.0m〜5.5m"/>
  <tag k="yh:WIDTH_RANK" v="3"/>
 </way>
 <way id="119024963" visible="true" version="1" changeset="8540490" timestamp="2011-06-25T09:54:21Z" user="yamasan" uid="32308">
  <nd ref="1338104382"/>
  <nd ref="1338102261"/>
  <tag k="highway" v="unclassified"/>
  <tag k="source" v="YahooJapan/ALPSMAP"/>
  <tag k="yh:STRUCTURE" v="地上"/>
  <tag k="yh:TOTYUMONO" v="供用中"/>
  <tag k="yh:TYPE" v="その他一般道"/>
  <tag k="yh:WIDTH" v="3.0m〜5.5m"/>
  <tag k="yh:WIDTH_RANK" v="3"/>
 </way>
 <way id="119024970" visible="true" version="1" changeset="8540490" timestamp="2011-06-25T09:54:22Z" user="yamasan" uid="32308">
  <nd ref="1338102823"/>
  <nd ref="1338104442"/>
  <tag k="highway" v="unclassified"/>
  <tag k="source" v="YahooJapan/ALPSMAP"/>
  <tag k="yh:STRUCTURE" v="地上"/>
  <tag k="yh:TOTYUMONO" v="供用中"/>
  <tag k="yh:TYPE" v="その他一般道"/>
  <tag k="yh:WIDTH" v="3.0m〜5.5m"/>
  <tag k="yh:WIDTH_RANK" v="3"/>
 </way>
 <way id="119024977" visible="true" version="2" changeset="133380517" timestamp="2023-03-06T21:34:26Z" user="AYAGE" uid="521665">
  <nd ref="1338104713"/>
  <nd ref="1338102658"/>
  <nd ref="1338102705"/>
  <tag k="highway" v="unclassified"/>
  <tag k="source" v="YahooJapan/ALPSMAP"/>
 </way>
 <way id="119025040" visible="true" version="1" changeset="8540490" timestamp="2011-06-25T09:54:36Z" user="yamasan" uid="32308">
  <nd ref="1338103172"/>
  <nd ref="1338104713"/>
  <tag k="highway" v="unclassified"/>
  <tag k="source" v="YahooJapan/ALPSMAP"/>
  <tag k="yh:STRUCTURE" v="地上"/>
  <tag k="yh:TOTYUMONO" v="供用中"/>
  <tag k="yh:TYPE" v="その他一般道"/>
  <tag k="yh:WIDTH" v="3.0m〜5.5m"/>
  <tag k="yh:WIDTH_RANK" v="3"/>
 </way>
 <way id="119025055" visible="true" version="1" changeset="8540490" timestamp="2011-06-25T09:54:40Z" user="yamasan" uid="32308">
  <nd ref="1338102823"/>
  <nd ref="1338104430"/>
  <nd ref="1338103960"/>
  <nd ref="1338102231"/>
  <nd ref="1338102985"/>
  <tag k="highway" v="unclassified"/>
  <tag k="source" v="YahooJapan/ALPSMAP"/>
  <tag k="yh:STRUCTURE" v="地上"/>
  <tag k="yh:TOTYUMONO" v="供用中"/>
  <tag k="yh:TYPE" v="その他一般道"/>
  <tag k="yh:WIDTH" v="3.0m〜5.5m"/>
  <tag k="yh:WIDTH_RANK" v="3"/>
 </way>
 <way id="119025112" visible="true" version="12" changeset="179369510" timestamp="2026-03-04T21:20:04Z" user="foldedbike" uid="23754301">
  <nd ref="1338102948"/>
  <nd ref="1338103549"/>
  <nd ref="10707008175"/>
  <nd ref="1338102309"/>
  <nd ref="1338103315"/>
  <nd ref="10717760373"/>
  <nd ref="1338102811"/>
  <nd ref="10717760374"/>
  <nd ref="1338102660"/>
  <nd ref="1338103772"/>
  <nd ref="4452947713"/>
  <nd ref="1338103704"/>
  <nd ref="1338104570"/>
  <nd ref="1338102265"/>
  <nd ref="2879443237"/>
  <nd ref="1338102320"/>
  <nd ref="1338102813"/>
  <nd ref="1338103142"/>
  <nd ref="10717760355"/>
  <nd ref="1338104241"/>
  <nd ref="6089778507"/>
  <nd ref="1338102408"/>
  <nd ref="1338104417"/>
  <nd ref="10717760354"/>
  <nd ref="13618914525"/>
  <nd ref="1338104234"/>
  <tag k="highway" v="secondary"/>
  <tag k="lanes" v="2"/>
  <tag k="name" v="南岩国停車場磯崎線"/>
  <tag k="name:en" v="Minamiiwakuni Station Isozaki Line"/>
  <tag k="name:ja" v="南岩国停車場磯崎線"/>
  <tag k="name:ja-Hira" v="みなみいわくにていしゃじょういそざきせん"/>
  <tag k="name:ja_rm" v="Minamiiwakuni Teishajō Isozaki-sen"/>
  <tag k="ref" v="113"/>
  <tag k="source" v="YahooJapan/ALPSMAP"/>
  <tag k="surface" v="asphalt"/>
  <tag k="wikidata" v="Q11467131"/>
  <tag k="wikipedia" v="ja:山口県道113号南岩国停車場磯崎線"/>
 </way>
 <way id="119025188" visible="true" version="1" changeset="8540490" timestamp="2011-06-25T09:55:05Z" user="yamasan" uid="32308">
  <nd ref="1338104599"/>
  <nd ref="1338102817"/>
  <tag k="highway" v="unclassified"/>
  <tag k="source" v="YahooJapan/ALPSMAP"/>
  <tag k="yh:STRUCTURE" v="地上"/>
  <tag k="yh:TOTYUMONO" v="供用中"/>
  <tag k="yh:TYPE" v="その他一般道"/>
  <tag k="yh:WIDTH" v="3.0m〜5.5m"/>
  <tag k="yh:WIDTH_RANK" v="3"/>
 </way>
 <way id="119025255" visible="true" version="2" changeset="133349817" timestamp="2023-03-06T06:33:01Z" user="AYAGE" uid="521665">
  <nd ref="1338104713"/>
  <nd ref="10713644822"/>
  <nd ref="10713644821"/>
  <nd ref="1338103335"/>
  <tag k="highway" v="unclassified"/>
  <tag k="source" v="YahooJapan/ALPSMAP"/>
 </way>
 <way id="119025266" visible="true" version="2" changeset="133178979" timestamp="2023-03-01T16:24:37Z" user="AYAGE" uid="521665">
  <nd ref="1338104599"/>
  <nd ref="10702263464"/>
  <nd ref="1338103172"/>
  <tag k="highway" v="unclassified"/>
  <tag k="source" v="YahooJapan/ALPSMAP"/>
 </way>
 <way id="119025267" visible="true" version="2" changeset="133259244" timestamp="2023-03-03T15:30:50Z" user="AYAGE" uid="521665">
  <nd ref="1338102261"/>
  <nd ref="10707008179"/>
  <nd ref="1338104317"/>
  <tag k="highway" v="unclassified"/>
  <tag k="source" v="YahooJapan/ALPSMAP"/>
 </way>
 <way id="119025344" visible="true" version="1" changeset="8540490" timestamp="2011-06-25T09:55:35Z" user="yamasan" uid="32308">
  <nd ref="1338102261"/>
  <nd ref="1338102309"/>
  <tag k="highway" v="unclassified"/>
  <tag k="source" v="YahooJapan/ALPSMAP"/>
  <tag k="yh:STRUCTURE" v="地上"/>
  <tag k="yh:TOTYUMONO" v="供用中"/>
  <tag k="yh:TYPE" v="その他一般道"/>
  <tag k="yh:WIDTH" v="3.0m〜5.5m"/>
  <tag k="yh:WIDTH_RANK" v="3"/>
 </way>
 <way id="119025390" visible="true" version="1" changeset="8540490" timestamp="2011-06-25T09:55:42Z" user="yamasan" uid="32308">
  <nd ref="1338103829"/>
  <nd ref="1338104798"/>
  <nd ref="1338102261"/>
  <tag k="highway" v="unclassified"/>
  <tag k="source" v="YahooJapan/ALPSMAP"/>
  <tag k="yh:STRUCTURE" v="地上"/>
  <tag k="yh:TOTYUMONO" v="供用中"/>
  <tag k="yh:TYPE" v="その他一般道"/>
  <tag k="yh:WIDTH" v="3.0m〜5.5m"/>
  <tag k="yh:WIDTH_RANK" v="3"/>
 </way>
 <way id="119025407" visible="true" version="2" changeset="133380517" timestamp="2023-03-06T21:34:26Z" user="AYAGE" uid="521665">
  <nd ref="1338102284"/>
  <nd ref="10717760387"/>
  <nd ref="1338103968"/>
  <nd ref="1338104836"/>
  <nd ref="1338102823"/>
  <tag k="highway" v="unclassified"/>
  <tag k="source" v="YahooJapan/ALPSMAP"/>
 </way>
 <way id="119025458" visible="true" version="2" changeset="133380517" timestamp="2023-03-06T21:34:26Z" user="AYAGE" uid="521665">
  <nd ref="1338103370"/>
  <nd ref="10717760381"/>
  <nd ref="1338103747"/>
  <nd ref="1338103002"/>
  <nd ref="1338102793"/>
  <tag k="highway" v="unclassified"/>
  <tag k="source" v="YahooJapan/ALPSMAP"/>
 </way>
 <way id="119025477" visible="true" version="1" changeset="8540490" timestamp="2011-06-25T09:55:59Z" user="yamasan" uid="32308">
  <nd ref="1338102465"/>
  <nd ref="1338104599"/>
  <tag k="highway" v="unclassified"/>
  <tag k="source" v="YahooJapan/ALPSMAP"/>
  <tag k="yh:STRUCTURE" v="地上"/>
  <tag k="yh:TOTYUMONO" v="供用中"/>
  <tag k="yh:TYPE" v="その他一般道"/>
  <tag k="yh:WIDTH" v="3.0m〜5.5m"/>
  <tag k="yh:WIDTH_RANK" v="3"/>
 </way>
 <way id="119025522" visible="true" version="2" changeset="133259244" timestamp="2023-03-03T15:30:50Z" user="AYAGE" uid="521665">
  <nd ref="1338102663"/>
  <nd ref="10707008180"/>
  <nd ref="1338104317"/>
  <tag k="highway" v="unclassified"/>
  <tag k="source" v="YahooJapan/ALPSMAP"/>
 </way>
 <way id="119025567" visible="true" version="2" changeset="133259244" timestamp="2023-03-03T15:30:50Z" user="AYAGE" uid="521665">
  <nd ref="1338102172"/>
  <nd ref="1338104317"/>
  <tag k="highway" v="unclassified"/>
  <tag k="source" v="YahooJapan/ALPSMAP"/>
 </way>
 <way id="119025666" visible="true" version="5" changeset="133259244" timestamp="2023-03-03T15:30:50Z" user="AYAGE" uid="521665">
  <nd ref="1338103487"/>
  <nd ref="10702263494"/>
  <nd ref="1338103370"/>
  <nd ref="1338103172"/>
  <nd ref="1338102170"/>
  <nd ref="1338102985"/>
  <nd ref="2879442184"/>
  <nd ref="10707008181"/>
  <nd ref="1338102948"/>
  <tag k="highway" v="tertiary"/>
  <tag k="source" v="YahooJapan/ALPSMAP"/>
 </way>
 <way id="308663550" visible="true" version="1" changeset="26203011" timestamp="2014-10-19T22:29:51Z" user="ひろときょうたまなかなおや" uid="2000955">
  <nd ref="1338102948"/>
  <nd ref="1338102582"/>
  <nd ref="1338104364"/>
  <nd ref="1338104381"/>
  <nd ref="1338102751"/>
  <nd ref="1338102713"/>
  <tag k="highway" v="tertiary"/>
  <tag k="name" v="岩国市道今津川線"/>
  <tag k="source" v="YahooJapan/ALPSMAP"/>
  <tag k="yh:LINE_NAME" v="岩国市道今津川線"/>
  <tag k="yh:LINE_NUM" v="-"/>
  <tag k="yh:STRUCTURE" v="地上"/>
  <tag k="yh:TOTYUMONO" v="供用中"/>
  <tag k="yh:TYPE" v="その他の一般道"/>
  <tag k="yh:WIDTH" v="5.5m〜13.0m"/>
  <tag k="yh:WIDTH_RANK" v="2"/>
 </way>
 <way id="1150989107" visible="true" version="1" changeset="133259244" timestamp="2023-03-03T15:30:50Z" user="AYAGE" uid="521665">
  <nd ref="10707008179"/>
  <nd ref="10707008178"/>
  <nd ref="10707008177"/>
  <nd ref="10707008176"/>
  <nd ref="10707008175"/>
  <tag k="highway" v="residential"/>
 </way>
 <relation id="2776123" visible="true" version="14" changeset="188702646" timestamp="2026-09-08T05:07:38Z" user="taketaketake" uid="4757277">
  <member type="way" ref="119024834" role=""/>
  <member type="way" ref="119025026" role=""/>
  <member type="way" ref="206542815" role=""/>
  <member type="way" ref="118926265" role=""/>
  <member type="way" ref="34582614" role=""/>
  <member type="way" ref="118925861" role=""/>
  <member type="way" ref="118925828" role=""/>
  <member type="way" ref="1419916424" role=""/>
  <member type="way" ref="1419916422" role="forward"/>
  <member type="way" ref="1419916423" role="forward"/>
  <member type="way" ref="118925920" role=""/>
  <member type="way" ref="118926619" role=""/>
  <member type="way" ref="118926320" role=""/>
  <member type="way" ref="118926157" role=""/>
  <member type="way" ref="119009849" role=""/>
  <member type="way" ref="119009724" role=""/>
  <member type="way" ref="85632216" role=""/>
  <member type="way" ref="85632220" role=""/>
  <member type="way" ref="1075221058" role=""/>
  <member type="way" ref="1075221057" role=""/>
  <member type="way" ref="1075221056" role=""/>
  <member type="way" ref="1075221055" role=""/>
  <member type="way" ref="85632217" role=""/>
  <member type="way" ref="1419916428" role=""/>
  <member type="way" ref="1419916427" role=""/>
  <member type="way" ref="1419916426" role=""/>
  <member type="way" ref="1419916425" role=""/>
  <member type="way" ref="119008878" role=""/>
  <member type="way" ref="119008786" role=""/>
  <member type="way" ref="85632218" role=""/>
  <member type="way" ref="85632219" role=""/>
  <tag k="colour" v="Orange"/>
  <tag k="from" v="山口県岩国市今津町3丁目"/>
  <tag k="name" v="山口県道15号　岩国玖珂線"/>
  <tag k="name:en" v="Yamaguchi Prefectural Route 15 Iwakuni Kuga Line"/>
  <tag k="name:ja" v="山口県道15号　岩国玖珂線"/>
  <tag k="name:ja-Hira" v="やまぐちけんどう15ごう いわくにくがせん"/>
  <tag k="name:ja_rm" v="Yamaguchikendō 15-gō Iwakuni Kuga-sen"/>
  <tag k="network" v="JP:prefectural"/>
  <tag k="ref" v="15"/>
  <tag k="route" v="road"/>
  <tag k="to" v="山口県岩国市玖珂町野口"/>
  <tag k="type" v="route"/>
  <tag k="wikidata" v="Q11467160"/>
  <tag k="wikipedia" v="ja:山口県道15号岩国玖珂線"/>
 </relation>
 <relation id="19481950" visible="true" version="3" changeset="188702646" timestamp="2026-09-08T05:07:38Z" user="taketaketake" uid="4757277">
  <member type="way" ref="183569582" role=""/>
  <member type="way" ref="278247645" role=""/>
  <member type="way" ref="119018596" role=""/>
  <member type="way" ref="119018193" role=""/>
  <member type="way" ref="119018734" role=""/>
  <member type="way" ref="119025588" role=""/>
  <member type="way" ref="119024946" role=""/>
  <member type="way" ref="119024834" role=""/>
  <member type="way" ref="119025112" role=""/>
  <tag k="colour" v="Yellow"/>
  <tag k="from" v="山口県岩国市南岩国町1丁目（南岩国駅前）"/>
  <tag k="name" v="山口県道113号　南岩国停車場磯崎線"/>
  <tag k="name:en" v="Yamaguchi Prefectural Route 113 Minamiiwakuni Station Isozaki Line"/>
  <tag k="name:ja" v="山口県道113号　南岩国停車場磯崎線"/>
  <tag k="name:ja-Hira" v="やまぐちけんどう113ごう みなみいわくにていしゃじょういそざきせん"/>
  <tag k="name:ja_rm" v="Yamaguchikendō 113-gō Minamiiwakuni Teishajō Isozaki-sen"/>
  <tag k="network" v="JP:prefectural"/>
  <tag k="ref" v="113"/>
  <tag k="route" v="road"/>
  <tag k="to" v="山口県岩国市室の木町1丁目"/>
  <tag k="type" v="route"/>
  <tag k="wikidata" v="Q11467131"/>
  <tag k="wikipedia" v="ja:山口県道113号南岩国停車場磯崎線"/>
 </relation>
</osm>
