<?xml version="1.0" encoding="UTF-8"?>
<osm version="0.6" generator="openstreetmap-cgimap 2.1.0 (2942779 spike-08.openstreetmap.org)" copyright="OpenStreetMap and contributors" attribution="http://www.openstreetmap.org/copyright" license="http://opendatacommons.org/licenses/odbl/1-0/">
 <bounds minlat="34.1512531" minlon="132.2139657" maxlat="34.1536531" maxlon="132.2169657"/>
 <node id="734800877" visible="true" version="4" changeset="66484393" timestamp="2019-01-20T20:12:02Z" user="zaizone" uid="1122708" lat="34.1384521" lon="132.2263964"/>
 <node id="1337993901" visible="true" version="3" changeset="132991996" timestamp="2023-02-25T04:01:54Z" user="AYAGE" uid="521665" lat="34.1511279" lon="132.2152334"/>
 <node id="1337994271" visible="true" version="3" changeset="132991996" timestamp="2023-02-25T04:01:54Z" user="AYAGE" uid="521665" lat="34.1510828" lon="132.2151872"/>
 <node id="1338102149" visible="true" version="3" changeset="133157034" timestamp="2023-03-01T06:07:53Z" user="AYAGE" uid="521665" lat="34.1514332" lon="132.2154531"/>
 <node id="1338102196" visible="true" version="4" changeset="133237331" timestamp="2023-03-03T06:23:27Z" user="AYAGE" uid="521665" lat="34.1546256" lon="132.2157590"/>
 <node id="1338102342" visible="true" version="2" changeset="133157034" timestamp="2023-03-01T06:07:53Z" user="AYAGE" uid="521665" lat="34.1537943" lon="132.2125052"/>
 <node id="1338102364" visible="true" version="2" changeset="132991996" timestamp="2023-02-25T04:01:54Z" user="AYAGE" uid="521665" lat="34.1519243" lon="132.2141674"/>
 <node id="1338102420" visible="true" version="2" changeset="133157034" timestamp="2023-03-01T06:07:53Z" user="AYAGE" uid="521665" lat="34.1535209" lon="132.2148319"/>
 <node id="1338102450" visible="true" version="2" changeset="133157034" timestamp="2023-03-01T06:07:53Z" user="AYAGE" uid="521665" lat="34.1538947" lon="132.2141231"/>
 <node id="1338102511" visible="true" version="2" changeset="133134511" timestamp="2023-02-28T15:47:27Z" user="AYAGE" uid="521665" lat="34.1524442" lon="132.2148979"/>
 <node id="1338102646" visible="true" version="2" changeset="132991996" timestamp="2023-02-25T04:01:54Z" user="AYAGE" uid="521665" lat="34.1524592" lon="132.2135064"/>
 <node id="1338102684" visible="true" version="3" changeset="133134511" timestamp="2023-02-28T15:47:27Z" user="AYAGE" uid="521665" lat="34.1527398" lon="132.2146922"/>
 <node id="1338102703" visible="true" version="2" changeset="132991996" timestamp="2023-02-25T04:01:54Z" user="AYAGE" uid="521665" lat="34.1521482" lon="132.2138731"/>
 <node id="1338102869" visible="true" version="3" changeset="133157034" timestamp="2023-03-01T06:07:53Z" user="AYAGE" uid="521665" lat="34.1531073" lon="132.2158344"/>
 <node id="1338103004" visible="true" version="3" changeset="133157034" timestamp="2023-03-01T06:07:53Z" user="AYAGE" uid="521665" lat="34.1524909" lon="132.2149259"/>
 <node id="1338103120" visible="true" version="2" changeset="132991996" timestamp="2023-02-25T04:01:54Z" user="AYAGE" uid="521665" lat="34.1523040" lon="132.2136830"/>
 <node id="1338103210" visible="true" version="3" changeset="133157034" timestamp="2023-03-01T06:07:53Z" user="AYAGE" uid="521665" lat="34.1513037" lon="132.2153924"/>
 <node id="1338103237" visible="true" version="3" changeset="133235812" timestamp="2023-03-03T04:56:43Z" user="AYAGE" uid="521665" lat="34.1531284" lon="132.2142049"/>
 <node id="1338103333" visible="true" version="2" changeset="133157034" timestamp="2023-03-01T06:07:53Z" user="AYAGE" uid="521665" lat="34.1540223" lon="132.2137226"/>
 <node id="1338103368" visible="true" version="3" changeset="133235812" timestamp="2023-03-03T04:56:43Z" user="AYAGE" uid="521665" lat="34.1539162" lon="132.2139292"/>
 <node id="1338103530" visible="true" version="2" changeset="64365634" timestamp="2018-11-11T01:59:57Z" user="iwa map" uid="7211705" lat="34.1536580" lon="132.2133928"/>
 <node id="1338103534" visible="true" version="2" changeset="132991996" timestamp="2023-02-25T04:01:54Z" user="AYAGE" uid="521665" lat="34.1511631" lon="132.2151789"/>
 <node id="1338103623" visible="true" version="3" changeset="133157034" timestamp="2023-03-01T06:07:53Z" user="AYAGE" uid="521665" lat="34.1536111" lon="132.2154561"/>
 <node id="1338103712" visible="true" version="3" changeset="133235812" timestamp="2023-03-03T04:56:43Z" user="AYAGE" uid="521665" lat="34.1539475" lon="132.2137597"/>
 <node id="1338103770" visible="true" version="2" changeset="22537912" timestamp="2014-05-25T08:08:56Z" user="nmaruichi" uid="317331" lat="34.1518676" lon="132.2154837"/>
 <node id="1338103809" visible="true" version="2" changeset="64365634" timestamp="2018-11-11T01:59:57Z" user="iwa map" uid="7211705" lat="34.1529735" lon="132.2144582"/>
 <node id="1338103883" visible="true" version="2" changeset="133157034" timestamp="2023-03-01T06:07:53Z" user="AYAGE" uid="521665" lat="34.1537419" lon="132.2145008"/>
 <node id="1338103941" visible="true" version="2" changeset="22537912" timestamp="2014-05-25T08:08:56Z" user="nmaruichi" uid="317331" lat="34.1528096" lon="132.2153817"/>
 <node id="1338103959" visible="true" version="4" changeset="133157034" timestamp="2023-03-01T06:07:53Z" user="AYAGE" uid="521665" lat="34.1534070" lon="132.2153965"/>
 <node id="1338104199" visible="true" version="2" changeset="133134511" timestamp="2023-02-28T15:47:27Z" user="AYAGE" uid="521665" lat="34.1522806" lon="132.2148710"/>
 <node id="1338104320" visible="true" version="3" changeset="133235812" timestamp="2023-03-03T04:56:43Z" user="AYAGE" uid="521665" lat="34.1539322" lon="132.2137895"/>
 <node id="1338104336" visible="true" version="2" changeset="64365634" timestamp="2018-11-11T01:59:57Z" user="iwa map" uid="7211705" lat="34.1537379" lon="132.2131205"/>
 <node id="1338104342" visible="true" version="3" changeset="133235812" timestamp="2023-03-03T04:56:43Z" user="AYAGE" uid="521665" lat="34.1537606" lon="132.2128397"/>
 <node id="1338104353" visible="true" version="3" changeset="133157034" timestamp="2023-03-01T06:07:53Z" user="AYAGE" uid="521665" lat="34.1523476" lon="132.2161964"/>
 <node id="1338104407" visible="true" version="2" changeset="133134511" timestamp="2023-02-28T15:47:27Z" user="AYAGE" uid="521665" lat="34.1520109" lon="132.2148459"/>
 <node id="1338104423" visible="true" version="3" changeset="133237331" timestamp="2023-03-03T06:23:27Z" user="AYAGE" uid="521665" lat="34.1531958" lon="132.2167363"/>
 <node id="1338104429" visible="true" version="3" changeset="133157034" timestamp="2023-03-01T06:07:53Z" user="AYAGE" uid="521665" lat="34.1543554" lon="132.2133099"/>
 <node id="1338104503" visible="true" version="3" changeset="133134511" timestamp="2023-02-28T15:47:27Z" user="AYAGE" uid="521665" lat="34.1526249" lon="132.2147906"/>
 <node id="1338104524" visible="true" version="2" changeset="133157034" timestamp="2023-03-01T06:07:53Z" user="AYAGE" uid="521665" lat="34.1538653" lon="132.2142294"/>
 <node id="1338104549" visible="true" version="3" changeset="133157034" timestamp="2023-03-01T06:07:53Z" user="AYAGE" uid="521665" lat="34.1532265" lon="132.2157198"/>
 <node id="1338104585" visible="true" version="3" changeset="133157034" timestamp="2023-03-01T06:07:53Z" user="AYAGE" uid="521665" lat="34.1528113" lon="132.2160359"/>
 <node id="1338104607" visible="true" version="3" changeset="133237331" timestamp="2023-03-03T06:23:27Z" user="AYAGE" uid="521665" lat="34.1538322" lon="132.2173691"/>
 <node id="1338104624" visible="true" version="2" changeset="133237331" timestamp="2023-03-03T06:23:27Z" user="AYAGE" uid="521665" lat="34.1529697" lon="132.2176649"/>
 <node id="1338104657" visible="true" version="3" changeset="133157034" timestamp="2023-03-01T06:07:53Z" user="AYAGE" uid="521665" lat="34.1515845" lon="132.2154901"/>
 <node id="1338104678" visible="true" version="3" changeset="133157034" timestamp="2023-03-01T06:07:53Z" user="AYAGE" uid="521665" lat="34.1531082" lon="132.2153570"/>
 <node id="1338104733" visible="true" version="2" changeset="133157034" timestamp="2023-03-01T06:07:53Z" user="AYAGE" uid="521665" lat="34.1526900" lon="132.2150832"/>
 <node id="1338104753" visible="true" version="3" changeset="133157034" timestamp="2023-03-01T06:07:53Z" user="AYAGE" uid="521665" lat="34.1538982" lon="132.2155398"/>
 <node id="1338104887" visible="true" version="2" changeset="64365634" timestamp="2018-11-11T01:59:57Z" user="iwa map" uid="7211705" lat="34.1535278" lon="132.2136113"/>
 <node id="1423656126" visible="true" version="2" changeset="39633617" timestamp="2016-05-28T23:43:49Z" user="max-kg" uid="3933181" lat="34.1516270" lon="132.2158390">
  <tag k="amenity" v="kindergarten"/>
  <tag k="name" v="岩国市立かわしも保育園"/>
  <tag k="name:en" v="Kawashimo Nursery"/>
  <tag k="note" v="National-Land Numerical Information (Public Facility) 2006, MLIT Japan"/>
  <tag k="note:ja" v="国土数値情報（公共施設データ）平成19年　国土交通省"/>
  <tag k="source" v="KSJ2"/>
  <tag k="source_ref" v="http://nlftp.mlit.go.jp/ksj/jpgis/datalist/KsjTmplt-P02-v2_0.html"/>
 </node>
 <node id="1442386330" visible="true" version="2" changeset="132727380" timestamp="2023-02-18T19:50:38Z" user="AYAGE" uid="521665" lat="34.1309166" lon="132.2223086"/>
 <node id="1806921583" visible="true" version="3" changeset="66484393" timestamp="2019-01-20T20:12:03Z" user="zaizone" uid="1122708" lat="34.1483303" lon="132.2195085"/>
 <node id="1806921603" visible="true" version="3" changeset="66484393" timestamp="2019-01-20T20:12:03Z" user="zaizone" uid="1122708" lat="34.1474248" lon="132.2203240"/>
 <node id="1806921635" visible="true" version="3" changeset="66484393" timestamp="2019-01-20T20:12:03Z" user="zaizone" uid="1122708" lat="34.1412149" lon="132.2246613"/>
 <node id="1806921683" visible="true" version="3" changeset="66484393" timestamp="2019-01-20T20:12:03Z" user="zaizone" uid="1122708" lat="34.1491275" lon="132.2181983"/>
 <node id="2068116104" visible="true" version="2" changeset="133157034" timestamp="2023-03-01T06:07:53Z" user="AYAGE" uid="521665" lat="34.1310068" lon="132.2225938"/>
 <node id="2068116105" visible="true" version="2" changeset="133157034" timestamp="2023-03-01T06:07:53Z" user="AYAGE" uid="521665" lat="34.1310340" lon="132.2227185"/>
 <node id="2068116106" visible="true" version="2" changeset="133157034" timestamp="2023-03-01T06:07:53Z" user="AYAGE" uid="521665" lat="34.1312844" lon="132.2229902"/>
 <node id="2068116107" visible="true" version="2" changeset="133157034" timestamp="2023-03-01T06:07:53Z" user="AYAGE" uid="521665" lat="34.1315747" lon="132.2231397"/>
 <node id="2068116108" visible="true" version="1" changeset="14279910" timestamp="2012-12-15T12:33:41Z" user="nmaruichi" uid="317331" lat="34.1338411" lon="132.2236166"/>
 <node id="2068116109" visible="true" version="1" changeset="14279910" timestamp="2012-12-15T12:33:41Z" user="nmaruichi" uid="317331" lat="34.1350586" lon="132.2235710"/>
 <node id="2068116110" visible="true" version="1" changeset="14279910" timestamp="2012-12-15T12:33:41Z" user="nmaruichi" uid="317331" lat="34.1363328" lon="132.2229667"/>
 <node id="2068116111" visible="true" version="1" changeset="14279910" timestamp="2012-12-15T12:33:41Z" user="nmaruichi" uid="317331" lat="34.1364838" lon="132.2231263"/>
 <node id="2068116112" visible="true" version="2" changeset="66158524" timestamp="2019-01-09T11:28:22Z" user="HicksCO" uid="9337111" lat="34.1366226" lon="132.2231826"/>
 <node id="2068116113" visible="true" version="2" changeset="66158524" timestamp="2019-01-09T11:28:22Z" user="HicksCO" uid="9337111" lat="34.1368330" lon="132.2231867"/>
 <node id="2068116114" visible="true" version="2" changeset="66158524" timestamp="2019-01-09T11:28:22Z" user="HicksCO" uid="9337111" lat="34.1377274" lon="132.2227433"/>
 <node id="2068116115" visible="true" version="2" changeset="66158524" timestamp="2019-01-09T11:28:22Z" user="HicksCO" uid="9337111" lat="34.1381383" lon="132.2225696"/>
 <node id="2068116119" visible="true" version="3" changeset="132727380" timestamp="2023-02-18T19:50:38Z" user="AYAGE" uid="521665" lat="34.1394594" lon="132.2218190"/>
 <node id="2068116120" visible="true" version="3" changeset="132727380" timestamp="2023-02-18T19:50:38Z" user="AYAGE" uid="521665" lat="34.1404222" lon="132.2212250"/>
 <node id="2068116121" visible="true" version="2" changeset="66158524" timestamp="2019-01-09T11:28:22Z" user="HicksCO" uid="9337111" lat="34.1409778" lon="132.2209035"/>
 <node id="2068116122" visible="true" version="2" changeset="66158524" timestamp="2019-01-09T11:28:22Z" user="HicksCO" uid="9337111" lat="34.1417644" lon="132.2212999"/>
 <node id="2068116123" visible="true" version="2" changeset="66158524" timestamp="2019-01-09T11:28:22Z" user="HicksCO" uid="9337111" lat="34.1421302" lon="132.2213482"/>
 <node id="2068116124" visible="true" version="3" changeset="133157034" timestamp="2023-03-01T06:07:53Z" user="AYAGE" uid="521665" lat="34.1423328" lon="132.2212892"/>
 <node id="2068116125" visible="true" version="3" changeset="133093872" timestamp="2023-02-27T16:04:10Z" user="AYAGE" uid="521665" lat="34.1473872" lon="132.2176886"/>
 <node id="2068116126" visible="true" version="3" changeset="133093872" timestamp="2023-02-27T16:04:10Z" user="AYAGE" uid="521665" lat="34.1477703" lon="132.2172909"/>
 <node id="2068116127" visible="true" version="2" changeset="66158524" timestamp="2019-01-09T11:28:22Z" user="HicksCO" uid="9337111" lat="34.1486040" lon="132.2159796"/>
 <node id="2068116128" visible="true" version="2" changeset="66158524" timestamp="2019-01-09T11:28:22Z" user="HicksCO" uid="9337111" lat="34.1496404" lon="132.2143559"/>
 <node id="2068116129" visible="true" version="2" changeset="66158524" timestamp="2019-01-09T11:28:22Z" user="HicksCO" uid="9337111" lat="34.1500160" lon="132.2137518"/>
 <node id="2068116130" visible="true" version="1" changeset="14279910" timestamp="2012-12-15T12:33:41Z" user="nmaruichi" uid="317331" lat="34.1510642" lon="132.2116033"/>
 <node id="2068116131" visible="true" version="2" changeset="66158524" timestamp="2019-01-09T11:28:22Z" user="HicksCO" uid="9337111" lat="34.1517128" lon="132.2102617"/>
 <node id="2068116132" visible="true" version="2" changeset="66158524" timestamp="2019-01-09T11:28:22Z" user="HicksCO" uid="9337111" lat="34.1520993" lon="132.2093867"/>
 <node id="2068116133" visible="true" version="2" changeset="66158524" timestamp="2019-01-09T11:28:22Z" user="HicksCO" uid="9337111" lat="34.1522535" lon="132.2089420"/>
 <node id="2068116134" visible="true" version="2" changeset="66158524" timestamp="2019-01-09T11:28:22Z" user="HicksCO" uid="9337111" lat="34.1523786" lon="132.2084134"/>
 <node id="2068116135" visible="true" version="2" changeset="66158524" timestamp="2019-01-09T11:28:22Z" user="HicksCO" uid="9337111" lat="34.1524632" lon="132.2078889"/>
 <node id="2068116136" visible="true" version="2" changeset="66158524" timestamp="2019-01-09T11:28:22Z" user="HicksCO" uid="9337111" lat="34.1524705" lon="132.2072374"/>
 <node id="2068116137" visible="true" version="2" changeset="66158524" timestamp="2019-01-09T11:28:22Z" user="HicksCO" uid="9337111" lat="34.1522869" lon="132.2067081"/>
 <node id="2068116138" visible="true" version="2" changeset="66158524" timestamp="2019-01-09T11:28:22Z" user="HicksCO" uid="9337111" lat="34.1523886" lon="132.2062915"/>
 <node id="2068116139" visible="true" version="2" changeset="66158524" timestamp="2019-01-09T11:28:22Z" user="HicksCO" uid="9337111" lat="34.1525389" lon="132.2058475"/>
 <node id="2068116140" visible="true" version="2" changeset="66158524" timestamp="2019-01-09T11:28:22Z" user="HicksCO" uid="9337111" lat="34.1536531" lon="132.2041759"/>
 <node id="2068116141" visible="true" version="2" changeset="66158524" timestamp="2019-01-09T11:28:22Z" user="HicksCO" uid="9337111" lat="34.1549686" lon="132.2023662"/>
 <node id="2068116142" visible="true" version="2" changeset="66158524" timestamp="2019-01-09T11:28:22Z" user="HicksCO" uid="9337111" lat="34.1553404" lon="132.2020664"/>
 <node id="2068116143" visible="true" version="2" changeset="66158524" timestamp="2019-01-09T11:28:22Z" user="HicksCO" uid="9337111" lat="34.1555669" lon="132.2018424"/>
 <node id="2068116144" visible="true" version="2" changeset="66158524" timestamp="2019-01-09T11:28:22Z" user="HicksCO" uid="9337111" lat="34.1558568" lon="132.2016393"/>
 <node id="2068116145" visible="true" version="2" changeset="66158524" timestamp="2019-01-09T11:28:23Z" user="HicksCO" uid="9337111" lat="34.1562555" lon="132.2013148"/>
 <node id="2068116146" visible="true" version="2" changeset="66158524" timestamp="2019-01-09T11:28:23Z" user="HicksCO" uid="9337111" lat="34.1567610" lon="132.2009280"/>
 <node id="2068116147" visible="true" version="2" changeset="66158524" timestamp="2019-01-09T11:28:23Z" user="HicksCO" uid="9337111" lat="34.1570587" lon="132.2006486"/>
 <node id="2068116148" visible="true" version="2" changeset="66158524" timestamp="2019-01-09T11:28:23Z" user="HicksCO" uid="9337111" lat="34.1573484" lon="132.2003767"/>
 <node id="2068116149" visible="true" version="2" changeset="66243786" timestamp="2019-01-12T04:31:54Z" user="HicksCO" uid="9337111" lat="34.1578151" lon="132.2000076"/>
 <node id="2068116150" visible="true" version="3" changeset="66243786" timestamp="2019-01-12T04:31:54Z" user="HicksCO" uid="9337111" lat="34.1580283" lon="132.1998363"/>
 <node id="2068116151" visible="true" version="2" changeset="133178979" timestamp="2023-03-01T16:24:37Z" user="AYAGE" uid="521665" lat="34.1583297" lon="132.2031032"/>
 <node id="2068116152" visible="true" version="3" changeset="66243786" timestamp="2019-01-12T04:31:54Z" user="HicksCO" uid="9337111" lat="34.1579473" lon="132.2027850"/>
 <node id="2068116153" visible="true" version="2" changeset="66243786" timestamp="2019-01-12T04:31:54Z" user="HicksCO" uid="9337111" lat="34.1578867" lon="132.2028232"/>
 <node id="2068116154" visible="true" version="2" changeset="66158524" timestamp="2019-01-09T11:28:23Z" user="HicksCO" uid="9337111" lat="34.1569776" lon="132.2032910"/>
 <node id="2068116155" visible="true" version="2" changeset="133178979" timestamp="2023-03-01T16:24:37Z" user="AYAGE" uid="521665" lat="34.1558777" lon="132.2039076"/>
 <node id="2068116156" visible="true" version="2" changeset="133178979" timestamp="2023-03-01T16:24:37Z" user="AYAGE" uid="521665" lat="34.1555044" lon="132.2043854"/>
 <node id="2068116157" visible="true" version="2" changeset="133178979" timestamp="2023-03-01T16:24:37Z" user="AYAGE" uid="521665" lat="34.1549778" lon="132.2050810"/>
 <node id="2068116158" visible="true" version="2" changeset="133178979" timestamp="2023-03-01T16:24:37Z" user="AYAGE" uid="521665" lat="34.1540641" lon="132.2068416"/>
 <node id="2068116159" visible="true" version="1" changeset="14279910" timestamp="2012-12-15T12:33:42Z" user="nmaruichi" uid="317331" lat="34.1537130" lon="132.2085741"/>
 <node id="2068116160" visible="true" version="2" changeset="133178979" timestamp="2023-03-01T16:24:37Z" user="AYAGE" uid="521665" lat="34.1530073" lon="132.2121376"/>
 <node id="2068116161" visible="true" version="2" changeset="133178979" timestamp="2023-03-01T16:24:37Z" user="AYAGE" uid="521665" lat="34.1527189" lon="132.2128807"/>
 <node id="2068116162" visible="true" version="2" changeset="133178979" timestamp="2023-03-01T16:24:37Z" user="AYAGE" uid="521665" lat="34.1509530" lon="132.2152707"/>
 <node id="2068116163" visible="true" version="2" changeset="133178979" timestamp="2023-03-01T16:24:37Z" user="AYAGE" uid="521665" lat="34.1497260" lon="132.2174143"/>
 <node id="2068116164" visible="true" version="2" changeset="66484393" timestamp="2019-01-20T20:12:07Z" user="zaizone" uid="1122708" lat="34.1486026" lon="132.2189608"/>
 <node id="2068116165" visible="true" version="2" changeset="66484393" timestamp="2019-01-20T20:12:07Z" user="zaizone" uid="1122708" lat="34.1479664" lon="132.2199992"/>
 <node id="2068116166" visible="true" version="2" changeset="66484393" timestamp="2019-01-20T20:12:07Z" user="zaizone" uid="1122708" lat="34.1476024" lon="132.2202493"/>
 <node id="2068116168" visible="true" version="2" changeset="66484393" timestamp="2019-01-20T20:12:07Z" user="zaizone" uid="1122708" lat="34.1469840" lon="132.2203153"/>
 <node id="2068116169" visible="true" version="2" changeset="66484393" timestamp="2019-01-20T20:12:07Z" user="zaizone" uid="1122708" lat="34.1458525" lon="132.2209820"/>
 <node id="2068116170" visible="true" version="2" changeset="66484393" timestamp="2019-01-20T20:12:07Z" user="zaizone" uid="1122708" lat="34.1456583" lon="132.2214515"/>
 <node id="2068116171" visible="true" version="2" changeset="66484393" timestamp="2019-01-20T20:12:07Z" user="zaizone" uid="1122708" lat="34.1449631" lon="132.2221679"/>
 <node id="2068116172" visible="true" version="1" changeset="14279910" timestamp="2012-12-15T12:33:42Z" user="nmaruichi" uid="317331" lat="34.1422187" lon="132.2240061"/>
 <node id="2068116173" visible="true" version="2" changeset="66484393" timestamp="2019-01-20T20:12:07Z" user="zaizone" uid="1122708" lat="34.1385973" lon="132.2263434"/>
 <node id="2068116174" visible="true" version="3" changeset="66484393" timestamp="2019-01-20T20:12:07Z" user="zaizone" uid="1122708" lat="34.1294064" lon="132.2281046"/>
 <node id="2068116175" visible="true" version="3" changeset="66484393" timestamp="2019-01-20T20:12:08Z" user="zaizone" uid="1122708" lat="34.1293920" lon="132.2280790"/>
 <node id="2068116176" visible="true" version="3" changeset="66484393" timestamp="2019-01-20T20:12:08Z" user="zaizone" uid="1122708" lat="34.1290201" lon="132.2281328"/>
 <node id="6052021702" visible="true" version="2" changeset="133157034" timestamp="2023-03-01T06:07:53Z" user="AYAGE" uid="521665" lat="34.1544893" lon="132.2157130"/>
 <node id="6052021703" visible="true" version="2" changeset="133157034" timestamp="2023-03-01T06:07:53Z" user="AYAGE" uid="521665" lat="34.1539800" lon="132.2151499"/>
 <node id="6120629265" visible="true" version="1" changeset="65228129" timestamp="2018-12-06T07:01:33Z" user="iwa map" uid="7211705" lat="34.1507935" lon="132.2172436"/>
 <node id="6194948472" visible="true" version="2" changeset="133178979" timestamp="2023-03-01T16:24:37Z" user="AYAGE" uid="521665" lat="34.1582726" lon="132.2030434"/>
 <node id="6194948473" visible="true" version="2" changeset="133178979" timestamp="2023-03-01T16:24:37Z" user="AYAGE" uid="521665" lat="34.1581628" lon="132.2028101"/>
 <node id="6194948474" visible="true" version="1" changeset="66158524" timestamp="2019-01-09T11:27:28Z" user="HicksCO" uid="9337111" lat="34.1581095" lon="132.2027805"/>
 <node id="6194948475" visible="true" version="2" changeset="66243786" timestamp="2019-01-12T04:31:55Z" user="HicksCO" uid="9337111" lat="34.1574066" lon="132.2030537"/>
 <node id="6194948476" visible="true" version="1" changeset="66158524" timestamp="2019-01-09T11:27:28Z" user="HicksCO" uid="9337111" lat="34.1577210" lon="132.1999937"/>
 <node id="6194948477" visible="true" version="1" changeset="66158524" timestamp="2019-01-09T11:27:28Z" user="HicksCO" uid="9337111" lat="34.1575879" lon="132.2000018"/>
 <node id="6194948478" visible="true" version="1" changeset="66158524" timestamp="2019-01-09T11:27:28Z" user="HicksCO" uid="9337111" lat="34.1575168" lon="132.2000340"/>
 <node id="6194948479" visible="true" version="2" changeset="66243786" timestamp="2019-01-12T04:31:55Z" user="HicksCO" uid="9337111" lat="34.1577643" lon="132.2000192"/>
 <node id="6194948480" visible="true" version="1" changeset="66158524" timestamp="2019-01-09T11:27:28Z" user="HicksCO" uid="9337111" lat="34.1575279" lon="132.2001117"/>
 <node id="6194948481" visible="true" version="1" changeset="66158524" timestamp="2019-01-09T11:27:28Z" user="HicksCO" uid="9337111" lat="34.1574258" lon="132.2002432"/>
 <node id="6194949885" visible="true" version="2" changeset="133157034" timestamp="2023-03-01T06:07:53Z" user="AYAGE" uid="521665" lat="34.1391950" lon="132.2221354"/>
 <node id="6194949886" visible="true" version="2" changeset="133157034" timestamp="2023-03-01T06:07:53Z" user="AYAGE" uid="521665" lat="34.1394075" lon="132.2218491"/>
 <node id="6223535976" visible="true" version="1" changeset="66484393" timestamp="2019-01-20T20:12:02Z" user="zaizone" uid="1122708" lat="34.1398476" lon="132.2255605"/>
 <node id="6223535977" visible="true" version="1" changeset="66484393" timestamp="2019-01-20T20:12:02Z" user="zaizone" uid="1122708" lat="34.1431975" lon="132.2232565"/>
 <node id="6223535978" visible="true" version="1" changeset="66484393" timestamp="2019-01-20T20:12:02Z" user="zaizone" uid="1122708" lat="34.1431864" lon="132.2233531"/>
 <node id="6223535979" visible="true" version="1" changeset="66484393" timestamp="2019-01-20T20:12:02Z" user="zaizone" uid="1122708" lat="34.1447381" lon="132.2222373"/>
 <node id="6223535980" visible="true" version="1" changeset="66484393" timestamp="2019-01-20T20:12:02Z" user="zaizone" uid="1122708" lat="34.1441765" lon="132.2226047"/>
 <node id="6223535981" visible="true" version="1" changeset="66484393" timestamp="2019-01-20T20:12:02Z" user="zaizone" uid="1122708" lat="34.1434617" lon="132.2230768"/>
 <node id="6223535982" visible="true" version="2" changeset="133178979" timestamp="2023-03-01T16:24:37Z" user="AYAGE" uid="521665" lat="34.1493204" lon="132.2178009"/>
 <node id="6223535983" visible="true" version="1" changeset="66484393" timestamp="2019-01-20T20:12:02Z" user="zaizone" uid="1122708" lat="34.1488492" lon="132.2186029"/>
 <node id="6223535984" visible="true" version="1" changeset="66484393" timestamp="2019-01-20T20:12:02Z" user="zaizone" uid="1122708" lat="34.1461211" lon="132.2207326"/>
 <node id="6223536085" visible="true" version="1" changeset="66484393" timestamp="2019-01-20T20:12:02Z" user="zaizone" uid="1122708" lat="34.1459279" lon="132.2208694"/>
 <node id="6223536086" visible="true" version="1" changeset="66484393" timestamp="2019-01-20T20:12:02Z" user="zaizone" uid="1122708" lat="34.1454240" lon="132.2217518"/>
 <node id="6223536119" visible="true" version="1" changeset="66484393" timestamp="2019-01-20T20:12:02Z" user="zaizone" uid="1122708" lat="34.1468514" lon="132.2203436"/>
 <node id="6223536122" visible="true" version="1" changeset="66484393" timestamp="2019-01-20T20:12:02Z" user="zaizone" uid="1122708" lat="34.1448269" lon="132.2222561"/>
 <node id="6223536125" visible="true" version="1" changeset="66484393" timestamp="2019-01-20T20:12:02Z" user="zaizone" uid="1122708" lat="34.1449246" lon="132.2222131"/>
 <node id="9128388090" visible="true" version="1" changeset="111794059" timestamp="2021-09-28T02:23:39Z" user="nyampire_import" uid="1178360" lat="34.1529690" lon="132.2169290">
  <tag k="name" v="中津町二丁目"/>
  <tag k="place" v="neighbourhood"/>
 </node>
 <node id="10676886640" visible="true" version="1" changeset="132727380" timestamp="2023-02-18T19:50:38Z" user="AYAGE" uid="521665" lat="34.1309772" lon="132.2223459"/>
 <node id="10676886641" visible="true" version="2" changeset="133157034" timestamp="2023-03-01T06:07:53Z" user="AYAGE" uid="521665" lat="34.1310127" lon="132.2224626"/>
 <node id="10692334440" visible="true" version="1" changeset="132991996" timestamp="2023-02-25T04:01:54Z" user="AYAGE" uid="521665" lat="34.1516183" lon="132.2145568"/>
 <node id="10692334441" visible="true" version="1" changeset="132991996" timestamp="2023-02-25T04:01:54Z" user="AYAGE" uid="521665" lat="34.1512553" lon="132.2150342"/>
 <node id="10697427345" visible="true" version="1" changeset="133093872" timestamp="2023-02-27T16:04:10Z" user="AYAGE" uid="521665" lat="34.1470445" lon="132.2178841"/>
 <node id="10697427346" visible="true" version="1" changeset="133093872" timestamp="2023-02-27T16:04:10Z" user="AYAGE" uid="521665" lat="34.1456482" lon="132.2189194"/>
 <node id="10697427347" visible="true" version="1" changeset="133093872" timestamp="2023-02-27T16:04:10Z" user="AYAGE" uid="521665" lat="34.1474651" lon="132.2175716"/>
 <node id="10697427348" visible="true" version="1" changeset="133093872" timestamp="2023-02-27T16:04:10Z" user="AYAGE" uid="521665" lat="34.1476117" lon="132.2174911"/>
 <node id="10697427349" visible="true" version="1" changeset="133093872" timestamp="2023-02-27T16:04:10Z" user="AYAGE" uid="521665" lat="34.1477027" lon="132.2173409"/>
 <node id="10697427350" visible="true" version="1" changeset="133093872" timestamp="2023-02-27T16:04:10Z" user="AYAGE" uid="521665" lat="34.1479857" lon="132.2168903"/>
 <node id="10697427351" visible="true" version="1" changeset="133093872" timestamp="2023-02-27T16:04:10Z" user="AYAGE" uid="521665" lat="34.1482232" lon="132.2165644"/>
 <node id="10699787884" visible="true" version="1" changeset="133134511" timestamp="2023-02-28T15:47:27Z" user="AYAGE" uid="521665" lat="34.1524950" lon="132.2148579"/>
 <node id="10699787885" visible="true" version="1" changeset="133134511" timestamp="2023-02-28T15:47:27Z" user="AYAGE" uid="521665" lat="34.1523779" lon="132.2148807"/>
 <node id="10699787886" visible="true" version="1" changeset="133134511" timestamp="2023-02-28T15:47:27Z" user="AYAGE" uid="521665" lat="34.1514712" lon="132.2148626"/>
 <node id="10699787887" visible="true" version="1" changeset="133134511" timestamp="2023-02-28T15:47:27Z" user="AYAGE" uid="521665" lat="34.1515311" lon="132.2148458"/>
 <node id="10699787888" visible="true" version="1" changeset="133134511" timestamp="2023-02-28T15:47:27Z" user="AYAGE" uid="521665" lat="34.1516288" lon="132.2148431"/>
 <node id="10699787889" visible="true" version="1" changeset="133134511" timestamp="2023-02-28T15:47:27Z" user="AYAGE" uid="521665" lat="34.1514307" lon="132.2149014"/>
 <node id="10699787890" visible="true" version="1" changeset="133134511" timestamp="2023-02-28T15:47:27Z" user="AYAGE" uid="521665" lat="34.1512387" lon="132.2151388"/>
 <node id="10701075104" visible="true" version="1" changeset="133157034" timestamp="2023-03-01T06:07:53Z" user="AYAGE" uid="521665" lat="34.1541004" lon="132.2136616"/>
 <node id="10701101505" visible="true" version="1" changeset="133157034" timestamp="2023-03-01T06:07:53Z" user="AYAGE" uid="521665" lat="34.1538102" lon="132.2143610"/>
 <node id="10701101506" visible="true" version="1" changeset="133157034" timestamp="2023-03-01T06:07:53Z" user="AYAGE" uid="521665" lat="34.1536171" lon="132.2146983"/>
 <node id="10701101507" visible="true" version="1" changeset="133157034" timestamp="2023-03-01T06:07:53Z" user="AYAGE" uid="521665" lat="34.1534278" lon="132.2149383"/>
 <node id="10701101508" visible="true" version="1" changeset="133157034" timestamp="2023-03-01T06:07:53Z" user="AYAGE" uid="521665" lat="34.1532741" lon="132.2150865"/>
 <node id="10701101509" visible="true" version="1" changeset="133157034" timestamp="2023-03-01T06:07:53Z" user="AYAGE" uid="521665" lat="34.1532258" lon="132.2151536"/>
 <node id="10701101538" visible="true" version="1" changeset="133157034" timestamp="2023-03-01T06:07:53Z" user="AYAGE" uid="521665" lat="34.1539533" lon="132.2151757"/>
 <node id="10701101539" visible="true" version="1" changeset="133157034" timestamp="2023-03-01T06:07:53Z" user="AYAGE" uid="521665" lat="34.1537364" lon="132.2153433"/>
 <node id="10701101540" visible="true" version="1" changeset="133157034" timestamp="2023-03-01T06:07:53Z" user="AYAGE" uid="521665" lat="34.1536581" lon="132.2154044"/>
 <node id="10701101541" visible="true" version="1" changeset="133157034" timestamp="2023-03-01T06:07:53Z" user="AYAGE" uid="521665" lat="34.1524029" lon="132.2161560"/>
 <node id="10701101542" visible="true" version="1" changeset="133157034" timestamp="2023-03-01T06:07:53Z" user="AYAGE" uid="521665" lat="34.1525267" lon="132.2161366"/>
 <node id="10701101543" visible="true" version="1" changeset="133157034" timestamp="2023-03-01T06:07:53Z" user="AYAGE" uid="521665" lat="34.1526465" lon="132.2160937"/>
 <node id="10701101544" visible="true" version="1" changeset="133157034" timestamp="2023-03-01T06:07:53Z" user="AYAGE" uid="521665" lat="34.1530782" lon="132.2166147"/>
 <node id="10701101545" visible="true" version="1" changeset="133157034" timestamp="2023-03-01T06:07:53Z" user="AYAGE" uid="521665" lat="34.1529706" lon="132.2164705"/>
 <node id="10701101546" visible="true" version="1" changeset="133157034" timestamp="2023-03-01T06:07:53Z" user="AYAGE" uid="521665" lat="34.1528219" lon="132.2161125"/>
 <node id="10701101547" visible="true" version="1" changeset="133157034" timestamp="2023-03-01T06:07:53Z" user="AYAGE" uid="521665" lat="34.1528396" lon="132.2161768"/>
 <node id="10701101548" visible="true" version="1" changeset="133157034" timestamp="2023-03-01T06:07:53Z" user="AYAGE" uid="521665" lat="34.1533435" lon="132.2155499"/>
 <node id="10701101549" visible="true" version="1" changeset="133157034" timestamp="2023-03-01T06:07:53Z" user="AYAGE" uid="521665" lat="34.1533890" lon="132.2154640"/>
 <node id="10701101550" visible="true" version="1" changeset="133157034" timestamp="2023-03-01T06:07:53Z" user="AYAGE" uid="521665" lat="34.1533202" lon="132.2153661"/>
 <node id="10701101551" visible="true" version="1" changeset="133157034" timestamp="2023-03-01T06:07:53Z" user="AYAGE" uid="521665" lat="34.1532308" lon="132.2153547"/>
 <node id="10701101552" visible="true" version="1" changeset="133157034" timestamp="2023-03-01T06:07:53Z" user="AYAGE" uid="521665" lat="34.1528790" lon="132.2152139"/>
 <node id="10701101553" visible="true" version="1" changeset="133157034" timestamp="2023-03-01T06:07:53Z" user="AYAGE" uid="521665" lat="34.1530899" lon="132.2153286"/>
 <node id="10701101554" visible="true" version="1" changeset="133157034" timestamp="2023-03-01T06:07:53Z" user="AYAGE" uid="521665" lat="34.1530577" lon="132.2152924"/>
 <node id="10701101556" visible="true" version="1" changeset="133157034" timestamp="2023-03-01T06:07:53Z" user="AYAGE" uid="521665" lat="34.1508569" lon="132.2169775"/>
 <node id="10701101557" visible="true" version="1" changeset="133157034" timestamp="2023-03-01T06:07:53Z" user="AYAGE" uid="521665" lat="34.1510467" lon="132.2163378"/>
 <node id="10701101558" visible="true" version="1" changeset="133157034" timestamp="2023-03-01T06:07:53Z" user="AYAGE" uid="521665" lat="34.1511643" lon="132.2160387"/>
 <node id="10701101559" visible="true" version="1" changeset="133157034" timestamp="2023-03-01T06:07:53Z" user="AYAGE" uid="521665" lat="34.1513941" lon="132.2155586"/>
 <node id="10701101560" visible="true" version="1" changeset="133157034" timestamp="2023-03-01T06:07:53Z" user="AYAGE" uid="521665" lat="34.1516238" lon="132.2148921"/>
 <node id="10701101561" visible="true" version="2" changeset="133237331" timestamp="2023-03-03T06:23:27Z" user="AYAGE" uid="521665" lat="34.1516749" lon="132.2160360"/>
 <node id="10701101562" visible="true" version="1" changeset="133157034" timestamp="2023-03-01T06:07:53Z" user="AYAGE" uid="521665" lat="34.1518691" lon="132.2155505"/>
 <node id="10701101652" visible="true" version="1" changeset="133157034" timestamp="2023-03-01T06:07:53Z" user="AYAGE" uid="521665" lat="34.1311248" lon="132.2228435"/>
 <node id="10701101659" visible="true" version="1" changeset="133157034" timestamp="2023-03-01T06:07:53Z" user="AYAGE" uid="521665" lat="34.1385456" lon="132.2224438"/>
 <node id="10701101660" visible="true" version="1" changeset="133157034" timestamp="2023-03-01T06:07:53Z" user="AYAGE" uid="521665" lat="34.1390240" lon="132.2222024"/>
 <node id="10701101661" visible="true" version="1" changeset="133157034" timestamp="2023-03-01T06:07:53Z" user="AYAGE" uid="521665" lat="34.1394869" lon="132.2220589"/>
 <node id="10701101664" visible="true" version="1" changeset="133157034" timestamp="2023-03-01T06:07:53Z" user="AYAGE" uid="521665" lat="34.1422774" lon="132.2212878"/>
 <node id="10701101665" visible="true" version="1" changeset="133157034" timestamp="2023-03-01T06:07:53Z" user="AYAGE" uid="521665" lat="34.1421941" lon="132.2213629"/>
 <node id="10701101666" visible="true" version="1" changeset="133157034" timestamp="2023-03-01T06:07:53Z" user="AYAGE" uid="521665" lat="34.1404481" lon="132.2212100"/>
 <node id="10702278700" visible="true" version="1" changeset="133178979" timestamp="2023-03-01T16:24:37Z" user="AYAGE" uid="521665" lat="34.1582204" lon="132.2030260"/>
 <node id="10702278710" visible="true" version="1" changeset="133178979" timestamp="2023-03-01T16:24:37Z" user="AYAGE" uid="521665" lat="34.1557479" lon="132.2039969"/>
 <node id="10702278711" visible="true" version="1" changeset="133178979" timestamp="2023-03-01T16:24:37Z" user="AYAGE" uid="521665" lat="34.1556624" lon="132.2041002"/>
 <node id="10702278712" visible="true" version="1" changeset="133178979" timestamp="2023-03-01T16:24:37Z" user="AYAGE" uid="521665" lat="34.1556724" lon="132.2041498"/>
 <node id="10702278713" visible="true" version="1" changeset="133178979" timestamp="2023-03-01T16:24:37Z" user="AYAGE" uid="521665" lat="34.1547235" lon="132.2055057"/>
 <node id="10702278714" visible="true" version="1" changeset="133178979" timestamp="2023-03-01T16:24:37Z" user="AYAGE" uid="521665" lat="34.1544439" lon="132.2059831"/>
 <node id="10702278715" visible="true" version="1" changeset="133178979" timestamp="2023-03-01T16:24:37Z" user="AYAGE" uid="521665" lat="34.1539456" lon="132.2075361"/>
 <node id="10702278716" visible="true" version="1" changeset="133178979" timestamp="2023-03-01T16:24:37Z" user="AYAGE" uid="521665" lat="34.1535671" lon="132.2095223"/>
 <node id="10702278717" visible="true" version="1" changeset="133178979" timestamp="2023-03-01T16:24:37Z" user="AYAGE" uid="521665" lat="34.1532497" lon="132.2109371"/>
 <node id="10702278718" visible="true" version="1" changeset="133178979" timestamp="2023-03-01T16:24:37Z" user="AYAGE" uid="521665" lat="34.1530355" lon="132.2122172"/>
 <node id="10702278719" visible="true" version="1" changeset="133178979" timestamp="2023-03-01T16:24:37Z" user="AYAGE" uid="521665" lat="34.1530871" lon="132.2122219"/>
 <node id="10702278720" visible="true" version="1" changeset="133178979" timestamp="2023-03-01T16:24:37Z" user="AYAGE" uid="521665" lat="34.1531421" lon="132.2121803"/>
 <node id="10702278721" visible="true" version="1" changeset="133178979" timestamp="2023-03-01T16:24:37Z" user="AYAGE" uid="521665" lat="34.1531687" lon="132.2122065"/>
 <node id="10702278722" visible="true" version="1" changeset="133178979" timestamp="2023-03-01T16:24:37Z" user="AYAGE" uid="521665" lat="34.1530294" lon="132.2123822"/>
 <node id="10702278723" visible="true" version="1" changeset="133178979" timestamp="2023-03-01T16:24:37Z" user="AYAGE" uid="521665" lat="34.1529756" lon="132.2123681"/>
 <node id="10702278724" visible="true" version="1" changeset="133178979" timestamp="2023-03-01T16:24:37Z" user="AYAGE" uid="521665" lat="34.1528646" lon="132.2125639"/>
 <node id="10702278725" visible="true" version="1" changeset="133178979" timestamp="2023-03-01T16:24:37Z" user="AYAGE" uid="521665" lat="34.1524884" lon="132.2131982"/>
 <node id="10702278726" visible="true" version="1" changeset="133178979" timestamp="2023-03-01T16:24:37Z" user="AYAGE" uid="521665" lat="34.1524573" lon="132.2132023"/>
 <node id="10702278727" visible="true" version="1" changeset="133178979" timestamp="2023-03-01T16:24:37Z" user="AYAGE" uid="521665" lat="34.1523829" lon="132.2133552"/>
 <node id="10702278728" visible="true" version="1" changeset="133178979" timestamp="2023-03-01T16:24:37Z" user="AYAGE" uid="521665" lat="34.1523741" lon="132.2134490"/>
 <node id="10702278729" visible="true" version="1" changeset="133178979" timestamp="2023-03-01T16:24:37Z" user="AYAGE" uid="521665" lat="34.1518092" lon="132.2141343"/>
 <node id="10702278730" visible="true" version="1" changeset="133178979" timestamp="2023-03-01T16:24:37Z" user="AYAGE" uid="521665" lat="34.1500600" lon="132.2169332"/>
 <node id="10702278731" visible="true" version="1" changeset="133178979" timestamp="2023-03-01T16:24:37Z" user="AYAGE" uid="521665" lat="34.1502876" lon="132.2165202"/>
 <node id="10702278732" visible="true" version="1" changeset="133178979" timestamp="2023-03-01T16:24:37Z" user="AYAGE" uid="521665" lat="34.1502554" lon="132.2164880"/>
 <node id="10702278733" visible="true" version="1" changeset="133178979" timestamp="2023-03-01T16:24:37Z" user="AYAGE" uid="521665" lat="34.1493081" lon="132.2178552"/>
 <node id="10702278734" visible="true" version="1" changeset="133178979" timestamp="2023-03-01T16:24:37Z" user="AYAGE" uid="521665" lat="34.1492199" lon="132.2180222"/>
 <node id="10705813314" visible="true" version="1" changeset="133235812" timestamp="2023-03-03T04:56:43Z" user="AYAGE" uid="521665" lat="34.1537486" lon="132.2130058"/>
 <node id="10705813315" visible="true" version="1" changeset="133235812" timestamp="2023-03-03T04:56:43Z" user="AYAGE" uid="521665" lat="34.1529229" lon="132.2145253"/>
 <node id="10705813317" visible="true" version="1" changeset="133235812" timestamp="2023-03-03T04:56:43Z" user="AYAGE" uid="521665" lat="34.1533043" lon="132.2139307"/>
 <node id="10705890751" visible="true" version="1" changeset="133237331" timestamp="2023-03-03T06:23:27Z" user="AYAGE" uid="521665" lat="34.1516909" lon="132.2160028"/>
 <node id="10705890752" visible="true" version="1" changeset="133237331" timestamp="2023-03-03T06:23:27Z" user="AYAGE" uid="521665" lat="34.1522331" lon="132.2162734"/>
 <node id="10705890753" visible="true" version="1" changeset="133237331" timestamp="2023-03-03T06:23:27Z" user="AYAGE" uid="521665" lat="34.1522930" lon="132.2162533"/>
 <node id="10705890754" visible="true" version="1" changeset="133237331" timestamp="2023-03-03T06:23:27Z" user="AYAGE" uid="521665" lat="34.1528812" lon="132.2174093"/>
 <node id="10705890755" visible="true" version="1" changeset="133237331" timestamp="2023-03-03T06:23:27Z" user="AYAGE" uid="521665" lat="34.1528158" lon="132.2171867"/>
 <node id="10705890759" visible="true" version="1" changeset="133237331" timestamp="2023-03-03T06:23:27Z" user="AYAGE" uid="521665" lat="34.1527869" lon="132.2170921"/>
 <node id="10705890760" visible="true" version="1" changeset="133237331" timestamp="2023-03-03T06:23:27Z" user="AYAGE" uid="521665" lat="34.1527714" lon="132.2170519"/>
 <node id="10705890761" visible="true" version="1" changeset="133237331" timestamp="2023-03-03T06:23:27Z" user="AYAGE" uid="521665" lat="34.1528918" lon="132.2167267"/>
 <node id="10705890762" visible="true" version="1" changeset="133237331" timestamp="2023-03-03T06:23:27Z" user="AYAGE" uid="521665" lat="34.1529179" lon="132.2166737"/>
 <node id="10705890763" visible="true" version="1" changeset="133237331" timestamp="2023-03-03T06:23:27Z" user="AYAGE" uid="521665" lat="34.1530263" lon="132.2165543"/>
 <node id="10705890764" visible="true" version="1" changeset="133237331" timestamp="2023-03-03T06:23:27Z" user="AYAGE" uid="521665" lat="34.1522775" lon="132.2162895"/>
 <node id="10705890765" visible="true" version="1" changeset="133237331" timestamp="2023-03-03T06:23:27Z" user="AYAGE" uid="521665" lat="34.1522342" lon="132.2162962"/>
 <node id="10705890766" visible="true" version="1" changeset="133237331" timestamp="2023-03-03T06:23:27Z" user="AYAGE" uid="521665" lat="34.1517059" lon="132.2160441"/>
 <node id="10705890767" visible="true" version="1" changeset="133237331" timestamp="2023-03-03T06:23:27Z" user="AYAGE" uid="521665" lat="34.1516948" lon="132.2160588"/>
 <node id="10705890768" visible="true" version="1" changeset="133237331" timestamp="2023-03-03T06:23:27Z" user="AYAGE" uid="521665" lat="34.1513075" lon="132.2158255"/>
 <node id="10705890769" visible="true" version="1" changeset="133237331" timestamp="2023-03-03T06:23:27Z" user="AYAGE" uid="521665" lat="34.1511976" lon="132.2160548"/>
 <node id="10705890770" visible="true" version="1" changeset="133237331" timestamp="2023-03-03T06:23:27Z" user="AYAGE" uid="521665" lat="34.1510600" lon="132.2163834"/>
 <node id="10705890771" visible="true" version="1" changeset="133237331" timestamp="2023-03-03T06:23:27Z" user="AYAGE" uid="521665" lat="34.1508380" lon="132.2171585"/>
 <node id="10705890772" visible="true" version="1" changeset="133237331" timestamp="2023-03-03T06:23:27Z" user="AYAGE" uid="521665" lat="34.1522298" lon="132.2179994"/>
 <node id="10705890773" visible="true" version="1" changeset="133237331" timestamp="2023-03-03T06:23:27Z" user="AYAGE" uid="521665" lat="34.1525816" lon="132.2171605"/>
 <node id="10705890774" visible="true" version="1" changeset="133237331" timestamp="2023-03-03T06:23:27Z" user="AYAGE" uid="521665" lat="34.1526970" lon="132.2171813"/>
 <node id="10705890775" visible="true" version="1" changeset="133237331" timestamp="2023-03-03T06:23:27Z" user="AYAGE" uid="521665" lat="34.1527658" lon="132.2171002"/>
 <node id="10705890776" visible="true" version="1" changeset="133237331" timestamp="2023-03-03T06:23:27Z" user="AYAGE" uid="521665" lat="34.1527586" lon="132.2170573"/>
 <node id="10705890777" visible="true" version="1" changeset="133237331" timestamp="2023-03-03T06:23:27Z" user="AYAGE" uid="521665" lat="34.1529040" lon="132.2166610"/>
 <node id="10705890778" visible="true" version="1" changeset="133237331" timestamp="2023-03-03T06:23:27Z" user="AYAGE" uid="521665" lat="34.1532719" lon="132.2166368"/>
 <node id="10705890779" visible="true" version="1" changeset="133237331" timestamp="2023-03-03T06:23:27Z" user="AYAGE" uid="521665" lat="34.1530344" lon="132.2169761"/>
 <node id="10705890780" visible="true" version="1" changeset="133237331" timestamp="2023-03-03T06:23:27Z" user="AYAGE" uid="521665" lat="34.1537838" lon="132.2173215"/>
 <node id="10705890781" visible="true" version="1" changeset="133237331" timestamp="2023-03-03T06:23:27Z" user="AYAGE" uid="521665" lat="34.1536304" lon="132.2175407"/>
 <node id="10705890782" visible="true" version="1" changeset="133237331" timestamp="2023-03-03T06:23:27Z" user="AYAGE" uid="521665" lat="34.1535893" lon="132.2175059"/>
 <way id="119018635" visible="true" version="2" changeset="106873098" timestamp="2021-06-24T05:42:54Z" user="taketaketake" uid="4757277">
  <nd ref="1337994271"/>
  <nd ref="1337993901"/>
  <nd ref="1338103210"/>
  <nd ref="1338102149"/>
  <nd ref="1338104657"/>
  <nd ref="1338103770"/>
  <nd ref="1338103941"/>
  <nd ref="1338104678"/>
  <tag k="highway" v="tertiary"/>
  <tag k="source" v="YahooJapan/ALPSMAP"/>
 </way>
 <way id="119024913" visible="true" version="3" changeset="133157034" timestamp="2023-03-01T06:07:53Z" user="AYAGE" uid="521665">
  <nd ref="6052021703"/>
  <nd ref="10701101538"/>
  <nd ref="10701101539"/>
  <nd ref="10701101540"/>
  <nd ref="1338103623"/>
  <tag k="highway" v="residential"/>
  <tag k="source" v="YahooJapan/ALPSMAP"/>
 </way>
 <way id="119024922" visible="true" version="2" changeset="133134511" timestamp="2023-02-28T15:47:27Z" user="AYAGE" uid="521665">
  <nd ref="1338102511"/>
  <nd ref="10699787885"/>
  <nd ref="1338104199"/>
  <nd ref="1338104407"/>
  <nd ref="10699787888"/>
  <nd ref="10699787887"/>
  <nd ref="10699787886"/>
  <nd ref="10699787889"/>
  <nd ref="10699787890"/>
  <nd ref="1338103534"/>
  <tag k="highway" v="unclassified"/>
  <tag k="source" v="YahooJapan/ALPSMAP"/>
 </way>
 <way id="119025041" visible="true" version="2" changeset="132991996" timestamp="2023-02-25T04:01:54Z" user="AYAGE" uid="521665">
  <nd ref="1338103534"/>
  <nd ref="10692334441"/>
  <nd ref="10692334440"/>
  <nd ref="1338102364"/>
  <nd ref="1338102703"/>
  <nd ref="1338103120"/>
  <nd ref="1338102646"/>
  <tag k="highway" v="unclassified"/>
  <tag k="source" v="YahooJapan/ALPSMAP"/>
 </way>
 <way id="119025155" visible="true" version="3" changeset="133237331" timestamp="2023-03-03T06:23:27Z" user="AYAGE" uid="521665">
  <nd ref="1338104585"/>
  <nd ref="10701101546"/>
  <nd ref="10701101547"/>
  <nd ref="10701101545"/>
  <nd ref="10705890763"/>
  <nd ref="10701101544"/>
  <nd ref="1338104423"/>
  <tag k="highway" v="path"/>
  <tag k="source" v="YahooJapan/ALPSMAP"/>
 </way>
 <way id="119025187" visible="true" version="3" changeset="106873098" timestamp="2021-06-24T05:42:54Z" user="taketaketake" uid="4757277">
  <nd ref="1338103959"/>
  <nd ref="1338103623"/>
  <tag k="highway" v="tertiary"/>
  <tag k="source" v="YahooJapan/ALPSMAP"/>
 </way>
 <way id="119025218" visible="true" version="4" changeset="106873098" timestamp="2021-06-24T05:42:54Z" user="taketaketake" uid="4757277">
  <nd ref="1338103623"/>
  <nd ref="1338104753"/>
  <nd ref="6052021702"/>
  <nd ref="1338102196"/>
  <tag k="highway" v="tertiary"/>
  <tag k="source" v="YahooJapan/ALPSMAP"/>
 </way>
 <way id="119025247" visible="true" version="2" changeset="133237331" timestamp="2023-03-03T06:23:27Z" user="AYAGE" uid="521665">
  <nd ref="1338104423"/>
  <nd ref="10705890780"/>
  <nd ref="1338104607"/>
  <tag k="highway" v="unclassified"/>
  <tag k="source" v="YahooJapan/ALPSMAP"/>
 </way>
 <way id="119025307" visible="true" version="3" changeset="133235812" timestamp="2023-03-03T04:56:43Z" user="AYAGE" uid="521665">
  <nd ref="1338102342"/>
  <nd ref="1338104342"/>
  <nd ref="10705813314"/>
  <nd ref="1338104336"/>
  <nd ref="1338103530"/>
  <nd ref="1338104887"/>
  <nd ref="10705813317"/>
  <nd ref="1338103237"/>
  <nd ref="1338103809"/>
  <nd ref="10705813315"/>
  <nd ref="1338102684"/>
  <nd ref="1338104503"/>
  <nd ref="10699787884"/>
  <nd ref="1338102511"/>
  <tag k="highway" v="residential"/>
 </way>
 <way id="119025379" visible="true" version="4" changeset="133157034" timestamp="2023-03-01T06:07:53Z" user="AYAGE" uid="521665">
  <nd ref="1338104678"/>
  <nd ref="10701101551"/>
  <nd ref="10701101550"/>
  <nd ref="1338103959"/>
  <tag k="highway" v="tertiary"/>
  <tag k="source" v="YahooJapan/ALPSMAP"/>
 </way>
 <way id="119025485" visible="true" version="2" changeset="133157034" timestamp="2023-03-01T06:07:53Z" user="AYAGE" uid="521665">
  <nd ref="1338103959"/>
  <nd ref="10701101549"/>
  <nd ref="10701101548"/>
  <nd ref="1338104549"/>
  <nd ref="1338102869"/>
  <nd ref="1338104585"/>
  <tag k="highway" v="path"/>
  <tag k="source" v="YahooJapan/ALPSMAP"/>
 </way>
 <way id="119025525" visible="true" version="2" changeset="133157034" timestamp="2023-03-01T06:07:53Z" user="AYAGE" uid="521665">
  <nd ref="1338104678"/>
  <nd ref="10701101553"/>
  <nd ref="10701101554"/>
  <nd ref="10701101552"/>
  <nd ref="1338104733"/>
  <nd ref="1338103004"/>
  <nd ref="1338102511"/>
  <tag k="highway" v="unclassified"/>
  <tag k="source" v="YahooJapan/ALPSMAP"/>
 </way>
 <way id="119025596" visible="true" version="3" changeset="133237331" timestamp="2023-03-03T06:23:27Z" user="AYAGE" uid="521665">
  <nd ref="1338104585"/>
  <nd ref="10701101543"/>
  <nd ref="10701101542"/>
  <nd ref="10701101541"/>
  <nd ref="1338104353"/>
  <nd ref="10705890753"/>
  <nd ref="10705890752"/>
  <nd ref="10705890751"/>
  <tag k="highway" v="path"/>
  <tag k="source" v="YahooJapan/ALPSMAP"/>
 </way>
 <way id="119025663" visible="true" version="2" changeset="133157034" timestamp="2023-03-01T06:07:53Z" user="AYAGE" uid="521665">
  <nd ref="1338104678"/>
  <nd ref="10701101509"/>
  <nd ref="10701101508"/>
  <nd ref="10701101507"/>
  <nd ref="1338102420"/>
  <nd ref="10701101506"/>
  <nd ref="1338103883"/>
  <nd ref="10701101505"/>
  <nd ref="1338104524"/>
  <nd ref="1338102450"/>
  <nd ref="1338103368"/>
  <nd ref="1338104320"/>
  <nd ref="1338103712"/>
  <nd ref="1338103333"/>
  <nd ref="10701075104"/>
  <nd ref="1338104429"/>
  <tag k="highway" v="residential"/>
  <tag k="source" v="YahooJapan/ALPSMAP"/>
 </way>
 <way id="196483094" visible="true" version="8" changeset="133178979" timestamp="2023-03-01T16:24:37Z" user="AYAGE" uid="521665">
  <nd ref="1442386330"/>
  <nd ref="10676886640"/>
  <nd ref="10676886641"/>
  <nd ref="2068116104"/>
  <nd ref="2068116105"/>
  <nd ref="10701101652"/>
  <nd ref="2068116106"/>
  <nd ref="2068116107"/>
  <nd ref="2068116108"/>
  <nd ref="2068116109"/>
  <nd ref="2068116110"/>
  <nd ref="2068116111"/>
  <nd ref="2068116112"/>
  <nd ref="2068116113"/>
  <nd ref="2068116114"/>
  <nd ref="2068116115"/>
  <nd ref="10701101659"/>
  <nd ref="10701101660"/>
  <nd ref="6194949885"/>
  <nd ref="10701101661"/>
  <nd ref="6194949886"/>
  <nd ref="2068116119"/>
  <nd ref="2068116120"/>
  <nd ref="10701101666"/>
  <nd ref="2068116121"/>
  <nd ref="2068116122"/>
  <nd ref="2068116123"/>
  <nd ref="10701101665"/>
  <nd ref="10701101664"/>
  <nd ref="2068116124"/>
  <nd ref="10697427346"/>
  <nd ref="10697427345"/>
  <nd ref="2068116125"/>
  <nd ref="10697427347"/>
  <nd ref="10697427348"/>
  <nd ref="10697427349"/>
  <nd ref="2068116126"/>
  <nd ref="10697427350"/>
  <nd ref="10697427351"/>
  <nd ref="2068116127"/>
  <nd ref="2068116128"/>
  <nd ref="2068116129"/>
  <nd ref="2068116130"/>
  <nd ref="2068116131"/>
  <nd ref="2068116132"/>
  <nd ref="2068116133"/>
  <nd ref="2068116134"/>
  <nd ref="2068116135"/>
  <nd ref="2068116136"/>
  <nd ref="2068116137"/>
  <nd ref="2068116138"/>
  <nd ref="2068116139"/>
  <nd ref="2068116140"/>
  <nd ref="2068116141"/>
  <nd ref="2068116142"/>
  <nd ref="2068116143"/>
  <nd ref="2068116144"/>
  <nd ref="2068116145"/>
  <nd ref="2068116146"/>
  <nd ref="2068116147"/>
  <nd ref="2068116148"/>
  <nd ref="6194948481"/>
  <nd ref="6194948480"/>
  <nd ref="6194948478"/>
  <nd ref="6194948477"/>
  <nd ref="6194948476"/>
  <nd ref="6194948479"/>
  <nd ref="2068116149"/>
  <nd ref="2068116150"/>
  <nd ref="2068116151"/>
  <nd ref="6194948472"/>
  <nd ref="10702278700"/>
  <nd ref="6194948473"/>
  <nd ref="6194948474"/>
  <nd ref="2068116152"/>
  <nd ref="2068116153"/>
  <nd ref="6194948475"/>
  <nd ref="2068116154"/>
  <nd ref="2068116155"/>
  <nd ref="10702278710"/>
  <nd ref="10702278711"/>
  <nd ref="10702278712"/>
  <nd ref="2068116156"/>
  <nd ref="2068116157"/>
  <nd ref="10702278713"/>
  <nd ref="10702278714"/>
  <nd ref="2068116158"/>
  <nd ref="10702278715"/>
  <nd ref="2068116159"/>
  <nd ref="10702278716"/>
  <nd ref="10702278717"/>
  <nd ref="2068116160"/>
  <nd ref="10702278718"/>
  <nd ref="10702278719"/>
  <nd ref="10702278720"/>
  <nd ref="10702278721"/>
  <nd ref="10702278722"/>
  <nd ref="10702278723"/>
  <nd ref="10702278724"/>
  <nd ref="2068116161"/>
  <nd ref="10702278725"/>
  <nd ref="10702278726"/>
  <nd ref="10702278727"/>
  <nd ref="10702278728"/>
  <nd ref="10702278729"/>
  <nd ref="2068116162"/>
  <nd ref="10702278732"/>
  <nd ref="10702278731"/>
  <nd ref="10702278730"/>
  <nd ref="2068116163"/>
  <nd ref="6223535982"/>
  <nd ref="10702278733"/>
  <nd ref="10702278734"/>
  <nd ref="1806921683"/>
  <nd ref="6223535983"/>
  <nd ref="2068116164"/>
  <nd ref="1806921583"/>
  <nd ref="2068116165"/>
  <nd ref="2068116166"/>
  <nd ref="1806921603"/>
  <nd ref="2068116168"/>
  <nd ref="6223536119"/>
  <nd ref="6223535984"/>
  <nd ref="6223536085"/>
  <nd ref="2068116169"/>
  <nd ref="2068116170"/>
  <nd ref="6223536086"/>
  <nd ref="2068116171"/>
  <nd ref="6223536125"/>
  <nd ref="6223536122"/>
  <nd ref="6223535979"/>
  <nd ref="6223535980"/>
  <nd ref="6223535981"/>
  <nd ref="6223535977"/>
  <nd ref="6223535978"/>
  <nd ref="2068116172"/>
  <nd ref="1806921635"/>
  <nd ref="6223535976"/>
  <nd ref="2068116173"/>
  <nd ref="734800877"/>
  <nd ref="2068116174"/>
  <nd ref="2068116175"/>
  <nd ref="2068116176"/>
  <nd ref="1442386330"/>
  <tag k="natural" v="water"/>
  <tag k="source" v="Bing,2005-06"/>
  <tag k="water" v="river"/>
 </way>
 <way id="1150347775" visible="true" version="1" changeset="133157034" timestamp="2023-03-01T06:07:53Z" user="AYAGE" uid="521665">
  <nd ref="10699787888"/>
  <nd ref="10701101560"/>
  <nd ref="1338102149"/>
  <nd ref="10701101559"/>
  <nd ref="10701101558"/>
  <nd ref="10701101557"/>
  <nd ref="10701101556"/>
  <nd ref="6120629265"/>
  <tag k="highway" v="residential"/>
 </way>
 <way id="1150347776" visible="true" version="2" changeset="133237331" timestamp="2023-03-03T06:23:27Z" user="AYAGE" uid="521665">
  <nd ref="1338103770"/>
  <nd ref="10701101562"/>
  <nd ref="10705890751"/>
  <nd ref="10701101561"/>
  <tag k="highway" v="residential"/>
 </way>
 <way id="1150872476" visible="true" version="1" changeset="133237331" timestamp="2023-03-03T06:23:27Z" user="AYAGE" uid="521665">
  <nd ref="10705890763"/>
  <nd ref="10705890762"/>
  <nd ref="10705890761"/>
  <nd ref="10705890760"/>
  <nd ref="10705890759"/>
  <nd ref="10705890755"/>
  <nd ref="10705890754"/>
  <nd ref="1338104624"/>
  <tag k="highway" v="path"/>
 </way>
 <way id="1150872477" visible="true" version="1" changeset="133237331" timestamp="2023-03-03T06:23:27Z" user="AYAGE" uid="521665">
  <nd ref="10705890777"/>
  <nd ref="10705890776"/>
  <nd ref="10705890775"/>
  <nd ref="10705890774"/>
  <nd ref="10705890773"/>
  <nd ref="10705890772"/>
  <nd ref="10705890771"/>
  <nd ref="10705890770"/>
  <nd ref="10705890769"/>
  <nd ref="10705890768"/>
  <nd ref="10705890767"/>
  <nd ref="10705890766"/>
  <nd ref="10705890765"/>
  <nd ref="10705890764"/>
  <nd ref="10705890777"/>
  <tag k="amenity" v="school"/>
  <tag k="name" v="市立川下中学校"/>
  <tag k="name:en" v="Kawashimo Junior High School"/>
  <tag k="note" v="National-Land Numerical Information (Public Facility) 2006, MLIT Japan"/>
  <tag k="note:ja" v="国土数値情報（公共施設データ）平成19年　国土交通省"/>
  <tag k="source" v="KSJ2"/>
  <tag k="source_ref" v="http://nlftp.mlit.go.jp/ksj/jpgis/datalist/KsjTmplt-P02-v2_0.html"/>
  <tag k="wikidata" v="Q96431420"/>
 </way>
 <way id="1150872479" visible="true" version="1" changeset="133237331" timestamp="2023-03-03T06:23:27Z" user="AYAGE" uid="521665">
  <nd ref="10705890778"/>
  <nd ref="1338104423"/>
  <nd ref="10705890779"/>
  <nd ref="10705890782"/>
  <nd ref="10705890781"/>
  <nd ref="10705890780"/>
  <tag k="highway" v="residential"/>
 </way>
</osm>
