<?xml version="1.0" encoding="UTF-8"?>
<osm version="0.6" generator="openstreetmap-cgimap 2.1.0 (2942769 spike-08.openstreetmap.org)" copyright="OpenStreetMap and contributors" attribution="http://www.openstreetmap.org/copyright" license="http://opendatacommons.org/licenses/odbl/1-0/">
 <bounds minlat="34.0763557" minlon="132.0804257" maxlat="34.0787557" maxlon="132.0834257"/>
 <node id="360191472" visible="true" version="4" changeset="120595879" timestamp="2022-05-05T15:59:27Z" user="AYAGE" uid="521665" lat="34.0719764" lon="132.0828192"/>
 <node id="360191473" visible="true" version="4" changeset="120653415" timestamp="2022-05-07T04:32:07Z" user="AYAGE" uid="521665" lat="34.0728054" lon="132.0826884"/>
 <node id="366493107" visible="true" version="4" changeset="120518025" timestamp="2022-05-03T22:17:46Z" user="AYAGE" uid="521665" lat="34.0791158" lon="132.0817286">
  <tag k="highway" v="traffic_signals"/>
 </node>
 <node id="1336445845" visible="true" version="3" changeset="120653415" timestamp="2022-05-07T04:32:07Z" user="AYAGE" uid="521665" lat="34.0790979" lon="132.0801229"/>
 <node id="1336520438" visible="true" version="2" changeset="120595879" timestamp="2022-05-05T15:59:27Z" user="AYAGE" uid="521665" lat="34.0778666" lon="132.0858133"/>
 <node id="1336521024" visible="true" version="2" changeset="120595879" timestamp="2022-05-05T15:59:27Z" user="AYAGE" uid="521665" lat="34.0771924" lon="132.0857428"/>
 <node id="1336521485" visible="true" version="2" changeset="120595879" timestamp="2022-05-05T15:59:27Z" user="AYAGE" uid="521665" lat="34.0771464" lon="132.0855272"/>
 <node id="1336521953" visible="true" version="2" changeset="120595879" timestamp="2022-05-05T15:59:27Z" user="AYAGE" uid="521665" lat="34.0772227" lon="132.0835907"/>
 <node id="1336522317" visible="true" version="2" changeset="120595879" timestamp="2022-05-05T15:59:27Z" user="AYAGE" uid="521665" lat="34.0781772" lon="132.0831996"/>
 <node id="1336522778" visible="true" version="2" changeset="120595879" timestamp="2022-05-05T15:59:27Z" user="AYAGE" uid="521665" lat="34.0781636" lon="132.0834942"/>
 <node id="1336523227" visible="true" version="2" changeset="120595879" timestamp="2022-05-05T15:59:27Z" user="AYAGE" uid="521665" lat="34.0780772" lon="132.0852413"/>
 <node id="1336523931" visible="true" version="2" changeset="120595879" timestamp="2022-05-05T15:59:27Z" user="AYAGE" uid="521665" lat="34.0779315" lon="132.0856332"/>
 <node id="1336524374" visible="true" version="2" changeset="120595879" timestamp="2022-05-05T15:59:27Z" user="AYAGE" uid="521665" lat="34.0776878" lon="132.0865335"/>
 <node id="1336524882" visible="true" version="2" changeset="120595879" timestamp="2022-05-05T15:59:27Z" user="AYAGE" uid="521665" lat="34.0771576" lon="132.0831423"/>
 <node id="1336527388" visible="true" version="2" changeset="120595879" timestamp="2022-05-05T15:59:27Z" user="AYAGE" uid="521665" lat="34.0751091" lon="132.0823601"/>
 <node id="1336527401" visible="true" version="2" changeset="120595879" timestamp="2022-05-05T15:59:27Z" user="AYAGE" uid="521665" lat="34.0780589" lon="132.0820969"/>
 <node id="1336528012" visible="true" version="2" changeset="120595879" timestamp="2022-05-05T15:59:27Z" user="AYAGE" uid="521665" lat="34.0780563" lon="132.0853651"/>
 <node id="1336529242" visible="true" version="2" changeset="120595879" timestamp="2022-05-05T15:59:27Z" user="AYAGE" uid="521665" lat="34.0776854" lon="132.0865706"/>
 <node id="1336530052" visible="true" version="2" changeset="120595879" timestamp="2022-05-05T15:59:27Z" user="AYAGE" uid="521665" lat="34.0771959" lon="132.0844437"/>
 <node id="1336530908" visible="true" version="2" changeset="120595879" timestamp="2022-05-05T15:59:27Z" user="AYAGE" uid="521665" lat="34.0772148" lon="132.0840020"/>
 <node id="1336531444" visible="true" version="2" changeset="120595879" timestamp="2022-05-05T15:59:27Z" user="AYAGE" uid="521665" lat="34.0781457" lon="132.0825938"/>
 <node id="1336532209" visible="true" version="2" changeset="120595879" timestamp="2022-05-05T15:59:27Z" user="AYAGE" uid="521665" lat="34.0781111" lon="132.0848560"/>
 <node id="1336536886" visible="true" version="2" changeset="120595879" timestamp="2022-05-05T15:59:27Z" user="AYAGE" uid="521665" lat="34.0780983" lon="132.0849734"/>
 <node id="1336537902" visible="true" version="2" changeset="120595879" timestamp="2022-05-05T15:59:27Z" user="AYAGE" uid="521665" lat="34.0777918" lon="132.0859795"/>
 <node id="1336538726" visible="true" version="2" changeset="120595879" timestamp="2022-05-05T15:59:27Z" user="AYAGE" uid="521665" lat="34.0777607" lon="132.0860912"/>
 <node id="1336539450" visible="true" version="2" changeset="120595879" timestamp="2022-05-05T15:59:27Z" user="AYAGE" uid="521665" lat="34.0771420" lon="132.0853279"/>
 <node id="1336540655" visible="true" version="2" changeset="120595879" timestamp="2022-05-05T15:59:27Z" user="AYAGE" uid="521665" lat="34.0780432" lon="132.0819191"/>
 <node id="1336541620" visible="true" version="2" changeset="120595879" timestamp="2022-05-05T15:59:27Z" user="AYAGE" uid="521665" lat="34.0781082" lon="132.0839682"/>
 <node id="1336544301" visible="true" version="2" changeset="120595879" timestamp="2022-05-05T15:59:27Z" user="AYAGE" uid="521665" lat="34.0779046" lon="132.0857100"/>
 <node id="1336545565" visible="true" version="1" changeset="8529683" timestamp="2011-06-24T07:49:29Z" user="yamasan" uid="32308" lat="34.0771530" lon="132.0850440"/>
 <node id="1336548203" visible="true" version="2" changeset="120595879" timestamp="2022-05-05T15:59:27Z" user="AYAGE" uid="521665" lat="34.0722132" lon="132.0827703"/>
 <node id="1336548225" visible="true" version="2" changeset="120595879" timestamp="2022-05-05T15:59:27Z" user="AYAGE" uid="521665" lat="34.0771546" lon="132.0827326"/>
 <node id="1336548942" visible="true" version="2" changeset="120595879" timestamp="2022-05-05T15:59:27Z" user="AYAGE" uid="521665" lat="34.0699016" lon="132.0834527"/>
 <node id="1336549231" visible="true" version="2" changeset="120595879" timestamp="2022-05-05T15:59:27Z" user="AYAGE" uid="521665" lat="34.0771420" lon="132.0820624"/>
 <node id="1336549849" visible="true" version="2" changeset="120595879" timestamp="2022-05-05T15:59:27Z" user="AYAGE" uid="521665" lat="34.0781073" lon="132.0845394"/>
 <node id="1336550627" visible="true" version="2" changeset="120595879" timestamp="2022-05-05T15:59:27Z" user="AYAGE" uid="521665" lat="34.0780301" lon="132.0854390"/>
 <node id="2428745965" visible="true" version="1" changeset="17464112" timestamp="2013-08-23T02:26:11Z" user="yamasan" uid="32308" lat="34.0783231" lon="132.0828156"/>
 <node id="2428745966" visible="true" version="1" changeset="17464112" timestamp="2013-08-23T02:26:11Z" user="yamasan" uid="32308" lat="34.0783447" lon="132.0832464"/>
 <node id="2428745967" visible="true" version="1" changeset="17464112" timestamp="2013-08-23T02:26:11Z" user="yamasan" uid="32308" lat="34.0784815" lon="132.0828040"/>
 <node id="2428745968" visible="true" version="1" changeset="17464112" timestamp="2013-08-23T02:26:11Z" user="yamasan" uid="32308" lat="34.0784837" lon="132.0828482"/>
 <node id="2428745970" visible="true" version="1" changeset="17464112" timestamp="2013-08-23T02:26:11Z" user="yamasan" uid="32308" lat="34.0785381" lon="132.0823109"/>
 <node id="2428745971" visible="true" version="1" changeset="17464112" timestamp="2013-08-23T02:26:11Z" user="yamasan" uid="32308" lat="34.0785493" lon="132.0824364"/>
 <node id="2428745972" visible="true" version="1" changeset="17464112" timestamp="2013-08-23T02:26:11Z" user="yamasan" uid="32308" lat="34.0786343" lon="132.0828372"/>
 <node id="2428745973" visible="true" version="1" changeset="17464112" timestamp="2013-08-23T02:26:11Z" user="yamasan" uid="32308" lat="34.0786537" lon="132.0832238"/>
 <node id="2428745974" visible="true" version="1" changeset="17464112" timestamp="2013-08-23T02:26:11Z" user="yamasan" uid="32308" lat="34.0786649" lon="132.0822944"/>
 <node id="2428745975" visible="true" version="1" changeset="17464112" timestamp="2013-08-23T02:26:11Z" user="yamasan" uid="32308" lat="34.0786761" lon="132.0824199"/>
 <node id="9718488875" visible="true" version="1" changeset="120595879" timestamp="2022-05-05T15:59:27Z" user="AYAGE" uid="521665" lat="34.0709723" lon="132.0831259"/>
 <node id="9718488879" visible="true" version="1" changeset="120595879" timestamp="2022-05-05T15:59:27Z" user="AYAGE" uid="521665" lat="34.0771598" lon="132.0856458"/>
 <node id="9718488880" visible="true" version="1" changeset="120595879" timestamp="2022-05-05T15:59:27Z" user="AYAGE" uid="521665" lat="34.0772136" lon="132.0834967"/>
 <node id="9718488881" visible="true" version="1" changeset="120595879" timestamp="2022-05-05T15:59:27Z" user="AYAGE" uid="521665" lat="34.0771709" lon="132.0832781"/>
 <node id="9718488882" visible="true" version="1" changeset="120595879" timestamp="2022-05-05T15:59:27Z" user="AYAGE" uid="521665" lat="34.0771476" lon="132.0822032"/>
 <node id="9718488888" visible="true" version="1" changeset="120595879" timestamp="2022-05-05T15:59:27Z" user="AYAGE" uid="521665" lat="34.0777302" lon="132.0862560"/>
 <node id="9718488889" visible="true" version="1" changeset="120595879" timestamp="2022-05-05T15:59:27Z" user="AYAGE" uid="521665" lat="34.0781234" lon="132.0838353"/>
 <node id="9718488890" visible="true" version="1" changeset="120595879" timestamp="2022-05-05T15:59:27Z" user="AYAGE" uid="521665" lat="34.0781473" lon="132.0829026"/>
 <node id="9718488891" visible="true" version="1" changeset="120595879" timestamp="2022-05-05T15:59:27Z" user="AYAGE" uid="521665" lat="34.0781312" lon="132.0824875"/>
 <node id="9718488892" visible="true" version="1" changeset="120595879" timestamp="2022-05-05T15:59:27Z" user="AYAGE" uid="521665" lat="34.0780812" lon="132.0822635"/>
 <node id="9721900016" visible="true" version="1" changeset="120653415" timestamp="2022-05-07T04:32:07Z" user="AYAGE" uid="521665" lat="34.0790093" lon="132.0801151"/>
 <node id="9721900017" visible="true" version="1" changeset="120653415" timestamp="2022-05-07T04:32:07Z" user="AYAGE" uid="521665" lat="34.0785050" lon="132.0801057"/>
 <node id="9721900018" visible="true" version="1" changeset="120653415" timestamp="2022-05-07T04:32:07Z" user="AYAGE" uid="521665" lat="34.0784539" lon="132.0801111"/>
 <node id="9721900019" visible="true" version="1" changeset="120653415" timestamp="2022-05-07T04:32:07Z" user="AYAGE" uid="521665" lat="34.0783572" lon="132.0801312"/>
 <node id="9721900020" visible="true" version="1" changeset="120653415" timestamp="2022-05-07T04:32:07Z" user="AYAGE" uid="521665" lat="34.0782884" lon="132.0801392"/>
 <node id="9721900021" visible="true" version="1" changeset="120653415" timestamp="2022-05-07T04:32:07Z" user="AYAGE" uid="521665" lat="34.0777307" lon="132.0810713"/>
 <node id="9721900022" visible="true" version="1" changeset="120653415" timestamp="2022-05-07T04:32:07Z" user="AYAGE" uid="521665" lat="34.0777063" lon="132.0801365"/>
 <node id="9721900023" visible="true" version="1" changeset="120653415" timestamp="2022-05-07T04:32:07Z" user="AYAGE" uid="521665" lat="34.0773286" lon="132.0801432"/>
 <node id="9721900024" visible="true" version="1" changeset="120653415" timestamp="2022-05-07T04:32:07Z" user="AYAGE" uid="521665" lat="34.0772564" lon="132.0801741"/>
 <node id="9721900025" visible="true" version="1" changeset="120653415" timestamp="2022-05-07T04:32:07Z" user="AYAGE" uid="521665" lat="34.0772209" lon="132.0802157"/>
 <node id="9721900026" visible="true" version="1" changeset="120653415" timestamp="2022-05-07T04:32:07Z" user="AYAGE" uid="521665" lat="34.0771687" lon="132.0803525"/>
 <node id="9721900027" visible="true" version="1" changeset="120653415" timestamp="2022-05-07T04:32:07Z" user="AYAGE" uid="521665" lat="34.0771298" lon="132.0804262"/>
 <node id="9721900028" visible="true" version="1" changeset="120653415" timestamp="2022-05-07T04:32:07Z" user="AYAGE" uid="521665" lat="34.0770820" lon="132.0804691"/>
 <node id="9721900029" visible="true" version="1" changeset="120653415" timestamp="2022-05-07T04:32:07Z" user="AYAGE" uid="521665" lat="34.0770065" lon="132.0805000"/>
 <node id="9721900030" visible="true" version="1" changeset="120653415" timestamp="2022-05-07T04:32:07Z" user="AYAGE" uid="521665" lat="34.0767954" lon="132.0805188"/>
 <node id="9721900031" visible="true" version="1" changeset="120653415" timestamp="2022-05-07T04:32:07Z" user="AYAGE" uid="521665" lat="34.0767210" lon="132.0805348"/>
 <node id="9721900032" visible="true" version="1" changeset="120653415" timestamp="2022-05-07T04:32:07Z" user="AYAGE" uid="521665" lat="34.0766255" lon="132.0805845"/>
 <node id="9721900033" visible="true" version="1" changeset="120653415" timestamp="2022-05-07T04:32:07Z" user="AYAGE" uid="521665" lat="34.0761667" lon="132.0808862"/>
 <node id="9721900034" visible="true" version="1" changeset="120653415" timestamp="2022-05-07T04:32:07Z" user="AYAGE" uid="521665" lat="34.0761389" lon="132.0809184"/>
 <node id="9721900035" visible="true" version="1" changeset="120653415" timestamp="2022-05-07T04:32:07Z" user="AYAGE" uid="521665" lat="34.0761234" lon="132.0809586"/>
 <node id="9721900036" visible="true" version="1" changeset="120653415" timestamp="2022-05-07T04:32:07Z" user="AYAGE" uid="521665" lat="34.0761234" lon="132.0810311"/>
 <node id="9721900037" visible="true" version="1" changeset="120653415" timestamp="2022-05-07T04:32:07Z" user="AYAGE" uid="521665" lat="34.0761589" lon="132.0812228"/>
 <node id="9721900038" visible="true" version="1" changeset="120653415" timestamp="2022-05-07T04:32:07Z" user="AYAGE" uid="521665" lat="34.0761578" lon="132.0812926"/>
 <node id="9721900039" visible="true" version="1" changeset="120653415" timestamp="2022-05-07T04:32:07Z" user="AYAGE" uid="521665" lat="34.0761223" lon="132.0817365"/>
 <node id="9721900040" visible="true" version="1" changeset="120653415" timestamp="2022-05-07T04:32:07Z" user="AYAGE" uid="521665" lat="34.0760856" lon="132.0820168"/>
 <node id="9721900041" visible="true" version="1" changeset="120653415" timestamp="2022-05-07T04:32:07Z" user="AYAGE" uid="521665" lat="34.0760812" lon="132.0821938"/>
 <way id="118902235" visible="true" version="2" changeset="120595879" timestamp="2022-05-05T15:59:27Z" user="AYAGE" uid="521665">
  <nd ref="1336540655"/>
  <nd ref="1336527401"/>
  <nd ref="9718488892"/>
  <nd ref="9718488891"/>
  <nd ref="1336531444"/>
  <nd ref="9718488890"/>
  <nd ref="1336522317"/>
  <nd ref="1336522778"/>
  <nd ref="9718488889"/>
  <nd ref="1336541620"/>
  <nd ref="1336549849"/>
  <nd ref="1336532209"/>
  <nd ref="1336536886"/>
  <nd ref="1336523227"/>
  <nd ref="1336528012"/>
  <nd ref="1336550627"/>
  <nd ref="1336523931"/>
  <nd ref="1336544301"/>
  <nd ref="1336520438"/>
  <nd ref="1336537902"/>
  <nd ref="1336538726"/>
  <nd ref="9718488888"/>
  <nd ref="1336524374"/>
  <nd ref="1336529242"/>
  <tag k="highway" v="unclassified"/>
  <tag k="source" v="YahooJapan/ALPSMAP"/>
 </way>
 <way id="118902832" visible="true" version="2" changeset="120595879" timestamp="2022-05-05T15:59:27Z" user="AYAGE" uid="521665">
  <nd ref="1336521024"/>
  <nd ref="9718488879"/>
  <nd ref="1336521485"/>
  <nd ref="1336539450"/>
  <nd ref="1336545565"/>
  <nd ref="1336530052"/>
  <nd ref="1336530908"/>
  <nd ref="1336521953"/>
  <nd ref="9718488880"/>
  <nd ref="9718488881"/>
  <nd ref="1336524882"/>
  <nd ref="1336548225"/>
  <nd ref="9718488882"/>
  <nd ref="1336549231"/>
  <tag k="highway" v="unclassified"/>
  <tag k="source" v="YahooJapan/ALPSMAP"/>
 </way>
 <way id="234732472" visible="true" version="1" changeset="17464112" timestamp="2013-08-23T02:26:24Z" user="yamasan" uid="32308">
  <nd ref="2428745974"/>
  <nd ref="2428745975"/>
  <nd ref="2428745971"/>
  <nd ref="2428745970"/>
  <nd ref="2428745974"/>
  <tag k="building" v="yes"/>
  <tag k="source" v="Bing"/>
 </way>
 <way id="234732477" visible="true" version="1" changeset="17464112" timestamp="2013-08-23T02:26:25Z" user="yamasan" uid="32308">
  <nd ref="2428745965"/>
  <nd ref="2428745967"/>
  <nd ref="2428745968"/>
  <nd ref="2428745972"/>
  <nd ref="2428745973"/>
  <nd ref="2428745966"/>
  <nd ref="2428745965"/>
  <tag k="building" v="yes"/>
  <tag k="source" v="Bing"/>
 </way>
 <way id="234732515" visible="true" version="6" changeset="170601684" timestamp="2025-08-18T08:09:31Z" user="taketaketake" uid="4757277">
  <nd ref="1336548942"/>
  <nd ref="9718488875"/>
  <nd ref="360191472"/>
  <nd ref="1336548203"/>
  <nd ref="360191473"/>
  <nd ref="1336527388"/>
  <nd ref="1336549231"/>
  <nd ref="1336540655"/>
  <nd ref="366493107"/>
  <tag k="highway" v="primary"/>
  <tag k="lanes" v="2"/>
  <tag k="name" v="柳井玖珂線"/>
  <tag k="name:en" v="Yanai Kuga Line"/>
  <tag k="name:ja" v="柳井玖珂線"/>
  <tag k="name:ja-Hira" v="やないくがせん"/>
  <tag k="name:ja_rm" v="Yanai Kuga-sen"/>
  <tag k="ref" v="70;115"/>
  <tag k="source" v="image;survey;Bing,2012-05;YahooJapan/ALPSMAP"/>
  <tag k="surface" v="asphalt"/>
  <tag k="wikidata" v="Q11467366"/>
  <tag k="wikipedia" v="ja:山口県道70号柳井玖珂線"/>
 </way>
 <way id="1058040769" visible="true" version="1" changeset="120653415" timestamp="2022-05-07T04:32:07Z" user="AYAGE" uid="521665">
  <nd ref="1336445845"/>
  <nd ref="9721900016"/>
  <nd ref="9721900017"/>
  <nd ref="9721900018"/>
  <nd ref="9721900019"/>
  <nd ref="9721900020"/>
  <nd ref="9721900022"/>
  <nd ref="9721900021"/>
  <tag k="highway" v="track"/>
 </way>
 <way id="1058040770" visible="true" version="1" changeset="120653415" timestamp="2022-05-07T04:32:07Z" user="AYAGE" uid="521665">
  <nd ref="9721900041"/>
  <nd ref="9721900040"/>
  <nd ref="9721900039"/>
  <nd ref="9721900038"/>
  <nd ref="9721900037"/>
  <nd ref="9721900036"/>
  <nd ref="9721900035"/>
  <nd ref="9721900034"/>
  <nd ref="9721900033"/>
  <nd ref="9721900032"/>
  <nd ref="9721900031"/>
  <nd ref="9721900030"/>
  <nd ref="9721900029"/>
  <nd ref="9721900028"/>
  <nd ref="9721900027"/>
  <nd ref="9721900026"/>
  <nd ref="9721900025"/>
  <nd ref="9721900024"/>
  <nd ref="9721900023"/>
  <nd ref="9721900022"/>
  <tag k="highway" v="track"/>
 </way>
 <relation id="19473634" visible="true" version="2" changeset="188759250" timestamp="2026-09-09T08:07:01Z" user="taketaketake" uid="4757277">
  <member type="way" ref="102234013" role=""/>
  <member type="way" ref="102234011" role=""/>
  <member type="way" ref="102233968" role=""/>
  <member type="way" ref="1315266543" role=""/>
  <member type="way" ref="295449578" role=""/>
  <member type="way" ref="1085388527" role=""/>
  <member type="way" ref="295449577" role=""/>
  <member type="way" ref="1422988952" role=""/>
  <member type="way" ref="1422988953" role=""/>
  <member type="way" ref="1422988954" role=""/>
  <member type="way" ref="1422988955" role=""/>
  <member type="way" ref="32082710" role=""/>
  <member type="way" ref="1086076980" role=""/>
  <member type="way" ref="292000242" role=""/>
  <member type="way" ref="1072259149" role=""/>
  <member type="way" ref="1315839186" role=""/>
  <member type="way" ref="1315839187" role=""/>
  <member type="way" ref="292000143" role=""/>
  <member type="way" ref="1057669152" role=""/>
  <member type="way" ref="1315823131" role=""/>
  <member type="way" ref="234732515" role=""/>
  <member type="way" ref="1315823132" role=""/>
  <member type="way" ref="118897827" role=""/>
  <member type="way" ref="118898096" role=""/>
  <member type="way" ref="118896957" role=""/>
  <tag k="colour" v="Orange"/>
  <tag k="from" v="山口県柳井市古開作"/>
  <tag k="name" v="山口県道70号　柳井玖珂線"/>
  <tag k="name:en" v="Yamaguchi Prefectural Route 70 Yanai Kuga Line"/>
  <tag k="name:ja" v="山口県道70号　柳井玖珂線"/>
  <tag k="name:ja-Hira" v="やまぐちけんどう70ごう やないくがせん"/>
  <tag k="name:ja_rm" v="Yamaguchikendō 70-gō Yanai Kuga-sen"/>
  <tag k="network" v="JP:prefectural"/>
  <tag k="ref" v="70"/>
  <tag k="route" v="road"/>
  <tag k="to" v="山口県岩国市玖珂町"/>
  <tag k="type" v="route"/>
  <tag k="wikidata" v="Q11467366"/>
  <tag k="wikipedia" v="ja:山口県道70号柳井玖珂線"/>
 </relation>
 <relation id="19482078" visible="true" version="1" changeset="170707572" timestamp="2025-08-20T07:22:29Z" user="taketaketake" uid="4757277">
  <member type="way" ref="119008443" role=""/>
  <member type="way" ref="119010474" role=""/>
  <member type="way" ref="119010554" role=""/>
  <member type="way" ref="119010417" role=""/>
  <member type="way" ref="119010413" role=""/>
  <member type="way" ref="119010718" role=""/>
  <member type="way" ref="1074355523" role=""/>
  <member type="way" ref="1423494063" role=""/>
  <member type="way" ref="118901792" role=""/>
  <member type="way" ref="1423494064" role=""/>
  <member type="way" ref="118903068" role=""/>
  <member type="way" ref="118902116" role=""/>
  <member type="way" ref="1423494065" role=""/>
  <member type="way" ref="708016997" role=""/>
  <member type="way" ref="361561621" role=""/>
  <member type="way" ref="361561620" role=""/>
  <member type="way" ref="1057669147" role=""/>
  <member type="way" ref="1057669148" role=""/>
  <member type="way" ref="708019204" role=""/>
  <member type="way" ref="32590018" role=""/>
  <member type="way" ref="118896816" role=""/>
  <member type="way" ref="118897967" role=""/>
  <member type="way" ref="118897008" role=""/>
  <member type="way" ref="118896574" role=""/>
  <member type="way" ref="118902385" role=""/>
  <member type="way" ref="1422979171" role=""/>
  <member type="way" ref="1057669145" role=""/>
  <member type="way" ref="118901986" role=""/>
  <member type="way" ref="234732515" role=""/>
  <tag k="from" v="山口県岩国市通津"/>
  <tag k="name" v="山口県道115号　通津周東線"/>
  <tag k="name:en" v="Yamaguchi Prefectural Route 115 Tsuzu Shuto Line"/>
  <tag k="name:ja" v="山口県道115号　通津周東線"/>
  <tag k="name:ja-Hira" v="やまぐちけんどう115ごう つづしゅうとうせん"/>
  <tag k="name:ja_rm" v="Yamaguchikendō 115-gō Tsudzu Shūtō-sen"/>
  <tag k="network" v="JP:prefectural"/>
  <tag k="ref" v="115"/>
  <tag k="route" v="road"/>
  <tag k="to" v="山口県岩国市周東町上久原"/>
  <tag k="type" v="route"/>
  <tag k="wikidata" v="Q11467132"/>
  <tag k="wikipedia" v="ja:山口県道115号通津周東線"/>
 </relation>
</osm>
