<?xml version="1.0" encoding="UTF-8"?>
<osm version="0.6" generator="openstreetmap-cgimap 2.1.0 (2942764 spike-08.openstreetmap.org)" copyright="OpenStreetMap and contributors" attribution="http://www.openstreetmap.org/copyright" license="http://opendatacommons.org/licenses/odbl/1-0/">
 <bounds minlat="34.1682285" minlon="132.1549003" maxlat="34.1706285" maxlon="132.1579003"/>
 <node id="976520008" visible="true" version="3" changeset="123196548" timestamp="2022-07-04T15:00:17Z" user="AYAGE" uid="521665" lat="34.1707864" lon="132.1578753"/>
 <node id="1015564942" visible="true" version="3" changeset="123184411" timestamp="2022-07-04T10:42:03Z" user="AYAGE" uid="521665" lat="34.1689776" lon="132.1558278"/>
 <node id="1015564949" visible="true" version="4" changeset="123184411" timestamp="2022-07-04T10:42:03Z" user="AYAGE" uid="521665" lat="34.1686084" lon="132.1563195"/>
 <node id="1015564950" visible="true" version="4" changeset="123184411" timestamp="2022-07-04T10:42:03Z" user="AYAGE" uid="521665" lat="34.1680805" lon="132.1569986"/>
 <node id="1015564951" visible="true" version="4" changeset="123184411" timestamp="2022-07-04T10:42:03Z" user="AYAGE" uid="521665" lat="34.1680452" lon="132.1570477"/>
 <node id="1337862868" visible="true" version="4" changeset="123215872" timestamp="2022-07-05T05:13:43Z" user="AYAGE" uid="521665" lat="34.1692349" lon="132.1605997"/>
 <node id="1337862965" visible="true" version="2" changeset="66297527" timestamp="2019-01-14T10:51:45Z" user="HicksCO" uid="9337111" lat="34.1683002" lon="132.1586560"/>
 <node id="1337863088" visible="true" version="3" changeset="123215872" timestamp="2022-07-05T05:13:43Z" user="AYAGE" uid="521665" lat="34.1682720" lon="132.1578574"/>
 <node id="1337863237" visible="true" version="3" changeset="123215872" timestamp="2022-07-05T05:13:43Z" user="AYAGE" uid="521665" lat="34.1701182" lon="132.1548485"/>
 <node id="1337863806" visible="true" version="2" changeset="66297527" timestamp="2019-01-14T10:51:45Z" user="HicksCO" uid="9337111" lat="34.1678036" lon="132.1551250"/>
 <node id="1337863860" visible="true" version="3" changeset="123215872" timestamp="2022-07-05T05:13:43Z" user="AYAGE" uid="521665" lat="34.1701499" lon="132.1562783"/>
 <node id="1337863882" visible="true" version="4" changeset="123196548" timestamp="2022-07-04T15:00:17Z" user="AYAGE" uid="521665" lat="34.1704638" lon="132.1583968"/>
 <node id="1337863908" visible="true" version="2" changeset="66086612" timestamp="2019-01-07T05:19:45Z" user="iwa map" uid="7211705" lat="34.1697923" lon="132.1567644"/>
 <node id="1337864437" visible="true" version="3" changeset="123184411" timestamp="2022-07-04T10:42:03Z" user="AYAGE" uid="521665" lat="34.1689426" lon="132.1549438"/>
 <node id="1337864462" visible="true" version="3" changeset="123184411" timestamp="2022-07-04T10:42:03Z" user="AYAGE" uid="521665" lat="34.1675223" lon="132.1542586"/>
 <node id="1337864535" visible="true" version="2" changeset="66297527" timestamp="2019-01-14T10:51:46Z" user="HicksCO" uid="9337111" lat="34.1690311" lon="132.1567968"/>
 <node id="1337864660" visible="true" version="2" changeset="123184411" timestamp="2022-07-04T10:42:03Z" user="AYAGE" uid="521665" lat="34.1679403" lon="132.1555976"/>
 <node id="1337864759" visible="true" version="3" changeset="123184411" timestamp="2022-07-04T10:42:03Z" user="AYAGE" uid="521665" lat="34.1681964" lon="132.1541607"/>
 <node id="1337864836" visible="true" version="2" changeset="66297527" timestamp="2019-01-14T10:51:46Z" user="HicksCO" uid="9337111" lat="34.1698247" lon="132.1577049"/>
 <node id="1337864910" visible="true" version="2" changeset="123196548" timestamp="2022-07-04T15:00:17Z" user="AYAGE" uid="521665" lat="34.1709663" lon="132.1565236"/>
 <node id="1337865117" visible="true" version="3" changeset="123215872" timestamp="2022-07-05T05:13:43Z" user="AYAGE" uid="521665" lat="34.1707479" lon="132.1555391"/>
 <node id="1337865185" visible="true" version="2" changeset="66086612" timestamp="2019-01-07T05:19:44Z" user="iwa map" uid="7211705" lat="34.1679471" lon="132.1547337"/>
 <node id="1337865561" visible="true" version="3" changeset="123215872" timestamp="2022-07-05T05:13:43Z" user="AYAGE" uid="521665" lat="34.1699173" lon="132.1543085"/>
 <node id="1337865611" visible="true" version="3" changeset="123184411" timestamp="2022-07-04T10:42:03Z" user="AYAGE" uid="521665" lat="34.1693313" lon="132.1553617"/>
 <node id="1337865686" visible="true" version="3" changeset="123215872" timestamp="2022-07-05T05:13:43Z" user="AYAGE" uid="521665" lat="34.1694508" lon="132.1581813"/>
 <node id="1337865712" visible="true" version="3" changeset="123215872" timestamp="2022-07-05T05:13:43Z" user="AYAGE" uid="521665" lat="34.1694189" lon="132.1572310"/>
 <node id="6189181898" visible="true" version="2" changeset="123215872" timestamp="2022-07-05T05:13:43Z" user="AYAGE" uid="521665" lat="34.1713775" lon="132.1539760"/>
 <node id="6189181901" visible="true" version="2" changeset="123184411" timestamp="2022-07-04T10:42:03Z" user="AYAGE" uid="521665" lat="34.1685803" lon="132.1545587"/>
 <node id="6189181905" visible="true" version="2" changeset="123215872" timestamp="2022-07-05T05:13:43Z" user="AYAGE" uid="521665" lat="34.1695766" lon="132.1540872"/>
 <node id="6189181906" visible="true" version="2" changeset="123184411" timestamp="2022-07-04T10:42:03Z" user="AYAGE" uid="521665" lat="34.1690466" lon="132.1550469"/>
 <node id="6189181907" visible="true" version="2" changeset="123215872" timestamp="2022-07-05T05:13:43Z" user="AYAGE" uid="521665" lat="34.1696346" lon="132.1557001"/>
 <node id="6189181908" visible="true" version="2" changeset="123215872" timestamp="2022-07-05T05:13:43Z" user="AYAGE" uid="521665" lat="34.1698689" lon="132.1552977"/>
 <node id="6189181909" visible="true" version="2" changeset="123196548" timestamp="2022-07-04T15:00:17Z" user="AYAGE" uid="521665" lat="34.1709211" lon="132.1571508"/>
 <node id="6189181910" visible="true" version="2" changeset="123196548" timestamp="2022-07-04T15:00:17Z" user="AYAGE" uid="521665" lat="34.1710953" lon="132.1566695"/>
 <node id="6189181911" visible="true" version="2" changeset="123184411" timestamp="2022-07-04T10:42:03Z" user="AYAGE" uid="521665" lat="34.1690788" lon="132.1549995"/>
 <node id="6189181912" visible="true" version="2" changeset="123184411" timestamp="2022-07-04T10:42:03Z" user="AYAGE" uid="521665" lat="34.1679535" lon="132.1557135"/>
 <node id="6189181913" visible="true" version="2" changeset="123184411" timestamp="2022-07-04T10:42:03Z" user="AYAGE" uid="521665" lat="34.1681832" lon="132.1567978"/>
 <node id="6189181914" visible="true" version="2" changeset="123184411" timestamp="2022-07-04T10:42:03Z" user="AYAGE" uid="521665" lat="34.1685693" lon="132.1562721"/>
 <node id="6207423450" visible="true" version="2" changeset="123215872" timestamp="2022-07-05T05:13:43Z" user="AYAGE" uid="521665" lat="34.1706202" lon="132.1553823"/>
 <node id="6207423451" visible="true" version="2" changeset="123215872" timestamp="2022-07-05T05:13:43Z" user="AYAGE" uid="521665" lat="34.1709489" lon="132.1549685"/>
 <node id="6207423463" visible="true" version="2" changeset="123215872" timestamp="2022-07-05T05:13:43Z" user="AYAGE" uid="521665" lat="34.1684933" lon="132.1609079"/>
 <node id="6207423464" visible="true" version="2" changeset="123215872" timestamp="2022-07-05T05:13:43Z" user="AYAGE" uid="521665" lat="34.1684367" lon="132.1608596"/>
 <node id="6207423465" visible="true" version="2" changeset="123215872" timestamp="2022-07-05T05:13:43Z" user="AYAGE" uid="521665" lat="34.1683069" lon="132.1599933"/>
 <node id="6207423466" visible="true" version="2" changeset="123215872" timestamp="2022-07-05T05:13:43Z" user="AYAGE" uid="521665" lat="34.1682897" lon="132.1596848"/>
 <node id="6207423467" visible="true" version="2" changeset="123215872" timestamp="2022-07-05T05:13:43Z" user="AYAGE" uid="521665" lat="34.1682919" lon="132.1595098"/>
 <node id="6207423469" visible="true" version="1" changeset="66297527" timestamp="2019-01-14T10:51:41Z" user="HicksCO" uid="9337111" lat="34.1686777" lon="132.1581751"/>
 <node id="6207423472" visible="true" version="2" changeset="123215872" timestamp="2022-07-05T05:13:43Z" user="AYAGE" uid="521665" lat="34.1684335" lon="132.1575864"/>
 <node id="6207423473" visible="true" version="1" changeset="66297527" timestamp="2019-01-14T10:51:42Z" user="HicksCO" uid="9337111" lat="34.1682431" lon="132.1573654"/>
 <node id="6207423474" visible="true" version="1" changeset="66297527" timestamp="2019-01-14T10:51:42Z" user="HicksCO" uid="9337111" lat="34.1682032" lon="132.1570516"/>
 <node id="6207423475" visible="true" version="1" changeset="66297527" timestamp="2019-01-14T10:51:42Z" user="HicksCO" uid="9337111" lat="34.1686637" lon="132.1563848"/>
 <node id="6207423887" visible="true" version="1" changeset="66297527" timestamp="2019-01-14T10:51:42Z" user="HicksCO" uid="9337111" lat="34.1689918" lon="132.1561714"/>
 <node id="6207423888" visible="true" version="1" changeset="66297527" timestamp="2019-01-14T10:51:42Z" user="HicksCO" uid="9337111" lat="34.1691117" lon="132.1563055"/>
 <node id="6207423889" visible="true" version="1" changeset="66297527" timestamp="2019-01-14T10:51:42Z" user="HicksCO" uid="9337111" lat="34.1690487" lon="132.1563877"/>
 <node id="6207423890" visible="true" version="1" changeset="66297527" timestamp="2019-01-14T10:51:42Z" user="HicksCO" uid="9337111" lat="34.1689288" lon="132.1562536"/>
 <node id="9865567782" visible="true" version="1" changeset="123184411" timestamp="2022-07-04T10:42:03Z" user="AYAGE" uid="521665" lat="34.1685438" lon="132.1563213"/>
 <node id="9865567783" visible="true" version="1" changeset="123184411" timestamp="2022-07-04T10:42:03Z" user="AYAGE" uid="521665" lat="34.1681715" lon="132.1567786"/>
 <node id="9865567784" visible="true" version="1" changeset="123184411" timestamp="2022-07-04T10:42:03Z" user="AYAGE" uid="521665" lat="34.1680811" lon="132.1562791"/>
 <node id="9865567785" visible="true" version="1" changeset="123184411" timestamp="2022-07-04T10:42:03Z" user="AYAGE" uid="521665" lat="34.1679729" lon="132.1556736"/>
 <node id="9865567786" visible="true" version="1" changeset="123184411" timestamp="2022-07-04T10:42:03Z" user="AYAGE" uid="521665" lat="34.1685455" lon="132.1562992"/>
 <node id="9865567787" visible="true" version="1" changeset="123184411" timestamp="2022-07-04T10:42:03Z" user="AYAGE" uid="521665" lat="34.1692950" lon="132.1554241"/>
 <node id="9865567788" visible="true" version="1" changeset="123184411" timestamp="2022-07-04T10:42:03Z" user="AYAGE" uid="521665" lat="34.1693727" lon="132.1552934"/>
 <node id="9865567789" visible="true" version="1" changeset="123184411" timestamp="2022-07-04T10:42:03Z" user="AYAGE" uid="521665" lat="34.1686448" lon="132.1545115"/>
 <node id="9865567790" visible="true" version="1" changeset="123184411" timestamp="2022-07-04T10:42:03Z" user="AYAGE" uid="521665" lat="34.1689754" lon="132.1537860"/>
 <node id="9865567791" visible="true" version="1" changeset="123184411" timestamp="2022-07-04T10:42:03Z" user="AYAGE" uid="521665" lat="34.1690276" lon="132.1537699"/>
 <node id="9865567792" visible="true" version="1" changeset="123184411" timestamp="2022-07-04T10:42:03Z" user="AYAGE" uid="521665" lat="34.1694959" lon="132.1540951"/>
 <node id="9865567793" visible="true" version="1" changeset="123184411" timestamp="2022-07-04T10:42:03Z" user="AYAGE" uid="521665" lat="34.1695064" lon="132.1541487"/>
 <node id="9865567794" visible="true" version="1" changeset="123184411" timestamp="2022-07-04T10:42:03Z" user="AYAGE" uid="521665" lat="34.1690126" lon="132.1549702"/>
 <node id="9865567795" visible="true" version="1" changeset="123184411" timestamp="2022-07-04T10:42:03Z" user="AYAGE" uid="521665" lat="34.1686437" lon="132.1545705"/>
 <node id="9865567796" visible="true" version="1" changeset="123184411" timestamp="2022-07-04T10:42:03Z" user="AYAGE" uid="521665" lat="34.1690520" lon="132.1549782"/>
 <node id="9865567797" visible="true" version="1" changeset="123184411" timestamp="2022-07-04T10:42:03Z" user="AYAGE" uid="521665" lat="34.1682459" lon="132.1541970"/>
 <node id="9866120041" visible="true" version="1" changeset="123196548" timestamp="2022-07-04T15:00:17Z" user="AYAGE" uid="521665" lat="34.1691341" lon="132.1607906"/>
 <node id="9866120050" visible="true" version="1" changeset="123196548" timestamp="2022-07-04T15:00:17Z" user="AYAGE" uid="521665" lat="34.1707726" lon="132.1578599"/>
 <node id="9866120061" visible="true" version="1" changeset="123196548" timestamp="2022-07-04T15:00:17Z" user="AYAGE" uid="521665" lat="34.1704102" lon="132.1583632"/>
 <node id="9866120062" visible="true" version="1" changeset="123196548" timestamp="2022-07-04T15:00:17Z" user="AYAGE" uid="521665" lat="34.1708795" lon="132.1571119"/>
 <node id="9866120063" visible="true" version="1" changeset="123196548" timestamp="2022-07-04T15:00:17Z" user="AYAGE" uid="521665" lat="34.1710332" lon="132.1566331"/>
 <node id="9867296059" visible="true" version="1" changeset="123215872" timestamp="2022-07-05T05:13:43Z" user="AYAGE" uid="521665" lat="34.1686914" lon="132.1608824"/>
 <node id="9867296060" visible="true" version="1" changeset="123215872" timestamp="2022-07-05T05:13:43Z" user="AYAGE" uid="521665" lat="34.1683984" lon="132.1606296"/>
 <node id="9867296743" visible="true" version="1" changeset="123215872" timestamp="2022-07-05T05:13:43Z" user="AYAGE" uid="521665" lat="34.1682991" lon="132.1577697"/>
 <node id="9867296761" visible="true" version="1" changeset="123215872" timestamp="2022-07-05T05:13:43Z" user="AYAGE" uid="521665" lat="34.1709921" lon="132.1548783"/>
 <node id="9867296762" visible="true" version="1" changeset="123215872" timestamp="2022-07-05T05:13:43Z" user="AYAGE" uid="521665" lat="34.1708956" lon="132.1550486"/>
 <node id="9867296764" visible="true" version="1" changeset="123215872" timestamp="2022-07-05T05:13:43Z" user="AYAGE" uid="521665" lat="34.1696712" lon="132.1556501"/>
 <node id="9867296765" visible="true" version="1" changeset="123215872" timestamp="2022-07-05T05:13:43Z" user="AYAGE" uid="521665" lat="34.1699064" lon="132.1553349"/>
 <node id="9867296766" visible="true" version="1" changeset="123215872" timestamp="2022-07-05T05:13:43Z" user="AYAGE" uid="521665" lat="34.1701599" lon="132.1548790"/>
 <node id="9867296767" visible="true" version="1" changeset="123215872" timestamp="2022-07-05T05:13:43Z" user="AYAGE" uid="521665" lat="34.1704362" lon="132.1559176"/>
 <way id="87335683" visible="true" version="6" changeset="170706091" timestamp="2025-08-20T06:52:23Z" user="taketaketake" uid="4757277">
  <nd ref="1015564942"/>
  <nd ref="1015564949"/>
  <nd ref="1015564950"/>
  <nd ref="1015564951"/>
  <tag k="highway" v="secondary"/>
  <tag k="lanes" v="2"/>
  <tag k="name" v="新岩国停車場線"/>
  <tag k="name:en" v="Shiniwakuni Station Line"/>
  <tag k="name:ja" v="新岩国停車場線"/>
  <tag k="name:ja-Hira" v="しんいわくにていしゃじょうせん"/>
  <tag k="name:ja_rm" v="Shiniwakuni Teishajō-sen"/>
  <tag k="ref" v="114"/>
  <tag k="source" v="YahooJapan/ALPSMAP"/>
  <tag k="surface" v="asphalt"/>
  <tag k="wikidata" v="Q11467130"/>
  <tag k="wikipedia" v="ja:山口県道114号新岩国停車場線"/>
 </way>
 <way id="119009725" visible="true" version="3" changeset="123184411" timestamp="2022-07-04T10:42:03Z" user="AYAGE" uid="521665">
  <nd ref="1337865611"/>
  <nd ref="6189181906"/>
  <nd ref="1337864437"/>
  <nd ref="6189181901"/>
  <nd ref="9865567797"/>
  <nd ref="1337864759"/>
  <tag k="highway" v="unclassified"/>
  <tag k="source" v="YahooJapan/ALPSMAP"/>
 </way>
 <way id="119009750" visible="true" version="3" changeset="123196548" timestamp="2022-07-04T15:00:17Z" user="AYAGE" uid="521665">
  <nd ref="1337864836"/>
  <nd ref="9866120061"/>
  <nd ref="1337863882"/>
  <tag k="highway" v="unclassified"/>
  <tag k="source" v="YahooJapan/ALPSMAP"/>
 </way>
 <way id="119009787" visible="true" version="2" changeset="66086612" timestamp="2019-01-07T05:19:47Z" user="iwa map" uid="7211705">
  <nd ref="1337863860"/>
  <nd ref="6189181907"/>
  <nd ref="1337865611"/>
  <tag k="highway" v="unclassified"/>
  <tag k="source" v="YahooJapan/ALPSMAP"/>
 </way>
 <way id="119009837" visible="true" version="3" changeset="123184411" timestamp="2022-07-04T10:42:03Z" user="AYAGE" uid="521665">
  <nd ref="1337865561"/>
  <nd ref="9865567788"/>
  <nd ref="1337865611"/>
  <tag k="highway" v="unclassified"/>
  <tag k="source" v="YahooJapan/ALPSMAP"/>
 </way>
 <way id="119009851" visible="true" version="3" changeset="123184411" timestamp="2022-07-04T10:42:03Z" user="AYAGE" uid="521665">
  <nd ref="1337863806"/>
  <nd ref="1337864660"/>
  <nd ref="6189181914"/>
  <nd ref="1015564949"/>
  <tag k="highway" v="unclassified"/>
  <tag k="source" v="YahooJapan/ALPSMAP"/>
 </way>
 <way id="119009866" visible="true" version="1" changeset="8538919" timestamp="2011-06-25T05:01:05Z" user="yamasan" uid="32308">
  <nd ref="1337863908"/>
  <nd ref="1337865712"/>
  <tag k="highway" v="unclassified"/>
  <tag k="source" v="YahooJapan/ALPSMAP"/>
  <tag k="yh:STRUCTURE" v="地上"/>
  <tag k="yh:TOTYUMONO" v="供用中"/>
  <tag k="yh:TYPE" v="その他一般道"/>
  <tag k="yh:WIDTH" v="3.0m〜5.5m"/>
  <tag k="yh:WIDTH_RANK" v="3"/>
 </way>
 <way id="119009882" visible="true" version="2" changeset="66297527" timestamp="2019-01-14T10:51:49Z" user="HicksCO" uid="9337111">
  <nd ref="1337864836"/>
  <nd ref="1337865686"/>
  <tag k="highway" v="unclassified"/>
  <tag k="source" v="YahooJapan/ALPSMAP"/>
 </way>
 <way id="119009913" visible="true" version="1" changeset="8538919" timestamp="2011-06-25T05:01:16Z" user="yamasan" uid="32308">
  <nd ref="1337864836"/>
  <nd ref="1337865712"/>
  <tag k="highway" v="unclassified"/>
  <tag k="source" v="YahooJapan/ALPSMAP"/>
  <tag k="yh:STRUCTURE" v="地上"/>
  <tag k="yh:TOTYUMONO" v="供用中"/>
  <tag k="yh:TYPE" v="その他一般道"/>
  <tag k="yh:WIDTH" v="3.0m〜5.5m"/>
  <tag k="yh:WIDTH_RANK" v="3"/>
 </way>
 <way id="119009926" visible="true" version="1" changeset="8538919" timestamp="2011-06-25T05:01:19Z" user="yamasan" uid="32308">
  <nd ref="1337865712"/>
  <nd ref="1337864535"/>
  <tag k="highway" v="unclassified"/>
  <tag k="source" v="YahooJapan/ALPSMAP"/>
  <tag k="yh:STRUCTURE" v="地上"/>
  <tag k="yh:TOTYUMONO" v="供用中"/>
  <tag k="yh:TYPE" v="その他一般道"/>
  <tag k="yh:WIDTH" v="3.0m〜5.5m"/>
  <tag k="yh:WIDTH_RANK" v="3"/>
 </way>
 <way id="119009959" visible="true" version="4" changeset="123215872" timestamp="2022-07-05T05:13:43Z" user="AYAGE" uid="521665">
  <nd ref="1337864535"/>
  <nd ref="6207423472"/>
  <nd ref="9867296743"/>
  <nd ref="1337863088"/>
  <nd ref="1337862965"/>
  <nd ref="6207423467"/>
  <nd ref="6207423466"/>
  <nd ref="6207423465"/>
  <nd ref="9867296060"/>
  <nd ref="6207423464"/>
  <nd ref="6207423463"/>
  <nd ref="9867296059"/>
  <nd ref="9866120041"/>
  <nd ref="1337862868"/>
  <tag k="highway" v="unclassified"/>
  <tag k="source" v="YahooJapan/ALPSMAP"/>
 </way>
 <way id="119009966" visible="true" version="3" changeset="123215872" timestamp="2022-07-05T05:13:43Z" user="AYAGE" uid="521665">
  <nd ref="1337865117"/>
  <nd ref="6207423450"/>
  <nd ref="9867296766"/>
  <nd ref="1337863237"/>
  <tag k="highway" v="unclassified"/>
  <tag k="source" v="YahooJapan/ALPSMAP"/>
 </way>
 <way id="119010005" visible="true" version="3" changeset="123184411" timestamp="2022-07-04T10:42:03Z" user="AYAGE" uid="521665">
  <nd ref="1015564942"/>
  <nd ref="9865567787"/>
  <nd ref="1337865611"/>
  <tag k="highway" v="unclassified"/>
  <tag k="source" v="YahooJapan/ALPSMAP"/>
 </way>
 <way id="119010017" visible="true" version="2" changeset="123215872" timestamp="2022-07-05T05:13:43Z" user="AYAGE" uid="521665">
  <nd ref="1337865117"/>
  <nd ref="9867296767"/>
  <nd ref="1337863860"/>
  <tag k="highway" v="unclassified"/>
  <tag k="source" v="YahooJapan/ALPSMAP"/>
 </way>
 <way id="119010036" visible="true" version="2" changeset="66297527" timestamp="2019-01-14T10:51:50Z" user="HicksCO" uid="9337111">
  <nd ref="1015564949"/>
  <nd ref="6207423475"/>
  <nd ref="1337864535"/>
  <tag k="highway" v="unclassified"/>
  <tag k="source" v="YahooJapan/ALPSMAP"/>
 </way>
 <way id="119010101" visible="true" version="2" changeset="66297527" timestamp="2019-01-14T10:51:50Z" user="HicksCO" uid="9337111">
  <nd ref="1337862965"/>
  <nd ref="6207423469"/>
  <nd ref="1337865712"/>
  <tag k="highway" v="unclassified"/>
  <tag k="source" v="YahooJapan/ALPSMAP"/>
 </way>
 <way id="661080893" visible="true" version="1" changeset="66086612" timestamp="2019-01-07T05:19:44Z" user="iwa map" uid="7211705">
  <nd ref="6189181905"/>
  <nd ref="6189181911"/>
  <nd ref="6189181906"/>
  <tag k="highway" v="unclassified"/>
 </way>
 <way id="661080894" visible="true" version="2" changeset="123215872" timestamp="2022-07-05T05:13:43Z" user="AYAGE" uid="521665">
  <nd ref="6189181907"/>
  <nd ref="9867296764"/>
  <nd ref="6189181908"/>
  <nd ref="1337863237"/>
  <tag k="highway" v="unclassified"/>
 </way>
 <way id="661080895" visible="true" version="3" changeset="123215872" timestamp="2022-07-05T05:13:43Z" user="AYAGE" uid="521665">
  <nd ref="6189181908"/>
  <nd ref="9867296765"/>
  <nd ref="9867296767"/>
  <nd ref="1337864910"/>
  <nd ref="9866120063"/>
  <nd ref="6189181910"/>
  <tag k="highway" v="unclassified"/>
 </way>
 <way id="661080896" visible="true" version="2" changeset="123196548" timestamp="2022-07-04T15:00:17Z" user="AYAGE" uid="521665">
  <nd ref="1337863860"/>
  <nd ref="9866120062"/>
  <nd ref="6189181909"/>
  <tag k="highway" v="unclassified"/>
 </way>
 <way id="661080897" visible="true" version="1" changeset="66086612" timestamp="2019-01-07T05:19:44Z" user="iwa map" uid="7211705">
  <nd ref="1337863860"/>
  <nd ref="1337863908"/>
  <tag k="highway" v="unclassified"/>
 </way>
 <way id="661080898" visible="true" version="2" changeset="123184411" timestamp="2022-07-04T10:42:03Z" user="AYAGE" uid="521665">
  <nd ref="9865567795"/>
  <nd ref="9865567794"/>
  <nd ref="9865567796"/>
  <nd ref="9865567793"/>
  <nd ref="9865567792"/>
  <nd ref="9865567791"/>
  <nd ref="9865567790"/>
  <nd ref="9865567789"/>
  <nd ref="9865567795"/>
  <tag k="leisure" v="park"/>
 </way>
 <way id="661080900" visible="true" version="2" changeset="123184411" timestamp="2022-07-04T10:42:03Z" user="AYAGE" uid="521665">
  <nd ref="6189181912"/>
  <nd ref="9865567784"/>
  <nd ref="9865567783"/>
  <nd ref="6189181913"/>
  <nd ref="9865567782"/>
  <nd ref="9865567786"/>
  <nd ref="9865567785"/>
  <nd ref="6189181912"/>
  <tag k="leisure" v="park"/>
 </way>
 <way id="663128830" visible="true" version="2" changeset="123215872" timestamp="2022-07-05T05:13:43Z" user="AYAGE" uid="521665">
  <nd ref="6189181898"/>
  <nd ref="9867296761"/>
  <nd ref="6207423451"/>
  <nd ref="9867296762"/>
  <nd ref="6207423450"/>
  <tag k="highway" v="unclassified"/>
 </way>
 <way id="663128838" visible="true" version="1" changeset="66297527" timestamp="2019-01-14T10:51:43Z" user="HicksCO" uid="9337111">
  <nd ref="6207423475"/>
  <nd ref="6207423474"/>
  <nd ref="6207423473"/>
  <nd ref="6207423472"/>
  <tag k="highway" v="unclassified"/>
 </way>
 <way id="663128841" visible="true" version="1" changeset="66297527" timestamp="2019-01-14T10:51:43Z" user="HicksCO" uid="9337111">
  <nd ref="6207423890"/>
  <nd ref="6207423887"/>
  <nd ref="6207423888"/>
  <nd ref="6207423889"/>
  <nd ref="6207423890"/>
  <tag k="building" v="yes"/>
  <tag k="name" v="Daily Yamazaki"/>
  <tag k="shop" v="convenience"/>
 </way>
 <way id="957743594" visible="true" version="4" changeset="169696255" timestamp="2025-07-29T23:38:45Z" user="taketaketake" uid="4757277">
  <nd ref="1015564942"/>
  <nd ref="1337863908"/>
  <nd ref="9866120050"/>
  <nd ref="976520008"/>
  <tag k="highway" v="primary"/>
  <tag k="lanes" v="2"/>
  <tag k="name" v="岩国大竹線"/>
  <tag k="name:en" v="Iwakuni Otake Line"/>
  <tag k="name:ja" v="岩国大竹線"/>
  <tag k="name:ja-Hira" v="いわくにおおたけせん"/>
  <tag k="name:ja_rm" v="Iwakuni Ōtake-sen"/>
  <tag k="ref" v="1"/>
  <tag k="source" v="YahooJapan/ALPSMAP"/>
  <tag k="surface" v="asphalt"/>
  <tag k="wikidata" v="Q11467377"/>
  <tag k="wikipedia" v="ja:山口県道・広島県道1号岩国大竹線"/>
 </way>
 <way id="957743595" visible="true" version="3" changeset="169696255" timestamp="2025-07-29T23:38:45Z" user="taketaketake" uid="4757277">
  <nd ref="1337864462"/>
  <nd ref="1337865185"/>
  <nd ref="1015564942"/>
  <tag k="highway" v="primary"/>
  <tag k="lanes" v="2"/>
  <tag k="name" v="岩国大竹線"/>
  <tag k="name:en" v="Iwakuni Otake Line"/>
  <tag k="name:ja" v="岩国大竹線"/>
  <tag k="name:ja-Hira" v="いわくにおおたけせん"/>
  <tag k="name:ja_rm" v="Iwakuni Ōtake-sen"/>
  <tag k="ref" v="1;114"/>
  <tag k="source" v="YahooJapan/ALPSMAP"/>
  <tag k="surface" v="asphalt"/>
  <tag k="wikidata" v="Q11467377"/>
  <tag k="wikipedia" v="ja:山口県道・広島県道1号岩国大竹線"/>
 </way>
 <relation id="1255335" visible="true" version="36" changeset="170142753" timestamp="2025-08-08T08:37:01Z" user="taketaketake" uid="4757277">
  <member type="way" ref="83895429" role=""/>
  <member type="way" ref="83895430" role=""/>
  <member type="way" ref="83895431" role=""/>
  <member type="way" ref="83895433" role=""/>
  <member type="way" ref="83895439" role=""/>
  <member type="way" ref="83895441" role=""/>
  <member type="way" ref="83895432" role=""/>
  <member type="way" ref="1077713979" role=""/>
  <member type="way" ref="296397019" role=""/>
  <member type="way" ref="83895442" role=""/>
  <member type="way" ref="957743594" role=""/>
  <member type="way" ref="957743595" role=""/>
  <member type="way" ref="83895438" role=""/>
  <member type="way" ref="1314810649" role=""/>
  <member type="way" ref="296396256" role=""/>
  <member type="way" ref="880983231" role=""/>
  <member type="way" ref="880983233" role=""/>
  <member type="way" ref="880983234" role=""/>
  <member type="way" ref="880983235" role=""/>
  <member type="way" ref="880983236" role=""/>
  <member type="way" ref="880983821" role=""/>
  <member type="way" ref="880983820" role=""/>
  <member type="way" ref="880983229" role=""/>
  <member type="way" ref="880983237" role=""/>
  <member type="way" ref="880983238" role=""/>
  <member type="way" ref="296395388" role=""/>
  <member type="way" ref="79881774" role=""/>
  <member type="way" ref="569963549" role=""/>
  <member type="way" ref="499916474" role=""/>
  <member type="way" ref="499916472" role=""/>
  <member type="way" ref="499916473" role=""/>
  <member type="way" ref="296399902" role=""/>
  <member type="way" ref="1371036116" role=""/>
  <member type="way" ref="1153859839" role=""/>
  <member type="way" ref="296399901" role=""/>
  <member type="way" ref="80217431" role=""/>
  <member type="way" ref="83895426" role=""/>
  <member type="way" ref="87332795" role=""/>
  <tag k="name" v="山口県道・広島県道1号 岩国大竹線"/>
  <tag k="name:en" v="Yamaguchi Prefectural Highway/Hiroshima Prefectural Highway No. 1 Iwakuni Otake Line"/>
  <tag k="name:ja" v="山口県道・広島県道1号 岩国大竹線"/>
  <tag k="name:ja-Hira" v="やまぐちけんどう・ひろしまけんどう1ごう いわくにおおたけせん"/>
  <tag k="name:ja_rm" v="Yamaguchikendō Hiroshimakendō 1-gō Iwakuni Ōtake-sen"/>
  <tag k="network" v="JP:prefectural"/>
  <tag k="ref" v="1"/>
  <tag k="route" v="road"/>
  <tag k="type" v="route"/>
  <tag k="wikidata" v="Q11467377"/>
  <tag k="wikipedia" v="ja:山口県道・広島県道1号岩国大竹線"/>
 </relation>
 <relation id="19482041" visible="true" version="1" changeset="170706091" timestamp="2025-08-20T06:52:23Z" user="taketaketake" uid="4757277">
  <member type="way" ref="119009833" role="forward"/>
  <member type="way" ref="316767044" role="forward"/>
  <member type="way" ref="119009755" role=""/>
  <member type="way" ref="957743595" role=""/>
  <member type="way" ref="87335683" role=""/>
  <member type="way" ref="93812480" role=""/>
  <member type="way" ref="93812476" role=""/>
  <member type="way" ref="1230249719" role=""/>
  <member type="way" ref="93812478" role=""/>
  <member type="way" ref="93812474" role=""/>
  <tag k="from" v="山口県岩国市御庄1丁目（新岩国駅）"/>
  <tag k="name" v="山口県道114号　新岩国停車場線"/>
  <tag k="name:en" v="Yamaguchi Prefectural Route 114 Shiniwakuni Station Line"/>
  <tag k="name:ja" v="山口県道114号　新岩国停車場線"/>
  <tag k="name:ja-Hira" v="やまぐちけんどう114ごう しんいわくにていしゃじょうせん"/>
  <tag k="name:ja_rm" v="Yamaguchikendō 114-gō Shiniwakuni Teishajō-sen"/>
  <tag k="network" v="JP:prefectural"/>
  <tag k="ref" v="114"/>
  <tag k="route" v="road"/>
  <tag k="to" v="山口県岩国市岩国1丁目"/>
  <tag k="type" v="route"/>
  <tag k="wikidata" v="Q11467130"/>
  <tag k="wikipedia" v="ja:山口県道114号新岩国停車場線"/>
 </relation>
</osm>
