<?xml version="1.0" encoding="UTF-8"?>
<osm version="0.6" generator="openstreetmap-cgimap 2.1.0 (2942791 spike-08.openstreetmap.org)" copyright="OpenStreetMap and contributors" attribution="http://www.openstreetmap.org/copyright" license="http://opendatacommons.org/licenses/odbl/1-0/">
 <bounds minlat="34.1620663" minlon="132.1987967" maxlat="34.1644663" maxlon="132.2017967"/>
 <node id="1336832752" visible="true" version="2" changeset="133486229" timestamp="2023-03-09T16:40:13Z" user="AYAGE" uid="521665" lat="34.1624389" lon="132.2010591"/>
 <node id="1336833639" visible="true" version="3" changeset="133486229" timestamp="2023-03-09T16:40:13Z" user="AYAGE" uid="521665" lat="34.1621405" lon="132.1973260"/>
 <node id="1336833694" visible="true" version="2" changeset="121389239" timestamp="2022-05-23T20:31:52Z" user="asutekku" uid="2254059" lat="34.1613830" lon="132.1935866"/>
 <node id="1336833913" visible="true" version="3" changeset="133486229" timestamp="2023-03-09T16:40:13Z" user="AYAGE" uid="521665" lat="34.1622445" lon="132.1996527"/>
 <node id="1336835126" visible="true" version="2" changeset="121389239" timestamp="2022-05-23T20:31:52Z" user="asutekku" uid="2254059" lat="34.1612157" lon="132.1930881"/>
 <node id="1336835334" visible="true" version="3" changeset="133486229" timestamp="2023-03-09T16:40:13Z" user="AYAGE" uid="521665" lat="34.1622129" lon="132.1993230"/>
 <node id="1336835430" visible="true" version="2" changeset="133486229" timestamp="2023-03-09T16:40:13Z" user="AYAGE" uid="521665" lat="34.1620588" lon="132.1968801"/>
 <node id="1336835732" visible="true" version="3" changeset="35462977" timestamp="2015-11-20T14:32:10Z" user="DannyAiquipa" uid="2226712" lat="34.1624798" lon="132.2011135"/>
 <node id="1336836405" visible="true" version="4" changeset="132952477" timestamp="2023-02-24T05:57:18Z" user="AYAGE" uid="521665" lat="34.1609485" lon="132.1924622"/>
 <node id="1336836644" visible="true" version="2" changeset="133486229" timestamp="2023-03-09T16:40:13Z" user="AYAGE" uid="521665" lat="34.1621890" lon="132.1980565"/>
 <node id="1336836718" visible="true" version="2" changeset="133486229" timestamp="2023-03-09T16:40:13Z" user="AYAGE" uid="521665" lat="34.1614450" lon="132.1938929"/>
 <node id="1338102166" visible="true" version="2" changeset="133411045" timestamp="2023-03-07T17:02:32Z" user="AYAGE" uid="521665" lat="34.1641729" lon="132.2020517"/>
 <node id="1338102205" visible="true" version="1" changeset="8540490" timestamp="2011-06-25T09:52:51Z" user="yamasan" uid="32308" lat="34.1614020" lon="132.2014090"/>
 <node id="1338102303" visible="true" version="3" changeset="169940948" timestamp="2025-08-04T08:41:19Z" user="taketaketake" uid="4757277" lat="34.1598852" lon="132.2073808"/>
 <node id="1338102317" visible="true" version="1" changeset="8540490" timestamp="2011-06-25T09:52:54Z" user="yamasan" uid="32308" lat="34.1610220" lon="132.2015960"/>
 <node id="1338102367" visible="true" version="1" changeset="8540490" timestamp="2011-06-25T09:52:56Z" user="yamasan" uid="32308" lat="34.1606420" lon="132.2019100"/>
 <node id="1338102386" visible="true" version="2" changeset="133411045" timestamp="2023-03-07T17:02:32Z" user="AYAGE" uid="521665" lat="34.1645796" lon="132.2015601"/>
 <node id="1338102402" visible="true" version="1" changeset="8540490" timestamp="2011-06-25T09:52:57Z" user="yamasan" uid="32308" lat="34.1599290" lon="132.2029640"/>
 <node id="1338102433" visible="true" version="2" changeset="64865815" timestamp="2018-11-25T12:33:45Z" user="iwa map" uid="7211705" lat="34.1629881" lon="132.1996796"/>
 <node id="1338102441" visible="true" version="1" changeset="8540490" timestamp="2011-06-25T09:52:58Z" user="yamasan" uid="32308" lat="34.1604530" lon="132.2018660"/>
 <node id="1338102453" visible="true" version="3" changeset="169940948" timestamp="2025-08-04T08:41:19Z" user="taketaketake" uid="4757277" lat="34.1603031" lon="132.2059742"/>
 <node id="1338102567" visible="true" version="2" changeset="133388276" timestamp="2023-03-07T05:29:33Z" user="AYAGE" uid="521665" lat="34.1646929" lon="132.2028116"/>
 <node id="1338102589" visible="true" version="1" changeset="8540490" timestamp="2011-06-25T09:53:01Z" user="yamasan" uid="32308" lat="34.1608120" lon="132.2018760"/>
 <node id="1338102593" visible="true" version="2" changeset="133411045" timestamp="2023-03-07T17:02:32Z" user="AYAGE" uid="521665" lat="34.1640124" lon="132.2007240"/>
 <node id="1338102637" visible="true" version="1" changeset="8540490" timestamp="2011-06-25T09:53:03Z" user="yamasan" uid="32308" lat="34.1611980" lon="132.2014940"/>
 <node id="1338102682" visible="true" version="6" changeset="175985176" timestamp="2025-12-16T02:19:17Z" user="市川ゆり子" uid="388809" lat="34.1598288" lon="132.2079372">
  <tag k="highway" v="traffic_signals"/>
  <tag k="name" v="山手"/>
  <tag k="name:en" v="Yamate"/>
  <tag k="name:ja" v="山手"/>
  <tag k="name:ja-Hira" v="やまて"/>
  <tag k="name:ja_rm" v="Yamate"/>
 </node>
 <node id="1338102776" visible="true" version="1" changeset="8540490" timestamp="2011-06-25T09:53:07Z" user="yamasan" uid="32308" lat="34.1603970" lon="132.2019060"/>
 <node id="1338102782" visible="true" version="4" changeset="133411045" timestamp="2023-03-07T17:02:32Z" user="AYAGE" uid="521665" lat="34.1619023" lon="132.2020205"/>
 <node id="1338102795" visible="true" version="4" changeset="66243786" timestamp="2019-01-12T04:31:54Z" user="HicksCO" uid="9337111" lat="34.1646943" lon="132.1993087"/>
 <node id="1338102806" visible="true" version="2" changeset="64865337" timestamp="2018-11-25T12:12:48Z" user="iwa map" uid="7211705" lat="34.1637212" lon="132.1983009"/>
 <node id="1338102860" visible="true" version="4" changeset="133411045" timestamp="2023-03-07T17:02:32Z" user="AYAGE" uid="521665" lat="34.1614826" lon="132.2032964"/>
 <node id="1338102888" visible="true" version="1" changeset="8540490" timestamp="2011-06-25T09:53:11Z" user="yamasan" uid="32308" lat="34.1614720" lon="132.2013350"/>
 <node id="1338102946" visible="true" version="2" changeset="113525708" timestamp="2021-11-08T14:48:05Z" user="Juliet225" uid="10103365" lat="34.1619486" lon="132.2006088"/>
 <node id="1338102953" visible="true" version="1" changeset="8540490" timestamp="2011-06-25T09:53:12Z" user="yamasan" uid="32308" lat="34.1610970" lon="132.2015350"/>
 <node id="1338102979" visible="true" version="2" changeset="133411045" timestamp="2023-03-07T17:02:32Z" user="AYAGE" uid="521665" lat="34.1639090" lon="132.2008299"/>
 <node id="1338103021" visible="true" version="3" changeset="133486229" timestamp="2023-03-09T16:40:13Z" user="AYAGE" uid="521665" lat="34.1623202" lon="132.2002220"/>
 <node id="1338103201" visible="true" version="2" changeset="133411045" timestamp="2023-03-07T17:02:32Z" user="AYAGE" uid="521665" lat="34.1644749" lon="132.2011344"/>
 <node id="1338103230" visible="true" version="3" changeset="133411045" timestamp="2023-03-07T17:02:32Z" user="AYAGE" uid="521665" lat="34.1630082" lon="132.2018708"/>
 <node id="1338103250" visible="true" version="1" changeset="8540490" timestamp="2011-06-25T09:53:18Z" user="yamasan" uid="32308" lat="34.1634830" lon="132.2003820"/>
 <node id="1338103312" visible="true" version="2" changeset="35462977" timestamp="2015-11-20T14:32:10Z" user="DannyAiquipa" uid="2226712" lat="34.1644051" lon="132.1996766"/>
 <node id="1338103493" visible="true" version="2" changeset="133411045" timestamp="2023-03-07T17:02:32Z" user="AYAGE" uid="521665" lat="34.1642027" lon="132.2015923"/>
 <node id="1338103506" visible="true" version="1" changeset="8540490" timestamp="2011-06-25T09:53:23Z" user="yamasan" uid="32308" lat="34.1621420" lon="132.1998350"/>
 <node id="1338103536" visible="true" version="1" changeset="8540490" timestamp="2011-06-25T09:53:23Z" user="yamasan" uid="32308" lat="34.1619950" lon="132.2004240"/>
 <node id="1338103605" visible="true" version="1" changeset="8540490" timestamp="2011-06-25T09:53:24Z" user="yamasan" uid="32308" lat="34.1607600" lon="132.2019200"/>
 <node id="1338103612" visible="true" version="4" changeset="133411045" timestamp="2023-03-07T17:02:32Z" user="AYAGE" uid="521665" lat="34.1608840" lon="132.2046582"/>
 <node id="1338103640" visible="true" version="1" changeset="8540490" timestamp="2011-06-25T09:53:25Z" user="yamasan" uid="32308" lat="34.1600440" lon="132.2025030"/>
 <node id="1338103679" visible="true" version="7" changeset="175985176" timestamp="2025-12-16T02:19:17Z" user="市川ゆり子" uid="388809" lat="34.1650979" lon="132.1982180">
  <tag k="highway" v="traffic_signals"/>
  <tag k="name" v="錦見3丁目"/>
  <tag k="name:en" v="Nishimi 3-chome"/>
  <tag k="name:ja" v="錦見3丁目"/>
  <tag k="name:ja-Hira" v="にしみ３ちょうめ"/>
  <tag k="name:ja_rm" v="Nishimi 3-chome"/>
 </node>
 <node id="1338103734" visible="true" version="3" changeset="133486229" timestamp="2023-03-09T16:40:13Z" user="AYAGE" uid="521665" lat="34.1615635" lon="132.1944574"/>
 <node id="1338103778" visible="true" version="2" changeset="35462977" timestamp="2015-11-20T14:32:10Z" user="DannyAiquipa" uid="2226712" lat="34.1640414" lon="132.1998714"/>
 <node id="1338103785" visible="true" version="2" changeset="133411045" timestamp="2023-03-07T17:02:32Z" user="AYAGE" uid="521665" lat="34.1643386" lon="132.2021493"/>
 <node id="1338103879" visible="true" version="2" changeset="22537912" timestamp="2014-05-25T08:08:52Z" user="nmaruichi" uid="317331" lat="34.1598712" lon="132.2075333"/>
 <node id="1338103888" visible="true" version="2" changeset="35462977" timestamp="2015-11-20T14:32:10Z" user="DannyAiquipa" uid="2226712" lat="34.1635468" lon="132.2001539"/>
 <node id="1338103894" visible="true" version="3" changeset="133411045" timestamp="2023-03-07T17:02:32Z" user="AYAGE" uid="521665" lat="34.1623547" lon="132.2012970"/>
 <node id="1338103899" visible="true" version="1" changeset="8540490" timestamp="2011-06-25T09:53:32Z" user="yamasan" uid="32308" lat="34.1615650" lon="132.2012030"/>
 <node id="1338103934" visible="true" version="4" changeset="133411045" timestamp="2023-03-07T17:02:32Z" user="AYAGE" uid="521665" lat="34.1620283" lon="132.2018095"/>
 <node id="1338103992" visible="true" version="1" changeset="8540490" timestamp="2011-06-25T09:53:35Z" user="yamasan" uid="32308" lat="34.1599650" lon="132.2026560"/>
 <node id="1338104084" visible="true" version="2" changeset="64865815" timestamp="2018-11-25T12:33:45Z" user="iwa map" uid="7211705" lat="34.1628960" lon="132.1997979"/>
 <node id="1338104122" visible="true" version="3" changeset="169940948" timestamp="2025-08-04T08:41:19Z" user="taketaketake" uid="4757277" lat="34.1599536" lon="132.2068431"/>
 <node id="1338104130" visible="true" version="1" changeset="8540490" timestamp="2011-06-25T09:53:38Z" user="yamasan" uid="32308" lat="34.1613170" lon="132.2014570"/>
 <node id="1338104141" visible="true" version="2" changeset="133411045" timestamp="2023-03-07T17:02:32Z" user="AYAGE" uid="521665" lat="34.1643416" lon="132.2013578"/>
 <node id="1338104152" visible="true" version="3" changeset="133388276" timestamp="2023-03-07T05:29:33Z" user="AYAGE" uid="521665" lat="34.1656211" lon="132.2033639"/>
 <node id="1338104156" visible="true" version="1" changeset="8540490" timestamp="2011-06-25T09:53:39Z" user="yamasan" uid="32308" lat="34.1604980" lon="132.2018550"/>
 <node id="1338104201" visible="true" version="2" changeset="133411045" timestamp="2023-03-07T17:02:32Z" user="AYAGE" uid="521665" lat="34.1637154" lon="132.2011688"/>
 <node id="1338104260" visible="true" version="2" changeset="133388276" timestamp="2023-03-07T05:29:33Z" user="AYAGE" uid="521665" lat="34.1651150" lon="132.2030575"/>
 <node id="1338104357" visible="true" version="1" changeset="8540490" timestamp="2011-06-25T09:53:44Z" user="yamasan" uid="32308" lat="34.1617350" lon="132.2009570"/>
 <node id="1338104376" visible="true" version="3" changeset="133486229" timestamp="2023-03-09T16:40:13Z" user="AYAGE" uid="521665" lat="34.1645999" lon="132.1995232"/>
 <node id="1338104403" visible="true" version="3" changeset="133486229" timestamp="2023-03-09T16:40:13Z" user="AYAGE" uid="521665" lat="34.1630255" lon="132.2005418"/>
 <node id="1338104453" visible="true" version="3" changeset="133486229" timestamp="2023-03-09T16:40:13Z" user="AYAGE" uid="521665" lat="34.1622024" lon="132.1985869"/>
 <node id="1338104465" visible="true" version="4" changeset="133388276" timestamp="2023-03-07T05:29:33Z" user="AYAGE" uid="521665" lat="34.1661078" lon="132.2036434"/>
 <node id="1338104543" visible="true" version="1" changeset="8540490" timestamp="2011-06-25T09:53:50Z" user="yamasan" uid="32308" lat="34.1601350" lon="132.2023130"/>
 <node id="1338104568" visible="true" version="1" changeset="8540490" timestamp="2011-06-25T09:53:51Z" user="yamasan" uid="32308" lat="34.1606980" lon="132.2019300"/>
 <node id="1338104614" visible="true" version="1" changeset="8540490" timestamp="2011-06-25T09:53:52Z" user="yamasan" uid="32308" lat="34.1608930" lon="132.2017570"/>
 <node id="1338104652" visible="true" version="3" changeset="169940948" timestamp="2025-08-04T08:41:19Z" user="taketaketake" uid="4757277" lat="34.1600214" lon="132.2066150"/>
 <node id="1338104655" visible="true" version="3" changeset="133411045" timestamp="2023-03-07T17:02:32Z" user="AYAGE" uid="521665" lat="34.1628350" lon="132.2017346"/>
 <node id="1338104667" visible="true" version="1" changeset="8540490" timestamp="2011-06-25T09:53:54Z" user="yamasan" uid="32308" lat="34.1620820" lon="132.2001190"/>
 <node id="1338104677" visible="true" version="1" changeset="8540490" timestamp="2011-06-25T09:53:54Z" user="yamasan" uid="32308" lat="34.1605460" lon="132.2018620"/>
 <node id="1338104683" visible="true" version="1" changeset="8540490" timestamp="2011-06-25T09:53:54Z" user="yamasan" uid="32308" lat="34.1599380" lon="132.2027680"/>
 <node id="1338104709" visible="true" version="1" changeset="8540490" timestamp="2011-06-25T09:53:55Z" user="yamasan" uid="32308" lat="34.1603070" lon="132.2020320"/>
 <node id="1338104783" visible="true" version="1" changeset="8540490" timestamp="2011-06-25T09:53:57Z" user="yamasan" uid="32308" lat="34.1618650" lon="132.2007360"/>
 <node id="1338104862" visible="true" version="2" changeset="22537912" timestamp="2014-05-25T08:08:52Z" user="nmaruichi" uid="317331" lat="34.1598538" lon="132.2078109"/>
 <node id="2153508211" visible="true" version="5" changeset="175985176" timestamp="2025-12-16T02:19:17Z" user="市川ゆり子" uid="388809" lat="34.1648271" lon="132.1989022">
  <tag k="crossing:barrier" v="double_half"/>
  <tag k="name" v="錦見踏切"/>
  <tag k="name:ja" v="錦見踏切"/>
  <tag k="name:ja-Hira" v="にしみふみきり"/>
  <tag k="railway" v="level_crossing"/>
 </node>
 <node id="2879442167" visible="true" version="1" changeset="22537912" timestamp="2014-05-25T08:08:52Z" user="nmaruichi" uid="317331" lat="34.1598607" lon="132.2076805"/>
 <node id="3846749340" visible="true" version="3" changeset="133411045" timestamp="2023-03-07T17:02:32Z" user="AYAGE" uid="521665" lat="34.1618255" lon="132.2022241"/>
 <node id="3846749342" visible="true" version="1" changeset="35462977" timestamp="2015-11-20T14:32:06Z" user="DannyAiquipa" uid="2226712" lat="34.1627890" lon="132.2007588"/>
 <node id="3846749345" visible="true" version="2" changeset="133486229" timestamp="2023-03-09T16:40:13Z" user="AYAGE" uid="521665" lat="34.1645217" lon="132.1996043"/>
 <node id="3846749347" visible="true" version="2" changeset="133486229" timestamp="2023-03-09T16:40:13Z" user="AYAGE" uid="521665" lat="34.1646646" lon="132.1994008"/>
 <node id="4452947775" visible="true" version="3" changeset="133411045" timestamp="2023-03-07T17:02:32Z" user="AYAGE" uid="521665" lat="34.1615597" lon="132.2030713"/>
 <node id="6089872345" visible="true" version="4" changeset="133486229" timestamp="2023-03-09T16:40:13Z" user="AYAGE" uid="521665" lat="34.1640056" lon="132.1977826"/>
 <node id="6089872357" visible="true" version="2" changeset="133486229" timestamp="2023-03-09T16:40:13Z" user="AYAGE" uid="521665" lat="34.1618996" lon="132.1961223"/>
 <node id="6089872358" visible="true" version="2" changeset="66243786" timestamp="2019-01-12T04:31:55Z" user="HicksCO" uid="9337111" lat="34.1624294" lon="132.1971605"/>
 <node id="6089872359" visible="true" version="1" changeset="64865337" timestamp="2018-11-25T12:12:48Z" user="iwa map" uid="7211705" lat="34.1633224" lon="132.1988996"/>
 <node id="6089872360" visible="true" version="1" changeset="64865337" timestamp="2018-11-25T12:12:48Z" user="iwa map" uid="7211705" lat="34.1634011" lon="132.1990198"/>
 <node id="6089872361" visible="true" version="1" changeset="64865337" timestamp="2018-11-25T12:12:48Z" user="iwa map" uid="7211705" lat="34.1639560" lon="132.1996279"/>
 <node id="6089872362" visible="true" version="1" changeset="64865337" timestamp="2018-11-25T12:12:48Z" user="iwa map" uid="7211705" lat="34.1639788" lon="132.1996629"/>
 <node id="6089872363" visible="true" version="1" changeset="64865337" timestamp="2018-11-25T12:12:48Z" user="iwa map" uid="7211705" lat="34.1639892" lon="132.1997130"/>
 <node id="6089872364" visible="true" version="1" changeset="64865337" timestamp="2018-11-25T12:12:48Z" user="iwa map" uid="7211705" lat="34.1639809" lon="132.1997580"/>
 <node id="6089872365" visible="true" version="1" changeset="64865337" timestamp="2018-11-25T12:12:48Z" user="iwa map" uid="7211705" lat="34.1639581" lon="132.1997881"/>
 <node id="6089872366" visible="true" version="1" changeset="64865337" timestamp="2018-11-25T12:12:48Z" user="iwa map" uid="7211705" lat="34.1639250" lon="132.1998156"/>
 <node id="6089872367" visible="true" version="1" changeset="64865337" timestamp="2018-11-25T12:12:48Z" user="iwa map" uid="7211705" lat="34.1638463" lon="132.1998631"/>
 <node id="6089872368" visible="true" version="2" changeset="133486229" timestamp="2023-03-09T16:40:13Z" user="AYAGE" uid="521665" lat="34.1637802" lon="132.1999090"/>
 <node id="6089872369" visible="true" version="2" changeset="133486229" timestamp="2023-03-09T16:40:13Z" user="AYAGE" uid="521665" lat="34.1638158" lon="132.2000007"/>
 <node id="6089872370" visible="true" version="1" changeset="64865337" timestamp="2018-11-25T12:12:48Z" user="iwa map" uid="7211705" lat="34.1633698" lon="132.1989719"/>
 <node id="6089872371" visible="true" version="2" changeset="66243786" timestamp="2019-01-12T04:31:55Z" user="HicksCO" uid="9337111" lat="34.1647932" lon="132.1990010"/>
 <node id="6089872372" visible="true" version="2" changeset="66243786" timestamp="2019-01-12T04:31:55Z" user="HicksCO" uid="9337111" lat="34.1645362" lon="132.1985761"/>
 <node id="6089872373" visible="true" version="1" changeset="64865337" timestamp="2018-11-25T12:12:48Z" user="iwa map" uid="7211705" lat="34.1637322" lon="132.1993827"/>
 <node id="6089872374" visible="true" version="2" changeset="133486229" timestamp="2023-03-09T16:40:13Z" user="AYAGE" uid="521665" lat="34.1645904" lon="132.1994276"/>
 <node id="6089872375" visible="true" version="2" changeset="133486229" timestamp="2023-03-09T16:40:13Z" user="AYAGE" uid="521665" lat="34.1646308" lon="132.1994753"/>
 <node id="6089891770" visible="true" version="2" changeset="133411045" timestamp="2023-03-07T17:02:32Z" user="AYAGE" uid="521665" lat="34.1639893" lon="132.2023935"/>
 <node id="6089891782" visible="true" version="2" changeset="133411045" timestamp="2023-03-07T17:02:32Z" user="AYAGE" uid="521665" lat="34.1632728" lon="132.2020326"/>
 <node id="6089891783" visible="true" version="1" changeset="64865570" timestamp="2018-11-25T12:24:13Z" user="iwa map" uid="7211705" lat="34.1633693" lon="132.2017522"/>
 <node id="6089891784" visible="true" version="2" changeset="133411045" timestamp="2023-03-07T17:02:32Z" user="AYAGE" uid="521665" lat="34.1637482" lon="132.2021316"/>
 <node id="6089892485" visible="true" version="2" changeset="133411045" timestamp="2023-03-07T17:02:32Z" user="AYAGE" uid="521665" lat="34.1636767" lon="132.2018385"/>
 <node id="6089892486" visible="true" version="2" changeset="133411045" timestamp="2023-03-07T17:02:32Z" user="AYAGE" uid="521665" lat="34.1636365" lon="132.2017618"/>
 <node id="6089892487" visible="true" version="1" changeset="64865570" timestamp="2018-11-25T12:24:13Z" user="iwa map" uid="7211705" lat="34.1633682" lon="132.2015221"/>
 <node id="6089892488" visible="true" version="1" changeset="64865570" timestamp="2018-11-25T12:24:13Z" user="iwa map" uid="7211705" lat="34.1633350" lon="132.2014635"/>
 <node id="6089892489" visible="true" version="1" changeset="64865570" timestamp="2018-11-25T12:24:13Z" user="iwa map" uid="7211705" lat="34.1633860" lon="132.2013896"/>
 <node id="6089892490" visible="true" version="1" changeset="64865570" timestamp="2018-11-25T12:24:13Z" user="iwa map" uid="7211705" lat="34.1634166" lon="132.2013403"/>
 <node id="6089892491" visible="true" version="1" changeset="64865570" timestamp="2018-11-25T12:24:13Z" user="iwa map" uid="7211705" lat="34.1634039" lon="132.2012694"/>
 <node id="6089892492" visible="true" version="1" changeset="64865570" timestamp="2018-11-25T12:24:13Z" user="iwa map" uid="7211705" lat="34.1633886" lon="132.2011554"/>
 <node id="6089892493" visible="true" version="1" changeset="64865570" timestamp="2018-11-25T12:24:13Z" user="iwa map" uid="7211705" lat="34.1634421" lon="132.2011400"/>
 <node id="6089892494" visible="true" version="2" changeset="133411045" timestamp="2023-03-07T17:02:32Z" user="AYAGE" uid="521665" lat="34.1634852" lon="132.2013604"/>
 <node id="6089892495" visible="true" version="2" changeset="133411045" timestamp="2023-03-07T17:02:32Z" user="AYAGE" uid="521665" lat="34.1635241" lon="132.2014254"/>
 <node id="6089892496" visible="true" version="2" changeset="133411045" timestamp="2023-03-07T17:02:32Z" user="AYAGE" uid="521665" lat="34.1637339" lon="132.2015950"/>
 <node id="6089892497" visible="true" version="2" changeset="133411045" timestamp="2023-03-07T17:02:32Z" user="AYAGE" uid="521665" lat="34.1637981" lon="132.2016791"/>
 <node id="6089892498" visible="true" version="2" changeset="133411045" timestamp="2023-03-07T17:02:32Z" user="AYAGE" uid="521665" lat="34.1639077" lon="132.2020712"/>
 <node id="6089892499" visible="true" version="2" changeset="133411045" timestamp="2023-03-07T17:02:32Z" user="AYAGE" uid="521665" lat="34.1639362" lon="132.2021166"/>
 <node id="6089892500" visible="true" version="2" changeset="133411045" timestamp="2023-03-07T17:02:32Z" user="AYAGE" uid="521665" lat="34.1640489" lon="132.2022390"/>
 <node id="6089892501" visible="true" version="1" changeset="64865570" timestamp="2018-11-25T12:24:13Z" user="iwa map" uid="7211705" lat="34.1631668" lon="132.2015806"/>
 <node id="6089892502" visible="true" version="1" changeset="64865570" timestamp="2018-11-25T12:24:13Z" user="iwa map" uid="7211705" lat="34.1632178" lon="132.2014143"/>
 <node id="6089892503" visible="true" version="1" changeset="64865570" timestamp="2018-11-25T12:24:13Z" user="iwa map" uid="7211705" lat="34.1632178" lon="132.2013650"/>
 <node id="6089892504" visible="true" version="1" changeset="64865570" timestamp="2018-11-25T12:24:13Z" user="iwa map" uid="7211705" lat="34.1633937" lon="132.2008627"/>
 <node id="6089892506" visible="true" version="2" changeset="133411045" timestamp="2023-03-07T17:02:32Z" user="AYAGE" uid="521665" lat="34.1637408" lon="132.2022545"/>
 <node id="6089892507" visible="true" version="2" changeset="133411045" timestamp="2023-03-07T17:02:32Z" user="AYAGE" uid="521665" lat="34.1635069" lon="132.2021379"/>
 <node id="6089892512" visible="true" version="2" changeset="133411045" timestamp="2023-03-07T17:02:32Z" user="AYAGE" uid="521665" lat="34.1643694" lon="132.2026104"/>
 <node id="6089892513" visible="true" version="2" changeset="133388276" timestamp="2023-03-07T05:29:33Z" user="AYAGE" uid="521665" lat="34.1647475" lon="132.2028430"/>
 <node id="6089892536" visible="true" version="1" changeset="64865570" timestamp="2018-11-25T12:24:13Z" user="iwa map" uid="7211705" lat="34.1630947" lon="132.2017032"/>
 <node id="6089892537" visible="true" version="1" changeset="64865570" timestamp="2018-11-25T12:24:13Z" user="iwa map" uid="7211705" lat="34.1633209" lon="132.2018628"/>
 <node id="6089892538" visible="true" version="1" changeset="64865570" timestamp="2018-11-25T12:24:13Z" user="iwa map" uid="7211705" lat="34.1631839" lon="132.2015248"/>
 <node id="6089905261" visible="true" version="1" changeset="64865815" timestamp="2018-11-25T12:33:43Z" user="iwa map" uid="7211705" lat="34.1628270" lon="132.1997498"/>
 <node id="6089905262" visible="true" version="2" changeset="66243786" timestamp="2019-01-12T04:31:55Z" user="HicksCO" uid="9337111" lat="34.1629713" lon="132.1997170"/>
 <node id="6089905266" visible="true" version="3" changeset="133486229" timestamp="2023-03-09T16:40:13Z" user="AYAGE" uid="521665" lat="34.1633199" lon="132.2001659"/>
 <node id="6089905267" visible="true" version="2" changeset="133486229" timestamp="2023-03-09T16:40:13Z" user="AYAGE" uid="521665" lat="34.1634187" lon="132.2001124"/>
 <node id="6089905268" visible="true" version="3" changeset="133486229" timestamp="2023-03-09T16:40:13Z" user="AYAGE" uid="521665" lat="34.1636022" lon="132.1999947"/>
 <node id="6089905269" visible="true" version="2" changeset="66243786" timestamp="2019-01-12T04:31:55Z" user="HicksCO" uid="9337111" lat="34.1631183" lon="132.1994372"/>
 <node id="6089905274" visible="true" version="1" changeset="64865815" timestamp="2018-11-25T12:33:43Z" user="iwa map" uid="7211705" lat="34.1636611" lon="132.1993048"/>
 <node id="6089905275" visible="true" version="1" changeset="64865815" timestamp="2018-11-25T12:33:43Z" user="iwa map" uid="7211705" lat="34.1639107" lon="132.1995783"/>
 <node id="6089905278" visible="true" version="2" changeset="66243786" timestamp="2019-01-12T04:31:55Z" user="HicksCO" uid="9337111" lat="34.1634575" lon="132.1998234"/>
 <node id="6089905388" visible="true" version="2" changeset="133486229" timestamp="2023-03-09T16:40:13Z" user="AYAGE" uid="521665" lat="34.1630003" lon="132.2001241"/>
 <node id="6089905389" visible="true" version="2" changeset="133486229" timestamp="2023-03-09T16:40:13Z" user="AYAGE" uid="521665" lat="34.1626925" lon="132.2003600"/>
 <node id="6089905390" visible="true" version="2" changeset="133486229" timestamp="2023-03-09T16:40:13Z" user="AYAGE" uid="521665" lat="34.1624214" lon="132.2005893"/>
 <node id="6089905391" visible="true" version="2" changeset="133486229" timestamp="2023-03-09T16:40:13Z" user="AYAGE" uid="521665" lat="34.1623692" lon="132.2006102"/>
 <node id="6089905392" visible="true" version="2" changeset="66243786" timestamp="2019-01-12T04:31:55Z" user="HicksCO" uid="9337111" lat="34.1623203" lon="132.2001926"/>
 <node id="6089905393" visible="true" version="1" changeset="64865815" timestamp="2018-11-25T12:33:44Z" user="iwa map" uid="7211705" lat="34.1620532" lon="132.2002200"/>
 <node id="6202628251" visible="true" version="1" changeset="66243786" timestamp="2019-01-12T04:31:43Z" user="HicksCO" uid="9337111" lat="34.1629012" lon="132.1980625"/>
 <node id="9128388076" visible="true" version="1" changeset="111794059" timestamp="2021-09-28T02:23:39Z" user="nyampire_import" uid="1178360" lat="34.1629560" lon="132.1996930">
  <tag k="name" v="錦見八丁目"/>
  <tag k="place" v="neighbourhood"/>
 </node>
 <node id="9235586616" visible="true" version="2" changeset="133486229" timestamp="2023-03-09T16:40:13Z" user="AYAGE" uid="521665" lat="34.1641965" lon="132.1989219"/>
 <node id="9235586621" visible="true" version="1" changeset="113525708" timestamp="2021-11-08T14:48:05Z" user="Juliet225" uid="10103365" lat="34.1639423" lon="132.1977921"/>
 <node id="9235586622" visible="true" version="1" changeset="113525708" timestamp="2021-11-08T14:48:05Z" user="Juliet225" uid="10103365" lat="34.1636345" lon="132.1983615"/>
 <node id="9235586623" visible="true" version="1" changeset="113525708" timestamp="2021-11-08T14:48:05Z" user="Juliet225" uid="10103365" lat="34.1629482" lon="132.1996364"/>
 <node id="9235586624" visible="true" version="1" changeset="113525708" timestamp="2021-11-08T14:48:05Z" user="Juliet225" uid="10103365" lat="34.1627986" lon="132.1998816"/>
 <node id="9235586625" visible="true" version="1" changeset="113525708" timestamp="2021-11-08T14:48:05Z" user="Juliet225" uid="10103365" lat="34.1623803" lon="132.2002707"/>
 <node id="9235586626" visible="true" version="1" changeset="113525708" timestamp="2021-11-08T14:48:05Z" user="Juliet225" uid="10103365" lat="34.1622510" lon="132.2003749"/>
 <node id="9235586627" visible="true" version="1" changeset="113525708" timestamp="2021-11-08T14:48:05Z" user="Juliet225" uid="10103365" lat="34.1620659" lon="132.2004790"/>
 <node id="9235586645" visible="true" version="1" changeset="113525708" timestamp="2021-11-08T14:48:05Z" user="Juliet225" uid="10103365" lat="34.1633552" lon="132.1989496"/>
 <node id="9235586646" visible="true" version="1" changeset="113525708" timestamp="2021-11-08T14:48:05Z" user="Juliet225" uid="10103365" lat="34.1640189" lon="132.1977095"/>
 <node id="9235586648" visible="true" version="1" changeset="113525708" timestamp="2021-11-08T14:48:05Z" user="Juliet225" uid="10103365" lat="34.1639711" lon="132.1997709"/>
 <node id="9235586649" visible="true" version="1" changeset="113525708" timestamp="2021-11-08T14:48:05Z" user="Juliet225" uid="10103365" lat="34.1633281" lon="132.1990490"/>
 <node id="9235586650" visible="true" version="1" changeset="113525708" timestamp="2021-11-08T14:48:05Z" user="Juliet225" uid="10103365" lat="34.1638542" lon="132.1996397"/>
 <node id="9235586651" visible="true" version="1" changeset="113525708" timestamp="2021-11-08T14:48:05Z" user="Juliet225" uid="10103365" lat="34.1636144" lon="132.1993704"/>
 <node id="9235586652" visible="true" version="1" changeset="113525708" timestamp="2021-11-08T14:48:05Z" user="Juliet225" uid="10103365" lat="34.1632342" lon="132.1995692"/>
 <node id="9235586653" visible="true" version="1" changeset="113525708" timestamp="2021-11-08T14:48:05Z" user="Juliet225" uid="10103365" lat="34.1622869" lon="132.2003459"/>
 <node id="9235586655" visible="true" version="1" changeset="113525708" timestamp="2021-11-08T14:48:05Z" user="Juliet225" uid="10103365" lat="34.1620362" lon="132.2004802"/>
 <node id="9765356011" visible="true" version="1" changeset="121389239" timestamp="2022-05-23T20:31:52Z" user="asutekku" uid="2254059" lat="34.1610922" lon="132.1927871"/>
 <node id="9765356012" visible="true" version="1" changeset="121389239" timestamp="2022-05-23T20:31:52Z" user="asutekku" uid="2254059" lat="34.1613105" lon="132.1933528"/>
 <node id="10719468620" visible="true" version="1" changeset="133411045" timestamp="2023-03-07T17:02:32Z" user="AYAGE" uid="521665" lat="34.1656677" lon="132.2033907"/>
 <node id="10719468648" visible="true" version="1" changeset="133411045" timestamp="2023-03-07T17:02:32Z" user="AYAGE" uid="521665" lat="34.1639815" lon="132.2007186"/>
 <node id="10719468649" visible="true" version="1" changeset="133411045" timestamp="2023-03-07T17:02:32Z" user="AYAGE" uid="521665" lat="34.1639571" lon="132.2013750"/>
 <node id="10719468650" visible="true" version="1" changeset="133411045" timestamp="2023-03-07T17:02:32Z" user="AYAGE" uid="521665" lat="34.1642423" lon="132.2009211"/>
 <node id="10719468651" visible="true" version="1" changeset="133411045" timestamp="2023-03-07T17:02:32Z" user="AYAGE" uid="521665" lat="34.1641080" lon="132.2017626"/>
 <node id="10719468652" visible="true" version="1" changeset="133411045" timestamp="2023-03-07T17:02:32Z" user="AYAGE" uid="521665" lat="34.1641407" lon="132.2019987"/>
 <node id="10719468657" visible="true" version="1" changeset="133411045" timestamp="2023-03-07T17:02:32Z" user="AYAGE" uid="521665" lat="34.1640375" lon="132.2021938"/>
 <node id="10719468658" visible="true" version="1" changeset="133411045" timestamp="2023-03-07T17:02:32Z" user="AYAGE" uid="521665" lat="34.1630105" lon="132.2014260"/>
 <node id="10719468659" visible="true" version="1" changeset="133411045" timestamp="2023-03-07T17:02:32Z" user="AYAGE" uid="521665" lat="34.1631404" lon="132.2019618"/>
 <node id="10719468728" visible="true" version="1" changeset="133411045" timestamp="2023-03-07T17:02:32Z" user="AYAGE" uid="521665" lat="34.1610625" lon="132.2042493"/>
 <node id="10719468729" visible="true" version="1" changeset="133411045" timestamp="2023-03-07T17:02:32Z" user="AYAGE" uid="521665" lat="34.1612722" lon="132.2037689"/>
 <node id="10723926701" visible="true" version="1" changeset="133486229" timestamp="2023-03-09T16:40:13Z" user="AYAGE" uid="521665" lat="34.1632746" lon="132.2000702"/>
 <node id="10723926702" visible="true" version="1" changeset="133486229" timestamp="2023-03-09T16:40:13Z" user="AYAGE" uid="521665" lat="34.1632896" lon="132.2003344"/>
 <node id="10723926703" visible="true" version="1" changeset="133486229" timestamp="2023-03-09T16:40:13Z" user="AYAGE" uid="521665" lat="34.1624113" lon="132.2009761"/>
 <node id="10723926704" visible="true" version="1" changeset="133486229" timestamp="2023-03-09T16:40:13Z" user="AYAGE" uid="521665" lat="34.1623808" lon="132.2001855"/>
 <node id="10723927605" visible="true" version="1" changeset="133486229" timestamp="2023-03-09T16:40:13Z" user="AYAGE" uid="521665" lat="34.1622043" lon="132.1996866"/>
 <node id="10723927607" visible="true" version="1" changeset="133486229" timestamp="2023-03-09T16:40:13Z" user="AYAGE" uid="521665" lat="34.1621977" lon="132.1982892"/>
 <node id="10723927608" visible="true" version="1" changeset="133486229" timestamp="2023-03-09T16:40:13Z" user="AYAGE" uid="521665" lat="34.1621755" lon="132.1976911"/>
 <node id="10723927611" visible="true" version="1" changeset="133486229" timestamp="2023-03-09T16:40:13Z" user="AYAGE" uid="521665" lat="34.1639890" lon="132.1978128"/>
 <node id="10724957364" visible="true" version="1" changeset="133503063" timestamp="2023-03-10T05:12:42Z" user="AYAGE" uid="521665" lat="34.1650507" lon="132.1982959"/>
 <node id="10724957365" visible="true" version="1" changeset="133503063" timestamp="2023-03-10T05:12:42Z" user="AYAGE" uid="521665" lat="34.1649941" lon="132.1984300"/>
 <node id="13047816367" visible="true" version="1" changeset="169940948" timestamp="2025-08-04T08:41:19Z" user="taketaketake" uid="4757277" lat="34.1599193" lon="132.2070318"/>
 <node id="13618914512" visible="true" version="1" changeset="179369510" timestamp="2026-03-04T21:20:04Z" user="foldedbike" uid="23754301" lat="34.1609795" lon="132.1925322">
  <tag k="highway" v="crossing"/>
 </node>
 <node id="13618914516" visible="true" version="1" changeset="179369510" timestamp="2026-03-04T21:20:04Z" user="foldedbike" uid="23754301" lat="34.1650167" lon="132.1983764">
  <tag k="crossing" v="uncontrolled"/>
  <tag k="crossing:markings" v="zebra"/>
  <tag k="highway" v="crossing"/>
 </node>
 <way id="34582328" visible="true" version="10" changeset="179369510" timestamp="2026-03-04T21:20:04Z" user="foldedbike" uid="23754301">
  <nd ref="1336835732"/>
  <nd ref="1336832752"/>
  <nd ref="10723926703"/>
  <nd ref="6089905391"/>
  <nd ref="1338103021"/>
  <nd ref="6089905392"/>
  <nd ref="1336833913"/>
  <nd ref="1336835334"/>
  <nd ref="1338104453"/>
  <nd ref="10723927607"/>
  <nd ref="1336836644"/>
  <nd ref="10723927608"/>
  <nd ref="1336833639"/>
  <nd ref="1336835430"/>
  <nd ref="6089872357"/>
  <nd ref="1338103734"/>
  <nd ref="1336836718"/>
  <nd ref="1336833694"/>
  <nd ref="9765356012"/>
  <nd ref="1336835126"/>
  <nd ref="9765356011"/>
  <nd ref="13618914512"/>
  <nd ref="1336836405"/>
  <tag k="highway" v="tertiary"/>
  <tag k="source" v="Bing"/>
 </way>
 <way id="119024962" visible="true" version="2" changeset="133486229" timestamp="2023-03-09T16:40:13Z" user="AYAGE" uid="521665">
  <nd ref="1338102386"/>
  <nd ref="1338104141"/>
  <tag k="highway" v="residential"/>
 </way>
 <way id="119024988" visible="true" version="3" changeset="133486229" timestamp="2023-03-09T16:40:13Z" user="AYAGE" uid="521665">
  <nd ref="1336833913"/>
  <nd ref="10723927605"/>
  <nd ref="1338103506"/>
  <nd ref="1338104667"/>
  <nd ref="6089905393"/>
  <nd ref="1338103536"/>
  <nd ref="1338102946"/>
  <nd ref="1338104783"/>
  <nd ref="1338104357"/>
  <nd ref="1338103899"/>
  <nd ref="1338102888"/>
  <nd ref="1338102205"/>
  <nd ref="1338104130"/>
  <nd ref="1338102637"/>
  <nd ref="1338102953"/>
  <nd ref="1338102317"/>
  <nd ref="1338104614"/>
  <nd ref="1338102589"/>
  <nd ref="1338103605"/>
  <nd ref="1338104568"/>
  <nd ref="1338102367"/>
  <nd ref="1338104677"/>
  <nd ref="1338104156"/>
  <nd ref="1338102441"/>
  <nd ref="1338102776"/>
  <nd ref="1338104709"/>
  <nd ref="1338104543"/>
  <nd ref="1338103640"/>
  <nd ref="1338103992"/>
  <nd ref="1338104683"/>
  <nd ref="1338102402"/>
  <tag k="highway" v="unclassified"/>
  <tag k="source" v="YahooJapan/ALPSMAP"/>
 </way>
 <way id="119025026" visible="true" version="9" changeset="179369510" timestamp="2026-03-04T21:20:04Z" user="foldedbike" uid="23754301">
  <nd ref="1338102682"/>
  <nd ref="1338104862"/>
  <nd ref="2879442167"/>
  <nd ref="1338103879"/>
  <nd ref="1338102303"/>
  <nd ref="13047816367"/>
  <nd ref="1338104122"/>
  <nd ref="1338104652"/>
  <nd ref="1338102453"/>
  <nd ref="1338103612"/>
  <nd ref="10719468728"/>
  <nd ref="10719468729"/>
  <nd ref="1338102860"/>
  <nd ref="4452947775"/>
  <nd ref="3846749340"/>
  <nd ref="1338102782"/>
  <nd ref="1338103934"/>
  <nd ref="1338103894"/>
  <nd ref="1336835732"/>
  <nd ref="3846749342"/>
  <nd ref="1338104403"/>
  <nd ref="10723926702"/>
  <nd ref="1338103888"/>
  <nd ref="6089872369"/>
  <nd ref="1338103778"/>
  <nd ref="1338103312"/>
  <nd ref="3846749345"/>
  <nd ref="1338104376"/>
  <nd ref="6089872375"/>
  <nd ref="3846749347"/>
  <nd ref="1338102795"/>
  <nd ref="6089872371"/>
  <nd ref="2153508211"/>
  <nd ref="10724957365"/>
  <nd ref="13618914516"/>
  <nd ref="10724957364"/>
  <nd ref="1338103679"/>
  <tag k="highway" v="primary"/>
  <tag k="lanes" v="2"/>
  <tag k="maxspeed" v="40"/>
  <tag k="maxspeed:type" v="sign"/>
  <tag k="name" v="岩国玖珂線"/>
  <tag k="name:en" v="Iwakuni Kuga Line"/>
  <tag k="name:ja" v="岩国玖珂線"/>
  <tag k="name:ja-Hira" v="いわくにくがせん"/>
  <tag k="name:ja_rm" v="Iwakuni Kuga-sen"/>
  <tag k="ref" v="15"/>
  <tag k="source" v="YahooJapan/ALPSMAP"/>
  <tag k="surface" v="asphalt"/>
  <tag k="wikidata" v="Q11467160"/>
  <tag k="wikipedia" v="ja:山口県道15号岩国玖珂線"/>
 </way>
 <way id="119025122" visible="true" version="5" changeset="133486229" timestamp="2023-03-09T16:40:13Z" user="AYAGE" uid="521665">
  <nd ref="6089872345"/>
  <nd ref="10723927611"/>
  <nd ref="1338102806"/>
  <nd ref="6089872370"/>
  <nd ref="9235586649"/>
  <nd ref="6089905269"/>
  <nd ref="1338102433"/>
  <nd ref="6089905262"/>
  <nd ref="1338104084"/>
  <tag k="highway" v="residential"/>
  <tag k="source" v="YahooJapan/ALPSMAP"/>
 </way>
 <way id="119025142" visible="true" version="2" changeset="133486229" timestamp="2023-03-09T16:40:13Z" user="AYAGE" uid="521665">
  <nd ref="1338103493"/>
  <nd ref="1338104141"/>
  <tag k="highway" v="residential"/>
 </way>
 <way id="119025239" visible="true" version="3" changeset="133486229" timestamp="2023-03-09T16:40:13Z" user="AYAGE" uid="521665">
  <nd ref="1338102979"/>
  <nd ref="1338104201"/>
  <nd ref="10719468649"/>
  <nd ref="1338103493"/>
  <tag k="highway" v="residential"/>
 </way>
 <way id="119025323" visible="true" version="3" changeset="133486229" timestamp="2023-03-09T16:40:13Z" user="AYAGE" uid="521665">
  <nd ref="1338104141"/>
  <nd ref="1338103201"/>
  <nd ref="10719468650"/>
  <nd ref="1338102593"/>
  <nd ref="10719468648"/>
  <nd ref="1338102979"/>
  <tag k="highway" v="residential"/>
 </way>
 <way id="119025396" visible="true" version="4" changeset="133922003" timestamp="2023-03-21T04:04:12Z" user="Thanatica" uid="2550888">
  <nd ref="1338103894"/>
  <nd ref="1338104655"/>
  <nd ref="1338103230"/>
  <nd ref="10719468659"/>
  <nd ref="6089891782"/>
  <nd ref="6089892507"/>
  <nd ref="6089892506"/>
  <nd ref="6089891770"/>
  <nd ref="6089892512"/>
  <nd ref="1338102567"/>
  <nd ref="6089892513"/>
  <nd ref="1338104260"/>
  <nd ref="1338104152"/>
  <nd ref="10719468620"/>
  <nd ref="1338104465"/>
  <tag k="highway" v="residential"/>
  <tag k="maxspeed" v="30"/>
  <tag k="maxspeed:type" v="sign"/>
  <tag k="surface" v="asphalt"/>
 </way>
 <way id="119025506" visible="true" version="3" changeset="133486229" timestamp="2023-03-09T16:40:13Z" user="AYAGE" uid="521665">
  <nd ref="1338103785"/>
  <nd ref="1338102166"/>
  <nd ref="10719468652"/>
  <nd ref="10719468651"/>
  <nd ref="1338103493"/>
  <tag k="highway" v="residential"/>
 </way>
 <way id="119025620" visible="true" version="1" changeset="8540490" timestamp="2011-06-25T09:56:25Z" user="yamasan" uid="32308">
  <nd ref="1338102979"/>
  <nd ref="1338103250"/>
  <tag k="highway" v="steps"/>
  <tag k="source" v="YahooJapan/ALPSMAP"/>
  <tag k="yh:STRUCTURE" v="地上"/>
  <tag k="yh:TOTYUMONO" v="供用中"/>
  <tag k="yh:TYPE" v="石段"/>
  <tag k="yh:WIDTH" v="3.0m〜5.5m"/>
  <tag k="yh:WIDTH_RANK" v="3"/>
 </way>
 <way id="648719775" visible="true" version="4" changeset="113525708" timestamp="2021-11-08T14:48:05Z" user="Juliet225" uid="10103365">
  <nd ref="6089872358"/>
  <nd ref="6202628251"/>
  <nd ref="6089872359"/>
  <tag k="highway" v="residential"/>
 </way>
 <way id="648719776" visible="true" version="2" changeset="113525708" timestamp="2021-11-08T14:48:05Z" user="Juliet225" uid="10103365">
  <nd ref="6089872372"/>
  <nd ref="9235586616"/>
  <nd ref="6089872373"/>
  <tag k="highway" v="residential"/>
 </way>
 <way id="648719777" visible="true" version="2" changeset="113525708" timestamp="2021-11-08T14:48:05Z" user="Juliet225" uid="10103365">
  <nd ref="1338102806"/>
  <nd ref="9235586616"/>
  <nd ref="6089872374"/>
  <nd ref="6089872375"/>
  <tag k="highway" v="residential"/>
 </way>
 <way id="648723753" visible="true" version="2" changeset="133486229" timestamp="2023-03-09T16:40:13Z" user="AYAGE" uid="521665">
  <nd ref="6089891782"/>
  <nd ref="6089892537"/>
  <nd ref="6089891783"/>
  <tag k="highway" v="residential"/>
 </way>
 <way id="648723754" visible="true" version="3" changeset="133486229" timestamp="2023-03-09T16:40:13Z" user="AYAGE" uid="521665">
  <nd ref="6089892506"/>
  <nd ref="6089891784"/>
  <nd ref="6089892485"/>
  <nd ref="6089892486"/>
  <nd ref="6089892487"/>
  <nd ref="6089892488"/>
  <nd ref="6089892489"/>
  <nd ref="6089892490"/>
  <nd ref="6089892491"/>
  <nd ref="6089892492"/>
  <nd ref="6089892493"/>
  <nd ref="6089892494"/>
  <nd ref="6089892495"/>
  <nd ref="6089892496"/>
  <nd ref="6089892497"/>
  <nd ref="6089892498"/>
  <nd ref="6089892499"/>
  <nd ref="10719468657"/>
  <nd ref="6089892500"/>
  <nd ref="6089891770"/>
  <tag k="highway" v="residential"/>
 </way>
 <way id="648723755" visible="true" version="2" changeset="133486229" timestamp="2023-03-09T16:40:13Z" user="AYAGE" uid="521665">
  <nd ref="1338103230"/>
  <nd ref="6089892536"/>
  <nd ref="6089892501"/>
  <nd ref="6089892538"/>
  <nd ref="6089892502"/>
  <nd ref="6089892503"/>
  <tag k="highway" v="residential"/>
 </way>
 <way id="648723756" visible="true" version="1" changeset="64865570" timestamp="2018-11-25T12:24:14Z" user="iwa map" uid="7211705">
  <nd ref="6089892493"/>
  <nd ref="6089892504"/>
  <tag k="highway" v="unclassified"/>
 </way>
 <way id="648723764" visible="true" version="1" changeset="64865570" timestamp="2018-11-25T12:24:14Z" user="iwa map" uid="7211705">
  <nd ref="6089892536"/>
  <nd ref="6089892537"/>
  <nd ref="6089891783"/>
  <nd ref="6089892538"/>
  <nd ref="6089892536"/>
  <tag k="leisure" v="park"/>
 </way>
 <way id="648725597" visible="true" version="4" changeset="133486229" timestamp="2023-03-09T16:40:13Z" user="AYAGE" uid="521665">
  <nd ref="6089905262"/>
  <nd ref="10723926701"/>
  <nd ref="6089905266"/>
  <nd ref="6089905267"/>
  <nd ref="6089905268"/>
  <nd ref="6089872368"/>
  <tag k="highway" v="residential"/>
 </way>
 <way id="648725601" visible="true" version="3" changeset="133486229" timestamp="2023-03-09T16:40:13Z" user="AYAGE" uid="521665">
  <nd ref="6089905388"/>
  <nd ref="6089905389"/>
  <nd ref="6089905390"/>
  <nd ref="6089905391"/>
  <tag k="highway" v="residential"/>
 </way>
 <way id="648725602" visible="true" version="1" changeset="64865815" timestamp="2018-11-25T12:33:45Z" user="iwa map" uid="7211705">
  <nd ref="6089905392"/>
  <nd ref="6089905393"/>
  <tag k="highway" v="path"/>
 </way>
 <way id="662549954" visible="true" version="2" changeset="113525708" timestamp="2021-11-08T14:48:05Z" user="Juliet225" uid="10103365">
  <nd ref="6089905269"/>
  <nd ref="9235586652"/>
  <nd ref="6089905278"/>
  <nd ref="6089905268"/>
  <tag k="highway" v="residential"/>
 </way>
 <way id="1000533858" visible="true" version="1" changeset="113525708" timestamp="2021-11-08T14:48:05Z" user="Juliet225" uid="10103365">
  <nd ref="9235586645"/>
  <nd ref="6089872370"/>
  <nd ref="6089872360"/>
  <nd ref="6089905274"/>
  <nd ref="6089872373"/>
  <nd ref="6089905275"/>
  <nd ref="6089872361"/>
  <nd ref="6089872362"/>
  <nd ref="6089872363"/>
  <nd ref="6089872364"/>
  <nd ref="9235586648"/>
  <nd ref="6089872365"/>
  <nd ref="6089872366"/>
  <nd ref="6089872367"/>
  <nd ref="6089872368"/>
  <nd ref="6089872369"/>
  <tag k="highway" v="residential"/>
 </way>
 <way id="1000533859" visible="true" version="1" changeset="113525708" timestamp="2021-11-08T14:48:05Z" user="Juliet225" uid="10103365">
  <nd ref="6089872359"/>
  <nd ref="9235586645"/>
  <tag k="bridge" v="yes"/>
  <tag k="highway" v="residential"/>
  <tag k="layer" v="1"/>
 </way>
 <way id="1000533860" visible="true" version="2" changeset="133486229" timestamp="2023-03-09T16:40:13Z" user="AYAGE" uid="521665">
  <nd ref="6089905261"/>
  <nd ref="10723926704"/>
  <nd ref="1338103021"/>
  <tag k="highway" v="residential"/>
  <tag k="source" v="YahooJapan/ALPSMAP"/>
 </way>
 <way id="1000533861" visible="true" version="1" changeset="113525708" timestamp="2021-11-08T14:48:05Z" user="Juliet225" uid="10103365">
  <nd ref="1338104084"/>
  <nd ref="6089905261"/>
  <tag k="bridge" v="yes"/>
  <tag k="highway" v="residential"/>
  <tag k="layer" v="1"/>
  <tag k="source" v="YahooJapan/ALPSMAP"/>
 </way>
 <way id="1000533866" visible="true" version="1" changeset="113525708" timestamp="2021-11-08T14:48:05Z" user="Juliet225" uid="10103365">
  <nd ref="9235586648"/>
  <nd ref="9235586650"/>
  <nd ref="9235586651"/>
  <nd ref="9235586649"/>
  <tag k="highway" v="residential"/>
 </way>
 <way id="1000533867" visible="true" version="1" changeset="113525708" timestamp="2021-11-08T14:48:05Z" user="Juliet225" uid="10103365">
  <nd ref="9235586650"/>
  <nd ref="6089905278"/>
  <tag k="highway" v="residential"/>
 </way>
 <way id="1000533868" visible="true" version="1" changeset="113525708" timestamp="2021-11-08T14:48:05Z" user="Juliet225" uid="10103365">
  <nd ref="9235586651"/>
  <nd ref="9235586652"/>
  <tag k="highway" v="residential"/>
 </way>
 <way id="1000533869" visible="true" version="1" changeset="113525708" timestamp="2021-11-08T14:48:05Z" user="Juliet225" uid="10103365">
  <nd ref="9235586646"/>
  <nd ref="9235586621"/>
  <nd ref="9235586622"/>
  <nd ref="9235586623"/>
  <nd ref="9235586624"/>
  <nd ref="9235586625"/>
  <tag k="waterway" v="stream"/>
 </way>
 <way id="1000533870" visible="true" version="1" changeset="113525708" timestamp="2021-11-08T14:48:05Z" user="Juliet225" uid="10103365">
  <nd ref="9235586625"/>
  <nd ref="9235586653"/>
  <tag k="layer" v="-1"/>
  <tag k="tunnel" v="culvert"/>
  <tag k="waterway" v="stream"/>
 </way>
 <way id="1000533871" visible="true" version="1" changeset="113525708" timestamp="2021-11-08T14:48:05Z" user="Juliet225" uid="10103365">
  <nd ref="9235586653"/>
  <nd ref="9235586626"/>
  <nd ref="9235586627"/>
  <nd ref="9235586655"/>
  <tag k="waterway" v="stream"/>
 </way>
 <way id="1152473202" visible="true" version="1" changeset="133411045" timestamp="2023-03-07T17:02:32Z" user="AYAGE" uid="521665">
  <nd ref="10719468650"/>
  <nd ref="10719468649"/>
  <tag k="highway" v="residential"/>
 </way>
 <way id="1152473208" visible="true" version="1" changeset="133411045" timestamp="2023-03-07T17:02:32Z" user="AYAGE" uid="521665">
  <nd ref="1338104655"/>
  <nd ref="10719468658"/>
  <tag k="highway" v="residential"/>
 </way>
 <relation id="2776123" visible="true" version="14" changeset="188702646" timestamp="2026-09-08T05:07:38Z" user="taketaketake" uid="4757277">
  <member type="way" ref="119024834" role=""/>
  <member type="way" ref="119025026" role=""/>
  <member type="way" ref="206542815" role=""/>
  <member type="way" ref="118926265" role=""/>
  <member type="way" ref="34582614" role=""/>
  <member type="way" ref="118925861" role=""/>
  <member type="way" ref="118925828" role=""/>
  <member type="way" ref="1419916424" role=""/>
  <member type="way" ref="1419916422" role="forward"/>
  <member type="way" ref="1419916423" role="forward"/>
  <member type="way" ref="118925920" role=""/>
  <member type="way" ref="118926619" role=""/>
  <member type="way" ref="118926320" role=""/>
  <member type="way" ref="118926157" role=""/>
  <member type="way" ref="119009849" role=""/>
  <member type="way" ref="119009724" role=""/>
  <member type="way" ref="85632216" role=""/>
  <member type="way" ref="85632220" role=""/>
  <member type="way" ref="1075221058" role=""/>
  <member type="way" ref="1075221057" role=""/>
  <member type="way" ref="1075221056" role=""/>
  <member type="way" ref="1075221055" role=""/>
  <member type="way" ref="85632217" role=""/>
  <member type="way" ref="1419916428" role=""/>
  <member type="way" ref="1419916427" role=""/>
  <member type="way" ref="1419916426" role=""/>
  <member type="way" ref="1419916425" role=""/>
  <member type="way" ref="119008878" role=""/>
  <member type="way" ref="119008786" role=""/>
  <member type="way" ref="85632218" role=""/>
  <member type="way" ref="85632219" role=""/>
  <tag k="colour" v="Orange"/>
  <tag k="from" v="山口県岩国市今津町3丁目"/>
  <tag k="name" v="山口県道15号　岩国玖珂線"/>
  <tag k="name:en" v="Yamaguchi Prefectural Route 15 Iwakuni Kuga Line"/>
  <tag k="name:ja" v="山口県道15号　岩国玖珂線"/>
  <tag k="name:ja-Hira" v="やまぐちけんどう15ごう いわくにくがせん"/>
  <tag k="name:ja_rm" v="Yamaguchikendō 15-gō Iwakuni Kuga-sen"/>
  <tag k="network" v="JP:prefectural"/>
  <tag k="ref" v="15"/>
  <tag k="route" v="road"/>
  <tag k="to" v="山口県岩国市玖珂町野口"/>
  <tag k="type" v="route"/>
  <tag k="wikidata" v="Q11467160"/>
  <tag k="wikipedia" v="ja:山口県道15号岩国玖珂線"/>
 </relation>
</osm>
