<?xml version="1.0" encoding="UTF-8"?>
<osm version="0.6" generator="openstreetmap-cgimap 2.1.0 (2942781 spike-08.openstreetmap.org)" copyright="OpenStreetMap and contributors" attribution="http://www.openstreetmap.org/copyright" license="http://opendatacommons.org/licenses/odbl/1-0/">
 <bounds minlat="34.0867969" minlon="132.0800234" maxlat="34.0891969" maxlon="132.0830234"/>
 <node id="360188735" visible="true" version="9" changeset="120707592" timestamp="2022-05-08T15:30:52Z" user="AYAGE" uid="521665" lat="34.0908737" lon="132.0813525"/>
 <node id="360188736" visible="true" version="10" changeset="120480738" timestamp="2022-05-02T22:25:38Z" user="AYAGE" uid="521665" lat="34.0926837" lon="132.0835085">
  <tag k="highway" v="traffic_signals"/>
  <tag k="noname" v="yes"/>
 </node>
 <node id="360188737" visible="true" version="7" changeset="120480738" timestamp="2022-05-02T22:25:38Z" user="AYAGE" uid="521665" lat="34.0936337" lon="132.0858727"/>
 <node id="360188738" visible="true" version="8" changeset="120480738" timestamp="2022-05-02T22:25:38Z" user="AYAGE" uid="521665" lat="34.0938923" lon="132.0863201"/>
 <node id="360188739" visible="true" version="8" changeset="120480738" timestamp="2022-05-02T22:25:38Z" user="AYAGE" uid="521665" lat="34.0940535" lon="132.0864518"/>
 <node id="360188740" visible="true" version="7" changeset="120477477" timestamp="2022-05-02T20:24:45Z" user="AYAGE" uid="521665" lat="34.0942578" lon="132.0865221"/>
 <node id="360188741" visible="true" version="9" changeset="120477477" timestamp="2022-05-02T20:24:45Z" user="AYAGE" uid="521665" lat="34.0951851" lon="132.0867027">
  <tag k="highway" v="traffic_signals"/>
  <tag k="noname" v="yes"/>
 </node>
 <node id="748905067" visible="true" version="1" changeset="4813224" timestamp="2010-05-26T13:41:14Z" user="Tom_G3X" uid="146930" lat="34.0832380" lon="132.0760450"/>
 <node id="748929971" visible="true" version="2" changeset="120480738" timestamp="2022-05-02T22:25:38Z" user="AYAGE" uid="521665" lat="34.0893665" lon="132.0835049"/>
 <node id="748974314" visible="true" version="2" changeset="120480738" timestamp="2022-05-02T22:25:38Z" user="AYAGE" uid="521665" lat="34.0881549" lon="132.0828010"/>
 <node id="748988277" visible="true" version="1" changeset="4813224" timestamp="2010-05-26T14:16:58Z" user="Tom_G3X" uid="146930" lat="34.0847260" lon="132.0783530"/>
 <node id="749026284" visible="true" version="2" changeset="120480738" timestamp="2022-05-02T22:25:38Z" user="AYAGE" uid="521665" lat="34.0866336" lon="132.0818401"/>
 <node id="749029887" visible="true" version="1" changeset="4813224" timestamp="2010-05-26T14:31:32Z" user="Tom_G3X" uid="146930" lat="34.0901330" lon="132.0851110"/>
 <node id="749059414" visible="true" version="2" changeset="120649458" timestamp="2022-05-06T22:58:23Z" user="AYAGE" uid="521665" lat="34.0823149" lon="132.0747644"/>
 <node id="749146835" visible="true" version="2" changeset="120480738" timestamp="2022-05-02T22:25:38Z" user="AYAGE" uid="521665" lat="34.0867790" lon="132.0820957"/>
 <node id="749181314" visible="true" version="2" changeset="120480738" timestamp="2022-05-02T22:25:38Z" user="AYAGE" uid="521665" lat="34.0888741" lon="132.0828860"/>
 <node id="749202788" visible="true" version="2" changeset="120649458" timestamp="2022-05-06T22:58:23Z" user="AYAGE" uid="521665" lat="34.0859030" lon="132.0803027"/>
 <node id="749274465" visible="true" version="1" changeset="4813826" timestamp="2010-05-26T16:01:24Z" user="Tom_G3X" uid="146930" lat="34.0828400" lon="132.0754290"/>
 <node id="749290900" visible="true" version="3" changeset="120508907" timestamp="2022-05-03T17:18:49Z" user="AYAGE" uid="521665" lat="34.0840780" lon="132.0978450"/>
 <node id="749312603" visible="true" version="2" changeset="120480738" timestamp="2022-05-02T22:25:38Z" user="AYAGE" uid="521665" lat="34.0892656" lon="132.0832226"/>
 <node id="749367355" visible="true" version="2" changeset="120480738" timestamp="2022-05-02T22:25:38Z" user="AYAGE" uid="521665" lat="34.0872692" lon="132.0824715"/>
 <node id="749390450" visible="true" version="1" changeset="4814433" timestamp="2010-05-26T16:36:34Z" user="Tom_G3X" uid="146930" lat="34.0840370" lon="132.0772600"/>
 <node id="749405460" visible="true" version="2" changeset="120480738" timestamp="2022-05-02T22:25:38Z" user="AYAGE" uid="521665" lat="34.0891334" lon="132.0830540"/>
 <node id="749420554" visible="true" version="2" changeset="120480738" timestamp="2022-05-02T22:25:38Z" user="AYAGE" uid="521665" lat="34.0865385" lon="132.0815943"/>
 <node id="749570996" visible="true" version="2" changeset="120480738" timestamp="2022-05-02T22:25:38Z" user="AYAGE" uid="521665" lat="34.0896471" lon="132.0843505"/>
 <node id="749634870" visible="true" version="2" changeset="120480738" timestamp="2022-05-02T22:25:38Z" user="AYAGE" uid="521665" lat="34.0886221" lon="132.0828077"/>
 <node id="749661109" visible="true" version="1" changeset="4815008" timestamp="2010-05-26T18:01:46Z" user="Tom_G3X" uid="146930" lat="34.0854060" lon="132.0794990"/>
 <node id="749753522" visible="true" version="2" changeset="120649458" timestamp="2022-05-06T22:58:23Z" user="AYAGE" uid="521665" lat="34.0825401" lon="132.0750782"/>
 <node id="749812724" visible="true" version="2" changeset="120480738" timestamp="2022-05-02T22:25:38Z" user="AYAGE" uid="521665" lat="34.0869538" lon="132.0822756"/>
 <node id="749820792" visible="true" version="1" changeset="4815758" timestamp="2010-05-26T19:14:43Z" user="Tom_G3X" uid="146930" lat="34.0836220" lon="132.0765910"/>
 <node id="749840225" visible="true" version="2" changeset="120480738" timestamp="2022-05-02T22:25:38Z" user="AYAGE" uid="521665" lat="34.0889952" lon="132.0829488"/>
 <node id="749857186" visible="true" version="2" changeset="120480738" timestamp="2022-05-02T22:25:38Z" user="AYAGE" uid="521665" lat="34.0862215" lon="132.0808661"/>
 <node id="1336438631" visible="true" version="2" changeset="120707592" timestamp="2022-05-08T15:30:52Z" user="AYAGE" uid="521665" lat="34.0902409" lon="132.0799714"/>
 <node id="1336438783" visible="true" version="2" changeset="120649458" timestamp="2022-05-06T22:58:23Z" user="AYAGE" uid="521665" lat="34.0864552" lon="132.0802564"/>
 <node id="1336438807" visible="true" version="2" changeset="120480738" timestamp="2022-05-02T22:25:38Z" user="AYAGE" uid="521665" lat="34.0888355" lon="132.0831125"/>
 <node id="1336438895" visible="true" version="4" changeset="120649458" timestamp="2022-05-06T22:58:23Z" user="AYAGE" uid="521665" lat="34.0863568" lon="132.0814877"/>
 <node id="1336439237" visible="true" version="2" changeset="120480738" timestamp="2022-05-02T22:25:38Z" user="AYAGE" uid="521665" lat="34.0872300" lon="132.0822041"/>
 <node id="1336439447" visible="true" version="1" changeset="8529111" timestamp="2011-06-24T06:21:19Z" user="yamasan" uid="32308" lat="34.0890240" lon="132.0797390"/>
 <node id="1336439500" visible="true" version="3" changeset="120480738" timestamp="2022-05-02T22:25:38Z" user="AYAGE" uid="521665" lat="34.0925815" lon="132.0833773"/>
 <node id="1336439532" visible="true" version="3" changeset="120480738" timestamp="2022-05-02T22:25:38Z" user="AYAGE" uid="521665" lat="34.0896285" lon="132.0846537"/>
 <node id="1336439605" visible="true" version="2" changeset="120480738" timestamp="2022-05-02T22:25:38Z" user="AYAGE" uid="521665" lat="34.0870842" lon="132.0825016"/>
 <node id="1336439727" visible="true" version="2" changeset="120707592" timestamp="2022-05-08T15:30:52Z" user="AYAGE" uid="521665" lat="34.0890691" lon="132.0804381"/>
 <node id="1336439837" visible="true" version="2" changeset="120480738" timestamp="2022-05-02T22:25:38Z" user="AYAGE" uid="521665" lat="34.0885966" lon="132.0826905"/>
 <node id="1336440181" visible="true" version="2" changeset="120480738" timestamp="2022-05-02T22:25:38Z" user="AYAGE" uid="521665" lat="34.0874351" lon="132.0827262"/>
 <node id="1336440400" visible="true" version="2" changeset="120707592" timestamp="2022-05-08T15:30:52Z" user="AYAGE" uid="521665" lat="34.0890718" lon="132.0804770"/>
 <node id="1336440470" visible="true" version="2" changeset="120480738" timestamp="2022-05-02T22:25:38Z" user="AYAGE" uid="521665" lat="34.0887732" lon="132.0827237"/>
 <node id="1336440762" visible="true" version="3" changeset="120595879" timestamp="2022-05-05T15:59:27Z" user="AYAGE" uid="521665" lat="34.0867901" lon="132.0814789"/>
 <node id="1336440934" visible="true" version="2" changeset="120707592" timestamp="2022-05-08T15:30:52Z" user="AYAGE" uid="521665" lat="34.0901431" lon="132.0800241"/>
 <node id="1336441010" visible="true" version="2" changeset="120707592" timestamp="2022-05-08T15:30:52Z" user="AYAGE" uid="521665" lat="34.0881272" lon="132.0802018"/>
 <node id="1336441020" visible="true" version="2" changeset="120480738" timestamp="2022-05-02T22:25:38Z" user="AYAGE" uid="521665" lat="34.0889970" lon="132.0832068"/>
 <node id="1336441085" visible="true" version="2" changeset="120480738" timestamp="2022-05-02T22:25:38Z" user="AYAGE" uid="521665" lat="34.0864996" lon="132.0817245"/>
 <node id="1336441359" visible="true" version="2" changeset="120480738" timestamp="2022-05-02T22:25:38Z" user="AYAGE" uid="521665" lat="34.0875974" lon="132.0824295"/>
 <node id="1336441542" visible="true" version="2" changeset="120480738" timestamp="2022-05-02T22:25:38Z" user="AYAGE" uid="521665" lat="34.0891267" lon="132.0833400"/>
 <node id="1336441612" visible="true" version="2" changeset="120480738" timestamp="2022-05-02T22:25:38Z" user="AYAGE" uid="521665" lat="34.0866513" lon="132.0820995"/>
 <node id="1336441822" visible="true" version="2" changeset="120707592" timestamp="2022-05-08T15:30:52Z" user="AYAGE" uid="521665" lat="34.0886883" lon="132.0802462"/>
 <node id="1336441882" visible="true" version="2" changeset="120707592" timestamp="2022-05-08T15:30:52Z" user="AYAGE" uid="521665" lat="34.0892373" lon="132.0804547"/>
 <node id="1336441900" visible="true" version="2" changeset="120480738" timestamp="2022-05-02T22:25:38Z" user="AYAGE" uid="521665" lat="34.0878503" lon="132.0825384"/>
 <node id="1336442382" visible="true" version="3" changeset="120480738" timestamp="2022-05-02T22:25:38Z" user="AYAGE" uid="521665" lat="34.0892125" lon="132.0814365"/>
 <node id="1336442515" visible="true" version="2" changeset="120480738" timestamp="2022-05-02T22:25:38Z" user="AYAGE" uid="521665" lat="34.0889566" lon="132.0827941"/>
 <node id="1336443195" visible="true" version="3" changeset="120595879" timestamp="2022-05-05T15:59:27Z" user="AYAGE" uid="521665" lat="34.0868166" lon="132.0816327"/>
 <node id="1336443388" visible="true" version="2" changeset="120480738" timestamp="2022-05-02T22:25:38Z" user="AYAGE" uid="521665" lat="34.0885266" lon="132.0830397"/>
 <node id="1336443836" visible="true" version="2" changeset="120480738" timestamp="2022-05-02T22:25:38Z" user="AYAGE" uid="521665" lat="34.0869236" lon="132.0819508"/>
 <node id="1336444184" visible="true" version="3" changeset="120508907" timestamp="2022-05-03T17:18:49Z" user="AYAGE" uid="521665" lat="34.0892145" lon="132.0834716"/>
 <node id="1336444278" visible="true" version="2" changeset="120480738" timestamp="2022-05-02T22:25:38Z" user="AYAGE" uid="521665" lat="34.0867585" lon="132.0822475"/>
 <node id="1336444323" visible="true" version="2" changeset="120649458" timestamp="2022-05-06T22:58:23Z" user="AYAGE" uid="521665" lat="34.0863873" lon="132.0802664"/>
 <node id="1336444473" visible="true" version="2" changeset="120707592" timestamp="2022-05-08T15:30:52Z" user="AYAGE" uid="521665" lat="34.0889158" lon="132.0803907"/>
 <node id="1336444542" visible="true" version="2" changeset="120480738" timestamp="2022-05-02T22:25:38Z" user="AYAGE" uid="521665" lat="34.0880824" lon="132.0826079"/>
 <node id="1336444957" visible="true" version="2" changeset="120707592" timestamp="2022-05-08T15:30:52Z" user="AYAGE" uid="521665" lat="34.0897648" lon="132.0801628"/>
 <node id="1336445035" visible="true" version="2" changeset="120707592" timestamp="2022-05-08T15:30:52Z" user="AYAGE" uid="521665" lat="34.0884281" lon="132.0801966"/>
 <node id="1336445561" visible="true" version="2" changeset="120480738" timestamp="2022-05-02T22:25:38Z" user="AYAGE" uid="521665" lat="34.0886874" lon="132.0830639"/>
 <node id="1336446049" visible="true" version="2" changeset="120480738" timestamp="2022-05-02T22:25:38Z" user="AYAGE" uid="521665" lat="34.0870015" lon="132.0820423"/>
 <node id="1336446157" visible="true" version="3" changeset="120595879" timestamp="2022-05-05T15:59:27Z" user="AYAGE" uid="521665" lat="34.0867354" lon="132.0814811"/>
 <node id="1336446419" visible="true" version="2" changeset="120480738" timestamp="2022-05-02T22:25:38Z" user="AYAGE" uid="521665" lat="34.0880777" lon="132.0829708"/>
 <node id="1336446724" visible="true" version="2" changeset="120707592" timestamp="2022-05-08T15:30:52Z" user="AYAGE" uid="521665" lat="34.0906848" lon="132.0798993"/>
 <node id="1336446840" visible="true" version="2" changeset="120480738" timestamp="2022-05-02T22:25:38Z" user="AYAGE" uid="521665" lat="34.0891164" lon="132.0828709"/>
 <node id="1336447673" visible="true" version="2" changeset="120707592" timestamp="2022-05-08T15:30:52Z" user="AYAGE" uid="521665" lat="34.0895311" lon="132.0802873"/>
 <node id="1336447860" visible="true" version="2" changeset="120707592" timestamp="2022-05-08T15:30:52Z" user="AYAGE" uid="521665" lat="34.0885160" lon="132.0802067"/>
 <node id="1336449050" visible="true" version="2" changeset="120707592" timestamp="2022-05-08T15:30:52Z" user="AYAGE" uid="521665" lat="34.0893003" lon="132.0804509"/>
 <node id="1336449198" visible="true" version="2" changeset="120480738" timestamp="2022-05-02T22:25:38Z" user="AYAGE" uid="521665" lat="34.0868796" lon="132.0823672"/>
 <node id="1336449320" visible="true" version="2" changeset="120707592" timestamp="2022-05-08T15:30:52Z" user="AYAGE" uid="521665" lat="34.0889742" lon="132.0804189"/>
 <node id="1336449438" visible="true" version="2" changeset="120480738" timestamp="2022-05-02T22:25:38Z" user="AYAGE" uid="521665" lat="34.0883745" lon="132.0826686"/>
 <node id="1336449723" visible="true" version="2" changeset="120480738" timestamp="2022-05-02T22:25:38Z" user="AYAGE" uid="521665" lat="34.0883397" lon="132.0830178"/>
 <node id="1336449902" visible="true" version="1" changeset="8529111" timestamp="2011-06-24T06:28:51Z" user="yamasan" uid="32308" lat="34.0903690" lon="132.0799630"/>
 <node id="1336449983" visible="true" version="2" changeset="120480738" timestamp="2022-05-02T22:25:38Z" user="AYAGE" uid="521665" lat="34.0892616" lon="132.0830152"/>
 <node id="2428746455" visible="true" version="2" changeset="120595879" timestamp="2022-05-05T15:59:27Z" user="AYAGE" uid="521665" lat="34.0874497" lon="132.0814716"/>
 <node id="2428746548" visible="true" version="2" changeset="120707592" timestamp="2022-05-08T15:30:52Z" user="AYAGE" uid="521665" lat="34.0906820" lon="132.0813243"/>
 <node id="2428746549" visible="true" version="2" changeset="120707592" timestamp="2022-05-08T15:30:52Z" user="AYAGE" uid="521665" lat="34.0908102" lon="132.0813286"/>
 <node id="2810386291" visible="true" version="2" changeset="120480738" timestamp="2022-05-02T22:25:38Z" user="AYAGE" uid="521665" lat="34.0927640" lon="132.0836407"/>
 <node id="2810386292" visible="true" version="2" changeset="120480738" timestamp="2022-05-02T22:25:38Z" user="AYAGE" uid="521665" lat="34.0928778" lon="132.0838869"/>
 <node id="2810386293" visible="true" version="2" changeset="120480738" timestamp="2022-05-02T22:25:38Z" user="AYAGE" uid="521665" lat="34.0937553" lon="132.0861349"/>
 <node id="2810386294" visible="true" version="2" changeset="120480738" timestamp="2022-05-02T22:25:38Z" user="AYAGE" uid="521665" lat="34.0938382" lon="132.0862687"/>
 <node id="2810386295" visible="true" version="2" changeset="120480738" timestamp="2022-05-02T22:25:38Z" user="AYAGE" uid="521665" lat="34.0939565" lon="132.0863785"/>
 <node id="2955137838" visible="true" version="2" changeset="120480738" timestamp="2022-05-02T22:25:38Z" user="AYAGE" uid="521665" lat="34.0862146" lon="132.0809255"/>
 <node id="2955137839" visible="true" version="2" changeset="120649458" timestamp="2022-05-06T22:58:23Z" user="AYAGE" uid="521665" lat="34.0852459" lon="132.0789411"/>
 <node id="2955137840" visible="true" version="1" changeset="24036120" timestamp="2014-07-08T23:13:24Z" user="ひろときょうたまなかなおや" uid="2000955" lat="34.0849597" lon="132.0954575"/>
 <node id="2955137841" visible="true" version="2" changeset="120480738" timestamp="2022-05-02T22:25:38Z" user="AYAGE" uid="521665" lat="34.0892583" lon="132.0831317"/>
 <node id="2955138040" visible="true" version="3" changeset="120467590" timestamp="2022-05-02T15:53:55Z" user="AYAGE" uid="521665" lat="34.0881007" lon="132.0914610"/>
 <node id="2955138041" visible="true" version="2" changeset="120467590" timestamp="2022-05-02T15:53:55Z" user="AYAGE" uid="521665" lat="34.0918603" lon="132.0856304"/>
 <node id="2955138240" visible="true" version="2" changeset="120480738" timestamp="2022-05-02T22:25:38Z" user="AYAGE" uid="521665" lat="34.0902793" lon="132.0864838"/>
 <node id="2955138241" visible="true" version="2" changeset="120467590" timestamp="2022-05-02T15:53:55Z" user="AYAGE" uid="521665" lat="34.0894385" lon="132.0891203"/>
 <node id="2955138242" visible="true" version="3" changeset="120508907" timestamp="2022-05-03T17:18:49Z" user="AYAGE" uid="521665" lat="34.0876071" lon="132.0936570"/>
 <node id="2955138436" visible="true" version="1" changeset="24036120" timestamp="2014-07-08T23:12:48Z" user="ひろときょうたまなかなおや" uid="2000955" lat="34.0897956" lon="132.0847357"/>
 <node id="2955138437" visible="true" version="2" changeset="120480738" timestamp="2022-05-02T22:25:38Z" user="AYAGE" uid="521665" lat="34.0903563" lon="132.0873568"/>
 <node id="2955138438" visible="true" version="2" changeset="120467590" timestamp="2022-05-02T15:53:55Z" user="AYAGE" uid="521665" lat="34.0902553" lon="132.0882918"/>
 <node id="2955138440" visible="true" version="3" changeset="120508907" timestamp="2022-05-03T17:18:49Z" user="AYAGE" uid="521665" lat="34.0881776" lon="132.0918779"/>
 <node id="2955138637" visible="true" version="2" changeset="120480738" timestamp="2022-05-02T22:25:38Z" user="AYAGE" uid="521665" lat="34.0888056" lon="132.0829844"/>
 <node id="2955138638" visible="true" version="2" changeset="120480738" timestamp="2022-05-02T22:25:38Z" user="AYAGE" uid="521665" lat="34.0862784" lon="132.0808180"/>
 <node id="2955138639" visible="true" version="2" changeset="120649458" timestamp="2022-05-06T22:58:23Z" user="AYAGE" uid="521665" lat="34.0847683" lon="132.0782948"/>
 <node id="2955138838" visible="true" version="2" changeset="120649458" timestamp="2022-05-06T22:58:23Z" user="AYAGE" uid="521665" lat="34.0856215" lon="132.0799315"/>
 <node id="2955138839" visible="true" version="2" changeset="120480738" timestamp="2022-05-02T22:25:38Z" user="AYAGE" uid="521665" lat="34.0900455" lon="132.0851388"/>
 <node id="2955138840" visible="true" version="2" changeset="120480738" timestamp="2022-05-02T22:25:38Z" user="AYAGE" uid="521665" lat="34.0901760" lon="132.0855857"/>
 <node id="2955138841" visible="true" version="2" changeset="120508907" timestamp="2022-05-03T17:18:49Z" user="AYAGE" uid="521665" lat="34.0847552" lon="132.0968132"/>
 <node id="2955138842" visible="true" version="2" changeset="120467590" timestamp="2022-05-02T15:53:55Z" user="AYAGE" uid="521665" lat="34.0916654" lon="132.0855717"/>
 <node id="2955138843" visible="true" version="1" changeset="24036120" timestamp="2014-07-08T23:13:51Z" user="ひろときょうたまなかなおや" uid="2000955" lat="34.0933552" lon="132.0879843"/>
 <node id="2955138945" visible="true" version="2" changeset="120480738" timestamp="2022-05-02T22:25:38Z" user="AYAGE" uid="521665" lat="34.0870127" lon="132.0823697"/>
 <node id="2955138946" visible="true" version="2" changeset="120467590" timestamp="2022-05-02T15:53:55Z" user="AYAGE" uid="521665" lat="34.0890484" lon="132.0900868"/>
 <node id="2955138947" visible="true" version="3" changeset="120508907" timestamp="2022-05-03T17:18:49Z" user="AYAGE" uid="521665" lat="34.0881108" lon="132.0932225"/>
 <node id="2955138948" visible="true" version="2" changeset="120467590" timestamp="2022-05-02T15:53:55Z" user="AYAGE" uid="521665" lat="34.0904012" lon="132.0881655"/>
 <node id="2955138949" visible="true" version="2" changeset="120442255" timestamp="2022-05-02T04:31:49Z" user="AYAGE" uid="521665" lat="34.0935801" lon="132.0881654"/>
 <node id="2955139136" visible="true" version="2" changeset="120480738" timestamp="2022-05-02T22:25:38Z" user="AYAGE" uid="521665" lat="34.0888090" lon="132.0828005"/>
 <node id="2955139137" visible="true" version="2" changeset="120480738" timestamp="2022-05-02T22:25:38Z" user="AYAGE" uid="521665" lat="34.0869160" lon="132.0821790"/>
 <node id="2955139138" visible="true" version="2" changeset="120442255" timestamp="2022-05-02T04:31:49Z" user="AYAGE" uid="521665" lat="34.0943206" lon="132.0886585"/>
 <node id="2955141842" visible="true" version="2" changeset="120480738" timestamp="2022-05-02T22:25:38Z" user="AYAGE" uid="521665" lat="34.0866195" lon="132.0819182"/>
 <node id="2955142039" visible="true" version="2" changeset="120480738" timestamp="2022-05-02T22:25:38Z" user="AYAGE" uid="521665" lat="34.0890115" lon="132.0830702"/>
 <node id="2955142040" visible="true" version="3" changeset="120508907" timestamp="2022-05-03T17:18:49Z" user="AYAGE" uid="521665" lat="34.0847541" lon="132.0958055"/>
 <node id="2955142140" visible="true" version="3" changeset="120508907" timestamp="2022-05-03T17:18:49Z" user="AYAGE" uid="521665" lat="34.0877873" lon="132.0935426"/>
 <node id="2955142142" visible="true" version="2" changeset="120467590" timestamp="2022-05-02T15:53:55Z" user="AYAGE" uid="521665" lat="34.0905135" lon="132.0852804"/>
 <node id="2955142143" visible="true" version="2" changeset="120467590" timestamp="2022-05-02T15:53:55Z" user="AYAGE" uid="521665" lat="34.0913547" lon="132.0853685"/>
 <node id="2955142144" visible="true" version="2" changeset="120442255" timestamp="2022-05-02T04:31:49Z" user="AYAGE" uid="521665" lat="34.0944403" lon="132.0889930"/>
 <node id="2955142145" visible="true" version="3" changeset="120480738" timestamp="2022-05-02T22:25:38Z" user="AYAGE" uid="521665" lat="34.0898967" lon="132.0846648"/>
 <node id="2955142944" visible="true" version="2" changeset="120508907" timestamp="2022-05-03T17:18:49Z" user="AYAGE" uid="521665" lat="34.0869865" lon="132.0937022"/>
 <node id="2955168134" visible="true" version="2" changeset="120467590" timestamp="2022-05-02T15:53:55Z" user="AYAGE" uid="521665" lat="34.0899841" lon="132.0886851"/>
 <node id="2955168235" visible="true" version="2" changeset="120467590" timestamp="2022-05-02T15:53:55Z" user="AYAGE" uid="521665" lat="34.0901342" lon="132.0885443"/>
 <node id="2955168236" visible="true" version="2" changeset="120467590" timestamp="2022-05-02T15:53:55Z" user="AYAGE" uid="521665" lat="34.0902544" lon="132.0853242"/>
 <node id="2955168336" visible="true" version="1" changeset="24036120" timestamp="2014-07-08T23:13:49Z" user="ひろときょうたまなかなおや" uid="2000955" lat="34.0921789" lon="132.0862232"/>
 <node id="2955168337" visible="true" version="2" changeset="120442255" timestamp="2022-05-02T04:31:49Z" user="AYAGE" uid="521665" lat="34.0936195" lon="132.0880720"/>
 <node id="2955168338" visible="true" version="2" changeset="120467590" timestamp="2022-05-02T15:53:55Z" user="AYAGE" uid="521665" lat="34.0929297" lon="132.0871072"/>
 <node id="2955168339" visible="true" version="2" changeset="120467590" timestamp="2022-05-02T15:53:55Z" user="AYAGE" uid="521665" lat="34.0902729" lon="132.0850286"/>
 <node id="2955168437" visible="true" version="2" changeset="120467590" timestamp="2022-05-02T15:53:55Z" user="AYAGE" uid="521665" lat="34.0892375" lon="132.0897363"/>
 <node id="2955168438" visible="true" version="2" changeset="120508907" timestamp="2022-05-03T17:18:49Z" user="AYAGE" uid="521665" lat="34.0847941" lon="132.0966888"/>
 <node id="2955168439" visible="true" version="2" changeset="120508907" timestamp="2022-05-03T17:18:49Z" user="AYAGE" uid="521665" lat="34.0850580" lon="132.0952242"/>
 <node id="2955168440" visible="true" version="2" changeset="120508907" timestamp="2022-05-03T17:18:49Z" user="AYAGE" uid="521665" lat="34.0861045" lon="132.0943885"/>
 <node id="2955168441" visible="true" version="2" changeset="120508907" timestamp="2022-05-03T17:18:49Z" user="AYAGE" uid="521665" lat="34.0866363" lon="132.0939698"/>
 <node id="2955168442" visible="true" version="1" changeset="24036120" timestamp="2014-07-08T23:13:39Z" user="ひろときょうたまなかなおや" uid="2000955" lat="34.0896649" lon="132.0889424"/>
 <node id="2955168443" visible="true" version="2" changeset="120467590" timestamp="2022-05-02T15:53:55Z" user="AYAGE" uid="521665" lat="34.0913990" lon="132.0851883"/>
 <node id="2955168444" visible="true" version="2" changeset="120467590" timestamp="2022-05-02T15:53:55Z" user="AYAGE" uid="521665" lat="34.0909954" lon="132.0851298"/>
 <node id="2955168537" visible="true" version="2" changeset="40534227" timestamp="2016-07-07T05:57:03Z" user="hofoen" uid="52797" lat="34.0881616" lon="132.0927002"/>
 <node id="2955168538" visible="true" version="3" changeset="120508907" timestamp="2022-05-03T17:18:49Z" user="AYAGE" uid="521665" lat="34.0848328" lon="132.0959388"/>
 <node id="2955168539" visible="true" version="3" changeset="120508907" timestamp="2022-05-03T17:18:49Z" user="AYAGE" uid="521665" lat="34.0882320" lon="132.0927865"/>
 <node id="2955168540" visible="true" version="3" changeset="120508907" timestamp="2022-05-03T17:18:49Z" user="AYAGE" uid="521665" lat="34.0881687" lon="132.0915099"/>
 <node id="2955168541" visible="true" version="2" changeset="120467590" timestamp="2022-05-02T15:53:55Z" user="AYAGE" uid="521665" lat="34.0903997" lon="132.0870042"/>
 <node id="2955168635" visible="true" version="2" changeset="120467590" timestamp="2022-05-02T15:53:55Z" user="AYAGE" uid="521665" lat="34.0901757" lon="132.0884112"/>
 <node id="2955168636" visible="true" version="2" changeset="40534227" timestamp="2016-07-07T05:57:03Z" user="hofoen" uid="52797" lat="34.0880993" lon="132.0919146"/>
 <node id="2955168637" visible="true" version="2" changeset="120508907" timestamp="2022-05-03T17:18:49Z" user="AYAGE" uid="521665" lat="34.0866702" lon="132.0938530"/>
 <node id="2955168638" visible="true" version="3" changeset="120508907" timestamp="2022-05-03T17:18:49Z" user="AYAGE" uid="521665" lat="34.0847441" lon="132.0960239"/>
 <node id="2955168734" visible="true" version="2" changeset="120649458" timestamp="2022-05-06T22:58:23Z" user="AYAGE" uid="521665" lat="34.0839578" lon="132.0769247"/>
 <node id="2955168735" visible="true" version="2" changeset="120467590" timestamp="2022-05-02T15:53:55Z" user="AYAGE" uid="521665" lat="34.0882094" lon="132.0909885"/>
 <node id="2955168736" visible="true" version="2" changeset="120508907" timestamp="2022-05-03T17:18:49Z" user="AYAGE" uid="521665" lat="34.0859942" lon="132.0943771"/>
 <node id="2955168737" visible="true" version="2" changeset="120508907" timestamp="2022-05-03T17:18:49Z" user="AYAGE" uid="521665" lat="34.0848109" lon="132.0956128"/>
 <node id="2955168836" visible="true" version="2" changeset="120467590" timestamp="2022-05-02T15:53:55Z" user="AYAGE" uid="521665" lat="34.0902703" lon="132.0855010"/>
 <node id="2955168933" visible="true" version="3" changeset="120649458" timestamp="2022-05-06T22:58:23Z" user="AYAGE" uid="521665" lat="34.0838150" lon="132.0770340"/>
 <node id="2955168937" visible="true" version="2" changeset="120480738" timestamp="2022-05-02T22:25:38Z" user="AYAGE" uid="521665" lat="34.0891559" lon="132.0832645"/>
 <node id="2955168938" visible="true" version="2" changeset="120508907" timestamp="2022-05-03T17:18:49Z" user="AYAGE" uid="521665" lat="34.0841134" lon="132.0978742"/>
 <node id="2955168939" visible="true" version="2" changeset="120467590" timestamp="2022-05-02T15:53:55Z" user="AYAGE" uid="521665" lat="34.0923842" lon="132.0863327"/>
 <node id="2955169034" visible="true" version="2" changeset="120508907" timestamp="2022-05-03T17:18:49Z" user="AYAGE" uid="521665" lat="34.0882676" lon="132.0910690"/>
 <node id="2955169035" visible="true" version="2" changeset="120467590" timestamp="2022-05-02T15:53:55Z" user="AYAGE" uid="521665" lat="34.0884000" lon="132.0908309"/>
 <node id="2955169134" visible="true" version="2" changeset="120508907" timestamp="2022-05-03T17:18:49Z" user="AYAGE" uid="521665" lat="34.0846185" lon="132.0971395"/>
 <node id="2955169135" visible="true" version="2" changeset="120467590" timestamp="2022-05-02T15:53:55Z" user="AYAGE" uid="521665" lat="34.0894100" lon="132.0893706"/>
 <node id="2955169136" visible="true" version="2" changeset="120442255" timestamp="2022-05-02T04:31:49Z" user="AYAGE" uid="521665" lat="34.0940336" lon="132.0885102"/>
 <node id="2955169137" visible="true" version="2" changeset="120442255" timestamp="2022-05-02T04:31:49Z" user="AYAGE" uid="521665" lat="34.0946107" lon="132.0892843"/>
 <node id="2955169138" visible="true" version="2" changeset="120442255" timestamp="2022-05-02T04:31:49Z" user="AYAGE" uid="521665" lat="34.0946749" lon="132.0892120"/>
 <node id="2955169235" visible="true" version="2" changeset="120480738" timestamp="2022-05-02T22:25:38Z" user="AYAGE" uid="521665" lat="34.0874548" lon="132.0825363"/>
 <node id="2955169238" visible="true" version="2" changeset="120467590" timestamp="2022-05-02T15:53:55Z" user="AYAGE" uid="521665" lat="34.0903479" lon="132.0862549"/>
 <node id="2955169239" visible="true" version="1" changeset="24036120" timestamp="2014-07-08T23:13:50Z" user="ひろときょうたまなかなおや" uid="2000955" lat="34.0930444" lon="132.0875514"/>
 <node id="2955169334" visible="true" version="1" changeset="24036092" timestamp="2014-07-08T23:09:15Z" user="ひろときょうたまなかなおや" uid="2000955" lat="34.0840629" lon="132.0774175"/>
 <node id="2955169335" visible="true" version="2" changeset="120649458" timestamp="2022-05-06T22:58:23Z" user="AYAGE" uid="521665" lat="34.0842412" lon="132.0777868"/>
 <node id="2955169336" visible="true" version="2" changeset="120480738" timestamp="2022-05-02T22:25:38Z" user="AYAGE" uid="521665" lat="34.0882395" lon="132.0827035"/>
 <node id="2955169337" visible="true" version="2" changeset="120649458" timestamp="2022-05-06T22:58:23Z" user="AYAGE" uid="521665" lat="34.0841546" lon="132.0772516"/>
 <node id="2955169338" visible="true" version="2" changeset="120467590" timestamp="2022-05-02T15:53:55Z" user="AYAGE" uid="521665" lat="34.0903483" lon="132.0880759"/>
 <node id="2955169339" visible="true" version="2" changeset="120467590" timestamp="2022-05-02T15:53:55Z" user="AYAGE" uid="521665" lat="34.0931527" lon="132.0875450"/>
 <node id="2955169435" visible="true" version="2" changeset="120480738" timestamp="2022-05-02T22:25:38Z" user="AYAGE" uid="521665" lat="34.0865958" lon="132.0816293"/>
 <node id="2955169436" visible="true" version="2" changeset="120508907" timestamp="2022-05-03T17:18:49Z" user="AYAGE" uid="521665" lat="34.0848659" lon="132.0967013"/>
 <node id="2955169437" visible="true" version="2" changeset="120467590" timestamp="2022-05-02T15:53:55Z" user="AYAGE" uid="521665" lat="34.0912589" lon="132.0851434"/>
 <node id="2955169438" visible="true" version="2" changeset="120480738" timestamp="2022-05-02T22:25:38Z" user="AYAGE" uid="521665" lat="34.0894276" lon="132.0836689"/>
 <node id="2955169534" visible="true" version="2" changeset="120480738" timestamp="2022-05-02T22:25:38Z" user="AYAGE" uid="521665" lat="34.0885921" lon="132.0829248"/>
 <node id="2955169535" visible="true" version="2" changeset="120480738" timestamp="2022-05-02T22:25:38Z" user="AYAGE" uid="521665" lat="34.0893317" lon="132.0836777"/>
 <node id="2955169537" visible="true" version="2" changeset="120508907" timestamp="2022-05-03T17:18:49Z" user="AYAGE" uid="521665" lat="34.0874947" lon="132.0937669"/>
 <node id="2955169538" visible="true" version="3" changeset="120508907" timestamp="2022-05-03T17:18:49Z" user="AYAGE" uid="521665" lat="34.0879784" lon="132.0934350"/>
 <node id="2955169539" visible="true" version="3" changeset="120467590" timestamp="2022-05-02T15:53:55Z" user="AYAGE" uid="521665" lat="34.0932715" lon="132.0877451"/>
 <node id="2955169540" visible="true" version="2" changeset="120467590" timestamp="2022-05-02T15:53:55Z" user="AYAGE" uid="521665" lat="34.0900942" lon="132.0849292"/>
 <node id="2955169633" visible="true" version="2" changeset="120649458" timestamp="2022-05-06T22:58:23Z" user="AYAGE" uid="521665" lat="34.0850081" lon="132.0789615"/>
 <node id="2955169634" visible="true" version="2" changeset="120649458" timestamp="2022-05-06T22:58:23Z" user="AYAGE" uid="521665" lat="34.0860145" lon="132.0803715"/>
 <node id="2955169635" visible="true" version="1" changeset="24036120" timestamp="2014-07-08T23:13:49Z" user="ひろときょうたまなかなおや" uid="2000955" lat="34.0926564" lon="132.0868992"/>
 <node id="2955169636" visible="true" version="2" changeset="120480738" timestamp="2022-05-02T22:25:38Z" user="AYAGE" uid="521665" lat="34.0889976" lon="132.0828751"/>
 <node id="2955169833" visible="true" version="2" changeset="120480738" timestamp="2022-05-02T22:25:38Z" user="AYAGE" uid="521665" lat="34.0876099" lon="132.0827201"/>
 <node id="2955169834" visible="true" version="2" changeset="120467590" timestamp="2022-05-02T15:53:55Z" user="AYAGE" uid="521665" lat="34.0884900" lon="132.0905702"/>
 <node id="2955169835" visible="true" version="2" changeset="120467590" timestamp="2022-05-02T15:53:55Z" user="AYAGE" uid="521665" lat="34.0886920" lon="132.0904840"/>
 <node id="2955169836" visible="true" version="1" changeset="24036120" timestamp="2014-07-08T23:13:36Z" user="ひろときょうたまなかなおや" uid="2000955" lat="34.0892880" lon="132.0898180"/>
 <node id="4287125483" visible="true" version="2" changeset="120508907" timestamp="2022-05-03T17:18:49Z" user="AYAGE" uid="521665" lat="34.0848353" lon="132.0961636"/>
 <node id="4287125487" visible="true" version="2" changeset="120508907" timestamp="2022-05-03T17:18:49Z" user="AYAGE" uid="521665" lat="34.0876644" lon="132.0937039"/>
 <node id="4287125488" visible="true" version="2" changeset="120508907" timestamp="2022-05-03T17:18:49Z" user="AYAGE" uid="521665" lat="34.0878140" lon="132.0936109"/>
 <node id="4287125892" visible="true" version="1" changeset="40534227" timestamp="2016-07-07T05:56:59Z" user="hofoen" uid="52797" lat="34.0879836" lon="132.0933043"/>
 <node id="4287125893" visible="true" version="1" changeset="40534227" timestamp="2016-07-07T05:56:59Z" user="hofoen" uid="52797" lat="34.0880822" lon="132.0931348"/>
 <node id="4287125894" visible="true" version="1" changeset="40534227" timestamp="2016-07-07T05:56:59Z" user="hofoen" uid="52797" lat="34.0881195" lon="132.0922207"/>
 <node id="4287125895" visible="true" version="1" changeset="40534227" timestamp="2016-07-07T05:56:59Z" user="hofoen" uid="52797" lat="34.0881434" lon="132.0929166"/>
 <node id="4287125896" visible="true" version="2" changeset="120508907" timestamp="2022-05-03T17:18:49Z" user="AYAGE" uid="521665" lat="34.0881994" lon="132.0929911"/>
 <node id="4287125897" visible="true" version="2" changeset="120508907" timestamp="2022-05-03T17:18:49Z" user="AYAGE" uid="521665" lat="34.0882065" lon="132.0923510"/>
 <node id="9708427258" visible="true" version="1" changeset="120442255" timestamp="2022-05-02T04:31:49Z" user="AYAGE" uid="521665" lat="34.0934150" lon="132.0879029"/>
 <node id="9708427259" visible="true" version="1" changeset="120442255" timestamp="2022-05-02T04:31:49Z" user="AYAGE" uid="521665" lat="34.0937915" lon="132.0883213"/>
 <node id="9708427260" visible="true" version="1" changeset="120442255" timestamp="2022-05-02T04:31:49Z" user="AYAGE" uid="521665" lat="34.0942235" lon="132.0887277"/>
 <node id="9708427262" visible="true" version="1" changeset="120442255" timestamp="2022-05-02T04:31:49Z" user="AYAGE" uid="521665" lat="34.0941213" lon="132.0884567"/>
 <node id="9708427263" visible="true" version="1" changeset="120442255" timestamp="2022-05-02T04:31:49Z" user="AYAGE" uid="521665" lat="34.0944989" lon="132.0889100"/>
 <node id="9709482048" visible="true" version="1" changeset="120467590" timestamp="2022-05-02T15:53:55Z" user="AYAGE" uid="521665" lat="34.0881406" lon="132.0912047"/>
 <node id="9709482049" visible="true" version="1" changeset="120467590" timestamp="2022-05-02T15:53:55Z" user="AYAGE" uid="521665" lat="34.0883494" lon="132.0907420"/>
 <node id="9709482050" visible="true" version="1" changeset="120467590" timestamp="2022-05-02T15:53:55Z" user="AYAGE" uid="521665" lat="34.0886615" lon="132.0904094"/>
 <node id="9709482051" visible="true" version="1" changeset="120467590" timestamp="2022-05-02T15:53:55Z" user="AYAGE" uid="521665" lat="34.0891435" lon="132.0899628"/>
 <node id="9709482052" visible="true" version="1" changeset="120467590" timestamp="2022-05-02T15:53:55Z" user="AYAGE" uid="521665" lat="34.0885326" lon="132.0906401"/>
 <node id="9709482053" visible="true" version="1" changeset="120467590" timestamp="2022-05-02T15:53:55Z" user="AYAGE" uid="521665" lat="34.0890669" lon="132.0901908"/>
 <node id="9709482054" visible="true" version="1" changeset="120467590" timestamp="2022-05-02T15:53:55Z" user="AYAGE" uid="521665" lat="34.0891979" lon="132.0900245"/>
 <node id="9709482055" visible="true" version="1" changeset="120467590" timestamp="2022-05-02T15:53:55Z" user="AYAGE" uid="521665" lat="34.0895089" lon="132.0891434"/>
 <node id="9709482056" visible="true" version="1" changeset="120467590" timestamp="2022-05-02T15:53:55Z" user="AYAGE" uid="521665" lat="34.0893368" lon="132.0893580"/>
 <node id="9709482057" visible="true" version="1" changeset="120467590" timestamp="2022-05-02T15:53:55Z" user="AYAGE" uid="521665" lat="34.0895389" lon="132.0889717"/>
 <node id="9709482058" visible="true" version="1" changeset="120467590" timestamp="2022-05-02T15:53:55Z" user="AYAGE" uid="521665" lat="34.0897421" lon="132.0887732"/>
 <node id="9709482059" visible="true" version="1" changeset="120467590" timestamp="2022-05-02T15:53:55Z" user="AYAGE" uid="521665" lat="34.0903808" lon="132.0878492"/>
 <node id="9709482060" visible="true" version="1" changeset="120467590" timestamp="2022-05-02T15:53:55Z" user="AYAGE" uid="521665" lat="34.0903330" lon="132.0883293"/>
 <node id="9709482061" visible="true" version="1" changeset="120467590" timestamp="2022-05-02T15:53:55Z" user="AYAGE" uid="521665" lat="34.0904441" lon="132.0879458"/>
 <node id="9709482062" visible="true" version="1" changeset="120467590" timestamp="2022-05-02T15:53:55Z" user="AYAGE" uid="521665" lat="34.0904530" lon="132.0876883"/>
 <node id="9709482064" visible="true" version="1" changeset="120467590" timestamp="2022-05-02T15:53:55Z" user="AYAGE" uid="521665" lat="34.0903197" lon="132.0859087"/>
 <node id="9709482065" visible="true" version="1" changeset="120467590" timestamp="2022-05-02T15:53:55Z" user="AYAGE" uid="521665" lat="34.0903075" lon="132.0852797"/>
 <node id="9709482066" visible="true" version="1" changeset="120467590" timestamp="2022-05-02T15:53:55Z" user="AYAGE" uid="521665" lat="34.0899143" lon="132.0848519"/>
 <node id="9709482067" visible="true" version="1" changeset="120467590" timestamp="2022-05-02T15:53:55Z" user="AYAGE" uid="521665" lat="34.0905007" lon="132.0851026"/>
 <node id="9709482068" visible="true" version="1" changeset="120467590" timestamp="2022-05-02T15:53:55Z" user="AYAGE" uid="521665" lat="34.0907795" lon="132.0851563"/>
 <node id="9709482069" visible="true" version="1" changeset="120467590" timestamp="2022-05-02T15:53:55Z" user="AYAGE" uid="521665" lat="34.0915958" lon="132.0852958"/>
 <node id="9709482070" visible="true" version="1" changeset="120467590" timestamp="2022-05-02T15:53:55Z" user="AYAGE" uid="521665" lat="34.0917035" lon="132.0853910"/>
 <node id="9709482075" visible="true" version="1" changeset="120467590" timestamp="2022-05-02T15:53:55Z" user="AYAGE" uid="521665" lat="34.0914992" lon="132.0854352"/>
 <node id="9709482076" visible="true" version="1" changeset="120467590" timestamp="2022-05-02T15:53:55Z" user="AYAGE" uid="521665" lat="34.0918090" lon="132.0857196"/>
 <node id="9709482077" visible="true" version="1" changeset="120467590" timestamp="2022-05-02T15:53:55Z" user="AYAGE" uid="521665" lat="34.0921217" lon="132.0859811"/>
 <node id="9709482078" visible="true" version="1" changeset="120467590" timestamp="2022-05-02T15:53:55Z" user="AYAGE" uid="521665" lat="34.0925893" lon="132.0865772"/>
 <node id="9709482079" visible="true" version="1" changeset="120467590" timestamp="2022-05-02T15:53:55Z" user="AYAGE" uid="521665" lat="34.0924732" lon="132.0866147"/>
 <node id="9709482081" visible="true" version="1" changeset="120467590" timestamp="2022-05-02T15:53:55Z" user="AYAGE" uid="521665" lat="34.0927331" lon="132.0867730"/>
 <node id="9709482082" visible="true" version="1" changeset="120467590" timestamp="2022-05-02T15:53:55Z" user="AYAGE" uid="521665" lat="34.0931873" lon="132.0877895"/>
 <node id="9710009847" visible="true" version="1" changeset="120477477" timestamp="2022-05-02T20:24:45Z" user="AYAGE" uid="521665" lat="34.0950298" lon="132.0866784"/>
 <node id="9710009848" visible="true" version="1" changeset="120477477" timestamp="2022-05-02T20:24:45Z" user="AYAGE" uid="521665" lat="34.0948110" lon="132.0866355"/>
 <node id="9710009849" visible="true" version="1" changeset="120477477" timestamp="2022-05-02T20:24:45Z" user="AYAGE" uid="521665" lat="34.0945900" lon="132.0865846"/>
 <node id="9710247638" visible="true" version="1" changeset="120480738" timestamp="2022-05-02T22:25:38Z" user="AYAGE" uid="521665" lat="34.0891351" lon="132.0814389"/>
 <node id="9710247639" visible="true" version="1" changeset="120480738" timestamp="2022-05-02T22:25:38Z" user="AYAGE" uid="521665" lat="34.0891357" lon="132.0813476"/>
 <node id="9710247648" visible="true" version="2" changeset="120508907" timestamp="2022-05-03T17:18:49Z" user="AYAGE" uid="521665" lat="34.0895239" lon="132.0844167"/>
 <node id="9710247649" visible="true" version="1" changeset="120480738" timestamp="2022-05-02T22:25:38Z" user="AYAGE" uid="521665" lat="34.0864557" lon="132.0811772"/>
 <node id="9710247650" visible="true" version="1" changeset="120480738" timestamp="2022-05-02T22:25:38Z" user="AYAGE" uid="521665" lat="34.0867544" lon="132.0819645"/>
 <node id="9710247651" visible="true" version="1" changeset="120480738" timestamp="2022-05-02T22:25:38Z" user="AYAGE" uid="521665" lat="34.0871754" lon="132.0823655"/>
 <node id="9710247652" visible="true" version="1" changeset="120480738" timestamp="2022-05-02T22:25:38Z" user="AYAGE" uid="521665" lat="34.0878296" lon="132.0827249"/>
 <node id="9710247653" visible="true" version="1" changeset="120480738" timestamp="2022-05-02T22:25:38Z" user="AYAGE" uid="521665" lat="34.0880862" lon="132.0827624"/>
 <node id="9710247654" visible="true" version="1" changeset="120480738" timestamp="2022-05-02T22:25:38Z" user="AYAGE" uid="521665" lat="34.0863813" lon="132.0811893"/>
 <node id="9710247655" visible="true" version="1" changeset="120480738" timestamp="2022-05-02T22:25:38Z" user="AYAGE" uid="521665" lat="34.0879118" lon="132.0827731"/>
 <node id="9710247656" visible="true" version="1" changeset="120480738" timestamp="2022-05-02T22:25:38Z" user="AYAGE" uid="521665" lat="34.0863346" lon="132.0811799"/>
 <node id="9710247657" visible="true" version="1" changeset="120480738" timestamp="2022-05-02T22:25:38Z" user="AYAGE" uid="521665" lat="34.0864890" lon="132.0815836"/>
 <node id="9710247658" visible="true" version="1" changeset="120480738" timestamp="2022-05-02T22:25:38Z" user="AYAGE" uid="521665" lat="34.0867767" lon="132.0821844"/>
 <node id="9710247659" visible="true" version="1" changeset="120480738" timestamp="2022-05-02T22:25:38Z" user="AYAGE" uid="521665" lat="34.0873087" lon="132.0825680"/>
 <node id="9710247660" visible="true" version="1" changeset="120480738" timestamp="2022-05-02T22:25:38Z" user="AYAGE" uid="521665" lat="34.0876597" lon="132.0826860"/>
 <node id="9710247661" visible="true" version="1" changeset="120480738" timestamp="2022-05-02T22:25:38Z" user="AYAGE" uid="521665" lat="34.0885804" lon="132.0827571"/>
 <node id="9710247662" visible="true" version="1" changeset="120480738" timestamp="2022-05-02T22:25:38Z" user="AYAGE" uid="521665" lat="34.0891457" lon="132.0829864"/>
 <node id="9710247663" visible="true" version="1" changeset="120480738" timestamp="2022-05-02T22:25:38Z" user="AYAGE" uid="521665" lat="34.0893556" lon="132.0833579"/>
 <node id="9710247664" visible="true" version="1" changeset="120480738" timestamp="2022-05-02T22:25:38Z" user="AYAGE" uid="521665" lat="34.0891268" lon="132.0831661"/>
 <node id="9710247665" visible="true" version="1" changeset="120480738" timestamp="2022-05-02T22:25:38Z" user="AYAGE" uid="521665" lat="34.0882805" lon="132.0829099"/>
 <node id="9710247666" visible="true" version="1" changeset="120480738" timestamp="2022-05-02T22:25:38Z" user="AYAGE" uid="521665" lat="34.0879595" lon="132.0828550"/>
 <node id="9710247667" visible="true" version="1" changeset="120480738" timestamp="2022-05-02T22:25:38Z" user="AYAGE" uid="521665" lat="34.0892524" lon="132.0834316"/>
 <node id="9710247668" visible="true" version="1" changeset="120480738" timestamp="2022-05-02T22:25:38Z" user="AYAGE" uid="521665" lat="34.0865612" lon="132.0818880"/>
 <node id="9710247669" visible="true" version="1" changeset="120480738" timestamp="2022-05-02T22:25:38Z" user="AYAGE" uid="521665" lat="34.0896377" lon="132.0842376"/>
 <node id="9710247670" visible="true" version="1" changeset="120480738" timestamp="2022-05-02T22:25:38Z" user="AYAGE" uid="521665" lat="34.0895911" lon="132.0841706"/>
 <node id="9710247671" visible="true" version="1" changeset="120480738" timestamp="2022-05-02T22:25:38Z" user="AYAGE" uid="521665" lat="34.0894378" lon="132.0838447"/>
 <node id="9710247672" visible="true" version="1" changeset="120480738" timestamp="2022-05-02T22:25:38Z" user="AYAGE" uid="521665" lat="34.0895522" lon="132.0843503"/>
 <node id="9710247673" visible="true" version="1" changeset="120480738" timestamp="2022-05-02T22:25:38Z" user="AYAGE" uid="521665" lat="34.0897310" lon="132.0842725"/>
 <node id="9710247674" visible="true" version="1" changeset="120480738" timestamp="2022-05-02T22:25:38Z" user="AYAGE" uid="521665" lat="34.0897799" lon="132.0843275"/>
 <node id="9710247675" visible="true" version="1" changeset="120480738" timestamp="2022-05-02T22:25:38Z" user="AYAGE" uid="521665" lat="34.0897122" lon="132.0846601"/>
 <node id="9710247676" visible="true" version="1" changeset="120480738" timestamp="2022-05-02T22:25:38Z" user="AYAGE" uid="521665" lat="34.0896355" lon="132.0845152"/>
 <node id="9710247677" visible="true" version="1" changeset="120480738" timestamp="2022-05-02T22:25:38Z" user="AYAGE" uid="521665" lat="34.0899021" lon="132.0849296"/>
 <node id="9710247678" visible="true" version="1" changeset="120480738" timestamp="2022-05-02T22:25:38Z" user="AYAGE" uid="521665" lat="34.0901120" lon="132.0852730"/>
 <node id="9710247679" visible="true" version="1" changeset="120480738" timestamp="2022-05-02T22:25:38Z" user="AYAGE" uid="521665" lat="34.0902308" lon="132.0860267"/>
 <node id="9711816276" visible="true" version="1" changeset="120508907" timestamp="2022-05-03T17:18:49Z" user="AYAGE" uid="521665" lat="34.0891640" lon="132.0841027"/>
 <node id="9711816278" visible="true" version="1" changeset="120508907" timestamp="2022-05-03T17:18:49Z" user="AYAGE" uid="521665" lat="34.0892723" lon="132.0836046"/>
 <node id="9711816279" visible="true" version="1" changeset="120508907" timestamp="2022-05-03T17:18:49Z" user="AYAGE" uid="521665" lat="34.0876998" lon="132.0828464"/>
 <node id="9711816280" visible="true" version="1" changeset="120508907" timestamp="2022-05-03T17:18:49Z" user="AYAGE" uid="521665" lat="34.0875197" lon="132.0834692"/>
 <node id="9711816281" visible="true" version="1" changeset="120508907" timestamp="2022-05-03T17:18:49Z" user="AYAGE" uid="521665" lat="34.0876319" lon="132.0835724"/>
 <node id="9711816282" visible="true" version="1" changeset="120508907" timestamp="2022-05-03T17:18:49Z" user="AYAGE" uid="521665" lat="34.0878455" lon="132.0828990"/>
 <node id="9711816283" visible="true" version="1" changeset="120508907" timestamp="2022-05-03T17:18:49Z" user="AYAGE" uid="521665" lat="34.0878340" lon="132.0829676"/>
 <node id="9711816284" visible="true" version="1" changeset="120508907" timestamp="2022-05-03T17:18:49Z" user="AYAGE" uid="521665" lat="34.0876619" lon="132.0835792"/>
 <node id="9711816285" visible="true" version="1" changeset="120508907" timestamp="2022-05-03T17:18:49Z" user="AYAGE" uid="521665" lat="34.0877307" lon="132.0836703"/>
 <node id="9711816286" visible="true" version="1" changeset="120508907" timestamp="2022-05-03T17:18:49Z" user="AYAGE" uid="521665" lat="34.0878418" lon="132.0837629"/>
 <node id="9711816287" visible="true" version="1" changeset="120508907" timestamp="2022-05-03T17:18:49Z" user="AYAGE" uid="521665" lat="34.0879284" lon="132.0838112"/>
 <node id="9711816288" visible="true" version="1" changeset="120508907" timestamp="2022-05-03T17:18:49Z" user="AYAGE" uid="521665" lat="34.0880106" lon="132.0838313"/>
 <node id="9711816289" visible="true" version="1" changeset="120508907" timestamp="2022-05-03T17:18:49Z" user="AYAGE" uid="521665" lat="34.0881539" lon="132.0838474"/>
 <node id="9711816290" visible="true" version="1" changeset="120508907" timestamp="2022-05-03T17:18:49Z" user="AYAGE" uid="521665" lat="34.0884349" lon="132.0838849"/>
 <node id="9711816291" visible="true" version="1" changeset="120508907" timestamp="2022-05-03T17:18:49Z" user="AYAGE" uid="521665" lat="34.0888025" lon="132.0839775"/>
 <node id="9711816292" visible="true" version="1" changeset="120508907" timestamp="2022-05-03T17:18:49Z" user="AYAGE" uid="521665" lat="34.0889136" lon="132.0840083"/>
 <node id="9711816293" visible="true" version="1" changeset="120508907" timestamp="2022-05-03T17:18:49Z" user="AYAGE" uid="521665" lat="34.0890413" lon="132.0840526"/>
 <node id="9711816294" visible="true" version="1" changeset="120508907" timestamp="2022-05-03T17:18:49Z" user="AYAGE" uid="521665" lat="34.0891857" lon="132.0841116"/>
 <node id="9711816295" visible="true" version="1" changeset="120508907" timestamp="2022-05-03T17:18:49Z" user="AYAGE" uid="521665" lat="34.0894523" lon="132.0841964"/>
 <node id="9711816296" visible="true" version="1" changeset="120508907" timestamp="2022-05-03T17:18:49Z" user="AYAGE" uid="521665" lat="34.0893390" lon="132.0841813"/>
 <node id="9711851855" visible="true" version="1" changeset="120508907" timestamp="2022-05-03T17:18:49Z" user="AYAGE" uid="521665" lat="34.0840554" lon="132.0978123"/>
 <node id="9711851856" visible="true" version="1" changeset="120508907" timestamp="2022-05-03T17:18:49Z" user="AYAGE" uid="521665" lat="34.0848096" lon="132.0965396"/>
 <node id="9711851857" visible="true" version="1" changeset="120508907" timestamp="2022-05-03T17:18:49Z" user="AYAGE" uid="521665" lat="34.0849407" lon="132.0953232"/>
 <node id="9711851858" visible="true" version="1" changeset="120508907" timestamp="2022-05-03T17:18:49Z" user="AYAGE" uid="521665" lat="34.0850373" lon="132.0951395"/>
 <node id="9711851860" visible="true" version="1" changeset="120508907" timestamp="2022-05-03T17:18:49Z" user="AYAGE" uid="521665" lat="34.0848152" lon="132.0968360"/>
 <node id="9711851861" visible="true" version="1" changeset="120508907" timestamp="2022-05-03T17:18:49Z" user="AYAGE" uid="521665" lat="34.0848751" lon="132.0964926"/>
 <node id="9711851862" visible="true" version="1" changeset="120508907" timestamp="2022-05-03T17:18:49Z" user="AYAGE" uid="521665" lat="34.0848540" lon="132.0957242"/>
 <node id="9711851863" visible="true" version="1" changeset="120508907" timestamp="2022-05-03T17:18:49Z" user="AYAGE" uid="521665" lat="34.0851595" lon="132.0950858"/>
 <node id="9711851864" visible="true" version="1" changeset="120508907" timestamp="2022-05-03T17:18:49Z" user="AYAGE" uid="521665" lat="34.0853128" lon="132.0949182"/>
 <node id="9711851866" visible="true" version="1" changeset="120508907" timestamp="2022-05-03T17:18:49Z" user="AYAGE" uid="521665" lat="34.0851950" lon="132.0949517"/>
 <node id="9711851867" visible="true" version="1" changeset="120508907" timestamp="2022-05-03T17:18:49Z" user="AYAGE" uid="521665" lat="34.0854161" lon="132.0947747"/>
 <node id="9711851868" visible="true" version="1" changeset="120508907" timestamp="2022-05-03T17:18:49Z" user="AYAGE" uid="521665" lat="34.0863579" lon="132.0941269"/>
 <node id="9711851869" visible="true" version="1" changeset="120508907" timestamp="2022-05-03T17:18:49Z" user="AYAGE" uid="521665" lat="34.0855382" lon="132.0947666"/>
 <node id="9711851870" visible="true" version="1" changeset="120508907" timestamp="2022-05-03T17:18:49Z" user="AYAGE" uid="521665" lat="34.0863502" lon="132.0942275"/>
 <node id="9711851871" visible="true" version="1" changeset="120508907" timestamp="2022-05-03T17:18:49Z" user="AYAGE" uid="521665" lat="34.0867967" lon="132.0938480"/>
 <node id="9711851872" visible="true" version="1" changeset="120508907" timestamp="2022-05-03T17:18:49Z" user="AYAGE" uid="521665" lat="34.0869621" lon="132.0937957"/>
 <node id="9711851873" visible="true" version="1" changeset="120508907" timestamp="2022-05-03T17:18:49Z" user="AYAGE" uid="521665" lat="34.0872742" lon="132.0937876"/>
 <node id="9711851874" visible="true" version="1" changeset="120508907" timestamp="2022-05-03T17:18:49Z" user="AYAGE" uid="521665" lat="34.0868600" lon="132.0937313"/>
 <node id="9711851875" visible="true" version="1" changeset="120508907" timestamp="2022-05-03T17:18:49Z" user="AYAGE" uid="521665" lat="34.0874264" lon="132.0936844"/>
 <node id="9711851876" visible="true" version="1" changeset="120508907" timestamp="2022-05-03T17:18:49Z" user="AYAGE" uid="521665" lat="34.0881939" lon="132.0912825"/>
 <node id="9718488802" visible="true" version="1" changeset="120595879" timestamp="2022-05-05T15:59:27Z" user="AYAGE" uid="521665" lat="34.0867989" lon="132.0815594"/>
 <node id="9718488804" visible="true" version="1" changeset="120595879" timestamp="2022-05-05T15:59:27Z" user="AYAGE" uid="521665" lat="34.0864707" lon="132.0816728"/>
 <node id="9718488805" visible="true" version="1" changeset="120595879" timestamp="2022-05-05T15:59:27Z" user="AYAGE" uid="521665" lat="34.0863863" lon="132.0815695"/>
 <node id="9721690592" visible="true" version="1" changeset="120649458" timestamp="2022-05-06T22:58:23Z" user="AYAGE" uid="521665" lat="34.0844608" lon="132.0777909"/>
 <node id="9721690593" visible="true" version="1" changeset="120649458" timestamp="2022-05-06T22:58:23Z" user="AYAGE" uid="521665" lat="34.0845475" lon="132.0778875"/>
 <node id="9721690594" visible="true" version="1" changeset="120649458" timestamp="2022-05-06T22:58:23Z" user="AYAGE" uid="521665" lat="34.0849895" lon="132.0785661"/>
 <node id="9721690595" visible="true" version="1" changeset="120649458" timestamp="2022-05-06T22:58:23Z" user="AYAGE" uid="521665" lat="34.0845008" lon="132.0782724"/>
 <node id="9721690596" visible="true" version="1" changeset="120649458" timestamp="2022-05-06T22:58:23Z" user="AYAGE" uid="521665" lat="34.0847008" lon="132.0785728"/>
 <node id="9721690597" visible="true" version="1" changeset="120649458" timestamp="2022-05-06T22:58:23Z" user="AYAGE" uid="521665" lat="34.0851950" lon="132.0792527"/>
 <node id="9721690598" visible="true" version="1" changeset="120649458" timestamp="2022-05-06T22:58:23Z" user="AYAGE" uid="521665" lat="34.0856615" lon="132.0796524"/>
 <node id="9721690599" visible="true" version="1" changeset="120649458" timestamp="2022-05-06T22:58:23Z" user="AYAGE" uid="521665" lat="34.0857093" lon="132.0798630"/>
 <node id="9721690600" visible="true" version="1" changeset="120649458" timestamp="2022-05-06T22:58:23Z" user="AYAGE" uid="521665" lat="34.0859759" lon="132.0804852"/>
 <node id="9724857330" visible="true" version="1" changeset="120707592" timestamp="2022-05-08T15:30:52Z" user="AYAGE" uid="521665" lat="34.0906096" lon="132.0813302"/>
 <node id="9724857390" visible="true" version="1" changeset="120707592" timestamp="2022-05-08T15:30:52Z" user="AYAGE" uid="521665" lat="34.0905716" lon="132.0799221"/>
 <node id="9724857413" visible="true" version="1" changeset="120707592" timestamp="2022-05-08T15:30:52Z" user="AYAGE" uid="521665" lat="34.0909761" lon="132.0814361"/>
 <node id="9724857414" visible="true" version="1" changeset="120707592" timestamp="2022-05-08T15:30:52Z" user="AYAGE" uid="521665" lat="34.0911671" lon="132.0816641"/>
 <node id="9724857415" visible="true" version="1" changeset="120707592" timestamp="2022-05-08T15:30:52Z" user="AYAGE" uid="521665" lat="34.0916002" lon="132.0822018"/>
 <node id="9724857430" visible="true" version="1" changeset="120707592" timestamp="2022-05-08T15:30:52Z" user="AYAGE" uid="521665" lat="34.0902497" lon="132.0813596"/>
 <node id="9724857449" visible="true" version="1" changeset="120707592" timestamp="2022-05-08T15:30:52Z" user="AYAGE" uid="521665" lat="34.0896544" lon="132.0802029"/>
 <node id="9724857451" visible="true" version="1" changeset="120707592" timestamp="2022-05-08T15:30:52Z" user="AYAGE" uid="521665" lat="34.0874653" lon="132.0802478"/>
 <node id="9724857452" visible="true" version="1" changeset="120707592" timestamp="2022-05-08T15:30:52Z" user="AYAGE" uid="521665" lat="34.0887753" lon="132.0802834"/>
 <node id="9724857453" visible="true" version="1" changeset="120707592" timestamp="2022-05-08T15:30:52Z" user="AYAGE" uid="521665" lat="34.0888392" lon="132.0803243"/>
 <way id="60300695" visible="true" version="7" changeset="153270390" timestamp="2024-06-28T00:30:31Z" user="taketaketake" uid="4757277">
  <nd ref="749029887"/>
  <nd ref="9709482066"/>
  <nd ref="749570996"/>
  <nd ref="9710247671"/>
  <nd ref="748929971"/>
  <nd ref="749312603"/>
  <nd ref="749405460"/>
  <nd ref="749840225"/>
  <nd ref="749181314"/>
  <nd ref="749634870"/>
  <nd ref="748974314"/>
  <nd ref="9710247655"/>
  <nd ref="9710247660"/>
  <nd ref="749367355"/>
  <nd ref="749812724"/>
  <nd ref="749146835"/>
  <nd ref="749026284"/>
  <nd ref="749420554"/>
  <nd ref="9710247654"/>
  <nd ref="749857186"/>
  <nd ref="749202788"/>
  <nd ref="749661109"/>
  <nd ref="748988277"/>
  <nd ref="749390450"/>
  <nd ref="749820792"/>
  <nd ref="748905067"/>
  <nd ref="749274465"/>
  <nd ref="749753522"/>
  <nd ref="749059414"/>
  <tag k="name" v="笹見川"/>
  <tag k="name:en" v="Sasami River"/>
  <tag k="name:ja" v="笹見川"/>
  <tag k="note" v="National-Land Numerical Information (River) 2006, MLIT Japan"/>
  <tag k="note:ja" v="国土数値情報(河川データ)平成18年国土交通省"/>
  <tag k="source" v="KSJ2"/>
  <tag k="source_ref" v="http://nlftp.mlit.go.jp/ksj/jpgis/datalist/KsjTmplt-W05.html"/>
  <tag k="waterway" v="river"/>
 </way>
 <way id="118896619" visible="true" version="2" changeset="120480738" timestamp="2022-05-02T22:25:38Z" user="AYAGE" uid="521665">
  <nd ref="1336440400"/>
  <nd ref="9710247639"/>
  <nd ref="9710247638"/>
  <tag k="highway" v="unclassified"/>
  <tag k="source" v="YahooJapan/ALPSMAP"/>
 </way>
 <way id="118896713" visible="true" version="1" changeset="8529111" timestamp="2011-06-24T06:29:36Z" user="yamasan" uid="32308">
  <nd ref="1336439447"/>
  <nd ref="1336439727"/>
  <tag k="highway" v="unclassified"/>
  <tag k="source" v="YahooJapan/ALPSMAP"/>
  <tag k="yh:STRUCTURE" v="地上"/>
  <tag k="yh:TOTYUMONO" v="供用中"/>
  <tag k="yh:TYPE" v="その他一般道"/>
  <tag k="yh:WIDTH" v="3.0m〜5.5m"/>
  <tag k="yh:WIDTH_RANK" v="3"/>
 </way>
 <way id="118897226" visible="true" version="2" changeset="120707592" timestamp="2022-05-08T15:30:52Z" user="AYAGE" uid="521665">
  <nd ref="1336446724"/>
  <nd ref="9724857390"/>
  <nd ref="1336449902"/>
  <nd ref="1336438631"/>
  <nd ref="1336440934"/>
  <nd ref="1336444957"/>
  <nd ref="9724857449"/>
  <nd ref="1336447673"/>
  <nd ref="1336449050"/>
  <nd ref="1336441882"/>
  <nd ref="1336440400"/>
  <tag k="highway" v="unclassified"/>
  <tag k="source" v="YahooJapan/ALPSMAP"/>
 </way>
 <way id="118897475" visible="true" version="1" changeset="8529111" timestamp="2011-06-24T06:32:12Z" user="yamasan" uid="32308">
  <nd ref="1336439727"/>
  <nd ref="1336440400"/>
  <tag k="highway" v="unclassified"/>
  <tag k="source" v="YahooJapan/ALPSMAP"/>
  <tag k="yh:STRUCTURE" v="地上"/>
  <tag k="yh:TOTYUMONO" v="供用中"/>
  <tag k="yh:TYPE" v="その他一般道"/>
  <tag k="yh:WIDTH" v="3.0m〜5.5m"/>
  <tag k="yh:WIDTH_RANK" v="3"/>
 </way>
 <way id="118897745" visible="true" version="3" changeset="120707592" timestamp="2022-05-08T15:30:52Z" user="AYAGE" uid="521665">
  <nd ref="1336444323"/>
  <nd ref="1336438783"/>
  <nd ref="9724857451"/>
  <nd ref="1336441010"/>
  <nd ref="1336445035"/>
  <nd ref="1336447860"/>
  <nd ref="1336441822"/>
  <nd ref="9724857452"/>
  <nd ref="9724857453"/>
  <nd ref="1336444473"/>
  <nd ref="1336449320"/>
  <nd ref="1336439727"/>
  <tag k="highway" v="residential"/>
  <tag k="source" v="YahooJapan/ALPSMAP"/>
 </way>
 <way id="118897948" visible="true" version="2" changeset="120595879" timestamp="2022-05-05T15:59:27Z" user="AYAGE" uid="521665">
  <nd ref="1336438895"/>
  <nd ref="9718488805"/>
  <nd ref="9718488804"/>
  <nd ref="1336441085"/>
  <nd ref="9710247668"/>
  <nd ref="1336441612"/>
  <nd ref="1336444278"/>
  <nd ref="1336449198"/>
  <nd ref="1336439605"/>
  <nd ref="1336440181"/>
  <nd ref="9711816279"/>
  <nd ref="9711816282"/>
  <nd ref="1336446419"/>
  <nd ref="1336449723"/>
  <nd ref="1336443388"/>
  <nd ref="1336445561"/>
  <nd ref="1336438807"/>
  <nd ref="1336441020"/>
  <nd ref="1336441542"/>
  <nd ref="1336444184"/>
  <nd ref="9711816278"/>
  <nd ref="9711816295"/>
  <nd ref="9710247648"/>
  <nd ref="1336439532"/>
  <tag k="highway" v="unclassified"/>
  <tag k="source" v="YahooJapan/ALPSMAP"/>
 </way>
 <way id="118898096" visible="true" version="8" changeset="170601684" timestamp="2025-08-18T08:09:31Z" user="taketaketake" uid="4757277">
  <nd ref="1336446157"/>
  <nd ref="1336440762"/>
  <nd ref="2428746455"/>
  <nd ref="9710247638"/>
  <nd ref="1336442382"/>
  <nd ref="9724857430"/>
  <nd ref="9724857330"/>
  <nd ref="2428746548"/>
  <nd ref="2428746549"/>
  <nd ref="360188735"/>
  <nd ref="9724857413"/>
  <nd ref="9724857414"/>
  <nd ref="9724857415"/>
  <nd ref="1336439500"/>
  <nd ref="360188736"/>
  <nd ref="2810386291"/>
  <nd ref="2810386292"/>
  <nd ref="360188737"/>
  <nd ref="2810386293"/>
  <nd ref="2810386294"/>
  <nd ref="360188738"/>
  <nd ref="2810386295"/>
  <nd ref="360188739"/>
  <nd ref="360188740"/>
  <nd ref="9710009849"/>
  <nd ref="9710009848"/>
  <nd ref="9710009847"/>
  <nd ref="360188741"/>
  <tag k="highway" v="primary"/>
  <tag k="lanes" v="2"/>
  <tag k="name" v="柳井玖珂線"/>
  <tag k="name:en" v="Yanai Kuga Line"/>
  <tag k="name:ja" v="柳井玖珂線"/>
  <tag k="name:ja-Hira" v="やないくがせん"/>
  <tag k="name:ja_rm" v="Yanai Kuga-sen"/>
  <tag k="ref" v="70"/>
  <tag k="source" v="image;survey;Bing,2012-05;YahooJapan/ALPSMAP"/>
  <tag k="surface" v="asphalt"/>
  <tag k="wikidata" v="Q11467366"/>
  <tag k="wikipedia" v="ja:山口県道70号柳井玖珂線"/>
 </way>
 <way id="118898235" visible="true" version="3" changeset="120649458" timestamp="2022-05-06T22:58:23Z" user="AYAGE" uid="521665">
  <nd ref="1336440762"/>
  <nd ref="9718488802"/>
  <nd ref="1336443195"/>
  <nd ref="1336443836"/>
  <nd ref="1336446049"/>
  <nd ref="1336439237"/>
  <nd ref="1336441359"/>
  <nd ref="1336441900"/>
  <nd ref="1336444542"/>
  <nd ref="1336449438"/>
  <nd ref="1336439837"/>
  <nd ref="1336440470"/>
  <nd ref="1336442515"/>
  <nd ref="1336446840"/>
  <nd ref="1336449983"/>
  <tag k="highway" v="unclassified"/>
  <tag k="source" v="YahooJapan/ALPSMAP"/>
 </way>
 <way id="292006358" visible="true" version="4" changeset="120649458" timestamp="2022-05-06T22:58:23Z" user="AYAGE" uid="521665">
  <nd ref="2955168734"/>
  <nd ref="2955168933"/>
  <nd ref="2955169334"/>
  <nd ref="2955169335"/>
  <nd ref="9721690595"/>
  <nd ref="9721690596"/>
  <nd ref="2955169633"/>
  <nd ref="9721690597"/>
  <nd ref="2955138838"/>
  <nd ref="9721690600"/>
  <nd ref="2955137838"/>
  <nd ref="9710247656"/>
  <nd ref="9710247657"/>
  <nd ref="2955141842"/>
  <nd ref="9710247658"/>
  <nd ref="2955138945"/>
  <nd ref="9710247659"/>
  <nd ref="2955169833"/>
  <nd ref="9710247666"/>
  <nd ref="9710247665"/>
  <nd ref="2955169534"/>
  <nd ref="2955138637"/>
  <nd ref="2955139136"/>
  <nd ref="9710247661"/>
  <nd ref="2955169336"/>
  <nd ref="9710247653"/>
  <nd ref="9710247652"/>
  <nd ref="2955169235"/>
  <nd ref="9710247651"/>
  <nd ref="2955139137"/>
  <nd ref="9710247650"/>
  <nd ref="2955169435"/>
  <nd ref="9710247649"/>
  <nd ref="2955138638"/>
  <nd ref="2955169634"/>
  <nd ref="9721690599"/>
  <nd ref="9721690598"/>
  <nd ref="2955137839"/>
  <nd ref="9721690594"/>
  <nd ref="2955138639"/>
  <nd ref="9721690593"/>
  <nd ref="9721690592"/>
  <nd ref="2955169337"/>
  <nd ref="2955168734"/>
  <tag k="natural" v="water"/>
  <tag k="source" v="Bing,2005-06"/>
  <tag k="water" v="river"/>
 </way>
 <way id="292006976" visible="true" version="9" changeset="120508907" timestamp="2022-05-03T17:18:49Z" user="AYAGE" uid="521665">
  <nd ref="749290900"/>
  <nd ref="2955168938"/>
  <nd ref="2955169134"/>
  <nd ref="9711851860"/>
  <nd ref="2955169436"/>
  <nd ref="9711851861"/>
  <nd ref="4287125483"/>
  <nd ref="2955168538"/>
  <nd ref="9711851862"/>
  <nd ref="2955137840"/>
  <nd ref="2955168439"/>
  <nd ref="9711851863"/>
  <nd ref="9711851864"/>
  <nd ref="9711851869"/>
  <nd ref="2955168440"/>
  <nd ref="9711851870"/>
  <nd ref="2955168441"/>
  <nd ref="9711851871"/>
  <nd ref="9711851872"/>
  <nd ref="9711851873"/>
  <nd ref="2955169537"/>
  <nd ref="4287125487"/>
  <nd ref="4287125488"/>
  <nd ref="2955169538"/>
  <nd ref="2955138947"/>
  <nd ref="4287125896"/>
  <nd ref="2955168539"/>
  <nd ref="4287125897"/>
  <nd ref="2955138440"/>
  <nd ref="2955168540"/>
  <nd ref="9711851876"/>
  <nd ref="2955169034"/>
  <nd ref="2955169035"/>
  <nd ref="9709482052"/>
  <nd ref="2955169835"/>
  <nd ref="9709482053"/>
  <nd ref="9709482054"/>
  <nd ref="2955169836"/>
  <nd ref="2955169135"/>
  <nd ref="9709482055"/>
  <nd ref="2955168442"/>
  <nd ref="2955168134"/>
  <nd ref="2955168235"/>
  <nd ref="9709482060"/>
  <nd ref="2955138948"/>
  <nd ref="9709482061"/>
  <nd ref="9709482062"/>
  <nd ref="2955168541"/>
  <nd ref="2955169238"/>
  <nd ref="9709482064"/>
  <nd ref="2955168836"/>
  <nd ref="2955168236"/>
  <nd ref="9709482065"/>
  <nd ref="2955142142"/>
  <nd ref="2955142143"/>
  <nd ref="9709482075"/>
  <nd ref="2955138842"/>
  <nd ref="9709482076"/>
  <nd ref="2955168336"/>
  <nd ref="9709482079"/>
  <nd ref="2955169635"/>
  <nd ref="2955169239"/>
  <nd ref="9709482082"/>
  <nd ref="2955138843"/>
  <nd ref="2955138949"/>
  <nd ref="9708427259"/>
  <nd ref="2955169136"/>
  <nd ref="9708427260"/>
  <nd ref="2955142144"/>
  <nd ref="2955169137"/>
  <nd ref="2955169138"/>
  <nd ref="9708427263"/>
  <nd ref="2955139138"/>
  <nd ref="9708427262"/>
  <nd ref="2955168337"/>
  <nd ref="9708427258"/>
  <nd ref="2955169539"/>
  <nd ref="2955169339"/>
  <nd ref="2955168338"/>
  <nd ref="9709482081"/>
  <nd ref="9709482078"/>
  <nd ref="2955168939"/>
  <nd ref="9709482077"/>
  <nd ref="2955138041"/>
  <nd ref="9709482070"/>
  <nd ref="9709482069"/>
  <nd ref="2955168443"/>
  <nd ref="2955169437"/>
  <nd ref="2955168444"/>
  <nd ref="9709482068"/>
  <nd ref="9709482067"/>
  <nd ref="2955168339"/>
  <nd ref="2955169540"/>
  <nd ref="2955142145"/>
  <nd ref="9710247674"/>
  <nd ref="9710247673"/>
  <nd ref="9710247669"/>
  <nd ref="9710247670"/>
  <nd ref="2955169438"/>
  <nd ref="9710247663"/>
  <nd ref="2955137841"/>
  <nd ref="9710247662"/>
  <nd ref="2955169636"/>
  <nd ref="2955139136"/>
  <nd ref="2955138637"/>
  <nd ref="2955142039"/>
  <nd ref="9710247664"/>
  <nd ref="2955168937"/>
  <nd ref="9710247667"/>
  <nd ref="2955169535"/>
  <nd ref="9710247672"/>
  <nd ref="9710247676"/>
  <nd ref="9710247675"/>
  <nd ref="2955138436"/>
  <nd ref="9710247677"/>
  <nd ref="2955138839"/>
  <nd ref="9710247678"/>
  <nd ref="2955138840"/>
  <nd ref="9710247679"/>
  <nd ref="2955138240"/>
  <nd ref="2955138437"/>
  <nd ref="9709482059"/>
  <nd ref="2955169338"/>
  <nd ref="2955138438"/>
  <nd ref="2955168635"/>
  <nd ref="9709482058"/>
  <nd ref="9709482057"/>
  <nd ref="2955138241"/>
  <nd ref="9709482056"/>
  <nd ref="2955168437"/>
  <nd ref="9709482051"/>
  <nd ref="2955138946"/>
  <nd ref="9709482050"/>
  <nd ref="2955169834"/>
  <nd ref="9709482049"/>
  <nd ref="2955168735"/>
  <nd ref="9709482048"/>
  <nd ref="2955138040"/>
  <nd ref="2955168636"/>
  <nd ref="4287125894"/>
  <nd ref="2955168537"/>
  <nd ref="4287125895"/>
  <nd ref="4287125893"/>
  <nd ref="4287125892"/>
  <nd ref="2955142140"/>
  <nd ref="2955138242"/>
  <nd ref="9711851875"/>
  <nd ref="2955142944"/>
  <nd ref="9711851874"/>
  <nd ref="2955168637"/>
  <nd ref="9711851868"/>
  <nd ref="2955168736"/>
  <nd ref="9711851867"/>
  <nd ref="9711851866"/>
  <nd ref="9711851858"/>
  <nd ref="9711851857"/>
  <nd ref="2955168737"/>
  <nd ref="2955142040"/>
  <nd ref="2955168638"/>
  <nd ref="9711851856"/>
  <nd ref="2955168438"/>
  <nd ref="2955138841"/>
  <nd ref="9711851855"/>
  <nd ref="749290900"/>
  <tag k="natural" v="water"/>
  <tag k="source" v="Bing,2005-06"/>
  <tag k="water" v="river"/>
 </way>
 <way id="1056927684" visible="true" version="1" changeset="120508907" timestamp="2022-05-03T17:18:49Z" user="AYAGE" uid="521665">
  <nd ref="9711816284"/>
  <nd ref="9711816281"/>
  <nd ref="9711816280"/>
  <nd ref="9711816279"/>
  <tag k="highway" v="service"/>
 </way>
 <way id="1056927685" visible="true" version="1" changeset="120508907" timestamp="2022-05-03T17:18:49Z" user="AYAGE" uid="521665">
  <nd ref="9711816295"/>
  <nd ref="9711816296"/>
  <nd ref="9711816294"/>
  <nd ref="9711816276"/>
  <nd ref="9711816293"/>
  <nd ref="9711816292"/>
  <nd ref="9711816291"/>
  <nd ref="9711816290"/>
  <nd ref="9711816289"/>
  <nd ref="9711816288"/>
  <nd ref="9711816287"/>
  <nd ref="9711816286"/>
  <nd ref="9711816285"/>
  <nd ref="9711816284"/>
  <nd ref="9711816283"/>
  <nd ref="9711816282"/>
  <tag k="highway" v="residential"/>
  <tag k="layer" v="-1"/>
 </way>
 <relation id="19473634" visible="true" version="2" changeset="188759250" timestamp="2026-09-09T08:07:01Z" user="taketaketake" uid="4757277">
  <member type="way" ref="102234013" role=""/>
  <member type="way" ref="102234011" role=""/>
  <member type="way" ref="102233968" role=""/>
  <member type="way" ref="1315266543" role=""/>
  <member type="way" ref="295449578" role=""/>
  <member type="way" ref="1085388527" role=""/>
  <member type="way" ref="295449577" role=""/>
  <member type="way" ref="1422988952" role=""/>
  <member type="way" ref="1422988953" role=""/>
  <member type="way" ref="1422988954" role=""/>
  <member type="way" ref="1422988955" role=""/>
  <member type="way" ref="32082710" role=""/>
  <member type="way" ref="1086076980" role=""/>
  <member type="way" ref="292000242" role=""/>
  <member type="way" ref="1072259149" role=""/>
  <member type="way" ref="1315839186" role=""/>
  <member type="way" ref="1315839187" role=""/>
  <member type="way" ref="292000143" role=""/>
  <member type="way" ref="1057669152" role=""/>
  <member type="way" ref="1315823131" role=""/>
  <member type="way" ref="234732515" role=""/>
  <member type="way" ref="1315823132" role=""/>
  <member type="way" ref="118897827" role=""/>
  <member type="way" ref="118898096" role=""/>
  <member type="way" ref="118896957" role=""/>
  <tag k="colour" v="Orange"/>
  <tag k="from" v="山口県柳井市古開作"/>
  <tag k="name" v="山口県道70号　柳井玖珂線"/>
  <tag k="name:en" v="Yamaguchi Prefectural Route 70 Yanai Kuga Line"/>
  <tag k="name:ja" v="山口県道70号　柳井玖珂線"/>
  <tag k="name:ja-Hira" v="やまぐちけんどう70ごう やないくがせん"/>
  <tag k="name:ja_rm" v="Yamaguchikendō 70-gō Yanai Kuga-sen"/>
  <tag k="network" v="JP:prefectural"/>
  <tag k="ref" v="70"/>
  <tag k="route" v="road"/>
  <tag k="to" v="山口県岩国市玖珂町"/>
  <tag k="type" v="route"/>
  <tag k="wikidata" v="Q11467366"/>
  <tag k="wikipedia" v="ja:山口県道70号柳井玖珂線"/>
 </relation>
</osm>
