<?xml version="1.0" encoding="UTF-8"?>
<osm version="0.6" generator="openstreetmap-cgimap 2.1.0 (2942775 spike-08.openstreetmap.org)" copyright="OpenStreetMap and contributors" attribution="http://www.openstreetmap.org/copyright" license="http://opendatacommons.org/licenses/odbl/1-0/">
 <bounds minlat="33.9759710" minlon="131.1997090" maxlat="33.9783710" maxlon="131.2027090"/>
 <node id="748902903" visible="true" version="3" changeset="13256279" timestamp="2012-09-26T09:09:42Z" user="mklyr" uid="614924" lat="33.9584194" lon="131.2097774"/>
 <node id="748939243" visible="true" version="5" changeset="21925467" timestamp="2014-04-25T08:18:13Z" user="mklyr" uid="614924" lat="33.9798511" lon="131.2008979"/>
 <node id="748970971" visible="true" version="5" changeset="78504647" timestamp="2019-12-17T04:53:37Z" user="mklyr" uid="614924" lat="33.9679359" lon="131.2062113"/>
 <node id="748990615" visible="true" version="5" changeset="16445025" timestamp="2013-06-06T13:41:17Z" user="mklyr" uid="614924" lat="33.9789078" lon="131.2015522"/>
 <node id="749056316" visible="true" version="3" changeset="13256279" timestamp="2012-09-26T09:09:41Z" user="mklyr" uid="614924" lat="33.9570390" lon="131.2115262"/>
 <node id="749104645" visible="true" version="5" changeset="78849819" timestamp="2019-12-25T15:14:28Z" user="mklyr" uid="614924" lat="33.9795612" lon="131.2012651"/>
 <node id="749132680" visible="true" version="6" changeset="78849819" timestamp="2019-12-25T15:14:28Z" user="mklyr" uid="614924" lat="33.9803526" lon="131.2009330"/>
 <node id="749141446" visible="true" version="4" changeset="16136694" timestamp="2013-05-15T10:03:50Z" user="mklyr" uid="614924" lat="33.9718476" lon="131.2035644"/>
 <node id="749176631" visible="true" version="5" changeset="78504647" timestamp="2019-12-17T04:53:37Z" user="mklyr" uid="614924" lat="33.9684942" lon="131.2061683"/>
 <node id="749214076" visible="true" version="4" changeset="78504647" timestamp="2019-12-17T04:53:37Z" user="mklyr" uid="614924" lat="33.9708116" lon="131.2045535"/>
 <node id="749241016" visible="true" version="4" changeset="16136694" timestamp="2013-05-15T10:03:50Z" user="mklyr" uid="614924" lat="33.9756811" lon="131.2010374"/>
 <node id="749269287" visible="true" version="3" changeset="13256279" timestamp="2012-09-26T09:09:44Z" user="mklyr" uid="614924" lat="33.9578850" lon="131.2104772"/>
 <node id="749285460" visible="true" version="5" changeset="69633999" timestamp="2019-04-27T08:53:07Z" user="mklyr" uid="614924" lat="33.9817542" lon="131.2013540"/>
 <node id="749291259" visible="true" version="5" changeset="78839241" timestamp="2019-12-25T07:20:29Z" user="mklyr" uid="614924" lat="33.9726072" lon="131.2029052"/>
 <node id="749325160" visible="true" version="5" changeset="21925467" timestamp="2014-04-25T08:18:13Z" user="mklyr" uid="614924" lat="33.9797947" lon="131.2009402"/>
 <node id="749353582" visible="true" version="3" changeset="13256279" timestamp="2012-09-26T09:09:44Z" user="mklyr" uid="614924" lat="33.9763224" lon="131.2011475"/>
 <node id="749393843" visible="true" version="3" changeset="13256279" timestamp="2012-09-26T09:09:34Z" user="mklyr" uid="614924" lat="33.9786113" lon="131.2015162"/>
 <node id="749424381" visible="true" version="4" changeset="16136694" timestamp="2013-05-15T10:03:50Z" user="mklyr" uid="614924" lat="33.9752400" lon="131.2009392"/>
 <node id="749434527" visible="true" version="3" changeset="13256279" timestamp="2012-09-26T09:09:32Z" user="mklyr" uid="614924" lat="33.9640927" lon="131.2022377"/>
 <node id="749508923" visible="true" version="3" changeset="13256279" timestamp="2012-09-26T09:09:36Z" user="mklyr" uid="614924" lat="33.9586612" lon="131.2090939"/>
 <node id="749538373" visible="true" version="3" changeset="13256279" timestamp="2012-09-26T09:09:36Z" user="mklyr" uid="614924" lat="33.9539570" lon="131.2143772"/>
 <node id="749562268" visible="true" version="6" changeset="78849819" timestamp="2019-12-25T15:14:28Z" user="mklyr" uid="614924" lat="33.9794782" lon="131.2013569"/>
 <node id="749567927" visible="true" version="5" changeset="78839241" timestamp="2019-12-25T07:20:29Z" user="mklyr" uid="614924" lat="33.9741831" lon="131.2015417"/>
 <node id="749585582" visible="true" version="5" changeset="21925467" timestamp="2014-04-25T08:18:13Z" user="mklyr" uid="614924" lat="33.9799734" lon="131.2008641"/>
 <node id="749598920" visible="true" version="5" changeset="69633999" timestamp="2019-04-27T08:53:07Z" user="mklyr" uid="614924" lat="33.9820407" lon="131.2016917"/>
 <node id="749629521" visible="true" version="5" changeset="78504647" timestamp="2019-12-17T04:53:37Z" user="mklyr" uid="614924" lat="33.9681078" lon="131.2063127"/>
 <node id="749665051" visible="true" version="5" changeset="78849819" timestamp="2019-12-25T15:14:28Z" user="mklyr" uid="614924" lat="33.9793544" lon="131.2014304"/>
 <node id="749679229" visible="true" version="5" changeset="78504647" timestamp="2019-12-17T04:53:37Z" user="mklyr" uid="614924" lat="33.9697855" lon="131.2054831"/>
 <node id="749721908" visible="true" version="3" changeset="13256279" timestamp="2012-09-26T09:09:32Z" user="mklyr" uid="614924" lat="33.9647002" lon="131.2031542"/>
 <node id="749748064" visible="true" version="3" changeset="13256279" timestamp="2012-09-26T09:09:39Z" user="mklyr" uid="614924" lat="33.9572260" lon="131.2113532"/>
 <node id="749764712" visible="true" version="5" changeset="69633999" timestamp="2019-04-27T08:53:07Z" user="mklyr" uid="614924" lat="33.9815602" lon="131.2012690"/>
 <node id="749774474" visible="true" version="3" changeset="13256279" timestamp="2012-09-26T09:09:40Z" user="mklyr" uid="614924" lat="33.9602211" lon="131.2016444"/>
 <node id="749796254" visible="true" version="6" changeset="78849819" timestamp="2019-12-25T15:14:28Z" user="mklyr" uid="614924" lat="33.9797378" lon="131.2010078"/>
 <node id="749807938" visible="true" version="5" changeset="69633999" timestamp="2019-04-27T08:53:07Z" user="mklyr" uid="614924" lat="33.9811526" lon="131.2011238"/>
 <node id="749860117" visible="true" version="5" changeset="78839241" timestamp="2019-12-25T07:20:29Z" user="mklyr" uid="614924" lat="33.9751611" lon="131.2009470"/>
 <node id="749902906" visible="true" version="4" changeset="78504647" timestamp="2019-12-17T04:53:37Z" user="mklyr" uid="614924" lat="33.9657955" lon="131.2048101"/>
 <node id="1351048474" visible="true" version="4" changeset="16136343" timestamp="2013-05-15T09:29:44Z" user="mklyr" uid="614924" lat="33.9743756" lon="131.2004507"/>
 <node id="1351049648" visible="true" version="5" changeset="54957334" timestamp="2017-12-27T14:31:36Z" user="mklyr" uid="614924" lat="33.9750777" lon="131.1978720"/>
 <node id="1351049650" visible="true" version="6" changeset="54957334" timestamp="2017-12-27T14:31:36Z" user="mklyr" uid="614924" lat="33.9750974" lon="131.1973953"/>
 <node id="1351049659" visible="true" version="5" changeset="54957334" timestamp="2017-12-27T14:31:36Z" user="mklyr" uid="614924" lat="33.9750909" lon="131.1981672"/>
 <node id="1351049672" visible="true" version="5" changeset="54957334" timestamp="2017-12-27T14:31:36Z" user="mklyr" uid="614924" lat="33.9751359" lon="131.1970284"/>
 <node id="1351049717" visible="true" version="6" changeset="92247147" timestamp="2020-10-09T16:21:59Z" user="mklyr" uid="614924" lat="33.9751293" lon="131.1985247"/>
 <node id="1351049798" visible="true" version="7" changeset="92247147" timestamp="2020-10-09T16:21:59Z" user="mklyr" uid="614924" lat="33.9751686" lon="131.1987664"/>
 <node id="1351049868" visible="true" version="6" changeset="54957334" timestamp="2017-12-27T14:31:36Z" user="mklyr" uid="614924" lat="33.9752325" lon="131.1962628"/>
 <node id="1351049871" visible="true" version="8" changeset="92247147" timestamp="2020-10-09T16:21:59Z" user="mklyr" uid="614924" lat="33.9752739" lon="131.1992029"/>
 <node id="1351049912" visible="true" version="5" changeset="54957334" timestamp="2017-12-27T14:31:36Z" user="mklyr" uid="614924" lat="33.9752739" lon="131.1958846"/>
 <node id="1351049957" visible="true" version="6" changeset="54957334" timestamp="2017-12-27T14:31:36Z" user="mklyr" uid="614924" lat="33.9753323" lon="131.1952686"/>
 <node id="1351049969" visible="true" version="6" changeset="54957334" timestamp="2017-12-27T14:31:36Z" user="mklyr" uid="614924" lat="33.9753652" lon="131.1948264"/>
 <node id="1351050002" visible="true" version="6" changeset="54957334" timestamp="2017-12-27T14:31:36Z" user="mklyr" uid="614924" lat="33.9754208" lon="131.1938510"/>
 <node id="1351050006" visible="true" version="8" changeset="54957334" timestamp="2017-12-27T14:31:36Z" user="mklyr" uid="614924" lat="33.9754294" lon="131.1935063">
  <tag k="highway" v="traffic_signals"/>
  <tag k="name" v="東須恵I.C"/>
 </node>
 <node id="1351050012" visible="true" version="5" changeset="24698224" timestamp="2014-08-12T10:15:49Z" user="mklyr" uid="614924" lat="33.9754989" lon="131.1925637"/>
 <node id="1351050040" visible="true" version="4" changeset="54957334" timestamp="2017-12-27T14:31:36Z" user="mklyr" uid="614924" lat="33.9754011" lon="131.1995929"/>
 <node id="1351050045" visible="true" version="7" changeset="54957334" timestamp="2017-12-27T14:31:36Z" user="mklyr" uid="614924" lat="33.9755652" lon="131.1920271"/>
 <node id="1351050064" visible="true" version="3" changeset="92247147" timestamp="2020-10-09T16:21:59Z" user="mklyr" uid="614924" lat="33.9755896" lon="131.1994335"/>
 <node id="1351050088" visible="true" version="7" changeset="24698224" timestamp="2014-08-12T10:15:49Z" user="mklyr" uid="614924" lat="33.9756241" lon="131.1915072"/>
 <node id="1351050091" visible="true" version="9" changeset="54957334" timestamp="2017-12-27T14:31:36Z" user="mklyr" uid="614924" lat="33.9756826" lon="131.1911119"/>
 <node id="1351050123" visible="true" version="5" changeset="54957334" timestamp="2017-12-27T14:31:36Z" user="mklyr" uid="614924" lat="33.9755988" lon="131.2000736"/>
 <node id="1351050248" visible="true" version="10" changeset="69662201" timestamp="2019-04-28T12:12:48Z" user="mklyr" uid="614924" lat="33.9758192" lon="131.1904493">
  <tag k="highway" v="traffic_signals"/>
 </node>
 <node id="1351050299" visible="true" version="3" changeset="92247147" timestamp="2020-10-09T16:21:59Z" user="mklyr" uid="614924" lat="33.9759587" lon="131.1998136"/>
 <node id="1351050329" visible="true" version="3" changeset="69663656" timestamp="2019-04-28T13:22:47Z" user="mklyr" uid="614924" lat="33.9758626" lon="131.2011936"/>
 <node id="1351050352" visible="true" version="8" changeset="54957334" timestamp="2017-12-27T14:31:37Z" user="mklyr" uid="614924" lat="33.9759717" lon="131.2009745">
  <tag k="highway" v="traffic_signals"/>
  <tag k="name:en" v="Nagarekawa"/>
  <tag k="name:ja" v="流川"/>
 </node>
 <node id="1351050357" visible="true" version="5" changeset="54986857" timestamp="2017-12-28T15:51:52Z" user="mklyr" uid="614924" lat="33.9759850" lon="131.1898856"/>
 <node id="1351050460" visible="true" version="4" changeset="54957334" timestamp="2017-12-27T14:31:37Z" user="mklyr" uid="614924" lat="33.9760525" lon="131.2011586"/>
 <node id="1351050478" visible="true" version="6" changeset="54986857" timestamp="2017-12-28T15:51:52Z" user="mklyr" uid="614924" lat="33.9762267" lon="131.1893174"/>
 <node id="1351050524" visible="true" version="5" changeset="54986857" timestamp="2017-12-28T15:51:52Z" user="mklyr" uid="614924" lat="33.9764903" lon="131.1888678"/>
 <node id="1351050561" visible="true" version="3" changeset="92247147" timestamp="2020-10-09T16:21:59Z" user="mklyr" uid="614924" lat="33.9761675" lon="131.1999825"/>
 <node id="1351050662" visible="true" version="3" changeset="92247147" timestamp="2020-10-09T16:21:59Z" user="mklyr" uid="614924" lat="33.9762976" lon="131.2001027"/>
 <node id="1351050776" visible="true" version="1" changeset="8645415" timestamp="2011-07-06T07:00:32Z" user="yamasan" uid="32308" lat="33.9764240" lon="131.2002050"/>
 <node id="1351050913" visible="true" version="2" changeset="21925467" timestamp="2014-04-25T08:18:10Z" user="mklyr" uid="614924" lat="33.9765790" lon="131.2003137"/>
 <node id="1351050977" visible="true" version="6" changeset="54986857" timestamp="2017-12-28T15:51:52Z" user="mklyr" uid="614924" lat="33.9767163" lon="131.1885167"/>
 <node id="1351051048" visible="true" version="2" changeset="21925467" timestamp="2014-04-25T08:18:10Z" user="mklyr" uid="614924" lat="33.9767791" lon="131.2004369"/>
 <node id="1351051087" visible="true" version="6" changeset="56581186" timestamp="2018-02-22T14:14:33Z" user="mklyr" uid="614924" lat="33.9768475" lon="131.2011329"/>
 <node id="1351051088" visible="true" version="4" changeset="56391155" timestamp="2018-02-15T17:24:37Z" user="mklyr" uid="614924" lat="33.9768654" lon="131.2031204"/>
 <node id="1351051107" visible="true" version="4" changeset="56391155" timestamp="2018-02-15T17:24:37Z" user="mklyr" uid="614924" lat="33.9769153" lon="131.2032751"/>
 <node id="1351051130" visible="true" version="4" changeset="56391155" timestamp="2018-02-15T17:24:37Z" user="mklyr" uid="614924" lat="33.9769534" lon="131.2034268"/>
 <node id="1351051140" visible="true" version="4" changeset="56391155" timestamp="2018-02-15T17:24:37Z" user="mklyr" uid="614924" lat="33.9769746" lon="131.2035572"/>
 <node id="1351051152" visible="true" version="6" changeset="78869985" timestamp="2019-12-26T07:55:32Z" user="mklyr" uid="614924" lat="33.9769855" lon="131.2037184"/>
 <node id="1351051203" visible="true" version="2" changeset="21925467" timestamp="2014-04-25T08:18:10Z" user="mklyr" uid="614924" lat="33.9769710" lon="131.2005048"/>
 <node id="1351051217" visible="true" version="5" changeset="54957334" timestamp="2017-12-27T14:31:37Z" user="mklyr" uid="614924" lat="33.9770284" lon="131.2050470"/>
 <node id="1351051235" visible="true" version="2" changeset="21925467" timestamp="2014-04-25T08:18:10Z" user="mklyr" uid="614924" lat="33.9769978" lon="131.2003975"/>
 <node id="1351051320" visible="true" version="8" changeset="148856911" timestamp="2024-03-19T11:47:25Z" user="paopao234" uid="8303738" lat="33.9770979" lon="131.2078561">
  <tag k="highway" v="traffic_signals"/>
  <tag k="name:en" v="Nishiwari"/>
  <tag k="name:ja" v="西割"/>
 </node>
 <node id="1351051337" visible="true" version="3" changeset="56581186" timestamp="2018-02-22T14:14:33Z" user="mklyr" uid="614924" lat="33.9770305" lon="131.2003092"/>
 <node id="1351051449" visible="true" version="8" changeset="148856911" timestamp="2024-03-19T11:47:25Z" user="paopao234" uid="8303738" lat="33.9771900" lon="131.2106076"/>
 <node id="1351051455" visible="true" version="1" changeset="8645415" timestamp="2011-07-06T07:01:14Z" user="yamasan" uid="32308" lat="33.9771790" lon="131.2005740"/>
 <node id="1351051487" visible="true" version="3" changeset="56581186" timestamp="2018-02-22T14:14:33Z" user="mklyr" uid="614924" lat="33.9772327" lon="131.1999745"/>
 <node id="1351051501" visible="true" version="3" changeset="56581186" timestamp="2018-02-22T14:14:33Z" user="mklyr" uid="614924" lat="33.9772684" lon="131.1999064"/>
 <node id="1351051532" visible="true" version="3" changeset="56581186" timestamp="2018-02-22T14:14:33Z" user="mklyr" uid="614924" lat="33.9773033" lon="131.1998318"/>
 <node id="1351051555" visible="true" version="2" changeset="21925467" timestamp="2014-04-25T08:18:11Z" user="mklyr" uid="614924" lat="33.9773336" lon="131.1997285"/>
 <node id="1351051588" visible="true" version="9" changeset="169801235" timestamp="2025-08-01T07:05:34Z" user="taketaketake" uid="4757277" lat="33.9772416" lon="131.2131457">
  <tag k="highway" v="traffic_signals"/>
 </node>
 <node id="1351051604" visible="true" version="3" changeset="56581186" timestamp="2018-02-22T14:14:33Z" user="mklyr" uid="614924" lat="33.9773581" lon="131.1996884"/>
 <node id="1351051607" visible="true" version="5" changeset="148186787" timestamp="2024-03-04T01:39:18Z" user="paopao234" uid="8303738" lat="33.9772386" lon="131.2133630"/>
 <node id="1351051687" visible="true" version="3" changeset="56581186" timestamp="2018-02-22T14:14:33Z" user="mklyr" uid="614924" lat="33.9774329" lon="131.1996228"/>
 <node id="1351051925" visible="true" version="2" changeset="21925467" timestamp="2014-04-25T08:18:11Z" user="mklyr" uid="614924" lat="33.9775401" lon="131.2006699"/>
 <node id="1351052134" visible="true" version="2" changeset="13256279" timestamp="2012-09-26T09:09:45Z" user="mklyr" uid="614924" lat="33.9776203" lon="131.2012561"/>
 <node id="1351052156" visible="true" version="3" changeset="56581186" timestamp="2018-02-22T14:14:33Z" user="mklyr" uid="614924" lat="33.9775518" lon="131.1995493"/>
 <node id="1351052247" visible="true" version="3" changeset="56581186" timestamp="2018-02-22T14:14:34Z" user="mklyr" uid="614924" lat="33.9776381" lon="131.1994706"/>
 <node id="1351052280" visible="true" version="3" changeset="56581186" timestamp="2018-02-22T14:14:34Z" user="mklyr" uid="614924" lat="33.9777364" lon="131.1993426"/>
 <node id="1351052472" visible="true" version="3" changeset="56581186" timestamp="2018-02-22T14:14:34Z" user="mklyr" uid="614924" lat="33.9777974" lon="131.1992550"/>
 <node id="1351052524" visible="true" version="3" changeset="56581186" timestamp="2018-02-22T14:14:34Z" user="mklyr" uid="614924" lat="33.9779143" lon="131.1988372"/>
 <node id="1351052534" visible="true" version="3" changeset="56581186" timestamp="2018-02-22T14:14:34Z" user="mklyr" uid="614924" lat="33.9779810" lon="131.1984365"/>
 <node id="1351052541" visible="true" version="1" changeset="8645415" timestamp="2011-07-06T07:02:26Z" user="yamasan" uid="32308" lat="33.9778970" lon="131.2007050"/>
 <node id="1351052567" visible="true" version="3" changeset="56581186" timestamp="2018-02-22T14:14:34Z" user="mklyr" uid="614924" lat="33.9779992" lon="131.1982049"/>
 <node id="1351052584" visible="true" version="3" changeset="56581186" timestamp="2018-02-22T14:14:34Z" user="mklyr" uid="614924" lat="33.9780024" lon="131.1981001"/>
 <node id="1351052603" visible="true" version="3" changeset="56581186" timestamp="2018-02-22T14:14:34Z" user="mklyr" uid="614924" lat="33.9780068" lon="131.1977974"/>
 <node id="1351052612" visible="true" version="3" changeset="56581186" timestamp="2018-02-22T14:14:34Z" user="mklyr" uid="614924" lat="33.9780170" lon="131.1976713"/>
 <node id="1351052618" visible="true" version="3" changeset="56581186" timestamp="2018-02-22T14:14:34Z" user="mklyr" uid="614924" lat="33.9780890" lon="131.1973882"/>
 <node id="1351052781" visible="true" version="4" changeset="16136694" timestamp="2013-05-15T10:03:42Z" user="mklyr" uid="614924" lat="33.9781308" lon="131.2013497"/>
 <node id="1351052807" visible="true" version="2" changeset="69662201" timestamp="2019-04-28T12:12:48Z" user="mklyr" uid="614924" lat="33.9782063" lon="131.2007396"/>
 <node id="1351052967" visible="true" version="2" changeset="69662201" timestamp="2019-04-28T12:12:48Z" user="mklyr" uid="614924" lat="33.9785463" lon="131.2007439"/>
 <node id="1351053035" visible="true" version="6" changeset="54957334" timestamp="2017-12-27T14:31:37Z" user="mklyr" uid="614924" lat="33.9786863" lon="131.2014123"/>
 <node id="1351053216" visible="true" version="1" changeset="8645415" timestamp="2011-07-06T07:03:05Z" user="yamasan" uid="32308" lat="33.9788150" lon="131.2007340"/>
 <node id="1351053484" visible="true" version="2" changeset="21925467" timestamp="2014-04-25T08:18:12Z" user="mklyr" uid="614924" lat="33.9792548" lon="131.2007365"/>
 <node id="1351054402" visible="true" version="2" changeset="21925467" timestamp="2014-04-25T08:18:12Z" user="mklyr" uid="614924" lat="33.9799137" lon="131.2007873"/>
 <node id="1351054847" visible="true" version="2" changeset="21925467" timestamp="2014-04-25T08:18:12Z" user="mklyr" uid="614924" lat="33.9801754" lon="131.2008194"/>
 <node id="1351055498" visible="true" version="2" changeset="21925467" timestamp="2014-04-25T08:18:12Z" user="mklyr" uid="614924" lat="33.9803153" lon="131.2008710"/>
 <node id="1351055873" visible="true" version="2" changeset="13781399" timestamp="2012-11-07T04:40:18Z" user="mklyr" uid="614924" lat="33.9807413" lon="131.2009686"/>
 <node id="1351056079" visible="true" version="1" changeset="8645415" timestamp="2011-07-06T07:04:33Z" user="yamasan" uid="32308" lat="33.9810610" lon="131.2010540"/>
 <node id="1351056266" visible="true" version="2" changeset="78869985" timestamp="2019-12-26T07:55:32Z" user="mklyr" uid="614924" lat="33.9813902" lon="131.2011645"/>
 <node id="1351056356" visible="true" version="4" changeset="148448133" timestamp="2024-03-10T05:26:54Z" user="paopao234" uid="8303738" lat="33.9815509" lon="131.2012227"/>
 <node id="1351961376" visible="true" version="10" changeset="54986857" timestamp="2017-12-28T15:51:53Z" user="mklyr" uid="614924" lat="33.9780020" lon="131.1867594">
  <tag k="highway" v="traffic_signals"/>
  <tag k="name" v="丸河内"/>
 </node>
 <node id="1423654899" visible="true" version="2" changeset="46293707" timestamp="2017-02-22T03:24:56Z" user="mmkato" uid="3760104" lat="33.9771575" lon="131.2010072">
  <tag k="amenity" v="police"/>
  <tag k="name" v="宇部警察署流川交番"/>
  <tag k="note" v="National-Land Numerical Information (Public Facility) 2006, MLIT Japan"/>
  <tag k="note:ja" v="国土数値情報（公共施設データ）平成19年　国土交通省"/>
  <tag k="source" v="KSJ2"/>
  <tag k="source_ref" v="http://nlftp.mlit.go.jp/ksj/jpgis/datalist/KsjTmplt-P02-v2_0.html"/>
 </node>
 <node id="1908486805" visible="true" version="5" changeset="54986857" timestamp="2017-12-28T15:51:55Z" user="mklyr" uid="614924" lat="33.9760902" lon="131.1896067"/>
 <node id="2000838877" visible="true" version="2" changeset="16136694" timestamp="2013-05-15T10:03:50Z" user="mklyr" uid="614924" lat="33.9784114" lon="131.2013955"/>
 <node id="2000838878" visible="true" version="3" changeset="78849819" timestamp="2019-12-25T15:14:28Z" user="mklyr" uid="614924" lat="33.9791137" lon="131.2015370"/>
 <node id="2000838882" visible="true" version="2" changeset="69633999" timestamp="2019-04-27T08:53:15Z" user="mklyr" uid="614924" lat="33.9818769" lon="131.2014377"/>
 <node id="2013400590" visible="true" version="3" changeset="54957334" timestamp="2017-12-27T14:31:39Z" user="mklyr" uid="614924" lat="33.9753244" lon="131.1993722"/>
 <node id="2013400592" visible="true" version="3" changeset="92247147" timestamp="2020-10-09T16:21:59Z" user="mklyr" uid="614924" lat="33.9754354" lon="131.1992628"/>
 <node id="2013400594" visible="true" version="3" changeset="54957334" timestamp="2017-12-27T14:31:39Z" user="mklyr" uid="614924" lat="33.9754856" lon="131.1998068"/>
 <node id="2013400596" visible="true" version="4" changeset="54957334" timestamp="2017-12-27T14:31:39Z" user="mklyr" uid="614924" lat="33.9759025" lon="131.1901291"/>
 <node id="2013400601" visible="true" version="3" changeset="54986857" timestamp="2017-12-28T15:51:56Z" user="mklyr" uid="614924" lat="33.9763475" lon="131.1891053"/>
 <node id="2334395666" visible="true" version="2" changeset="54957334" timestamp="2017-12-27T14:31:41Z" user="mklyr" uid="614924" lat="33.9750861" lon="131.1976412"/>
 <node id="2334395667" visible="true" version="2" changeset="54957334" timestamp="2017-12-27T14:31:41Z" user="mklyr" uid="614924" lat="33.9751102" lon="131.1983693"/>
 <node id="2334395699" visible="true" version="4" changeset="54957334" timestamp="2017-12-27T14:31:41Z" user="mklyr" uid="614924" lat="33.9758444" lon="131.2009280">
  <tag k="highway" v="traffic_signals"/>
  <tag k="name:en" v="Nagarekawa"/>
  <tag k="name:ja" v="流川"/>
 </node>
 <node id="2334395705" visible="true" version="3" changeset="56391155" timestamp="2018-02-15T17:24:37Z" user="mklyr" uid="614924" lat="33.9765289" lon="131.2022601"/>
 <node id="2334395715" visible="true" version="2" changeset="56391155" timestamp="2018-02-15T17:24:37Z" user="mklyr" uid="614924" lat="33.9767433" lon="131.2029793"/>
 <node id="2334395716" visible="true" version="2" changeset="56391155" timestamp="2018-02-15T17:24:37Z" user="mklyr" uid="614924" lat="33.9768111" lon="131.2031435"/>
 <node id="2334395717" visible="true" version="2" changeset="56391155" timestamp="2018-02-15T17:24:37Z" user="mklyr" uid="614924" lat="33.9768109" lon="131.2029624"/>
 <node id="2334395719" visible="true" version="2" changeset="56391155" timestamp="2018-02-15T17:24:37Z" user="mklyr" uid="614924" lat="33.9768617" lon="131.2032974"/>
 <node id="2334395720" visible="true" version="2" changeset="56391155" timestamp="2018-02-15T17:24:37Z" user="mklyr" uid="614924" lat="33.9768994" lon="131.2034480"/>
 <node id="2334395721" visible="true" version="2" changeset="56391155" timestamp="2018-02-15T17:24:37Z" user="mklyr" uid="614924" lat="33.9769196" lon="131.2036172"/>
 <node id="2334395722" visible="true" version="2" changeset="56391155" timestamp="2018-02-15T17:24:37Z" user="mklyr" uid="614924" lat="33.9769339" lon="131.2038114"/>
 <node id="2334395724" visible="true" version="2" changeset="54957334" timestamp="2017-12-27T14:31:41Z" user="mklyr" uid="614924" lat="33.9769751" lon="131.2050503"/>
 <node id="2334395726" visible="true" version="3" changeset="148856911" timestamp="2024-03-19T11:47:25Z" user="paopao234" uid="8303738" lat="33.9770011" lon="131.2073377"/>
 <node id="2334395728" visible="true" version="3" changeset="148856911" timestamp="2024-03-19T11:47:25Z" user="paopao234" uid="8303738" lat="33.9770104" lon="131.2064636"/>
 <node id="2334395729" visible="true" version="5" changeset="148856911" timestamp="2024-03-19T11:47:25Z" user="paopao234" uid="8303738" lat="33.9770163" lon="131.2078573">
  <tag k="highway" v="traffic_signals"/>
  <tag k="name:en" v="Nishiwari"/>
  <tag k="name:ja" v="西割"/>
 </node>
 <node id="2334395730" visible="true" version="3" changeset="148856911" timestamp="2024-03-19T11:47:25Z" user="paopao234" uid="8303738" lat="33.9770341" lon="131.2084165"/>
 <node id="2334395732" visible="true" version="3" changeset="148856911" timestamp="2024-03-19T11:47:25Z" user="paopao234" uid="8303738" lat="33.9770809" lon="131.2090760"/>
 <node id="2334395733" visible="true" version="3" changeset="148856911" timestamp="2024-03-19T11:47:25Z" user="paopao234" uid="8303738" lat="33.9770932" lon="131.2092958"/>
 <node id="2334395738" visible="true" version="4" changeset="148856911" timestamp="2024-03-19T11:47:25Z" user="paopao234" uid="8303738" lat="33.9771320" lon="131.2106084"/>
 <node id="2334395740" visible="true" version="7" changeset="169801235" timestamp="2025-08-01T07:05:34Z" user="taketaketake" uid="4757277" lat="33.9771488" lon="131.2131465">
  <tag k="highway" v="traffic_signals"/>
 </node>
 <node id="2334395741" visible="true" version="4" changeset="78869985" timestamp="2019-12-26T07:55:32Z" user="mklyr" uid="614924" lat="33.9771503" lon="131.2129237"/>
 <node id="2334395742" visible="true" version="4" changeset="148186787" timestamp="2024-03-04T01:39:18Z" user="paopao234" uid="8303738" lat="33.9771461" lon="131.2133636"/>
 <node id="2334395744" visible="true" version="2" changeset="54957334" timestamp="2017-12-27T14:31:42Z" user="mklyr" uid="614924" lat="33.9771624" lon="131.2121733"/>
 <node id="2334424988" visible="true" version="4" changeset="54957334" timestamp="2017-12-27T14:31:42Z" user="mklyr" uid="614924" lat="33.9757421" lon="131.1907973"/>
 <node id="2334424990" visible="true" version="2" changeset="54957334" timestamp="2017-12-27T14:31:42Z" user="mklyr" uid="614924" lat="33.9759477" lon="131.2011778"/>
 <node id="2334425003" visible="true" version="3" changeset="148856911" timestamp="2024-03-19T11:47:25Z" user="paopao234" uid="8303738" lat="33.9771610" lon="131.2114438"/>
 <node id="2334425005" visible="true" version="3" changeset="54957334" timestamp="2017-12-27T14:31:42Z" user="mklyr" uid="614924" lat="33.9772400" lon="131.2121363"/>
 <node id="2334425007" visible="true" version="1" changeset="16445025" timestamp="2013-06-06T13:41:09Z" user="mklyr" uid="614924" lat="33.9785324" lon="131.2014054"/>
 <node id="2712259537" visible="true" version="2" changeset="54957334" timestamp="2017-12-27T14:31:42Z" user="mklyr" uid="614924" lat="33.9772449" lon="131.2129297"/>
 <node id="2815055045" visible="true" version="2" changeset="92247147" timestamp="2020-10-09T16:21:59Z" user="mklyr" uid="614924" lat="33.9753576" lon="131.1992086"/>
 <node id="2815055086" visible="true" version="1" changeset="21925467" timestamp="2014-04-25T08:17:59Z" user="mklyr" uid="614924" lat="33.9799198" lon="131.2008679"/>
 <node id="3397666239" visible="true" version="2" changeset="78849819" timestamp="2019-12-25T15:14:28Z" user="mklyr" uid="614924" lat="33.9779706" lon="131.2024226"/>
 <node id="3397666240" visible="true" version="2" changeset="78849819" timestamp="2019-12-25T15:14:28Z" user="mklyr" uid="614924" lat="33.9779916" lon="131.2031807"/>
 <node id="3397666245" visible="true" version="2" changeset="78849819" timestamp="2019-12-25T15:14:28Z" user="mklyr" uid="614924" lat="33.9780750" lon="131.2024184"/>
 <node id="3397666248" visible="true" version="2" changeset="78849819" timestamp="2019-12-25T15:14:28Z" user="mklyr" uid="614924" lat="33.9780960" lon="131.2031765"/>
 <node id="4698382362" visible="true" version="2" changeset="116976674" timestamp="2022-02-03T18:52:49Z" user="denpa1" uid="12030302" lat="33.9774767" lon="131.2023714">
  <tag k="highway" v="bus_stop"/>
  <tag k="name" v="流川"/>
  <tag k="operator" v="宇部市交通局"/>
 </node>
 <node id="4698382363" visible="true" version="1" changeset="46293707" timestamp="2017-02-22T03:24:55Z" user="mmkato" uid="3760104" lat="33.9771605" lon="131.2012330">
  <tag k="highway" v="bus_stop"/>
  <tag k="name" v="流川"/>
  <tag k="operator" v="宇部市交通局"/>
 </node>
 <node id="4712585936" visible="true" version="4" changeset="101858139" timestamp="2021-03-28T00:22:02Z" user="mklyr" uid="614924" lat="33.9761519" lon="131.2019303"/>
 <node id="4712585937" visible="true" version="4" changeset="101858139" timestamp="2021-03-28T00:22:02Z" user="mklyr" uid="614924" lat="33.9759931" lon="131.2019499"/>
 <node id="4712585938" visible="true" version="4" changeset="101858139" timestamp="2021-03-28T00:22:02Z" user="mklyr" uid="614924" lat="33.9759931" lon="131.2021065"/>
 <node id="4712585939" visible="true" version="4" changeset="101858139" timestamp="2021-03-28T00:22:02Z" user="mklyr" uid="614924" lat="33.9761519" lon="131.2021066"/>
 <node id="4712585940" visible="true" version="2" changeset="69663656" timestamp="2019-04-28T13:22:48Z" user="mklyr" uid="614924" lat="33.9759669" lon="131.2017592"/>
 <node id="4712585941" visible="true" version="2" changeset="69663656" timestamp="2019-04-28T13:22:48Z" user="mklyr" uid="614924" lat="33.9759211" lon="131.2017598"/>
 <node id="4712585942" visible="true" version="2" changeset="69663656" timestamp="2019-04-28T13:22:48Z" user="mklyr" uid="614924" lat="33.9759178" lon="131.2018949"/>
 <node id="4712585943" visible="true" version="2" changeset="69663656" timestamp="2019-04-28T13:22:48Z" user="mklyr" uid="614924" lat="33.9760033" lon="131.2018955"/>
 <node id="4712585944" visible="true" version="2" changeset="69663656" timestamp="2019-04-28T13:22:48Z" user="mklyr" uid="614924" lat="33.9760030" lon="131.2018282"/>
 <node id="5429151732" visible="true" version="1" changeset="56581186" timestamp="2018-02-22T14:14:24Z" user="mklyr" uid="614924" lat="33.9764835" lon="131.2023662"/>
 <node id="6432312461" visible="true" version="1" changeset="69633999" timestamp="2019-04-27T08:53:02Z" user="mklyr" uid="614924" lat="33.9819550" lon="131.2015119"/>
 <node id="6433993134" visible="true" version="2" changeset="101858139" timestamp="2021-03-28T00:22:02Z" user="mklyr" uid="614924" lat="33.9760212" lon="131.2019499"/>
 <node id="6433993135" visible="true" version="2" changeset="101858139" timestamp="2021-03-28T00:22:02Z" user="mklyr" uid="614924" lat="33.9760212" lon="131.2019302"/>
 <node id="6683532028" visible="true" version="1" changeset="73011295" timestamp="2019-08-05T08:44:47Z" user="futurumspes" uid="651065" lat="33.9759922" lon="131.2010212"/>
 <node id="6683532029" visible="true" version="1" changeset="73011295" timestamp="2019-08-05T08:44:47Z" user="futurumspes" uid="651065" lat="33.9760420" lon="131.2011346"/>
 <node id="6683532031" visible="true" version="1" changeset="73011295" timestamp="2019-08-05T08:44:47Z" user="futurumspes" uid="651065" lat="33.9759311" lon="131.2011377"/>
 <node id="7062373284" visible="true" version="1" changeset="78504647" timestamp="2019-12-17T04:53:37Z" user="mklyr" uid="614924" lat="33.9681732" lon="131.2063171"/>
 <node id="7083557395" visible="true" version="1" changeset="78839241" timestamp="2019-12-25T07:20:29Z" user="mklyr" uid="614924" lat="33.9744527" lon="131.2013510"/>
 <node id="7083557400" visible="true" version="2" changeset="101863080" timestamp="2021-03-28T07:40:15Z" user="mklyr" uid="614924" lat="33.9750194" lon="131.2006508"/>
 <node id="7083557415" visible="true" version="2" changeset="101863080" timestamp="2021-03-28T07:40:15Z" user="mklyr" uid="614924" lat="33.9744186" lon="131.2004596"/>
 <node id="7084009491" visible="true" version="1" changeset="78849819" timestamp="2019-12-25T15:14:28Z" user="mklyr" uid="614924" lat="33.9792121" lon="131.2015079"/>
 <node id="7992747563" visible="true" version="1" changeset="92247147" timestamp="2020-10-09T16:21:59Z" user="mklyr" uid="614924" lat="33.9752162" lon="131.1989967"/>
 <node id="8033121083" visible="true" version="1" changeset="92848994" timestamp="2020-10-21T18:25:05Z" user="denpa1" uid="12030302" lat="33.9759937" lon="131.2017558">
  <tag k="internet_access" v="wlan"/>
 </node>
 <node id="9472329379" visible="true" version="1" changeset="116976674" timestamp="2022-02-03T18:52:49Z" user="denpa1" uid="12030302" lat="33.9767035" lon="131.2020060">
  <tag k="name" v="ゴルフ５ 宇部店"/>
  <tag k="shop" v="sports"/>
 </node>
 <node id="10249424785" visible="true" version="1" changeset="129911955" timestamp="2022-12-09T19:03:50Z" user="denpa1" uid="12030302" lat="33.9769992" lon="131.2041417"/>
 <node id="10249424791" visible="true" version="1" changeset="129911955" timestamp="2022-12-09T19:03:50Z" user="denpa1" uid="12030302" lat="33.9787155" lon="131.2024619"/>
 <node id="10249424792" visible="true" version="1" changeset="129911955" timestamp="2022-12-09T19:03:50Z" user="denpa1" uid="12030302" lat="33.9786158" lon="131.2023083"/>
 <node id="10249424793" visible="true" version="1" changeset="129911955" timestamp="2022-12-09T19:03:50Z" user="denpa1" uid="12030302" lat="33.9778161" lon="131.2023422"/>
 <node id="11689180583" visible="true" version="1" changeset="148186787" timestamp="2024-03-04T01:39:18Z" user="paopao234" uid="8303738" lat="33.9771499" lon="131.2129567"/>
 <node id="11689180584" visible="true" version="1" changeset="148186787" timestamp="2024-03-04T01:39:18Z" user="paopao234" uid="8303738" lat="33.9772445" lon="131.2129606"/>
 <node id="11744988957" visible="true" version="1" changeset="148856911" timestamp="2024-03-19T11:47:25Z" user="paopao234" uid="8303738" lat="33.9771467" lon="131.2092522"/>
 <node id="11744988958" visible="true" version="1" changeset="148856911" timestamp="2024-03-19T11:47:25Z" user="paopao234" uid="8303738" lat="33.9771232" lon="131.2085422"/>
 <node id="11744988959" visible="true" version="1" changeset="148856911" timestamp="2024-03-19T11:47:25Z" user="paopao234" uid="8303738" lat="33.9770844" lon="131.2073133"/>
 <node id="11744988960" visible="true" version="1" changeset="148856911" timestamp="2024-03-19T11:47:25Z" user="paopao234" uid="8303738" lat="33.9770612" lon="131.2064966"/>
 <node id="11744988961" visible="true" version="1" changeset="148856911" timestamp="2024-03-19T11:47:25Z" user="paopao234" uid="8303738" lat="33.9770017" lon="131.2072119"/>
 <node id="11744988964" visible="true" version="1" changeset="148856911" timestamp="2024-03-19T11:47:25Z" user="paopao234" uid="8303738" lat="33.9770119" lon="131.2077067">
  <tag k="crossing" v="traffic_signals"/>
  <tag k="highway" v="crossing"/>
 </node>
 <node id="11744988965" visible="true" version="1" changeset="148856911" timestamp="2024-03-19T11:47:25Z" user="paopao234" uid="8303738" lat="33.9770941" lon="131.2077035">
  <tag k="crossing" v="traffic_signals"/>
  <tag k="highway" v="crossing"/>
 </node>
 <node id="11744988971" visible="true" version="1" changeset="148856911" timestamp="2024-03-19T11:47:25Z" user="paopao234" uid="8303738" lat="33.9770224" lon="131.2080499">
  <tag k="crossing" v="traffic_signals"/>
  <tag k="highway" v="crossing"/>
 </node>
 <node id="11744988972" visible="true" version="1" changeset="148856911" timestamp="2024-03-19T11:47:25Z" user="paopao234" uid="8303738" lat="33.9771050" lon="131.2080473">
  <tag k="crossing" v="traffic_signals"/>
  <tag k="highway" v="crossing"/>
 </node>
 <node id="11744988985" visible="true" version="1" changeset="148856911" timestamp="2024-03-19T11:47:25Z" user="paopao234" uid="8303738" lat="33.9771134" lon="131.2098311"/>
 <node id="11744988986" visible="true" version="1" changeset="148856911" timestamp="2024-03-19T11:47:25Z" user="paopao234" uid="8303738" lat="33.9772166" lon="131.2114570"/>
 <node id="11744989023" visible="true" version="1" changeset="148856911" timestamp="2024-03-19T11:47:25Z" user="paopao234" uid="8303738" lat="33.9771344" lon="131.2106775">
  <tag k="crossing" v="traffic_signals"/>
  <tag k="highway" v="crossing"/>
 </node>
 <node id="11744989024" visible="true" version="1" changeset="148856911" timestamp="2024-03-19T11:47:25Z" user="paopao234" uid="8303738" lat="33.9771921" lon="131.2106752">
  <tag k="crossing" v="traffic_signals"/>
  <tag k="highway" v="crossing"/>
 </node>
 <node id="11744989025" visible="true" version="1" changeset="148856911" timestamp="2024-03-19T11:47:25Z" user="paopao234" uid="8303738" lat="33.9771691" lon="131.2099525"/>
 <node id="11744989041" visible="true" version="1" changeset="148856911" timestamp="2024-03-19T11:47:25Z" user="paopao234" uid="8303738" lat="33.9771765" lon="131.2101846"/>
 <node id="11744989045" visible="true" version="1" changeset="148856911" timestamp="2024-03-19T11:47:25Z" user="paopao234" uid="8303738" lat="33.9769936" lon="131.2057904"/>
 <node id="11744989047" visible="true" version="1" changeset="148856911" timestamp="2024-03-19T11:47:25Z" user="paopao234" uid="8303738" lat="33.9770077" lon="131.2063568"/>
 <node id="11744989313" visible="true" version="1" changeset="148856911" timestamp="2024-03-19T11:47:25Z" user="paopao234" uid="8303738" lat="33.9778630" lon="131.1869494">
  <tag k="crossing" v="traffic_signals"/>
  <tag k="highway" v="crossing"/>
 </node>
 <way id="60306580" visible="true" version="9" changeset="78849819" timestamp="2019-12-25T15:14:28Z" user="mklyr" uid="614924">
  <nd ref="749598920"/>
  <nd ref="6432312461"/>
  <nd ref="2000838882"/>
  <nd ref="749285460"/>
  <nd ref="749764712"/>
  <nd ref="749807938"/>
  <nd ref="749132680"/>
  <nd ref="749585582"/>
  <nd ref="2815055086"/>
  <nd ref="748939243"/>
  <nd ref="749325160"/>
  <nd ref="749796254"/>
  <nd ref="749104645"/>
  <nd ref="749562268"/>
  <nd ref="749665051"/>
  <nd ref="7084009491"/>
  <nd ref="2000838878"/>
  <nd ref="748990615"/>
  <nd ref="749393843"/>
  <nd ref="749353582"/>
  <nd ref="749241016"/>
  <nd ref="749424381"/>
  <nd ref="749860117"/>
  <nd ref="7083557395"/>
  <nd ref="749567927"/>
  <nd ref="749291259"/>
  <nd ref="749141446"/>
  <nd ref="749214076"/>
  <nd ref="749679229"/>
  <nd ref="749176631"/>
  <nd ref="7062373284"/>
  <nd ref="749629521"/>
  <nd ref="748970971"/>
  <nd ref="749902906"/>
  <nd ref="749721908"/>
  <nd ref="749434527"/>
  <nd ref="749774474"/>
  <nd ref="749508923"/>
  <nd ref="748902903"/>
  <nd ref="749269287"/>
  <nd ref="749748064"/>
  <nd ref="749056316"/>
  <nd ref="749538373"/>
  <tag k="name" v="梅田川"/>
  <tag k="name:ja" v="梅田川"/>
  <tag k="note" v="National-Land Numerical Information (River) 2006, MLIT Japan"/>
  <tag k="note:ja" v="国土数値情報(河川データ)平成18年国土交通省"/>
  <tag k="source" v="KSJ2"/>
  <tag k="source_ref" v="http://nlftp.mlit.go.jp/ksj/jpgis/datalist/KsjTmplt-W05.html"/>
  <tag k="waterway" v="river"/>
 </way>
 <way id="120498686" visible="true" version="13" changeset="169801235" timestamp="2025-08-01T07:05:34Z" user="taketaketake" uid="4757277">
  <nd ref="1351961376"/>
  <nd ref="11744989313"/>
  <nd ref="1351050977"/>
  <nd ref="1351050524"/>
  <nd ref="2013400601"/>
  <nd ref="1351050478"/>
  <nd ref="1908486805"/>
  <nd ref="1351050357"/>
  <nd ref="2013400596"/>
  <nd ref="1351050248"/>
  <nd ref="2334424988"/>
  <nd ref="1351050091"/>
  <nd ref="1351050088"/>
  <nd ref="1351050045"/>
  <nd ref="1351050012"/>
  <nd ref="1351050006"/>
  <nd ref="1351050002"/>
  <nd ref="1351049969"/>
  <nd ref="1351049957"/>
  <nd ref="1351049912"/>
  <nd ref="1351049868"/>
  <nd ref="1351049672"/>
  <nd ref="1351049650"/>
  <nd ref="2334395666"/>
  <nd ref="1351049648"/>
  <nd ref="1351049659"/>
  <nd ref="2334395667"/>
  <nd ref="1351049717"/>
  <nd ref="1351049798"/>
  <nd ref="7992747563"/>
  <nd ref="1351049871"/>
  <nd ref="2013400590"/>
  <nd ref="1351050040"/>
  <nd ref="2013400594"/>
  <nd ref="1351050123"/>
  <nd ref="1351050352"/>
  <nd ref="6683532028"/>
  <tag k="est_width" v="5.5-"/>
  <tag k="highway" v="trunk"/>
  <tag k="lanes" v="2"/>
  <tag k="name" v="国道190号"/>
  <tag k="name:en" v="National Highway Route 190"/>
  <tag k="name:ja" v="国道190号"/>
  <tag k="oneway" v="yes"/>
  <tag k="ref" v="190"/>
  <tag k="source" v="YahooJapan/ALPSMAP;GSImaps/std"/>
  <tag k="surface" v="asphalt"/>
 </way>
 <way id="120499104" visible="true" version="5" changeset="106863829" timestamp="2021-06-24T00:13:38Z" user="taketaketake" uid="4757277">
  <nd ref="1351048474"/>
  <nd ref="7083557415"/>
  <nd ref="7083557400"/>
  <nd ref="2334395699"/>
  <nd ref="1351050352"/>
  <tag k="highway" v="tertiary"/>
  <tag k="source" v="YahooJapan/ALPSMAP"/>
 </way>
 <way id="120500203" visible="true" version="1" changeset="8645415" timestamp="2011-07-06T07:38:59Z" user="yamasan" uid="32308">
  <nd ref="1351051203"/>
  <nd ref="1351051455"/>
  <nd ref="1351051925"/>
  <nd ref="1351052541"/>
  <nd ref="1351052807"/>
  <nd ref="1351052967"/>
  <nd ref="1351053216"/>
  <nd ref="1351053484"/>
  <nd ref="1351054402"/>
  <nd ref="1351054847"/>
  <nd ref="1351055498"/>
  <nd ref="1351055873"/>
  <nd ref="1351056079"/>
  <nd ref="1351056266"/>
  <nd ref="1351056356"/>
  <tag k="highway" v="unclassified"/>
  <tag k="source" v="YahooJapan/ALPSMAP"/>
  <tag k="yh:STRUCTURE" v="地上"/>
  <tag k="yh:TOTYUMONO" v="供用中"/>
  <tag k="yh:TYPE" v="その他一般道"/>
  <tag k="yh:WIDTH" v="3.0m〜5.5m"/>
  <tag k="yh:WIDTH_RANK" v="3"/>
 </way>
 <way id="120501148" visible="true" version="2" changeset="16445025" timestamp="2013-06-06T13:41:12Z" user="mklyr" uid="614924">
  <nd ref="1351050329"/>
  <nd ref="2334424990"/>
  <nd ref="1351050460"/>
  <tag k="highway" v="unclassified"/>
  <tag k="source" v="YahooJapan/ALPSMAP"/>
  <tag k="yh:WIDTH" v="3.0m〜5.5m"/>
 </way>
 <way id="120502558" visible="true" version="2" changeset="56581186" timestamp="2018-02-22T14:14:40Z" user="mklyr" uid="614924">
  <nd ref="1351052618"/>
  <nd ref="1351052612"/>
  <nd ref="1351052603"/>
  <nd ref="1351052584"/>
  <nd ref="1351052567"/>
  <nd ref="1351052534"/>
  <nd ref="1351052524"/>
  <nd ref="1351052472"/>
  <nd ref="1351052280"/>
  <nd ref="1351052247"/>
  <nd ref="1351052156"/>
  <nd ref="1351051687"/>
  <nd ref="1351051604"/>
  <nd ref="1351051555"/>
  <nd ref="1351051532"/>
  <nd ref="1351051501"/>
  <nd ref="1351051487"/>
  <nd ref="1351051337"/>
  <nd ref="1351051235"/>
  <nd ref="1351051203"/>
  <tag k="highway" v="unclassified"/>
  <tag k="source" v="YahooJapan/ALPSMAP"/>
 </way>
 <way id="120503724" visible="true" version="2" changeset="13256279" timestamp="2012-09-26T09:10:10Z" user="mklyr" uid="614924">
  <nd ref="1351051203"/>
  <nd ref="1351051087"/>
  <tag k="highway" v="unclassified"/>
  <tag k="source" v="YahooJapan/ALPSMAP"/>
  <tag k="yh:STRUCTURE" v="地上"/>
  <tag k="yh:TOTYUMONO" v="供用中"/>
  <tag k="yh:TYPE" v="その他一般道"/>
  <tag k="yh:WIDTH" v="3.0m〜5.5m"/>
  <tag k="yh:WIDTH_RANK" v="3"/>
 </way>
 <way id="120504426" visible="true" version="2" changeset="16444676" timestamp="2013-06-06T12:57:19Z" user="mklyr" uid="614924">
  <nd ref="1351050352"/>
  <nd ref="1351051087"/>
  <tag k="highway" v="tertiary"/>
  <tag k="source" v="YahooJapan/ALPSMAP"/>
  <tag k="yh:WIDTH" v="5.5m〜13.0m"/>
 </way>
 <way id="120505650" visible="true" version="4" changeset="16445025" timestamp="2013-06-06T13:41:14Z" user="mklyr" uid="614924">
  <nd ref="1351051087"/>
  <nd ref="1351052134"/>
  <nd ref="1351052781"/>
  <nd ref="2000838877"/>
  <nd ref="2334425007"/>
  <nd ref="1351053035"/>
  <tag k="highway" v="tertiary"/>
  <tag k="source" v="YahooJapan/ALPSMAP"/>
  <tag k="yh:WIDTH" v="5.5m〜13.0m"/>
 </way>
 <way id="120509392" visible="true" version="3" changeset="21925467" timestamp="2014-04-25T08:18:04Z" user="mklyr" uid="614924">
  <nd ref="1351049871"/>
  <nd ref="2815055045"/>
  <nd ref="2013400592"/>
  <nd ref="1351050064"/>
  <nd ref="1351050299"/>
  <nd ref="1351050561"/>
  <nd ref="1351050662"/>
  <nd ref="1351050776"/>
  <nd ref="1351050913"/>
  <nd ref="1351051048"/>
  <nd ref="1351051203"/>
  <tag k="highway" v="unclassified"/>
  <tag k="source" v="YahooJapan/ALPSMAP"/>
  <tag k="yh:WIDTH" v="3.0m〜5.5m"/>
 </way>
 <way id="332618154" visible="true" version="1" changeset="29462344" timestamp="2015-03-14T00:54:31Z" user="Human65536" uid="1502046">
  <nd ref="3397666239"/>
  <nd ref="3397666245"/>
  <nd ref="3397666248"/>
  <nd ref="3397666240"/>
  <nd ref="3397666239"/>
  <tag k="building" v="yes"/>
 </way>
 <way id="477971657" visible="true" version="2" changeset="69663656" timestamp="2019-04-28T13:22:52Z" user="mklyr" uid="614924">
  <nd ref="4712585936"/>
  <nd ref="6433993135"/>
  <nd ref="6433993134"/>
  <nd ref="4712585937"/>
  <nd ref="4712585938"/>
  <nd ref="4712585939"/>
  <nd ref="4712585936"/>
  <tag k="amenity" v="restaurant"/>
  <tag k="branch" v="宇部店"/>
  <tag k="building" v="yes"/>
  <tag k="name" v="さざん亭"/>
  <tag k="source" v="survey"/>
 </way>
 <way id="477971658" visible="true" version="3" changeset="116976674" timestamp="2022-02-03T18:52:49Z" user="denpa1" uid="12030302">
  <nd ref="4712585940"/>
  <nd ref="4712585941"/>
  <nd ref="4712585942"/>
  <nd ref="4712585943"/>
  <nd ref="4712585944"/>
  <nd ref="4712585940"/>
  <tag k="amenity" v="fast_food"/>
  <tag k="branch" v="宇部バイパス店"/>
  <tag k="building" v="yes"/>
  <tag k="drive_through" v="no"/>
  <tag k="name" v="ほっともっと宇部バイパス店"/>
  <tag k="outdoor_seating" v="no"/>
  <tag k="source" v="survey"/>
  <tag k="takeaway" v="yes"/>
 </way>
 <way id="561578871" visible="true" version="6" changeset="169801235" timestamp="2025-08-01T07:05:34Z" user="taketaketake" uid="4757277">
  <nd ref="2334395742"/>
  <nd ref="2334395740"/>
  <nd ref="11689180583"/>
  <nd ref="2334395741"/>
  <nd ref="2334395744"/>
  <nd ref="2334425003"/>
  <nd ref="11744989023"/>
  <nd ref="2334395738"/>
  <nd ref="11744988985"/>
  <nd ref="2334395733"/>
  <nd ref="2334395732"/>
  <nd ref="2334395730"/>
  <nd ref="11744988971"/>
  <nd ref="2334395729"/>
  <nd ref="11744988964"/>
  <nd ref="2334395726"/>
  <nd ref="11744988961"/>
  <nd ref="2334395728"/>
  <nd ref="11744989047"/>
  <nd ref="11744989045"/>
  <nd ref="2334395724"/>
  <nd ref="2334395722"/>
  <nd ref="2334395721"/>
  <nd ref="2334395720"/>
  <nd ref="2334395719"/>
  <nd ref="2334395716"/>
  <nd ref="2334395715"/>
  <nd ref="5429151732"/>
  <nd ref="2334424990"/>
  <nd ref="6683532031"/>
  <tag k="est_width" v="5.5m〜13.0m"/>
  <tag k="highway" v="trunk"/>
  <tag k="lanes" v="2"/>
  <tag k="name" v="国道190号"/>
  <tag k="name:en" v="National Highway Route 190"/>
  <tag k="name:ja" v="国道190号"/>
  <tag k="oneway" v="yes"/>
  <tag k="ref" v="190"/>
  <tag k="source" v="YahooJapan/ALPSMAP;GSImaps/std"/>
  <tag k="surface" v="asphalt"/>
 </way>
 <way id="574378081" visible="true" version="5" changeset="169801235" timestamp="2025-08-01T07:05:34Z" user="taketaketake" uid="4757277">
  <nd ref="6683532029"/>
  <nd ref="1351050460"/>
  <nd ref="2334395705"/>
  <nd ref="2334395717"/>
  <nd ref="1351051088"/>
  <nd ref="1351051107"/>
  <nd ref="1351051130"/>
  <nd ref="1351051140"/>
  <nd ref="1351051152"/>
  <nd ref="10249424785"/>
  <nd ref="1351051217"/>
  <nd ref="11744988960"/>
  <nd ref="11744988959"/>
  <nd ref="11744988965"/>
  <nd ref="1351051320"/>
  <nd ref="11744988972"/>
  <nd ref="11744988958"/>
  <nd ref="11744988957"/>
  <nd ref="11744989025"/>
  <nd ref="11744989041"/>
  <nd ref="1351051449"/>
  <nd ref="11744989024"/>
  <nd ref="11744988986"/>
  <nd ref="2334425005"/>
  <nd ref="2712259537"/>
  <nd ref="11689180584"/>
  <nd ref="1351051588"/>
  <nd ref="1351051607"/>
  <tag k="est_width" v="5.5-"/>
  <tag k="highway" v="trunk"/>
  <tag k="lanes" v="2"/>
  <tag k="name" v="国道190号"/>
  <tag k="name:en" v="National Highway Route 190"/>
  <tag k="name:ja" v="国道190号"/>
  <tag k="oneway" v="yes"/>
  <tag k="ref" v="190"/>
  <tag k="source" v="YahooJapan/ALPSMAP;GSImaps/std"/>
  <tag k="surface" v="asphalt"/>
 </way>
 <way id="710895576" visible="true" version="2" changeset="169801235" timestamp="2025-08-01T07:05:34Z" user="taketaketake" uid="4757277">
  <nd ref="6683532028"/>
  <nd ref="6683532029"/>
  <tag k="bridge" v="yes"/>
  <tag k="est_width" v="5.5-"/>
  <tag k="highway" v="trunk"/>
  <tag k="lanes" v="2"/>
  <tag k="layer" v="1"/>
  <tag k="name" v="国道190号"/>
  <tag k="name:en" v="National Highway Route 190"/>
  <tag k="name:ja" v="国道190号"/>
  <tag k="oneway" v="yes"/>
  <tag k="ref" v="190"/>
  <tag k="source" v="YahooJapan/ALPSMAP;GSImaps/std"/>
  <tag k="surface" v="asphalt"/>
 </way>
 <way id="1120637412" visible="true" version="1" changeset="129911955" timestamp="2022-12-09T19:03:50Z" user="denpa1" uid="12030302">
  <nd ref="10249424791"/>
  <nd ref="10249424792"/>
  <nd ref="10249424793"/>
  <tag k="highway" v="service"/>
 </way>
 <relation id="8857556" visible="true" version="166" changeset="185171745" timestamp="2026-07-06T02:54:07Z" user="okadatsuneo_import" uid="12352917">
  <member type="relation" ref="32989" role=""/>
  <member type="relation" ref="2064722" role=""/>
  <member type="relation" ref="2061678" role=""/>
  <member type="relation" ref="416684" role=""/>
  <member type="relation" ref="33009" role=""/>
  <member type="relation" ref="1521225" role=""/>
  <member type="relation" ref="2069116" role=""/>
  <member type="relation" ref="8589620" role=""/>
  <member type="relation" ref="2076294" role=""/>
  <member type="relation" ref="2082723" role=""/>
  <member type="relation" ref="12579" role=""/>
  <member type="relation" ref="2097432" role=""/>
  <member type="relation" ref="2098597" role=""/>
  <member type="relation" ref="2098903" role=""/>
  <member type="relation" ref="2107249" role=""/>
  <member type="relation" ref="18187" role=""/>
  <member type="relation" ref="2150021" role=""/>
  <member type="relation" ref="964698" role=""/>
  <member type="relation" ref="964699" role=""/>
  <member type="relation" ref="21087" role=""/>
  <member type="relation" ref="905615" role=""/>
  <member type="relation" ref="2191283" role=""/>
  <member type="relation" ref="8549439" role=""/>
  <member type="relation" ref="2281186" role=""/>
  <member type="relation" ref="1247317" role=""/>
  <member type="relation" ref="2283740" role=""/>
  <member type="relation" ref="2578411" role=""/>
  <member type="relation" ref="12592" role=""/>
  <member type="relation" ref="2773842" role=""/>
  <member type="relation" ref="59477" role=""/>
  <member type="relation" ref="1957766" role=""/>
  <member type="relation" ref="12585" role=""/>
  <member type="relation" ref="149017" role=""/>
  <member type="relation" ref="2829210" role=""/>
  <member type="relation" ref="2829437" role=""/>
  <member type="relation" ref="130867" role=""/>
  <member type="relation" ref="33017" role=""/>
  <member type="relation" ref="2863336" role=""/>
  <member type="relation" ref="2864639" role=""/>
  <member type="relation" ref="2865301" role=""/>
  <member type="relation" ref="31351" role=""/>
  <member type="relation" ref="2877152" role=""/>
  <member type="relation" ref="2878993" role=""/>
  <member type="relation" ref="2885462" role=""/>
  <member type="relation" ref="2887904" role=""/>
  <member type="relation" ref="443923" role=""/>
  <member type="relation" ref="2938281" role=""/>
  <member type="relation" ref="2938900" role=""/>
  <member type="relation" ref="2939533" role=""/>
  <member type="relation" ref="2954632" role=""/>
  <member type="relation" ref="6903690" role=""/>
  <member type="relation" ref="2957016" role=""/>
  <member type="relation" ref="2957132" role=""/>
  <member type="relation" ref="2957976" role=""/>
  <member type="relation" ref="12583" role=""/>
  <member type="relation" ref="12584" role=""/>
  <member type="relation" ref="2971983" role=""/>
  <member type="relation" ref="2972065" role=""/>
  <member type="relation" ref="2974952" role=""/>
  <member type="relation" ref="2975092" role=""/>
  <member type="relation" ref="2988615" role=""/>
  <member type="relation" ref="3066227" role=""/>
  <member type="relation" ref="2937948" role=""/>
  <member type="relation" ref="3066928" role=""/>
  <member type="relation" ref="3069619" role=""/>
  <member type="relation" ref="3118577" role=""/>
  <member type="relation" ref="3118835" role=""/>
  <member type="relation" ref="3128401" role=""/>
  <member type="relation" ref="3128448" role=""/>
  <member type="relation" ref="3129175" role=""/>
  <member type="relation" ref="3132634" role=""/>
  <member type="relation" ref="965403" role=""/>
  <member type="relation" ref="3189380" role=""/>
  <member type="relation" ref="3217184" role=""/>
  <member type="relation" ref="3217302" role=""/>
  <member type="relation" ref="3218039" role=""/>
  <member type="relation" ref="3248776" role=""/>
  <member type="relation" ref="3262076" role=""/>
  <member type="relation" ref="6604490" role=""/>
  <member type="relation" ref="9002996" role=""/>
  <member type="relation" ref="9066606" role=""/>
  <member type="relation" ref="9066742" role=""/>
  <member type="relation" ref="9069158" role=""/>
  <member type="relation" ref="3846566" role=""/>
  <member type="relation" ref="3767038" role=""/>
  <member type="relation" ref="3773599" role=""/>
  <member type="relation" ref="2665187" role=""/>
  <member type="relation" ref="3770942" role=""/>
  <member type="relation" ref="31118" role=""/>
  <member type="relation" ref="3639261" role=""/>
  <member type="relation" ref="8822215" role=""/>
  <member type="relation" ref="3908565" role=""/>
  <member type="relation" ref="3908696" role=""/>
  <member type="relation" ref="8842101" role=""/>
  <member type="relation" ref="8980964" role=""/>
  <member type="relation" ref="965538" role=""/>
  <member type="relation" ref="6518912" role=""/>
  <member type="relation" ref="2124106" role=""/>
  <member type="relation" ref="965533" role=""/>
  <member type="relation" ref="7438376" role=""/>
  <member type="relation" ref="3846790" role=""/>
  <member type="relation" ref="2104795" role=""/>
  <member type="relation" ref="3862939" role=""/>
  <member type="relation" ref="3770972" role=""/>
  <member type="relation" ref="8843661" role=""/>
  <member type="relation" ref="8475141" role=""/>
  <member type="relation" ref="53798" role=""/>
  <member type="relation" ref="3527405" role=""/>
  <member type="relation" ref="3786290" role=""/>
  <member type="relation" ref="8438979" role=""/>
  <member type="relation" ref="8519028" role=""/>
  <member type="relation" ref="8546711" role=""/>
  <member type="relation" ref="31352" role=""/>
  <member type="relation" ref="8634030" role=""/>
  <member type="relation" ref="8643289" role=""/>
  <member type="relation" ref="8730413" role=""/>
  <member type="relation" ref="8602705" role=""/>
  <member type="relation" ref="8376126" role=""/>
  <member type="relation" ref="3771120" role=""/>
  <member type="relation" ref="8360680" role=""/>
  <member type="relation" ref="8798843" role=""/>
  <member type="relation" ref="8253434" role=""/>
  <member type="relation" ref="8338767" role=""/>
  <member type="relation" ref="7790754" role=""/>
  <member type="relation" ref="8810155" role=""/>
  <member type="relation" ref="9316269" role=""/>
  <member type="relation" ref="3786705" role=""/>
  <member type="relation" ref="8814743" role=""/>
  <member type="relation" ref="3767143" role=""/>
  <member type="relation" ref="9349690" role=""/>
  <member type="relation" ref="8812592" role=""/>
  <member type="relation" ref="3767309" role=""/>
  <member type="relation" ref="8385407" role=""/>
  <member type="relation" ref="8385532" role=""/>
  <member type="relation" ref="7757831" role=""/>
  <member type="relation" ref="7756814" role=""/>
  <member type="relation" ref="8386008" role=""/>
  <member type="relation" ref="3500263" role=""/>
  <member type="relation" ref="9385077" role=""/>
  <member type="relation" ref="1282122" role=""/>
  <member type="relation" ref="4544619" role=""/>
  <member type="relation" ref="4165287" role=""/>
  <member type="relation" ref="3717459" role=""/>
  <member type="relation" ref="3771004" role=""/>
  <member type="relation" ref="9400756" role=""/>
  <member type="relation" ref="3904021" role=""/>
  <member type="relation" ref="12586" role=""/>
  <member type="relation" ref="12893" role=""/>
  <member type="relation" ref="149016" role=""/>
  <member type="relation" ref="12582" role=""/>
  <member type="relation" ref="9444474" role=""/>
  <member type="relation" ref="65441" role=""/>
  <member type="relation" ref="9483543" role=""/>
  <member type="relation" ref="9483646" role=""/>
  <member type="relation" ref="9491583" role=""/>
  <member type="relation" ref="7106297" role=""/>
  <member type="relation" ref="9361964" role=""/>
  <member type="relation" ref="9361958" role=""/>
  <member type="relation" ref="9364398" role=""/>
  <member type="relation" ref="9361965" role=""/>
  <member type="relation" ref="9364395" role=""/>
  <member type="relation" ref="9364399" role=""/>
  <member type="relation" ref="9361957" role=""/>
  <member type="relation" ref="9364404" role=""/>
  <member type="relation" ref="9592451" role=""/>
  <member type="relation" ref="9578522" role=""/>
  <member type="relation" ref="9608067" role=""/>
  <member type="relation" ref="6966370" role=""/>
  <member type="relation" ref="9659817" role=""/>
  <member type="relation" ref="9627337" role=""/>
  <member type="relation" ref="9633190" role=""/>
  <member type="relation" ref="9702108" role=""/>
  <member type="relation" ref="9651112" role=""/>
  <member type="relation" ref="9712245" role=""/>
  <member type="relation" ref="9669415" role=""/>
  <member type="relation" ref="3787044" role=""/>
  <member type="relation" ref="9680900" role=""/>
  <member type="relation" ref="9684360" role=""/>
  <member type="relation" ref="33010" role=""/>
  <member type="relation" ref="6585224" role=""/>
  <member type="relation" ref="6595831" role=""/>
  <member type="relation" ref="6584912" role=""/>
  <member type="relation" ref="6596139" role=""/>
  <member type="relation" ref="6612480" role=""/>
  <member type="relation" ref="6596367" role=""/>
  <member type="relation" ref="6601904" role=""/>
  <member type="relation" ref="6624769" role=""/>
  <member type="relation" ref="6626645" role=""/>
  <member type="relation" ref="2883869" role=""/>
  <member type="relation" ref="6621211" role=""/>
  <member type="relation" ref="6612481" role=""/>
  <member type="relation" ref="6641475" role=""/>
  <member type="relation" ref="6632428" role=""/>
  <member type="relation" ref="6639503" role=""/>
  <member type="relation" ref="6641549" role=""/>
  <member type="relation" ref="6645422" role=""/>
  <member type="relation" ref="5431055" role=""/>
  <member type="relation" ref="30840" role=""/>
  <member type="relation" ref="8466396" role=""/>
  <member type="relation" ref="8472959" role=""/>
  <member type="relation" ref="8903572" role=""/>
  <member type="relation" ref="9864624" role=""/>
  <member type="relation" ref="9365397" role=""/>
  <member type="relation" ref="6647077" role=""/>
  <member type="relation" ref="8197220" role=""/>
  <member type="relation" ref="1020657" role=""/>
  <member type="relation" ref="3639021" role=""/>
  <member type="relation" ref="1192346" role=""/>
  <member type="relation" ref="3521034" role=""/>
  <member type="relation" ref="8319600" role=""/>
  <member type="relation" ref="8421608" role=""/>
  <member type="relation" ref="8255454" role=""/>
  <member type="relation" ref="8171702" role=""/>
  <member type="relation" ref="9882017" role=""/>
  <member type="relation" ref="9361997" role=""/>
  <member type="relation" ref="9361995" role=""/>
  <member type="relation" ref="9621534" role=""/>
  <member type="relation" ref="9577579" role=""/>
  <member type="relation" ref="9662836" role=""/>
  <member type="relation" ref="9637071" role=""/>
  <member type="relation" ref="9706190" role=""/>
  <member type="relation" ref="9678094" role=""/>
  <member type="relation" ref="34190" role=""/>
  <member type="relation" ref="6651341" role=""/>
  <member type="relation" ref="6632429" role=""/>
  <member type="relation" ref="6651380" role=""/>
  <member type="relation" ref="6607033" role=""/>
  <member type="relation" ref="33018" role=""/>
  <member type="relation" ref="6594495" role=""/>
  <member type="relation" ref="3842394" role=""/>
  <member type="relation" ref="7346573" role=""/>
  <member type="relation" ref="6594518" role=""/>
  <member type="relation" ref="9230437" role=""/>
  <member type="relation" ref="6583464" role=""/>
  <member type="relation" ref="9220015" role=""/>
  <member type="relation" ref="947961" role=""/>
  <member type="relation" ref="6743360" role=""/>
  <member type="relation" ref="9389808" role=""/>
  <member type="relation" ref="9387618" role=""/>
  <member type="relation" ref="9095602" role=""/>
  <member type="relation" ref="6334848" role=""/>
  <member type="relation" ref="6519669" role=""/>
  <member type="relation" ref="6608790" role=""/>
  <member type="relation" ref="7920696" role=""/>
  <member type="relation" ref="6646894" role=""/>
  <member type="relation" ref="49515" role=""/>
  <member type="relation" ref="9842733" role=""/>
  <member type="relation" ref="9885666" role=""/>
  <member type="relation" ref="10259311" role=""/>
  <member type="relation" ref="10481824" role=""/>
  <member type="relation" ref="53796" role=""/>
  <member type="relation" ref="8839514" role=""/>
  <member type="relation" ref="3518585" role=""/>
  <member type="relation" ref="8512559" role=""/>
  <member type="relation" ref="8547309" role=""/>
  <member type="relation" ref="8901184" role=""/>
  <member type="relation" ref="8606655" role=""/>
  <member type="relation" ref="8330838" role=""/>
  <member type="relation" ref="6097291" role=""/>
  <member type="relation" ref="3947962" role=""/>
  <member type="relation" ref="6114814" role=""/>
  <member type="relation" ref="8770279" role=""/>
  <member type="relation" ref="7803946" role=""/>
  <member type="relation" ref="10015101" role=""/>
  <member type="relation" ref="8780413" role=""/>
  <member type="relation" ref="9226628" role=""/>
  <member type="relation" ref="1113900" role=""/>
  <member type="relation" ref="9878286" role=""/>
  <member type="relation" ref="9842064" role=""/>
  <member type="relation" ref="12886" role=""/>
  <member type="relation" ref="31661" role=""/>
  <member type="relation" ref="1061405" role=""/>
  <member type="relation" ref="9732500" role=""/>
  <member type="relation" ref="9566443" role=""/>
  <member type="relation" ref="9364401" role=""/>
  <member type="relation" ref="2360722" role=""/>
  <member type="relation" ref="9600043" role=""/>
  <member type="relation" ref="9655888" role=""/>
  <member type="relation" ref="9644147" role=""/>
  <member type="relation" ref="9674712" role=""/>
  <member type="relation" ref="10535240" role=""/>
  <member type="relation" ref="10997961" role=""/>
  <member type="relation" ref="3771097" role=""/>
  <member type="relation" ref="3771098" role=""/>
  <member type="relation" ref="6634560" role=""/>
  <member type="relation" ref="6649220" role=""/>
  <member type="relation" ref="6651324" role=""/>
  <member type="relation" ref="13970524" role=""/>
  <member type="relation" ref="6626646" role=""/>
  <member type="relation" ref="6604372" role=""/>
  <member type="relation" ref="33014" role=""/>
  <member type="relation" ref="195249" role=""/>
  <member type="relation" ref="7259555" role=""/>
  <member type="relation" ref="5385850" role=""/>
  <member type="relation" ref="7462562" role=""/>
  <member type="relation" ref="572350" role=""/>
  <member type="relation" ref="6649827" role=""/>
  <member type="relation" ref="9145802" role=""/>
  <member type="relation" ref="9167558" role=""/>
  <member type="relation" ref="9246031" role=""/>
  <member type="relation" ref="9384961" role=""/>
  <member type="relation" ref="6603804" role=""/>
  <member type="relation" ref="8660479" role=""/>
  <member type="relation" ref="8705812" role=""/>
  <member type="relation" ref="6357795" role=""/>
  <member type="relation" ref="2888579" role=""/>
  <member type="relation" ref="3644591" role=""/>
  <member type="relation" ref="13766033" role=""/>
  <member type="relation" ref="5347303" role=""/>
  <member type="relation" ref="3836968" role=""/>
  <member type="relation" ref="8250033" role=""/>
  <member type="relation" ref="8630931" role=""/>
  <member type="relation" ref="6518158" role=""/>
  <member type="relation" ref="3518586" role=""/>
  <member type="relation" ref="8507094" role=""/>
  <member type="relation" ref="8624536" role=""/>
  <member type="relation" ref="8330502" role=""/>
  <member type="relation" ref="8468445" role=""/>
  <member type="relation" ref="8736759" role=""/>
  <member type="relation" ref="8344320" role=""/>
  <member type="relation" ref="8346167" role=""/>
  <member type="relation" ref="8547781" role=""/>
  <member type="relation" ref="8778351" role=""/>
  <member type="relation" ref="8819316" role=""/>
  <member type="relation" ref="8428316" role=""/>
  <member type="relation" ref="10036652" role=""/>
  <member type="relation" ref="7521547" role=""/>
  <member type="relation" ref="9889643" role=""/>
  <member type="relation" ref="36203" role=""/>
  <member type="relation" ref="9727705" role=""/>
  <member type="relation" ref="9760336" role=""/>
  <member type="relation" ref="1061406" role=""/>
  <member type="relation" ref="9734691" role=""/>
  <member type="relation" ref="9364397" role=""/>
  <member type="relation" ref="9525476" role=""/>
  <member type="relation" ref="9365392" role=""/>
  <member type="relation" ref="9364403" role=""/>
  <member type="relation" ref="9581384" role=""/>
  <member type="relation" ref="9615824" role=""/>
  <member type="relation" ref="9648379" role=""/>
  <member type="relation" ref="9365391" role=""/>
  <member type="relation" ref="9849119" role=""/>
  <member type="relation" ref="6645423" role=""/>
  <member type="relation" ref="6653406" role=""/>
  <member type="relation" ref="6596106" role=""/>
  <member type="relation" ref="9301437" role=""/>
  <member type="relation" ref="9231531" role=""/>
  <member type="relation" ref="446121" role=""/>
  <member type="relation" ref="7901019" role=""/>
  <member type="relation" ref="6012803" role=""/>
  <member type="relation" ref="6594184" role=""/>
  <member type="relation" ref="5425459" role=""/>
  <member type="relation" ref="6491957" role=""/>
  <member type="relation" ref="8907070" role=""/>
  <member type="relation" ref="1017048" role=""/>
  <member type="relation" ref="8705506" role=""/>
  <member type="relation" ref="6518913" role=""/>
  <member type="relation" ref="4085924" role=""/>
  <member type="relation" ref="7021581" role=""/>
  <member type="relation" ref="7418329" role=""/>
  <member type="relation" ref="33003" role=""/>
  <member type="relation" ref="9889615" role=""/>
  <member type="relation" ref="8855535" role=""/>
  <member type="relation" ref="2162634" role=""/>
  <member type="relation" ref="3908697" role=""/>
  <member type="relation" ref="8824623" role=""/>
  <member type="relation" ref="8648367" role=""/>
  <member type="relation" ref="8616846" role=""/>
  <member type="relation" ref="8549720" role=""/>
  <member type="relation" ref="3524706" role=""/>
  <member type="relation" ref="8456817" role=""/>
  <member type="relation" ref="3527404" role=""/>
  <member type="relation" ref="8319621" role=""/>
  <member type="relation" ref="8346063" role=""/>
  <member type="relation" ref="8820384" role=""/>
  <member type="relation" ref="8788010" role=""/>
  <member type="relation" ref="3791425" role=""/>
  <member type="relation" ref="9999040" role=""/>
  <member type="relation" ref="9977958" role=""/>
  <member type="relation" ref="8821725" role=""/>
  <member type="relation" ref="9225568" role=""/>
  <member type="relation" ref="2789281" role=""/>
  <member type="relation" ref="1181630" role=""/>
  <member type="relation" ref="9869305" role=""/>
  <member type="relation" ref="572119" role=""/>
  <member type="relation" ref="9846585" role=""/>
  <member type="relation" ref="12873" role=""/>
  <member type="relation" ref="12591" role=""/>
  <member type="relation" ref="9743152" role=""/>
  <member type="relation" ref="9740226" role=""/>
  <member type="relation" ref="9604654" role=""/>
  <member type="relation" ref="9668498" role=""/>
  <member type="relation" ref="9663861" role=""/>
  <member type="relation" ref="9717721" role=""/>
  <member type="relation" ref="13766030" role=""/>
  <member type="relation" ref="6601928" role=""/>
  <member type="relation" ref="6605962" role=""/>
  <member type="relation" ref="6601896" role=""/>
  <member type="relation" ref="3317036" role=""/>
  <member type="relation" ref="416686" role=""/>
  <member type="relation" ref="446122" role=""/>
  <member type="relation" ref="9156540" role=""/>
  <member type="relation" ref="9383269" role=""/>
  <member type="relation" ref="7240653" role=""/>
  <member type="relation" ref="8725735" role=""/>
  <member type="relation" ref="5450521" role=""/>
  <member type="relation" ref="9028205" role=""/>
  <member type="relation" ref="11621854" role=""/>
  <member type="relation" ref="37650" role=""/>
  <member type="relation" ref="2695918" role=""/>
  <member type="relation" ref="8838236" role=""/>
  <member type="relation" ref="3948024" role=""/>
  <member type="relation" ref="3796161" role=""/>
  <member type="relation" ref="3796341" role=""/>
  <member type="relation" ref="3519913" role=""/>
  <member type="relation" ref="2168363" role=""/>
  <member type="relation" ref="7492744" role=""/>
  <member type="relation" ref="8596419" role=""/>
  <member type="relation" ref="7417266" role=""/>
  <member type="relation" ref="7722594" role=""/>
  <member type="relation" ref="10040102" role=""/>
  <member type="relation" ref="8784852" role=""/>
  <member type="relation" ref="3786630" role=""/>
  <member type="relation" ref="8372093" role=""/>
  <member type="relation" ref="7331065" role=""/>
  <member type="relation" ref="9994456" role=""/>
  <member type="relation" ref="9473486" role=""/>
  <member type="relation" ref="9918288" role=""/>
  <member type="relation" ref="5525014" role=""/>
  <member type="relation" ref="4544688" role=""/>
  <member type="relation" ref="9893745" role=""/>
  <member type="relation" ref="4452065" role=""/>
  <member type="relation" ref="9874325" role=""/>
  <member type="relation" ref="36085" role=""/>
  <member type="relation" ref="31622" role=""/>
  <member type="relation" ref="1597628" role=""/>
  <member type="relation" ref="9500290" role=""/>
  <member type="relation" ref="9584945" role=""/>
  <member type="relation" ref="9361963" role=""/>
  <member type="relation" ref="9364396" role=""/>
  <member type="relation" ref="9365393" role=""/>
  <member type="relation" ref="9586987" role=""/>
  <member type="relation" ref="9593068" role=""/>
  <member type="relation" ref="9623424" role=""/>
  <member type="relation" ref="9852047" role=""/>
  <member type="relation" ref="9671641" role=""/>
  <member type="relation" ref="10548190" role=""/>
  <member type="relation" ref="8063894" role=""/>
  <member type="relation" ref="10387581" role=""/>
  <member type="relation" ref="12079873" role=""/>
  <member type="relation" ref="9570519" role=""/>
  <tag k="name" v="日本の一般国道"/>
  <tag k="name:af" v="Nasionale snelweë van Japan"/>
  <tag k="name:en" v="National Highway of Japan"/>
  <tag k="name:es" v="Ruta nacional de Japón"/>
  <tag k="name:fr" v="Routes nationales du Japon"/>
  <tag k="name:ja" v="日本の一般国道"/>
  <tag k="name:ja-Hira" v="にっぽん の いっぱん こくどう"/>
  <tag k="name:ja-Latn" v="Nihon no ippan kokudō"/>
  <tag k="name:ko" v="일본의 일반 국도"/>
  <tag k="name:ru" v="Японские национальные дороги"/>
  <tag k="name:zh-Hans" v="日本一般国道"/>
  <tag k="name:zh-Hant" v="日本一般國道"/>
  <tag k="network" v="JP:national"/>
  <tag k="route_master" v="road"/>
  <tag k="type" v="route_master"/>
  <tag k="wikidata" v="Q926383"/>
  <tag k="wikimedia_commons" v="Category:National highways of Japan"/>
  <tag k="wikipedia" v="ja:一般国道"/>
 </relation>
 <relation id="9400756" visible="true" version="36" changeset="188702677" timestamp="2026-09-08T05:09:23Z" user="taketaketake" uid="4757277">
  <member type="way" ref="119979115" role="forward"/>
  <member type="way" ref="119975732" role=""/>
  <member type="way" ref="1133352259" role=""/>
  <member type="way" ref="119973819" role=""/>
  <member type="way" ref="119973803" role=""/>
  <member type="way" ref="119973938" role=""/>
  <member type="way" ref="119974138" role=""/>
  <member type="way" ref="119973413" role=""/>
  <member type="way" ref="1420290172" role=""/>
  <member type="way" ref="1420290171" role=""/>
  <member type="way" ref="119973531" role=""/>
  <member type="way" ref="119976530" role=""/>
  <member type="way" ref="119973400" role=""/>
  <member type="way" ref="119975801" role=""/>
  <member type="way" ref="119973771" role=""/>
  <member type="way" ref="119974627" role=""/>
  <member type="way" ref="120498928" role=""/>
  <member type="way" ref="684353142" role=""/>
  <member type="way" ref="120498697" role=""/>
  <member type="way" ref="682870885" role=""/>
  <member type="way" ref="120498958" role=""/>
  <member type="way" ref="1275411876" role=""/>
  <member type="way" ref="120498813" role=""/>
  <member type="way" ref="677207843" role=""/>
  <member type="way" ref="332618240" role=""/>
  <member type="way" ref="120498801" role=""/>
  <member type="way" ref="120498705" role=""/>
  <member type="way" ref="120498802" role=""/>
  <member type="way" ref="1266582163" role="forward"/>
  <member type="way" ref="120498803" role="forward"/>
  <member type="way" ref="224701716" role="forward"/>
  <member type="way" ref="120498814" role="forward"/>
  <member type="way" ref="120498835" role="forward"/>
  <member type="way" ref="120498812" role="forward"/>
  <member type="way" ref="120498865" role="forward"/>
  <member type="way" ref="99270651" role="forward"/>
  <member type="way" ref="321781460" role="forward"/>
  <member type="way" ref="189476373" role="forward"/>
  <member type="way" ref="189476375" role="forward"/>
  <member type="way" ref="359302598" role="forward"/>
  <member type="way" ref="190680191" role="forward"/>
  <member type="way" ref="120498766" role="forward"/>
  <member type="way" ref="568590869" role="forward"/>
  <member type="way" ref="343115086" role="forward"/>
  <member type="way" ref="224640569" role="forward"/>
  <member type="way" ref="120498775" role="forward"/>
  <member type="way" ref="120498717" role="forward"/>
  <member type="way" ref="120498685" role="forward"/>
  <member type="way" ref="120498837" role="forward"/>
  <member type="way" ref="120498771" role="forward"/>
  <member type="way" ref="120498834" role="forward"/>
  <member type="way" ref="120498709" role="forward"/>
  <member type="way" ref="343115050" role="forward"/>
  <member type="way" ref="120498832" role="forward"/>
  <member type="way" ref="120498732" role="forward"/>
  <member type="way" ref="120498725" role="forward"/>
  <member type="way" ref="551380089" role="forward"/>
  <member type="way" ref="120498763" role="forward"/>
  <member type="way" ref="574378081" role="forward"/>
  <member type="way" ref="710895576" role="forward"/>
  <member type="way" ref="120498686" role="forward"/>
  <member type="way" ref="120611308" role="forward"/>
  <member type="way" ref="549573480" role="forward"/>
  <member type="way" ref="120611326" role="forward"/>
  <member type="way" ref="224639142" role="forward"/>
  <member type="way" ref="710895574" role="forward"/>
  <member type="way" ref="561578871" role="forward"/>
  <member type="way" ref="224639140" role="forward"/>
  <member type="way" ref="224639153" role="forward"/>
  <member type="way" ref="224639138" role="forward"/>
  <member type="way" ref="224639148" role="forward"/>
  <member type="way" ref="224639135" role="forward"/>
  <member type="way" ref="224639151" role="forward"/>
  <member type="way" ref="224639136" role="forward"/>
  <member type="way" ref="224639147" role="forward"/>
  <member type="way" ref="224639134" role="forward"/>
  <member type="way" ref="224639149" role="forward"/>
  <member type="way" ref="224639139" role="forward"/>
  <member type="way" ref="224639133" role="forward"/>
  <member type="way" ref="224639137" role="forward"/>
  <member type="way" ref="552582736" role="forward"/>
  <member type="way" ref="120498912" role="forward"/>
  <member type="way" ref="99270640" role="forward"/>
  <member type="way" ref="710853761" role="forward"/>
  <member type="way" ref="710853760" role="forward"/>
  <member type="way" ref="359302592" role="forward"/>
  <member type="way" ref="189476374" role="forward"/>
  <member type="way" ref="189476372" role="forward"/>
  <member type="way" ref="224701722" role="forward"/>
  <member type="way" ref="224701710" role="forward"/>
  <member type="way" ref="224701721" role="forward"/>
  <member type="way" ref="224701712" role="forward"/>
  <member type="way" ref="224701725" role="forward"/>
  <member type="way" ref="224701718" role="forward"/>
  <member type="way" ref="224701723" role="forward"/>
  <member type="way" ref="224701726" role="forward"/>
  <member type="way" ref="120611338" role=""/>
  <member type="way" ref="549573478" role=""/>
  <member type="way" ref="120611320" role=""/>
  <member type="way" ref="120611306" role=""/>
  <member type="way" ref="120611294" role=""/>
  <member type="way" ref="120611339" role=""/>
  <member type="way" ref="120611264" role=""/>
  <member type="way" ref="120611298" role=""/>
  <member type="way" ref="120611280" role=""/>
  <member type="way" ref="120611346" role=""/>
  <member type="way" ref="120611265" role="forward"/>
  <member type="way" ref="677207871" role="forward"/>
  <member type="way" ref="677207870" role="forward"/>
  <member type="way" ref="120611307" role="forward"/>
  <member type="way" ref="1427262013" role="forward"/>
  <member type="way" ref="1427262014" role=""/>
  <member type="way" ref="120611333" role="forward"/>
  <member type="way" ref="120611315" role="forward"/>
  <member type="way" ref="677207867" role="forward"/>
  <member type="way" ref="677207866" role="forward"/>
  <member type="way" ref="120611254" role="forward"/>
  <member type="way" ref="120611270" role=""/>
  <member type="way" ref="189616178" role=""/>
  <member type="way" ref="120611268" role=""/>
  <member type="way" ref="711000525" role=""/>
  <member type="way" ref="120611291" role=""/>
  <member type="way" ref="120611262" role=""/>
  <member type="way" ref="120611257" role=""/>
  <member type="way" ref="120611281" role=""/>
  <member type="way" ref="120611263" role=""/>
  <member type="way" ref="120611373" role=""/>
  <member type="way" ref="120611364" role=""/>
  <member type="way" ref="120611357" role=""/>
  <member type="way" ref="120611387" role=""/>
  <member type="way" ref="120611375" role=""/>
  <member type="way" ref="120781126" role="forward"/>
  <member type="way" ref="1442053727" role="forward"/>
  <member type="way" ref="120781119" role="forward"/>
  <member type="way" ref="1257656786" role="forward"/>
  <member type="way" ref="343115096" role="forward"/>
  <tag k="colour" v="red"/>
  <tag k="from" v="山口県山口市"/>
  <tag k="name" v="国道190号"/>
  <tag k="name:en" v="National Highway Route 190"/>
  <tag k="name:ja" v="国道190号"/>
  <tag k="name:ja-Hira" v="こくどうひゃくきゅうじゅうごう"/>
  <tag k="name:ja-Latn" v="Kokudo 190 Gou"/>
  <tag k="network" v="JP:national"/>
  <tag k="official_name" v="一般国道190号"/>
  <tag k="ref" v="190"/>
  <tag k="route" v="road"/>
  <tag k="to" v="山口県山陽小野田市"/>
  <tag k="type" v="route"/>
  <tag k="wikidata" v="Q6156897"/>
  <tag k="wikipedia" v="ja:国道190号"/>
 </relation>
 <relation id="9400757" visible="true" version="2" changeset="73223619" timestamp="2019-08-10T15:39:21Z" user="nakaovic" uid="550181">
  <member type="relation" ref="9400756" role=""/>
  <member type="relation" ref="9400755" role=""/>
  <member type="relation" ref="9400754" role=""/>
  <tag k="name" v="国道190号"/>
  <tag k="network" v="JP:national"/>
  <tag k="ref" v="190"/>
  <tag k="route_master" v="road"/>
  <tag k="type" v="route_master"/>
  <tag k="wikidata" v="Q6156897"/>
  <tag k="wikipedia" v="ja:国道190号"/>
 </relation>
</osm>
