<?xml version="1.0" encoding="UTF-8"?>
<osm version="0.6" generator="openstreetmap-cgimap 2.1.0 (2942771 spike-08.openstreetmap.org)" copyright="OpenStreetMap and contributors" attribution="http://www.openstreetmap.org/copyright" license="http://opendatacommons.org/licenses/odbl/1-0/">
 <bounds minlat="33.9739380" minlon="131.1979980" maxlat="33.9763380" maxlon="131.2009980"/>
 <node id="748902903" visible="true" version="3" changeset="13256279" timestamp="2012-09-26T09:09:42Z" user="mklyr" uid="614924" lat="33.9584194" lon="131.2097774"/>
 <node id="748939243" visible="true" version="5" changeset="21925467" timestamp="2014-04-25T08:18:13Z" user="mklyr" uid="614924" lat="33.9798511" lon="131.2008979"/>
 <node id="748970971" visible="true" version="5" changeset="78504647" timestamp="2019-12-17T04:53:37Z" user="mklyr" uid="614924" lat="33.9679359" lon="131.2062113"/>
 <node id="748990615" visible="true" version="5" changeset="16445025" timestamp="2013-06-06T13:41:17Z" user="mklyr" uid="614924" lat="33.9789078" lon="131.2015522"/>
 <node id="749056316" visible="true" version="3" changeset="13256279" timestamp="2012-09-26T09:09:41Z" user="mklyr" uid="614924" lat="33.9570390" lon="131.2115262"/>
 <node id="749104645" visible="true" version="5" changeset="78849819" timestamp="2019-12-25T15:14:28Z" user="mklyr" uid="614924" lat="33.9795612" lon="131.2012651"/>
 <node id="749132680" visible="true" version="6" changeset="78849819" timestamp="2019-12-25T15:14:28Z" user="mklyr" uid="614924" lat="33.9803526" lon="131.2009330"/>
 <node id="749141446" visible="true" version="4" changeset="16136694" timestamp="2013-05-15T10:03:50Z" user="mklyr" uid="614924" lat="33.9718476" lon="131.2035644"/>
 <node id="749176631" visible="true" version="5" changeset="78504647" timestamp="2019-12-17T04:53:37Z" user="mklyr" uid="614924" lat="33.9684942" lon="131.2061683"/>
 <node id="749214076" visible="true" version="4" changeset="78504647" timestamp="2019-12-17T04:53:37Z" user="mklyr" uid="614924" lat="33.9708116" lon="131.2045535"/>
 <node id="749241016" visible="true" version="4" changeset="16136694" timestamp="2013-05-15T10:03:50Z" user="mklyr" uid="614924" lat="33.9756811" lon="131.2010374"/>
 <node id="749269287" visible="true" version="3" changeset="13256279" timestamp="2012-09-26T09:09:44Z" user="mklyr" uid="614924" lat="33.9578850" lon="131.2104772"/>
 <node id="749285460" visible="true" version="5" changeset="69633999" timestamp="2019-04-27T08:53:07Z" user="mklyr" uid="614924" lat="33.9817542" lon="131.2013540"/>
 <node id="749291259" visible="true" version="5" changeset="78839241" timestamp="2019-12-25T07:20:29Z" user="mklyr" uid="614924" lat="33.9726072" lon="131.2029052"/>
 <node id="749325160" visible="true" version="5" changeset="21925467" timestamp="2014-04-25T08:18:13Z" user="mklyr" uid="614924" lat="33.9797947" lon="131.2009402"/>
 <node id="749353582" visible="true" version="3" changeset="13256279" timestamp="2012-09-26T09:09:44Z" user="mklyr" uid="614924" lat="33.9763224" lon="131.2011475"/>
 <node id="749393843" visible="true" version="3" changeset="13256279" timestamp="2012-09-26T09:09:34Z" user="mklyr" uid="614924" lat="33.9786113" lon="131.2015162"/>
 <node id="749424381" visible="true" version="4" changeset="16136694" timestamp="2013-05-15T10:03:50Z" user="mklyr" uid="614924" lat="33.9752400" lon="131.2009392"/>
 <node id="749434527" visible="true" version="3" changeset="13256279" timestamp="2012-09-26T09:09:32Z" user="mklyr" uid="614924" lat="33.9640927" lon="131.2022377"/>
 <node id="749508923" visible="true" version="3" changeset="13256279" timestamp="2012-09-26T09:09:36Z" user="mklyr" uid="614924" lat="33.9586612" lon="131.2090939"/>
 <node id="749538373" visible="true" version="3" changeset="13256279" timestamp="2012-09-26T09:09:36Z" user="mklyr" uid="614924" lat="33.9539570" lon="131.2143772"/>
 <node id="749562268" visible="true" version="6" changeset="78849819" timestamp="2019-12-25T15:14:28Z" user="mklyr" uid="614924" lat="33.9794782" lon="131.2013569"/>
 <node id="749567927" visible="true" version="5" changeset="78839241" timestamp="2019-12-25T07:20:29Z" user="mklyr" uid="614924" lat="33.9741831" lon="131.2015417"/>
 <node id="749585582" visible="true" version="5" changeset="21925467" timestamp="2014-04-25T08:18:13Z" user="mklyr" uid="614924" lat="33.9799734" lon="131.2008641"/>
 <node id="749598920" visible="true" version="5" changeset="69633999" timestamp="2019-04-27T08:53:07Z" user="mklyr" uid="614924" lat="33.9820407" lon="131.2016917"/>
 <node id="749629521" visible="true" version="5" changeset="78504647" timestamp="2019-12-17T04:53:37Z" user="mklyr" uid="614924" lat="33.9681078" lon="131.2063127"/>
 <node id="749665051" visible="true" version="5" changeset="78849819" timestamp="2019-12-25T15:14:28Z" user="mklyr" uid="614924" lat="33.9793544" lon="131.2014304"/>
 <node id="749679229" visible="true" version="5" changeset="78504647" timestamp="2019-12-17T04:53:37Z" user="mklyr" uid="614924" lat="33.9697855" lon="131.2054831"/>
 <node id="749721908" visible="true" version="3" changeset="13256279" timestamp="2012-09-26T09:09:32Z" user="mklyr" uid="614924" lat="33.9647002" lon="131.2031542"/>
 <node id="749748064" visible="true" version="3" changeset="13256279" timestamp="2012-09-26T09:09:39Z" user="mklyr" uid="614924" lat="33.9572260" lon="131.2113532"/>
 <node id="749764712" visible="true" version="5" changeset="69633999" timestamp="2019-04-27T08:53:07Z" user="mklyr" uid="614924" lat="33.9815602" lon="131.2012690"/>
 <node id="749774474" visible="true" version="3" changeset="13256279" timestamp="2012-09-26T09:09:40Z" user="mklyr" uid="614924" lat="33.9602211" lon="131.2016444"/>
 <node id="749796254" visible="true" version="6" changeset="78849819" timestamp="2019-12-25T15:14:28Z" user="mklyr" uid="614924" lat="33.9797378" lon="131.2010078"/>
 <node id="749807938" visible="true" version="5" changeset="69633999" timestamp="2019-04-27T08:53:07Z" user="mklyr" uid="614924" lat="33.9811526" lon="131.2011238"/>
 <node id="749860117" visible="true" version="5" changeset="78839241" timestamp="2019-12-25T07:20:29Z" user="mklyr" uid="614924" lat="33.9751611" lon="131.2009470"/>
 <node id="749902906" visible="true" version="4" changeset="78504647" timestamp="2019-12-17T04:53:37Z" user="mklyr" uid="614924" lat="33.9657955" lon="131.2048101"/>
 <node id="1148186292" visible="true" version="5" changeset="16136343" timestamp="2013-05-15T09:29:40Z" user="mklyr" uid="614924" lat="33.9736773" lon="131.2005091"/>
 <node id="1148186346" visible="true" version="6" changeset="56581186" timestamp="2018-02-22T14:14:29Z" user="mklyr" uid="614924" lat="33.9734956" lon="131.2005625"/>
 <node id="1351044643" visible="true" version="2" changeset="56581186" timestamp="2018-02-22T14:14:31Z" user="mklyr" uid="614924" lat="33.9725251" lon="131.1978316"/>
 <node id="1351044665" visible="true" version="2" changeset="56581186" timestamp="2018-02-22T14:14:31Z" user="mklyr" uid="614924" lat="33.9727759" lon="131.1979525"/>
 <node id="1351044744" visible="true" version="2" changeset="56581186" timestamp="2018-02-22T14:14:31Z" user="mklyr" uid="614924" lat="33.9729717" lon="131.1980109"/>
 <node id="1351044884" visible="true" version="2" changeset="56581186" timestamp="2018-02-22T14:14:31Z" user="mklyr" uid="614924" lat="33.9730118" lon="131.2024789"/>
 <node id="1351044896" visible="true" version="2" changeset="56581186" timestamp="2018-02-22T14:14:31Z" user="mklyr" uid="614924" lat="33.9731821" lon="131.1980589"/>
 <node id="1351047205" visible="true" version="2" changeset="56581186" timestamp="2018-02-22T14:14:31Z" user="mklyr" uid="614924" lat="33.9732561" lon="131.2002117"/>
 <node id="1351047231" visible="true" version="6" changeset="56581186" timestamp="2018-02-22T14:14:31Z" user="mklyr" uid="614924" lat="33.9732644" lon="131.2006607"/>
 <node id="1351047432" visible="true" version="2" changeset="21925467" timestamp="2014-04-25T08:18:09Z" user="mklyr" uid="614924" lat="33.9735787" lon="131.1981580"/>
 <node id="1351047564" visible="true" version="3" changeset="56581186" timestamp="2018-02-22T14:14:31Z" user="mklyr" uid="614924" lat="33.9736840" lon="131.1981850"/>
 <node id="1351047810" visible="true" version="4" changeset="16136343" timestamp="2013-05-15T09:29:44Z" user="mklyr" uid="614924" lat="33.9739537" lon="131.2004634"/>
 <node id="1351047853" visible="true" version="3" changeset="56581186" timestamp="2018-02-22T14:14:31Z" user="mklyr" uid="614924" lat="33.9740470" lon="131.1983657"/>
 <node id="1351047944" visible="true" version="3" changeset="69663656" timestamp="2019-04-28T13:22:47Z" user="mklyr" uid="614924" lat="33.9741932" lon="131.1998401"/>
 <node id="1351047956" visible="true" version="2" changeset="69663656" timestamp="2019-04-28T13:22:47Z" user="mklyr" uid="614924" lat="33.9741943" lon="131.1997199"/>
 <node id="1351047957" visible="true" version="4" changeset="56581186" timestamp="2018-02-22T14:14:32Z" user="mklyr" uid="614924" lat="33.9741522" lon="131.2004356"/>
 <node id="1351047968" visible="true" version="3" changeset="56581186" timestamp="2018-02-22T14:14:32Z" user="mklyr" uid="614924" lat="33.9741869" lon="131.1999710"/>
 <node id="1351048034" visible="true" version="5" changeset="56581186" timestamp="2018-02-22T14:14:32Z" user="mklyr" uid="614924" lat="33.9742822" lon="131.2004350"/>
 <node id="1351048301" visible="true" version="3" changeset="56581186" timestamp="2018-02-22T14:14:32Z" user="mklyr" uid="614924" lat="33.9744115" lon="131.1988210"/>
 <node id="1351048459" visible="true" version="3" changeset="56581186" timestamp="2018-02-22T14:14:32Z" user="mklyr" uid="614924" lat="33.9744723" lon="131.1985546"/>
 <node id="1351048474" visible="true" version="4" changeset="16136343" timestamp="2013-05-15T09:29:44Z" user="mklyr" uid="614924" lat="33.9743756" lon="131.2004507"/>
 <node id="1351048749" visible="true" version="3" changeset="21925467" timestamp="2014-04-25T08:18:09Z" user="mklyr" uid="614924" lat="33.9745010" lon="131.2003483"/>
 <node id="1351048892" visible="true" version="3" changeset="56581186" timestamp="2018-02-22T14:14:32Z" user="mklyr" uid="614924" lat="33.9746233" lon="131.1986105"/>
 <node id="1351048919" visible="true" version="3" changeset="56581186" timestamp="2018-02-22T14:14:32Z" user="mklyr" uid="614924" lat="33.9746459" lon="131.1979012"/>
 <node id="1351048934" visible="true" version="4" changeset="101863080" timestamp="2021-03-28T07:40:15Z" user="mklyr" uid="614924" lat="33.9746563" lon="131.1974303"/>
 <node id="1351049036" visible="true" version="3" changeset="56581186" timestamp="2018-02-22T14:14:32Z" user="mklyr" uid="614924" lat="33.9746772" lon="131.1971286"/>
 <node id="1351049296" visible="true" version="2" changeset="56581186" timestamp="2018-02-22T14:14:32Z" user="mklyr" uid="614924" lat="33.9748585" lon="131.1994913"/>
 <node id="1351049390" visible="true" version="3" changeset="56581186" timestamp="2018-02-22T14:14:32Z" user="mklyr" uid="614924" lat="33.9749862" lon="131.1997552"/>
 <node id="1351049648" visible="true" version="5" changeset="54957334" timestamp="2017-12-27T14:31:36Z" user="mklyr" uid="614924" lat="33.9750777" lon="131.1978720"/>
 <node id="1351049650" visible="true" version="6" changeset="54957334" timestamp="2017-12-27T14:31:36Z" user="mklyr" uid="614924" lat="33.9750974" lon="131.1973953"/>
 <node id="1351049659" visible="true" version="5" changeset="54957334" timestamp="2017-12-27T14:31:36Z" user="mklyr" uid="614924" lat="33.9750909" lon="131.1981672"/>
 <node id="1351049665" visible="true" version="3" changeset="56581186" timestamp="2018-02-22T14:14:32Z" user="mklyr" uid="614924" lat="33.9751051" lon="131.2000043"/>
 <node id="1351049672" visible="true" version="5" changeset="54957334" timestamp="2017-12-27T14:31:36Z" user="mklyr" uid="614924" lat="33.9751359" lon="131.1970284"/>
 <node id="1351049717" visible="true" version="6" changeset="92247147" timestamp="2020-10-09T16:21:59Z" user="mklyr" uid="614924" lat="33.9751293" lon="131.1985247"/>
 <node id="1351049739" visible="true" version="3" changeset="21925467" timestamp="2014-04-25T08:18:09Z" user="mklyr" uid="614924" lat="33.9751472" lon="131.2001343"/>
 <node id="1351049798" visible="true" version="7" changeset="92247147" timestamp="2020-10-09T16:21:59Z" user="mklyr" uid="614924" lat="33.9751686" lon="131.1987664"/>
 <node id="1351049868" visible="true" version="6" changeset="54957334" timestamp="2017-12-27T14:31:36Z" user="mklyr" uid="614924" lat="33.9752325" lon="131.1962628"/>
 <node id="1351049871" visible="true" version="8" changeset="92247147" timestamp="2020-10-09T16:21:59Z" user="mklyr" uid="614924" lat="33.9752739" lon="131.1992029"/>
 <node id="1351049912" visible="true" version="5" changeset="54957334" timestamp="2017-12-27T14:31:36Z" user="mklyr" uid="614924" lat="33.9752739" lon="131.1958846"/>
 <node id="1351049957" visible="true" version="6" changeset="54957334" timestamp="2017-12-27T14:31:36Z" user="mklyr" uid="614924" lat="33.9753323" lon="131.1952686"/>
 <node id="1351049969" visible="true" version="6" changeset="54957334" timestamp="2017-12-27T14:31:36Z" user="mklyr" uid="614924" lat="33.9753652" lon="131.1948264"/>
 <node id="1351050002" visible="true" version="6" changeset="54957334" timestamp="2017-12-27T14:31:36Z" user="mklyr" uid="614924" lat="33.9754208" lon="131.1938510"/>
 <node id="1351050006" visible="true" version="8" changeset="54957334" timestamp="2017-12-27T14:31:36Z" user="mklyr" uid="614924" lat="33.9754294" lon="131.1935063">
  <tag k="highway" v="traffic_signals"/>
  <tag k="name" v="東須恵I.C"/>
 </node>
 <node id="1351050012" visible="true" version="5" changeset="24698224" timestamp="2014-08-12T10:15:49Z" user="mklyr" uid="614924" lat="33.9754989" lon="131.1925637"/>
 <node id="1351050040" visible="true" version="4" changeset="54957334" timestamp="2017-12-27T14:31:36Z" user="mklyr" uid="614924" lat="33.9754011" lon="131.1995929"/>
 <node id="1351050045" visible="true" version="7" changeset="54957334" timestamp="2017-12-27T14:31:36Z" user="mklyr" uid="614924" lat="33.9755652" lon="131.1920271"/>
 <node id="1351050064" visible="true" version="3" changeset="92247147" timestamp="2020-10-09T16:21:59Z" user="mklyr" uid="614924" lat="33.9755896" lon="131.1994335"/>
 <node id="1351050088" visible="true" version="7" changeset="24698224" timestamp="2014-08-12T10:15:49Z" user="mklyr" uid="614924" lat="33.9756241" lon="131.1915072"/>
 <node id="1351050091" visible="true" version="9" changeset="54957334" timestamp="2017-12-27T14:31:36Z" user="mklyr" uid="614924" lat="33.9756826" lon="131.1911119"/>
 <node id="1351050123" visible="true" version="5" changeset="54957334" timestamp="2017-12-27T14:31:36Z" user="mklyr" uid="614924" lat="33.9755988" lon="131.2000736"/>
 <node id="1351050248" visible="true" version="10" changeset="69662201" timestamp="2019-04-28T12:12:48Z" user="mklyr" uid="614924" lat="33.9758192" lon="131.1904493">
  <tag k="highway" v="traffic_signals"/>
 </node>
 <node id="1351050299" visible="true" version="3" changeset="92247147" timestamp="2020-10-09T16:21:59Z" user="mklyr" uid="614924" lat="33.9759587" lon="131.1998136"/>
 <node id="1351050352" visible="true" version="8" changeset="54957334" timestamp="2017-12-27T14:31:37Z" user="mklyr" uid="614924" lat="33.9759717" lon="131.2009745">
  <tag k="highway" v="traffic_signals"/>
  <tag k="name:en" v="Nagarekawa"/>
  <tag k="name:ja" v="流川"/>
 </node>
 <node id="1351050357" visible="true" version="5" changeset="54986857" timestamp="2017-12-28T15:51:52Z" user="mklyr" uid="614924" lat="33.9759850" lon="131.1898856"/>
 <node id="1351050478" visible="true" version="6" changeset="54986857" timestamp="2017-12-28T15:51:52Z" user="mklyr" uid="614924" lat="33.9762267" lon="131.1893174"/>
 <node id="1351050524" visible="true" version="5" changeset="54986857" timestamp="2017-12-28T15:51:52Z" user="mklyr" uid="614924" lat="33.9764903" lon="131.1888678"/>
 <node id="1351050561" visible="true" version="3" changeset="92247147" timestamp="2020-10-09T16:21:59Z" user="mklyr" uid="614924" lat="33.9761675" lon="131.1999825"/>
 <node id="1351050662" visible="true" version="3" changeset="92247147" timestamp="2020-10-09T16:21:59Z" user="mklyr" uid="614924" lat="33.9762976" lon="131.2001027"/>
 <node id="1351050776" visible="true" version="1" changeset="8645415" timestamp="2011-07-06T07:00:32Z" user="yamasan" uid="32308" lat="33.9764240" lon="131.2002050"/>
 <node id="1351050913" visible="true" version="2" changeset="21925467" timestamp="2014-04-25T08:18:10Z" user="mklyr" uid="614924" lat="33.9765790" lon="131.2003137"/>
 <node id="1351050977" visible="true" version="6" changeset="54986857" timestamp="2017-12-28T15:51:52Z" user="mklyr" uid="614924" lat="33.9767163" lon="131.1885167"/>
 <node id="1351051048" visible="true" version="2" changeset="21925467" timestamp="2014-04-25T08:18:10Z" user="mklyr" uid="614924" lat="33.9767791" lon="131.2004369"/>
 <node id="1351051087" visible="true" version="6" changeset="56581186" timestamp="2018-02-22T14:14:33Z" user="mklyr" uid="614924" lat="33.9768475" lon="131.2011329"/>
 <node id="1351051203" visible="true" version="2" changeset="21925467" timestamp="2014-04-25T08:18:10Z" user="mklyr" uid="614924" lat="33.9769710" lon="131.2005048"/>
 <node id="1351961376" visible="true" version="10" changeset="54986857" timestamp="2017-12-28T15:51:53Z" user="mklyr" uid="614924" lat="33.9780020" lon="131.1867594">
  <tag k="highway" v="traffic_signals"/>
  <tag k="name" v="丸河内"/>
 </node>
 <node id="1908486805" visible="true" version="5" changeset="54986857" timestamp="2017-12-28T15:51:55Z" user="mklyr" uid="614924" lat="33.9760902" lon="131.1896067"/>
 <node id="2000838878" visible="true" version="3" changeset="78849819" timestamp="2019-12-25T15:14:28Z" user="mklyr" uid="614924" lat="33.9791137" lon="131.2015370"/>
 <node id="2000838882" visible="true" version="2" changeset="69633999" timestamp="2019-04-27T08:53:15Z" user="mklyr" uid="614924" lat="33.9818769" lon="131.2014377"/>
 <node id="2013400581" visible="true" version="3" changeset="56581186" timestamp="2018-02-22T14:14:35Z" user="mklyr" uid="614924" lat="33.9735996" lon="131.2005287"/>
 <node id="2013400590" visible="true" version="3" changeset="54957334" timestamp="2017-12-27T14:31:39Z" user="mklyr" uid="614924" lat="33.9753244" lon="131.1993722"/>
 <node id="2013400592" visible="true" version="3" changeset="92247147" timestamp="2020-10-09T16:21:59Z" user="mklyr" uid="614924" lat="33.9754354" lon="131.1992628"/>
 <node id="2013400594" visible="true" version="3" changeset="54957334" timestamp="2017-12-27T14:31:39Z" user="mklyr" uid="614924" lat="33.9754856" lon="131.1998068"/>
 <node id="2013400596" visible="true" version="4" changeset="54957334" timestamp="2017-12-27T14:31:39Z" user="mklyr" uid="614924" lat="33.9759025" lon="131.1901291"/>
 <node id="2013400601" visible="true" version="3" changeset="54986857" timestamp="2017-12-28T15:51:56Z" user="mklyr" uid="614924" lat="33.9763475" lon="131.1891053"/>
 <node id="2334395656" visible="true" version="2" changeset="54957334" timestamp="2017-12-27T14:31:41Z" user="mklyr" uid="614924" lat="33.9749975" lon="131.1977302"/>
 <node id="2334395657" visible="true" version="2" changeset="54957334" timestamp="2017-12-27T14:31:41Z" user="mklyr" uid="614924" lat="33.9749979" lon="131.1979460"/>
 <node id="2334395658" visible="true" version="2" changeset="54957334" timestamp="2017-12-27T14:31:41Z" user="mklyr" uid="614924" lat="33.9750026" lon="131.1975024"/>
 <node id="2334395659" visible="true" version="2" changeset="54957334" timestamp="2017-12-27T14:31:41Z" user="mklyr" uid="614924" lat="33.9750055" lon="131.1981582"/>
 <node id="2334395661" visible="true" version="2" changeset="54957334" timestamp="2017-12-27T14:31:41Z" user="mklyr" uid="614924" lat="33.9750285" lon="131.1983794"/>
 <node id="2334395662" visible="true" version="3" changeset="54957334" timestamp="2017-12-27T14:31:41Z" user="mklyr" uid="614924" lat="33.9750347" lon="131.1971965"/>
 <node id="2334395663" visible="true" version="2" changeset="54957334" timestamp="2017-12-27T14:31:41Z" user="mklyr" uid="614924" lat="33.9750560" lon="131.1985976"/>
 <node id="2334395664" visible="true" version="2" changeset="54957334" timestamp="2017-12-27T14:31:41Z" user="mklyr" uid="614924" lat="33.9750661" lon="131.1969465"/>
 <node id="2334395665" visible="true" version="4" changeset="92247147" timestamp="2020-10-09T16:21:59Z" user="mklyr" uid="614924" lat="33.9750889" lon="131.1987727"/>
 <node id="2334395666" visible="true" version="2" changeset="54957334" timestamp="2017-12-27T14:31:41Z" user="mklyr" uid="614924" lat="33.9750861" lon="131.1976412"/>
 <node id="2334395667" visible="true" version="2" changeset="54957334" timestamp="2017-12-27T14:31:41Z" user="mklyr" uid="614924" lat="33.9751102" lon="131.1983693"/>
 <node id="2334395669" visible="true" version="3" changeset="92247147" timestamp="2020-10-09T16:21:59Z" user="mklyr" uid="614924" lat="33.9751572" lon="131.1990887"/>
 <node id="2334395670" visible="true" version="2" changeset="54957334" timestamp="2017-12-27T14:31:41Z" user="mklyr" uid="614924" lat="33.9751621" lon="131.1962388"/>
 <node id="2334395672" visible="true" version="3" changeset="54957334" timestamp="2017-12-27T14:31:41Z" user="mklyr" uid="614924" lat="33.9751984" lon="131.1958444"/>
 <node id="2334395673" visible="true" version="2" changeset="54957334" timestamp="2017-12-27T14:31:41Z" user="mklyr" uid="614924" lat="33.9752253" lon="131.1993364"/>
 <node id="2334395674" visible="true" version="3" changeset="54957334" timestamp="2017-12-27T14:31:41Z" user="mklyr" uid="614924" lat="33.9752457" lon="131.1952768"/>
 <node id="2334395675" visible="true" version="2" changeset="54957334" timestamp="2017-12-27T14:31:41Z" user="mklyr" uid="614924" lat="33.9753246" lon="131.1996293"/>
 <node id="2334395676" visible="true" version="4" changeset="54957334" timestamp="2017-12-27T14:31:41Z" user="mklyr" uid="614924" lat="33.9753099" lon="131.1941813"/>
 <node id="2334395677" visible="true" version="3" changeset="24698224" timestamp="2014-08-12T10:15:52Z" user="mklyr" uid="614924" lat="33.9753201" lon="131.1937919"/>
 <node id="2334395678" visible="true" version="5" changeset="54957334" timestamp="2017-12-27T14:31:41Z" user="mklyr" uid="614924" lat="33.9753379" lon="131.1934945">
  <tag k="highway" v="traffic_signals"/>
  <tag k="name" v="東須恵I.C"/>
 </node>
 <node id="2334395682" visible="true" version="4" changeset="54957334" timestamp="2017-12-27T14:31:41Z" user="mklyr" uid="614924" lat="33.9754537" lon="131.1921172"/>
 <node id="2334395683" visible="true" version="4" changeset="69663656" timestamp="2019-04-28T13:22:48Z" user="mklyr" uid="614924" lat="33.9755269" lon="131.2001270"/>
 <node id="2334395686" visible="true" version="4" changeset="54957334" timestamp="2017-12-27T14:31:41Z" user="mklyr" uid="614924" lat="33.9755404" lon="131.1914393"/>
 <node id="2334395689" visible="true" version="3" changeset="24698224" timestamp="2014-08-12T10:15:52Z" user="mklyr" uid="614924" lat="33.9756055" lon="131.1910269"/>
 <node id="2334395692" visible="true" version="3" changeset="24698224" timestamp="2014-08-12T10:15:52Z" user="mklyr" uid="614924" lat="33.9756610" lon="131.1907017"/>
 <node id="2334395696" visible="true" version="6" changeset="69662201" timestamp="2019-04-28T12:12:50Z" user="mklyr" uid="614924" lat="33.9757332" lon="131.1904143">
  <tag k="highway" v="traffic_signals"/>
 </node>
 <node id="2334395697" visible="true" version="2" changeset="54957334" timestamp="2017-12-27T14:31:41Z" user="mklyr" uid="614924" lat="33.9757879" lon="131.1902043"/>
 <node id="2334395698" visible="true" version="2" changeset="54957334" timestamp="2017-12-27T14:31:41Z" user="mklyr" uid="614924" lat="33.9758401" lon="131.1900292"/>
 <node id="2334395699" visible="true" version="4" changeset="54957334" timestamp="2017-12-27T14:31:41Z" user="mklyr" uid="614924" lat="33.9758444" lon="131.2009280">
  <tag k="highway" v="traffic_signals"/>
  <tag k="name:en" v="Nagarekawa"/>
  <tag k="name:ja" v="流川"/>
 </node>
 <node id="2334395700" visible="true" version="2" changeset="54986857" timestamp="2017-12-28T15:51:56Z" user="mklyr" uid="614924" lat="33.9759010" lon="131.1898505"/>
 <node id="2334395702" visible="true" version="2" changeset="54986857" timestamp="2017-12-28T15:51:56Z" user="mklyr" uid="614924" lat="33.9760149" lon="131.1895454"/>
 <node id="2334395703" visible="true" version="2" changeset="54986857" timestamp="2017-12-28T15:51:56Z" user="mklyr" uid="614924" lat="33.9761587" lon="131.1892444"/>
 <node id="2334395704" visible="true" version="2" changeset="54986857" timestamp="2017-12-28T15:51:56Z" user="mklyr" uid="614924" lat="33.9762639" lon="131.1890568"/>
 <node id="2334395706" visible="true" version="2" changeset="54986857" timestamp="2017-12-28T15:51:56Z" user="mklyr" uid="614924" lat="33.9764016" lon="131.1888204"/>
 <node id="2334395712" visible="true" version="2" changeset="54986857" timestamp="2017-12-28T15:51:56Z" user="mklyr" uid="614924" lat="33.9766593" lon="131.1884275"/>
 <node id="2334395745" visible="true" version="4" changeset="54986857" timestamp="2017-12-28T15:51:56Z" user="mklyr" uid="614924" lat="33.9779309" lon="131.1866737">
  <tag k="highway" v="traffic_signals"/>
  <tag k="name" v="丸河内"/>
 </node>
 <node id="2334424984" visible="true" version="2" changeset="54957334" timestamp="2017-12-27T14:31:42Z" user="mklyr" uid="614924" lat="33.9752822" lon="131.1948186"/>
 <node id="2334424988" visible="true" version="4" changeset="54957334" timestamp="2017-12-27T14:31:42Z" user="mklyr" uid="614924" lat="33.9757421" lon="131.1907973"/>
 <node id="2815055032" visible="true" version="2" changeset="69663656" timestamp="2019-04-28T13:22:48Z" user="mklyr" uid="614924" lat="33.9750549" lon="131.2001511"/>
 <node id="2815055045" visible="true" version="2" changeset="92247147" timestamp="2020-10-09T16:21:59Z" user="mklyr" uid="614924" lat="33.9753576" lon="131.1992086"/>
 <node id="2815055086" visible="true" version="1" changeset="21925467" timestamp="2014-04-25T08:17:59Z" user="mklyr" uid="614924" lat="33.9799198" lon="131.2008679"/>
 <node id="4750627903" visible="true" version="1" changeset="47091536" timestamp="2017-03-23T09:41:24Z" user="mmkato" uid="3760104" lat="33.9751857" lon="131.1995216">
  <tag k="highway" v="bus_stop"/>
  <tag k="name" v="流川"/>
  <tag k="operator" v="宇部市交通局"/>
 </node>
 <node id="4750627904" visible="true" version="1" changeset="47091536" timestamp="2017-03-23T09:41:24Z" user="mmkato" uid="3760104" lat="33.9754448" lon="131.1994773">
  <tag k="highway" v="bus_stop"/>
  <tag k="name" v="流川"/>
  <tag k="operator" v="宇部市交通局"/>
 </node>
 <node id="5254099559" visible="true" version="1" changeset="54178594" timestamp="2017-11-29T14:06:15Z" user="show1017" uid="3244669" lat="33.9753643" lon="131.1931255"/>
 <node id="5429151811" visible="true" version="1" changeset="56581186" timestamp="2018-02-22T14:14:26Z" user="mklyr" uid="614924" lat="33.9735807" lon="131.2001291"/>
 <node id="6432312461" visible="true" version="1" changeset="69633999" timestamp="2019-04-27T08:53:02Z" user="mklyr" uid="614924" lat="33.9819550" lon="131.2015119"/>
 <node id="6683532028" visible="true" version="1" changeset="73011295" timestamp="2019-08-05T08:44:47Z" user="futurumspes" uid="651065" lat="33.9759922" lon="131.2010212"/>
 <node id="6683532030" visible="true" version="1" changeset="73011295" timestamp="2019-08-05T08:44:47Z" user="futurumspes" uid="651065" lat="33.9758781" lon="131.2010095"/>
 <node id="7062373284" visible="true" version="1" changeset="78504647" timestamp="2019-12-17T04:53:37Z" user="mklyr" uid="614924" lat="33.9681732" lon="131.2063171"/>
 <node id="7083557391" visible="true" version="1" changeset="78839241" timestamp="2019-12-25T07:20:29Z" user="mklyr" uid="614924" lat="33.9726928" lon="131.2027603"/>
 <node id="7083557392" visible="true" version="1" changeset="78839241" timestamp="2019-12-25T07:20:29Z" user="mklyr" uid="614924" lat="33.9715798" lon="131.2037532"/>
 <node id="7083557393" visible="true" version="1" changeset="78839241" timestamp="2019-12-25T07:20:29Z" user="mklyr" uid="614924" lat="33.9717412" lon="131.2036067"/>
 <node id="7083557394" visible="true" version="1" changeset="78839241" timestamp="2019-12-25T07:20:29Z" user="mklyr" uid="614924" lat="33.9722442" lon="131.2031551"/>
 <node id="7083557395" visible="true" version="1" changeset="78839241" timestamp="2019-12-25T07:20:29Z" user="mklyr" uid="614924" lat="33.9744527" lon="131.2013510"/>
 <node id="7083557398" visible="true" version="1" changeset="78839241" timestamp="2019-12-25T07:20:29Z" user="mklyr" uid="614924" lat="33.9745361" lon="131.2009902"/>
 <node id="7083557399" visible="true" version="1" changeset="78839241" timestamp="2019-12-25T07:20:29Z" user="mklyr" uid="614924" lat="33.9749799" lon="131.2007394"/>
 <node id="7083557400" visible="true" version="2" changeset="101863080" timestamp="2021-03-28T07:40:15Z" user="mklyr" uid="614924" lat="33.9750194" lon="131.2006508"/>
 <node id="7083557406" visible="true" version="1" changeset="78839241" timestamp="2019-12-25T07:20:29Z" user="mklyr" uid="614924" lat="33.9738753" lon="131.2004764"/>
 <node id="7083557407" visible="true" version="1" changeset="78839241" timestamp="2019-12-25T07:20:29Z" user="mklyr" uid="614924" lat="33.9735280" lon="131.2020303"/>
 <node id="7083557408" visible="true" version="1" changeset="78839241" timestamp="2019-12-25T07:20:29Z" user="mklyr" uid="614924" lat="33.9739200" lon="131.2016863"/>
 <node id="7083557409" visible="true" version="1" changeset="78839241" timestamp="2019-12-25T07:20:29Z" user="mklyr" uid="614924" lat="33.9741647" lon="131.2014824"/>
 <node id="7083557410" visible="true" version="1" changeset="78839241" timestamp="2019-12-25T07:20:29Z" user="mklyr" uid="614924" lat="33.9743082" lon="131.2013818"/>
 <node id="7083557411" visible="true" version="1" changeset="78839241" timestamp="2019-12-25T07:20:29Z" user="mklyr" uid="614924" lat="33.9745284" lon="131.2012504"/>
 <node id="7083557412" visible="true" version="1" changeset="78839241" timestamp="2019-12-25T07:20:29Z" user="mklyr" uid="614924" lat="33.9744983" lon="131.2010553"/>
 <node id="7083557413" visible="true" version="1" changeset="78839241" timestamp="2019-12-25T07:20:29Z" user="mklyr" uid="614924" lat="33.9744961" lon="131.2009983"/>
 <node id="7083557414" visible="true" version="1" changeset="78839241" timestamp="2019-12-25T07:20:29Z" user="mklyr" uid="614924" lat="33.9744500" lon="131.2006355"/>
 <node id="7083557415" visible="true" version="2" changeset="101863080" timestamp="2021-03-28T07:40:15Z" user="mklyr" uid="614924" lat="33.9744186" lon="131.2004596"/>
 <node id="7083557482" visible="true" version="1" changeset="78839241" timestamp="2019-12-25T07:20:29Z" user="mklyr" uid="614924" lat="33.9736232" lon="131.1981717"/>
 <node id="7084009491" visible="true" version="1" changeset="78849819" timestamp="2019-12-25T15:14:28Z" user="mklyr" uid="614924" lat="33.9792121" lon="131.2015079"/>
 <node id="7992747561" visible="true" version="1" changeset="92247147" timestamp="2020-10-09T16:21:59Z" user="mklyr" uid="614924" lat="33.9751156" lon="131.1989179"/>
 <node id="7992747562" visible="true" version="1" changeset="92247147" timestamp="2020-10-09T16:21:59Z" user="mklyr" uid="614924" lat="33.9749538" lon="131.1987466"/>
 <node id="7992747563" visible="true" version="1" changeset="92247147" timestamp="2020-10-09T16:21:59Z" user="mklyr" uid="614924" lat="33.9752162" lon="131.1989967"/>
 <node id="8568580279" visible="true" version="1" changeset="101863080" timestamp="2021-03-28T07:40:15Z" user="mklyr" uid="614924" lat="33.9746509" lon="131.1976749"/>
 <node id="8568580282" visible="true" version="1" changeset="101863080" timestamp="2021-03-28T07:40:15Z" user="mklyr" uid="614924" lat="33.9744883" lon="131.1984918"/>
 <node id="8568580283" visible="true" version="1" changeset="101863080" timestamp="2021-03-28T07:40:15Z" user="mklyr" uid="614924" lat="33.9743360" lon="131.1982504"/>
 <node id="8568580284" visible="true" version="1" changeset="101863080" timestamp="2021-03-28T07:40:15Z" user="mklyr" uid="614924" lat="33.9743326" lon="131.1981685"/>
 <node id="8568580285" visible="true" version="1" changeset="101863080" timestamp="2021-03-28T07:40:15Z" user="mklyr" uid="614924" lat="33.9743393" lon="131.1978936"/>
 <node id="8568580287" visible="true" version="1" changeset="101863080" timestamp="2021-03-28T07:40:15Z" user="mklyr" uid="614924" lat="33.9749688" lon="131.1971882"/>
 <node id="8568580288" visible="true" version="1" changeset="101863080" timestamp="2021-03-28T07:40:15Z" user="mklyr" uid="614924" lat="33.9743582" lon="131.1974229"/>
 <node id="9472329347" visible="true" version="2" changeset="184780484" timestamp="2026-06-29T07:39:41Z" user="mklyr" uid="614924" lat="33.9744261" lon="131.1994973">
  <tag k="leisure" v="playground"/>
  <tag k="name" v="西園公園"/>
 </node>
 <node id="9472329381" visible="true" version="2" changeset="184780484" timestamp="2026-06-29T07:39:41Z" user="mklyr" uid="614924" lat="33.9751961" lon="131.1994118">
  <tag k="leisure" v="playground"/>
  <tag k="name" v="梅田川ミニ広場"/>
 </node>
 <node id="9472329382" visible="true" version="1" changeset="116976674" timestamp="2022-02-03T18:52:49Z" user="denpa1" uid="12030302" lat="33.9750121" lon="131.1990297">
  <tag k="name" v="河本酒店"/>
  <tag k="shop" v="alcohol"/>
 </node>
 <node id="9472329383" visible="true" version="1" changeset="116976674" timestamp="2022-02-03T18:52:49Z" user="denpa1" uid="12030302" lat="33.9746799" lon="131.1981362">
  <tag k="name" v="美容室ギャルソン"/>
  <tag k="shop" v="hairdresser"/>
 </node>
 <node id="11744989312" visible="true" version="1" changeset="148856911" timestamp="2024-03-19T11:47:25Z" user="paopao234" uid="8303738" lat="33.9777819" lon="131.1868792">
  <tag k="crossing" v="traffic_signals"/>
  <tag k="highway" v="crossing"/>
 </node>
 <node id="11744989313" visible="true" version="1" changeset="148856911" timestamp="2024-03-19T11:47:25Z" user="paopao234" uid="8303738" lat="33.9778630" lon="131.1869494">
  <tag k="crossing" v="traffic_signals"/>
  <tag k="highway" v="crossing"/>
 </node>
 <node id="13408158899" visible="true" version="1" changeset="176423742" timestamp="2025-12-26T07:44:49Z" user="hibagonsan" uid="5939709" lat="33.9755743" lon="131.1988063"/>
 <node id="13408158900" visible="true" version="1" changeset="176423742" timestamp="2025-12-26T07:44:49Z" user="hibagonsan" uid="5939709" lat="33.9754230" lon="131.1988479"/>
 <node id="13408185463" visible="true" version="1" changeset="176423706" timestamp="2025-12-26T07:43:34Z" user="hibagonsan" uid="5939709" lat="33.9749423" lon="131.1990873"/>
 <node id="13408185464" visible="true" version="1" changeset="176423706" timestamp="2025-12-26T07:43:34Z" user="hibagonsan" uid="5939709" lat="33.9749464" lon="131.1990933"/>
 <node id="13408185465" visible="true" version="1" changeset="176423706" timestamp="2025-12-26T07:43:34Z" user="hibagonsan" uid="5939709" lat="33.9750684" lon="131.1990573"/>
 <node id="13408185466" visible="true" version="1" changeset="176423706" timestamp="2025-12-26T07:43:34Z" user="hibagonsan" uid="5939709" lat="33.9750406" lon="131.1990846"/>
 <node id="13408185467" visible="true" version="1" changeset="176423706" timestamp="2025-12-26T07:43:34Z" user="hibagonsan" uid="5939709" lat="33.9749588" lon="131.1991524"/>
 <node id="13408185468" visible="true" version="1" changeset="176423706" timestamp="2025-12-26T07:43:34Z" user="hibagonsan" uid="5939709" lat="33.9749687" lon="131.1991426"/>
 <node id="13408185469" visible="true" version="1" changeset="176423706" timestamp="2025-12-26T07:43:34Z" user="hibagonsan" uid="5939709" lat="33.9750393" lon="131.1992473"/>
 <node id="13408185470" visible="true" version="1" changeset="176423706" timestamp="2025-12-26T07:43:34Z" user="hibagonsan" uid="5939709" lat="33.9749298" lon="131.1991095"/>
 <node id="13408185471" visible="true" version="1" changeset="176423706" timestamp="2025-12-26T07:43:34Z" user="hibagonsan" uid="5939709" lat="33.9750303" lon="131.1990009"/>
 <node id="13408185472" visible="true" version="1" changeset="176423706" timestamp="2025-12-26T07:43:34Z" user="hibagonsan" uid="5939709" lat="33.9751061" lon="131.1991817"/>
 <node id="13408193480" visible="true" version="1" changeset="176423684" timestamp="2025-12-26T07:43:04Z" user="hibagonsan" uid="5939709" lat="33.9746985" lon="131.1979191"/>
 <node id="13408193481" visible="true" version="1" changeset="176423684" timestamp="2025-12-26T07:43:04Z" user="hibagonsan" uid="5939709" lat="33.9746985" lon="131.1980311"/>
 <node id="13408193482" visible="true" version="1" changeset="176423684" timestamp="2025-12-26T07:43:04Z" user="hibagonsan" uid="5939709" lat="33.9747575" lon="131.1980311"/>
 <node id="13408193483" visible="true" version="1" changeset="176423684" timestamp="2025-12-26T07:43:04Z" user="hibagonsan" uid="5939709" lat="33.9747575" lon="131.1979191"/>
 <node id="13408193484" visible="true" version="1" changeset="176423684" timestamp="2025-12-26T07:43:04Z" user="hibagonsan" uid="5939709" lat="33.9746949" lon="131.1981433"/>
 <node id="13408193485" visible="true" version="1" changeset="176423684" timestamp="2025-12-26T07:43:04Z" user="hibagonsan" uid="5939709" lat="33.9747116" lon="131.1981438"/>
 <node id="13408193486" visible="true" version="1" changeset="176423684" timestamp="2025-12-26T07:43:04Z" user="hibagonsan" uid="5939709" lat="33.9746960" lon="131.1981091"/>
 <node id="13408193487" visible="true" version="1" changeset="176423684" timestamp="2025-12-26T07:43:04Z" user="hibagonsan" uid="5939709" lat="33.9747123" lon="131.1981096"/>
 <node id="13408193488" visible="true" version="1" changeset="176423684" timestamp="2025-12-26T07:43:04Z" user="hibagonsan" uid="5939709" lat="33.9746971" lon="131.1980560"/>
 <node id="13408193489" visible="true" version="1" changeset="176423684" timestamp="2025-12-26T07:43:04Z" user="hibagonsan" uid="5939709" lat="33.9746944" lon="131.1981693"/>
 <node id="13408193490" visible="true" version="1" changeset="176423684" timestamp="2025-12-26T07:43:04Z" user="hibagonsan" uid="5939709" lat="33.9747630" lon="131.1981712"/>
 <node id="13408193491" visible="true" version="1" changeset="176423684" timestamp="2025-12-26T07:43:04Z" user="hibagonsan" uid="5939709" lat="33.9747653" lon="131.1980579"/>
 <node id="13408217801" visible="true" version="1" changeset="176423742" timestamp="2025-12-26T07:44:49Z" user="hibagonsan" uid="5939709" lat="33.9754036" lon="131.1987452"/>
 <node id="13408217802" visible="true" version="1" changeset="176423742" timestamp="2025-12-26T07:44:49Z" user="hibagonsan" uid="5939709" lat="33.9755549" lon="131.1987036"/>
 <way id="60306580" visible="true" version="9" changeset="78849819" timestamp="2019-12-25T15:14:28Z" user="mklyr" uid="614924">
  <nd ref="749598920"/>
  <nd ref="6432312461"/>
  <nd ref="2000838882"/>
  <nd ref="749285460"/>
  <nd ref="749764712"/>
  <nd ref="749807938"/>
  <nd ref="749132680"/>
  <nd ref="749585582"/>
  <nd ref="2815055086"/>
  <nd ref="748939243"/>
  <nd ref="749325160"/>
  <nd ref="749796254"/>
  <nd ref="749104645"/>
  <nd ref="749562268"/>
  <nd ref="749665051"/>
  <nd ref="7084009491"/>
  <nd ref="2000838878"/>
  <nd ref="748990615"/>
  <nd ref="749393843"/>
  <nd ref="749353582"/>
  <nd ref="749241016"/>
  <nd ref="749424381"/>
  <nd ref="749860117"/>
  <nd ref="7083557395"/>
  <nd ref="749567927"/>
  <nd ref="749291259"/>
  <nd ref="749141446"/>
  <nd ref="749214076"/>
  <nd ref="749679229"/>
  <nd ref="749176631"/>
  <nd ref="7062373284"/>
  <nd ref="749629521"/>
  <nd ref="748970971"/>
  <nd ref="749902906"/>
  <nd ref="749721908"/>
  <nd ref="749434527"/>
  <nd ref="749774474"/>
  <nd ref="749508923"/>
  <nd ref="748902903"/>
  <nd ref="749269287"/>
  <nd ref="749748064"/>
  <nd ref="749056316"/>
  <nd ref="749538373"/>
  <tag k="name" v="梅田川"/>
  <tag k="name:ja" v="梅田川"/>
  <tag k="note" v="National-Land Numerical Information (River) 2006, MLIT Japan"/>
  <tag k="note:ja" v="国土数値情報(河川データ)平成18年国土交通省"/>
  <tag k="source" v="KSJ2"/>
  <tag k="source_ref" v="http://nlftp.mlit.go.jp/ksj/jpgis/datalist/KsjTmplt-W05.html"/>
  <tag k="waterway" v="river"/>
 </way>
 <way id="120498686" visible="true" version="13" changeset="169801235" timestamp="2025-08-01T07:05:34Z" user="taketaketake" uid="4757277">
  <nd ref="1351961376"/>
  <nd ref="11744989313"/>
  <nd ref="1351050977"/>
  <nd ref="1351050524"/>
  <nd ref="2013400601"/>
  <nd ref="1351050478"/>
  <nd ref="1908486805"/>
  <nd ref="1351050357"/>
  <nd ref="2013400596"/>
  <nd ref="1351050248"/>
  <nd ref="2334424988"/>
  <nd ref="1351050091"/>
  <nd ref="1351050088"/>
  <nd ref="1351050045"/>
  <nd ref="1351050012"/>
  <nd ref="1351050006"/>
  <nd ref="1351050002"/>
  <nd ref="1351049969"/>
  <nd ref="1351049957"/>
  <nd ref="1351049912"/>
  <nd ref="1351049868"/>
  <nd ref="1351049672"/>
  <nd ref="1351049650"/>
  <nd ref="2334395666"/>
  <nd ref="1351049648"/>
  <nd ref="1351049659"/>
  <nd ref="2334395667"/>
  <nd ref="1351049717"/>
  <nd ref="1351049798"/>
  <nd ref="7992747563"/>
  <nd ref="1351049871"/>
  <nd ref="2013400590"/>
  <nd ref="1351050040"/>
  <nd ref="2013400594"/>
  <nd ref="1351050123"/>
  <nd ref="1351050352"/>
  <nd ref="6683532028"/>
  <tag k="est_width" v="5.5-"/>
  <tag k="highway" v="trunk"/>
  <tag k="lanes" v="2"/>
  <tag k="name" v="国道190号"/>
  <tag k="name:en" v="National Highway Route 190"/>
  <tag k="name:ja" v="国道190号"/>
  <tag k="oneway" v="yes"/>
  <tag k="ref" v="190"/>
  <tag k="source" v="YahooJapan/ALPSMAP;GSImaps/std"/>
  <tag k="surface" v="asphalt"/>
 </way>
 <way id="120499099" visible="true" version="5" changeset="106863829" timestamp="2021-06-24T00:13:38Z" user="taketaketake" uid="4757277">
  <nd ref="1351047231"/>
  <nd ref="1148186346"/>
  <nd ref="2013400581"/>
  <nd ref="1148186292"/>
  <nd ref="7083557406"/>
  <nd ref="1351047810"/>
  <nd ref="1351047957"/>
  <nd ref="1351048034"/>
  <nd ref="1351048474"/>
  <tag k="highway" v="tertiary"/>
  <tag k="source" v="GSImaps/ort"/>
 </way>
 <way id="120499104" visible="true" version="5" changeset="106863829" timestamp="2021-06-24T00:13:38Z" user="taketaketake" uid="4757277">
  <nd ref="1351048474"/>
  <nd ref="7083557415"/>
  <nd ref="7083557400"/>
  <nd ref="2334395699"/>
  <nd ref="1351050352"/>
  <tag k="highway" v="tertiary"/>
  <tag k="source" v="YahooJapan/ALPSMAP"/>
 </way>
 <way id="120499639" visible="true" version="3" changeset="78839241" timestamp="2019-12-25T07:20:29Z" user="mklyr" uid="614924">
  <nd ref="1351044643"/>
  <nd ref="1351044665"/>
  <nd ref="1351044744"/>
  <nd ref="1351044896"/>
  <nd ref="1351047432"/>
  <nd ref="7083557482"/>
  <nd ref="1351047564"/>
  <nd ref="1351047853"/>
  <nd ref="1351048459"/>
  <tag k="highway" v="unclassified"/>
  <tag k="source" v="YahooJapan/ALPSMAP"/>
 </way>
 <way id="120501725" visible="true" version="1" changeset="8645415" timestamp="2011-07-06T07:45:32Z" user="yamasan" uid="32308">
  <nd ref="1351048459"/>
  <nd ref="1351048892"/>
  <tag k="highway" v="unclassified"/>
  <tag k="source" v="YahooJapan/ALPSMAP"/>
  <tag k="yh:STRUCTURE" v="地上"/>
  <tag k="yh:TOTYUMONO" v="供用中"/>
  <tag k="yh:TYPE" v="その他一般道"/>
  <tag k="yh:WIDTH" v="3.0m〜5.5m"/>
  <tag k="yh:WIDTH_RANK" v="3"/>
 </way>
 <way id="120502220" visible="true" version="1" changeset="8645415" timestamp="2011-07-06T07:46:54Z" user="yamasan" uid="32308">
  <nd ref="1351048459"/>
  <nd ref="1351048301"/>
  <tag k="highway" v="unclassified"/>
  <tag k="source" v="YahooJapan/ALPSMAP"/>
  <tag k="yh:STRUCTURE" v="地上"/>
  <tag k="yh:TOTYUMONO" v="供用中"/>
  <tag k="yh:TYPE" v="その他一般道"/>
  <tag k="yh:WIDTH" v="3.0m〜5.5m"/>
  <tag k="yh:WIDTH_RANK" v="3"/>
 </way>
 <way id="120504426" visible="true" version="2" changeset="16444676" timestamp="2013-06-06T12:57:19Z" user="mklyr" uid="614924">
  <nd ref="1351050352"/>
  <nd ref="1351051087"/>
  <tag k="highway" v="tertiary"/>
  <tag k="source" v="YahooJapan/ALPSMAP"/>
  <tag k="yh:WIDTH" v="5.5m〜13.0m"/>
 </way>
 <way id="120505145" visible="true" version="3" changeset="21925467" timestamp="2014-04-25T08:18:05Z" user="mklyr" uid="614924">
  <nd ref="1351049739"/>
  <nd ref="2334395683"/>
  <tag k="highway" v="unclassified"/>
  <tag k="source" v="YahooJapan/ALPSMAP"/>
  <tag k="yh:WIDTH" v="3.0m〜5.5m"/>
 </way>
 <way id="120505915" visible="true" version="4" changeset="69663656" timestamp="2019-04-28T13:22:49Z" user="mklyr" uid="614924">
  <nd ref="1351048474"/>
  <nd ref="1351048749"/>
  <nd ref="2815055032"/>
  <nd ref="1351049739"/>
  <tag k="highway" v="unclassified"/>
  <tag k="source" v="YahooJapan/ALPSMAP"/>
 </way>
 <way id="120506447" visible="true" version="6" changeset="92247147" timestamp="2020-10-09T16:21:59Z" user="mklyr" uid="614924">
  <nd ref="1351048892"/>
  <nd ref="7992747562"/>
  <nd ref="2334395665"/>
  <nd ref="1351049798"/>
  <tag k="highway" v="unclassified"/>
  <tag k="source" v="YahooJapan/ALPSMAP"/>
 </way>
 <way id="120508565" visible="true" version="4" changeset="101863080" timestamp="2021-03-28T07:40:15Z" user="mklyr" uid="614924">
  <nd ref="1351048892"/>
  <nd ref="1351048919"/>
  <nd ref="8568580279"/>
  <nd ref="1351048934"/>
  <nd ref="1351049036"/>
  <nd ref="8568580287"/>
  <tag k="highway" v="unclassified"/>
  <tag k="source" v="YahooJapan/ALPSMAP"/>
 </way>
 <way id="120509392" visible="true" version="3" changeset="21925467" timestamp="2014-04-25T08:18:04Z" user="mklyr" uid="614924">
  <nd ref="1351049871"/>
  <nd ref="2815055045"/>
  <nd ref="2013400592"/>
  <nd ref="1351050064"/>
  <nd ref="1351050299"/>
  <nd ref="1351050561"/>
  <nd ref="1351050662"/>
  <nd ref="1351050776"/>
  <nd ref="1351050913"/>
  <nd ref="1351051048"/>
  <nd ref="1351051203"/>
  <tag k="highway" v="unclassified"/>
  <tag k="source" v="YahooJapan/ALPSMAP"/>
  <tag k="yh:WIDTH" v="3.0m〜5.5m"/>
 </way>
 <way id="120509520" visible="true" version="2" changeset="21925467" timestamp="2014-04-25T08:18:07Z" user="mklyr" uid="614924">
  <nd ref="1351049739"/>
  <nd ref="1351049665"/>
  <nd ref="1351049390"/>
  <nd ref="1351049296"/>
  <nd ref="1351048301"/>
  <tag k="highway" v="unclassified"/>
  <tag k="source" v="YahooJapan/ALPSMAP"/>
  <tag k="yh:WIDTH" v="3.0m〜5.5m"/>
 </way>
 <way id="120509577" visible="true" version="3" changeset="56581186" timestamp="2018-02-22T14:14:42Z" user="mklyr" uid="614924">
  <nd ref="1351048301"/>
  <nd ref="1351047956"/>
  <nd ref="1351047944"/>
  <nd ref="1351047968"/>
  <nd ref="1351048474"/>
  <tag k="highway" v="unclassified"/>
  <tag k="source" v="YahooJapan/ALPSMAP"/>
 </way>
 <way id="224639142" visible="true" version="14" changeset="169801235" timestamp="2025-08-01T07:05:34Z" user="taketaketake" uid="4757277">
  <nd ref="6683532030"/>
  <nd ref="2334395699"/>
  <nd ref="2334395683"/>
  <nd ref="2334395675"/>
  <nd ref="2334395673"/>
  <nd ref="2334395669"/>
  <nd ref="7992747561"/>
  <nd ref="2334395665"/>
  <nd ref="2334395663"/>
  <nd ref="2334395661"/>
  <nd ref="2334395659"/>
  <nd ref="2334395657"/>
  <nd ref="2334395656"/>
  <nd ref="2334395658"/>
  <nd ref="2334395662"/>
  <nd ref="2334395664"/>
  <nd ref="2334395670"/>
  <nd ref="2334395672"/>
  <nd ref="2334395674"/>
  <nd ref="2334424984"/>
  <nd ref="2334395676"/>
  <nd ref="2334395677"/>
  <nd ref="2334395678"/>
  <nd ref="5254099559"/>
  <nd ref="2334395682"/>
  <nd ref="2334395686"/>
  <nd ref="2334395689"/>
  <nd ref="2334395692"/>
  <nd ref="2334395696"/>
  <nd ref="2334395697"/>
  <nd ref="2334395698"/>
  <nd ref="2334395700"/>
  <nd ref="2334395702"/>
  <nd ref="2334395703"/>
  <nd ref="2334395704"/>
  <nd ref="2334395706"/>
  <nd ref="2334395712"/>
  <nd ref="11744989312"/>
  <nd ref="2334395745"/>
  <tag k="est_width" v="5.5m〜13.0m"/>
  <tag k="highway" v="trunk"/>
  <tag k="lanes" v="2"/>
  <tag k="name" v="国道190号"/>
  <tag k="name:en" v="National Highway Route 190"/>
  <tag k="name:ja" v="国道190号"/>
  <tag k="oneway" v="yes"/>
  <tag k="ref" v="190"/>
  <tag k="source" v="YahooJapan/ALPSMAP;GSImaps/std"/>
  <tag k="surface" v="asphalt"/>
 </way>
 <way id="563374340" visible="true" version="1" changeset="56581186" timestamp="2018-02-22T14:14:27Z" user="mklyr" uid="614924">
  <nd ref="1351049390"/>
  <nd ref="1351047968"/>
  <nd ref="5429151811"/>
  <nd ref="1351047205"/>
  <tag k="highway" v="residential"/>
  <tag k="source" v="GSImaps/std"/>
 </way>
 <way id="758479741" visible="true" version="1" changeset="78839241" timestamp="2019-12-25T07:20:29Z" user="mklyr" uid="614924">
  <nd ref="7083557400"/>
  <nd ref="7083557399"/>
  <nd ref="7083557398"/>
  <nd ref="7083557413"/>
  <tag k="highway" v="residential"/>
  <tag k="source" v="GSImaps/std"/>
 </way>
 <way id="758479743" visible="true" version="1" changeset="78839241" timestamp="2019-12-25T07:20:29Z" user="mklyr" uid="614924">
  <nd ref="7083557415"/>
  <nd ref="7083557414"/>
  <nd ref="7083557413"/>
  <nd ref="7083557412"/>
  <nd ref="7083557411"/>
  <nd ref="7083557410"/>
  <nd ref="7083557409"/>
  <nd ref="7083557408"/>
  <nd ref="7083557407"/>
  <nd ref="1351044884"/>
  <nd ref="7083557391"/>
  <nd ref="7083557394"/>
  <nd ref="7083557393"/>
  <nd ref="7083557392"/>
  <tag k="highway" v="unclassified"/>
  <tag k="source" v="GSImaps/std"/>
 </way>
 <way id="923039792" visible="true" version="1" changeset="101863080" timestamp="2021-03-28T07:40:15Z" user="mklyr" uid="614924">
  <nd ref="8568580288"/>
  <nd ref="8568580285"/>
  <nd ref="8568580284"/>
  <nd ref="8568580283"/>
  <nd ref="8568580282"/>
  <nd ref="1351048459"/>
  <tag k="highway" v="residential"/>
  <tag k="source" v="GSImaps/std"/>
 </way>
 <way id="1461783804" visible="true" version="1" changeset="176423684" timestamp="2025-12-26T07:43:04Z" user="hibagonsan" uid="5939709">
  <nd ref="13408193483"/>
  <nd ref="13408193482"/>
  <nd ref="13408193481"/>
  <nd ref="13408193480"/>
  <nd ref="13408193483"/>
  <tag k="building" v="yes"/>
 </way>
 <way id="1461783805" visible="true" version="1" changeset="176423684" timestamp="2025-12-26T07:43:04Z" user="hibagonsan" uid="5939709">
  <nd ref="13408193491"/>
  <nd ref="13408193490"/>
  <nd ref="13408193489"/>
  <nd ref="13408193484"/>
  <nd ref="13408193485"/>
  <nd ref="13408193487"/>
  <nd ref="13408193486"/>
  <nd ref="13408193488"/>
  <nd ref="13408193491"/>
  <tag k="building" v="yes"/>
 </way>
 <way id="1461783853" visible="true" version="1" changeset="176423706" timestamp="2025-12-26T07:43:34Z" user="hibagonsan" uid="5939709">
  <nd ref="13408185472"/>
  <nd ref="13408185469"/>
  <nd ref="13408185468"/>
  <nd ref="13408185467"/>
  <nd ref="13408185470"/>
  <nd ref="13408185464"/>
  <nd ref="13408185463"/>
  <nd ref="13408185471"/>
  <nd ref="13408185465"/>
  <nd ref="13408185466"/>
  <nd ref="13408185472"/>
  <tag k="building" v="yes"/>
 </way>
 <way id="1461783940" visible="true" version="1" changeset="176423742" timestamp="2025-12-26T07:44:49Z" user="hibagonsan" uid="5939709">
  <nd ref="13408217802"/>
  <nd ref="13408158899"/>
  <nd ref="13408158900"/>
  <nd ref="13408217801"/>
  <nd ref="13408217802"/>
  <tag k="building" v="yes"/>
 </way>
 <relation id="8857556" visible="true" version="166" changeset="185171745" timestamp="2026-07-06T02:54:07Z" user="okadatsuneo_import" uid="12352917">
  <member type="relation" ref="32989" role=""/>
  <member type="relation" ref="2064722" role=""/>
  <member type="relation" ref="2061678" role=""/>
  <member type="relation" ref="416684" role=""/>
  <member type="relation" ref="33009" role=""/>
  <member type="relation" ref="1521225" role=""/>
  <member type="relation" ref="2069116" role=""/>
  <member type="relation" ref="8589620" role=""/>
  <member type="relation" ref="2076294" role=""/>
  <member type="relation" ref="2082723" role=""/>
  <member type="relation" ref="12579" role=""/>
  <member type="relation" ref="2097432" role=""/>
  <member type="relation" ref="2098597" role=""/>
  <member type="relation" ref="2098903" role=""/>
  <member type="relation" ref="2107249" role=""/>
  <member type="relation" ref="18187" role=""/>
  <member type="relation" ref="2150021" role=""/>
  <member type="relation" ref="964698" role=""/>
  <member type="relation" ref="964699" role=""/>
  <member type="relation" ref="21087" role=""/>
  <member type="relation" ref="905615" role=""/>
  <member type="relation" ref="2191283" role=""/>
  <member type="relation" ref="8549439" role=""/>
  <member type="relation" ref="2281186" role=""/>
  <member type="relation" ref="1247317" role=""/>
  <member type="relation" ref="2283740" role=""/>
  <member type="relation" ref="2578411" role=""/>
  <member type="relation" ref="12592" role=""/>
  <member type="relation" ref="2773842" role=""/>
  <member type="relation" ref="59477" role=""/>
  <member type="relation" ref="1957766" role=""/>
  <member type="relation" ref="12585" role=""/>
  <member type="relation" ref="149017" role=""/>
  <member type="relation" ref="2829210" role=""/>
  <member type="relation" ref="2829437" role=""/>
  <member type="relation" ref="130867" role=""/>
  <member type="relation" ref="33017" role=""/>
  <member type="relation" ref="2863336" role=""/>
  <member type="relation" ref="2864639" role=""/>
  <member type="relation" ref="2865301" role=""/>
  <member type="relation" ref="31351" role=""/>
  <member type="relation" ref="2877152" role=""/>
  <member type="relation" ref="2878993" role=""/>
  <member type="relation" ref="2885462" role=""/>
  <member type="relation" ref="2887904" role=""/>
  <member type="relation" ref="443923" role=""/>
  <member type="relation" ref="2938281" role=""/>
  <member type="relation" ref="2938900" role=""/>
  <member type="relation" ref="2939533" role=""/>
  <member type="relation" ref="2954632" role=""/>
  <member type="relation" ref="6903690" role=""/>
  <member type="relation" ref="2957016" role=""/>
  <member type="relation" ref="2957132" role=""/>
  <member type="relation" ref="2957976" role=""/>
  <member type="relation" ref="12583" role=""/>
  <member type="relation" ref="12584" role=""/>
  <member type="relation" ref="2971983" role=""/>
  <member type="relation" ref="2972065" role=""/>
  <member type="relation" ref="2974952" role=""/>
  <member type="relation" ref="2975092" role=""/>
  <member type="relation" ref="2988615" role=""/>
  <member type="relation" ref="3066227" role=""/>
  <member type="relation" ref="2937948" role=""/>
  <member type="relation" ref="3066928" role=""/>
  <member type="relation" ref="3069619" role=""/>
  <member type="relation" ref="3118577" role=""/>
  <member type="relation" ref="3118835" role=""/>
  <member type="relation" ref="3128401" role=""/>
  <member type="relation" ref="3128448" role=""/>
  <member type="relation" ref="3129175" role=""/>
  <member type="relation" ref="3132634" role=""/>
  <member type="relation" ref="965403" role=""/>
  <member type="relation" ref="3189380" role=""/>
  <member type="relation" ref="3217184" role=""/>
  <member type="relation" ref="3217302" role=""/>
  <member type="relation" ref="3218039" role=""/>
  <member type="relation" ref="3248776" role=""/>
  <member type="relation" ref="3262076" role=""/>
  <member type="relation" ref="6604490" role=""/>
  <member type="relation" ref="9002996" role=""/>
  <member type="relation" ref="9066606" role=""/>
  <member type="relation" ref="9066742" role=""/>
  <member type="relation" ref="9069158" role=""/>
  <member type="relation" ref="3846566" role=""/>
  <member type="relation" ref="3767038" role=""/>
  <member type="relation" ref="3773599" role=""/>
  <member type="relation" ref="2665187" role=""/>
  <member type="relation" ref="3770942" role=""/>
  <member type="relation" ref="31118" role=""/>
  <member type="relation" ref="3639261" role=""/>
  <member type="relation" ref="8822215" role=""/>
  <member type="relation" ref="3908565" role=""/>
  <member type="relation" ref="3908696" role=""/>
  <member type="relation" ref="8842101" role=""/>
  <member type="relation" ref="8980964" role=""/>
  <member type="relation" ref="965538" role=""/>
  <member type="relation" ref="6518912" role=""/>
  <member type="relation" ref="2124106" role=""/>
  <member type="relation" ref="965533" role=""/>
  <member type="relation" ref="7438376" role=""/>
  <member type="relation" ref="3846790" role=""/>
  <member type="relation" ref="2104795" role=""/>
  <member type="relation" ref="3862939" role=""/>
  <member type="relation" ref="3770972" role=""/>
  <member type="relation" ref="8843661" role=""/>
  <member type="relation" ref="8475141" role=""/>
  <member type="relation" ref="53798" role=""/>
  <member type="relation" ref="3527405" role=""/>
  <member type="relation" ref="3786290" role=""/>
  <member type="relation" ref="8438979" role=""/>
  <member type="relation" ref="8519028" role=""/>
  <member type="relation" ref="8546711" role=""/>
  <member type="relation" ref="31352" role=""/>
  <member type="relation" ref="8634030" role=""/>
  <member type="relation" ref="8643289" role=""/>
  <member type="relation" ref="8730413" role=""/>
  <member type="relation" ref="8602705" role=""/>
  <member type="relation" ref="8376126" role=""/>
  <member type="relation" ref="3771120" role=""/>
  <member type="relation" ref="8360680" role=""/>
  <member type="relation" ref="8798843" role=""/>
  <member type="relation" ref="8253434" role=""/>
  <member type="relation" ref="8338767" role=""/>
  <member type="relation" ref="7790754" role=""/>
  <member type="relation" ref="8810155" role=""/>
  <member type="relation" ref="9316269" role=""/>
  <member type="relation" ref="3786705" role=""/>
  <member type="relation" ref="8814743" role=""/>
  <member type="relation" ref="3767143" role=""/>
  <member type="relation" ref="9349690" role=""/>
  <member type="relation" ref="8812592" role=""/>
  <member type="relation" ref="3767309" role=""/>
  <member type="relation" ref="8385407" role=""/>
  <member type="relation" ref="8385532" role=""/>
  <member type="relation" ref="7757831" role=""/>
  <member type="relation" ref="7756814" role=""/>
  <member type="relation" ref="8386008" role=""/>
  <member type="relation" ref="3500263" role=""/>
  <member type="relation" ref="9385077" role=""/>
  <member type="relation" ref="1282122" role=""/>
  <member type="relation" ref="4544619" role=""/>
  <member type="relation" ref="4165287" role=""/>
  <member type="relation" ref="3717459" role=""/>
  <member type="relation" ref="3771004" role=""/>
  <member type="relation" ref="9400756" role=""/>
  <member type="relation" ref="3904021" role=""/>
  <member type="relation" ref="12586" role=""/>
  <member type="relation" ref="12893" role=""/>
  <member type="relation" ref="149016" role=""/>
  <member type="relation" ref="12582" role=""/>
  <member type="relation" ref="9444474" role=""/>
  <member type="relation" ref="65441" role=""/>
  <member type="relation" ref="9483543" role=""/>
  <member type="relation" ref="9483646" role=""/>
  <member type="relation" ref="9491583" role=""/>
  <member type="relation" ref="7106297" role=""/>
  <member type="relation" ref="9361964" role=""/>
  <member type="relation" ref="9361958" role=""/>
  <member type="relation" ref="9364398" role=""/>
  <member type="relation" ref="9361965" role=""/>
  <member type="relation" ref="9364395" role=""/>
  <member type="relation" ref="9364399" role=""/>
  <member type="relation" ref="9361957" role=""/>
  <member type="relation" ref="9364404" role=""/>
  <member type="relation" ref="9592451" role=""/>
  <member type="relation" ref="9578522" role=""/>
  <member type="relation" ref="9608067" role=""/>
  <member type="relation" ref="6966370" role=""/>
  <member type="relation" ref="9659817" role=""/>
  <member type="relation" ref="9627337" role=""/>
  <member type="relation" ref="9633190" role=""/>
  <member type="relation" ref="9702108" role=""/>
  <member type="relation" ref="9651112" role=""/>
  <member type="relation" ref="9712245" role=""/>
  <member type="relation" ref="9669415" role=""/>
  <member type="relation" ref="3787044" role=""/>
  <member type="relation" ref="9680900" role=""/>
  <member type="relation" ref="9684360" role=""/>
  <member type="relation" ref="33010" role=""/>
  <member type="relation" ref="6585224" role=""/>
  <member type="relation" ref="6595831" role=""/>
  <member type="relation" ref="6584912" role=""/>
  <member type="relation" ref="6596139" role=""/>
  <member type="relation" ref="6612480" role=""/>
  <member type="relation" ref="6596367" role=""/>
  <member type="relation" ref="6601904" role=""/>
  <member type="relation" ref="6624769" role=""/>
  <member type="relation" ref="6626645" role=""/>
  <member type="relation" ref="2883869" role=""/>
  <member type="relation" ref="6621211" role=""/>
  <member type="relation" ref="6612481" role=""/>
  <member type="relation" ref="6641475" role=""/>
  <member type="relation" ref="6632428" role=""/>
  <member type="relation" ref="6639503" role=""/>
  <member type="relation" ref="6641549" role=""/>
  <member type="relation" ref="6645422" role=""/>
  <member type="relation" ref="5431055" role=""/>
  <member type="relation" ref="30840" role=""/>
  <member type="relation" ref="8466396" role=""/>
  <member type="relation" ref="8472959" role=""/>
  <member type="relation" ref="8903572" role=""/>
  <member type="relation" ref="9864624" role=""/>
  <member type="relation" ref="9365397" role=""/>
  <member type="relation" ref="6647077" role=""/>
  <member type="relation" ref="8197220" role=""/>
  <member type="relation" ref="1020657" role=""/>
  <member type="relation" ref="3639021" role=""/>
  <member type="relation" ref="1192346" role=""/>
  <member type="relation" ref="3521034" role=""/>
  <member type="relation" ref="8319600" role=""/>
  <member type="relation" ref="8421608" role=""/>
  <member type="relation" ref="8255454" role=""/>
  <member type="relation" ref="8171702" role=""/>
  <member type="relation" ref="9882017" role=""/>
  <member type="relation" ref="9361997" role=""/>
  <member type="relation" ref="9361995" role=""/>
  <member type="relation" ref="9621534" role=""/>
  <member type="relation" ref="9577579" role=""/>
  <member type="relation" ref="9662836" role=""/>
  <member type="relation" ref="9637071" role=""/>
  <member type="relation" ref="9706190" role=""/>
  <member type="relation" ref="9678094" role=""/>
  <member type="relation" ref="34190" role=""/>
  <member type="relation" ref="6651341" role=""/>
  <member type="relation" ref="6632429" role=""/>
  <member type="relation" ref="6651380" role=""/>
  <member type="relation" ref="6607033" role=""/>
  <member type="relation" ref="33018" role=""/>
  <member type="relation" ref="6594495" role=""/>
  <member type="relation" ref="3842394" role=""/>
  <member type="relation" ref="7346573" role=""/>
  <member type="relation" ref="6594518" role=""/>
  <member type="relation" ref="9230437" role=""/>
  <member type="relation" ref="6583464" role=""/>
  <member type="relation" ref="9220015" role=""/>
  <member type="relation" ref="947961" role=""/>
  <member type="relation" ref="6743360" role=""/>
  <member type="relation" ref="9389808" role=""/>
  <member type="relation" ref="9387618" role=""/>
  <member type="relation" ref="9095602" role=""/>
  <member type="relation" ref="6334848" role=""/>
  <member type="relation" ref="6519669" role=""/>
  <member type="relation" ref="6608790" role=""/>
  <member type="relation" ref="7920696" role=""/>
  <member type="relation" ref="6646894" role=""/>
  <member type="relation" ref="49515" role=""/>
  <member type="relation" ref="9842733" role=""/>
  <member type="relation" ref="9885666" role=""/>
  <member type="relation" ref="10259311" role=""/>
  <member type="relation" ref="10481824" role=""/>
  <member type="relation" ref="53796" role=""/>
  <member type="relation" ref="8839514" role=""/>
  <member type="relation" ref="3518585" role=""/>
  <member type="relation" ref="8512559" role=""/>
  <member type="relation" ref="8547309" role=""/>
  <member type="relation" ref="8901184" role=""/>
  <member type="relation" ref="8606655" role=""/>
  <member type="relation" ref="8330838" role=""/>
  <member type="relation" ref="6097291" role=""/>
  <member type="relation" ref="3947962" role=""/>
  <member type="relation" ref="6114814" role=""/>
  <member type="relation" ref="8770279" role=""/>
  <member type="relation" ref="7803946" role=""/>
  <member type="relation" ref="10015101" role=""/>
  <member type="relation" ref="8780413" role=""/>
  <member type="relation" ref="9226628" role=""/>
  <member type="relation" ref="1113900" role=""/>
  <member type="relation" ref="9878286" role=""/>
  <member type="relation" ref="9842064" role=""/>
  <member type="relation" ref="12886" role=""/>
  <member type="relation" ref="31661" role=""/>
  <member type="relation" ref="1061405" role=""/>
  <member type="relation" ref="9732500" role=""/>
  <member type="relation" ref="9566443" role=""/>
  <member type="relation" ref="9364401" role=""/>
  <member type="relation" ref="2360722" role=""/>
  <member type="relation" ref="9600043" role=""/>
  <member type="relation" ref="9655888" role=""/>
  <member type="relation" ref="9644147" role=""/>
  <member type="relation" ref="9674712" role=""/>
  <member type="relation" ref="10535240" role=""/>
  <member type="relation" ref="10997961" role=""/>
  <member type="relation" ref="3771097" role=""/>
  <member type="relation" ref="3771098" role=""/>
  <member type="relation" ref="6634560" role=""/>
  <member type="relation" ref="6649220" role=""/>
  <member type="relation" ref="6651324" role=""/>
  <member type="relation" ref="13970524" role=""/>
  <member type="relation" ref="6626646" role=""/>
  <member type="relation" ref="6604372" role=""/>
  <member type="relation" ref="33014" role=""/>
  <member type="relation" ref="195249" role=""/>
  <member type="relation" ref="7259555" role=""/>
  <member type="relation" ref="5385850" role=""/>
  <member type="relation" ref="7462562" role=""/>
  <member type="relation" ref="572350" role=""/>
  <member type="relation" ref="6649827" role=""/>
  <member type="relation" ref="9145802" role=""/>
  <member type="relation" ref="9167558" role=""/>
  <member type="relation" ref="9246031" role=""/>
  <member type="relation" ref="9384961" role=""/>
  <member type="relation" ref="6603804" role=""/>
  <member type="relation" ref="8660479" role=""/>
  <member type="relation" ref="8705812" role=""/>
  <member type="relation" ref="6357795" role=""/>
  <member type="relation" ref="2888579" role=""/>
  <member type="relation" ref="3644591" role=""/>
  <member type="relation" ref="13766033" role=""/>
  <member type="relation" ref="5347303" role=""/>
  <member type="relation" ref="3836968" role=""/>
  <member type="relation" ref="8250033" role=""/>
  <member type="relation" ref="8630931" role=""/>
  <member type="relation" ref="6518158" role=""/>
  <member type="relation" ref="3518586" role=""/>
  <member type="relation" ref="8507094" role=""/>
  <member type="relation" ref="8624536" role=""/>
  <member type="relation" ref="8330502" role=""/>
  <member type="relation" ref="8468445" role=""/>
  <member type="relation" ref="8736759" role=""/>
  <member type="relation" ref="8344320" role=""/>
  <member type="relation" ref="8346167" role=""/>
  <member type="relation" ref="8547781" role=""/>
  <member type="relation" ref="8778351" role=""/>
  <member type="relation" ref="8819316" role=""/>
  <member type="relation" ref="8428316" role=""/>
  <member type="relation" ref="10036652" role=""/>
  <member type="relation" ref="7521547" role=""/>
  <member type="relation" ref="9889643" role=""/>
  <member type="relation" ref="36203" role=""/>
  <member type="relation" ref="9727705" role=""/>
  <member type="relation" ref="9760336" role=""/>
  <member type="relation" ref="1061406" role=""/>
  <member type="relation" ref="9734691" role=""/>
  <member type="relation" ref="9364397" role=""/>
  <member type="relation" ref="9525476" role=""/>
  <member type="relation" ref="9365392" role=""/>
  <member type="relation" ref="9364403" role=""/>
  <member type="relation" ref="9581384" role=""/>
  <member type="relation" ref="9615824" role=""/>
  <member type="relation" ref="9648379" role=""/>
  <member type="relation" ref="9365391" role=""/>
  <member type="relation" ref="9849119" role=""/>
  <member type="relation" ref="6645423" role=""/>
  <member type="relation" ref="6653406" role=""/>
  <member type="relation" ref="6596106" role=""/>
  <member type="relation" ref="9301437" role=""/>
  <member type="relation" ref="9231531" role=""/>
  <member type="relation" ref="446121" role=""/>
  <member type="relation" ref="7901019" role=""/>
  <member type="relation" ref="6012803" role=""/>
  <member type="relation" ref="6594184" role=""/>
  <member type="relation" ref="5425459" role=""/>
  <member type="relation" ref="6491957" role=""/>
  <member type="relation" ref="8907070" role=""/>
  <member type="relation" ref="1017048" role=""/>
  <member type="relation" ref="8705506" role=""/>
  <member type="relation" ref="6518913" role=""/>
  <member type="relation" ref="4085924" role=""/>
  <member type="relation" ref="7021581" role=""/>
  <member type="relation" ref="7418329" role=""/>
  <member type="relation" ref="33003" role=""/>
  <member type="relation" ref="9889615" role=""/>
  <member type="relation" ref="8855535" role=""/>
  <member type="relation" ref="2162634" role=""/>
  <member type="relation" ref="3908697" role=""/>
  <member type="relation" ref="8824623" role=""/>
  <member type="relation" ref="8648367" role=""/>
  <member type="relation" ref="8616846" role=""/>
  <member type="relation" ref="8549720" role=""/>
  <member type="relation" ref="3524706" role=""/>
  <member type="relation" ref="8456817" role=""/>
  <member type="relation" ref="3527404" role=""/>
  <member type="relation" ref="8319621" role=""/>
  <member type="relation" ref="8346063" role=""/>
  <member type="relation" ref="8820384" role=""/>
  <member type="relation" ref="8788010" role=""/>
  <member type="relation" ref="3791425" role=""/>
  <member type="relation" ref="9999040" role=""/>
  <member type="relation" ref="9977958" role=""/>
  <member type="relation" ref="8821725" role=""/>
  <member type="relation" ref="9225568" role=""/>
  <member type="relation" ref="2789281" role=""/>
  <member type="relation" ref="1181630" role=""/>
  <member type="relation" ref="9869305" role=""/>
  <member type="relation" ref="572119" role=""/>
  <member type="relation" ref="9846585" role=""/>
  <member type="relation" ref="12873" role=""/>
  <member type="relation" ref="12591" role=""/>
  <member type="relation" ref="9743152" role=""/>
  <member type="relation" ref="9740226" role=""/>
  <member type="relation" ref="9604654" role=""/>
  <member type="relation" ref="9668498" role=""/>
  <member type="relation" ref="9663861" role=""/>
  <member type="relation" ref="9717721" role=""/>
  <member type="relation" ref="13766030" role=""/>
  <member type="relation" ref="6601928" role=""/>
  <member type="relation" ref="6605962" role=""/>
  <member type="relation" ref="6601896" role=""/>
  <member type="relation" ref="3317036" role=""/>
  <member type="relation" ref="416686" role=""/>
  <member type="relation" ref="446122" role=""/>
  <member type="relation" ref="9156540" role=""/>
  <member type="relation" ref="9383269" role=""/>
  <member type="relation" ref="7240653" role=""/>
  <member type="relation" ref="8725735" role=""/>
  <member type="relation" ref="5450521" role=""/>
  <member type="relation" ref="9028205" role=""/>
  <member type="relation" ref="11621854" role=""/>
  <member type="relation" ref="37650" role=""/>
  <member type="relation" ref="2695918" role=""/>
  <member type="relation" ref="8838236" role=""/>
  <member type="relation" ref="3948024" role=""/>
  <member type="relation" ref="3796161" role=""/>
  <member type="relation" ref="3796341" role=""/>
  <member type="relation" ref="3519913" role=""/>
  <member type="relation" ref="2168363" role=""/>
  <member type="relation" ref="7492744" role=""/>
  <member type="relation" ref="8596419" role=""/>
  <member type="relation" ref="7417266" role=""/>
  <member type="relation" ref="7722594" role=""/>
  <member type="relation" ref="10040102" role=""/>
  <member type="relation" ref="8784852" role=""/>
  <member type="relation" ref="3786630" role=""/>
  <member type="relation" ref="8372093" role=""/>
  <member type="relation" ref="7331065" role=""/>
  <member type="relation" ref="9994456" role=""/>
  <member type="relation" ref="9473486" role=""/>
  <member type="relation" ref="9918288" role=""/>
  <member type="relation" ref="5525014" role=""/>
  <member type="relation" ref="4544688" role=""/>
  <member type="relation" ref="9893745" role=""/>
  <member type="relation" ref="4452065" role=""/>
  <member type="relation" ref="9874325" role=""/>
  <member type="relation" ref="36085" role=""/>
  <member type="relation" ref="31622" role=""/>
  <member type="relation" ref="1597628" role=""/>
  <member type="relation" ref="9500290" role=""/>
  <member type="relation" ref="9584945" role=""/>
  <member type="relation" ref="9361963" role=""/>
  <member type="relation" ref="9364396" role=""/>
  <member type="relation" ref="9365393" role=""/>
  <member type="relation" ref="9586987" role=""/>
  <member type="relation" ref="9593068" role=""/>
  <member type="relation" ref="9623424" role=""/>
  <member type="relation" ref="9852047" role=""/>
  <member type="relation" ref="9671641" role=""/>
  <member type="relation" ref="10548190" role=""/>
  <member type="relation" ref="8063894" role=""/>
  <member type="relation" ref="10387581" role=""/>
  <member type="relation" ref="12079873" role=""/>
  <member type="relation" ref="9570519" role=""/>
  <tag k="name" v="日本の一般国道"/>
  <tag k="name:af" v="Nasionale snelweë van Japan"/>
  <tag k="name:en" v="National Highway of Japan"/>
  <tag k="name:es" v="Ruta nacional de Japón"/>
  <tag k="name:fr" v="Routes nationales du Japon"/>
  <tag k="name:ja" v="日本の一般国道"/>
  <tag k="name:ja-Hira" v="にっぽん の いっぱん こくどう"/>
  <tag k="name:ja-Latn" v="Nihon no ippan kokudō"/>
  <tag k="name:ko" v="일본의 일반 국도"/>
  <tag k="name:ru" v="Японские национальные дороги"/>
  <tag k="name:zh-Hans" v="日本一般国道"/>
  <tag k="name:zh-Hant" v="日本一般國道"/>
  <tag k="network" v="JP:national"/>
  <tag k="route_master" v="road"/>
  <tag k="type" v="route_master"/>
  <tag k="wikidata" v="Q926383"/>
  <tag k="wikimedia_commons" v="Category:National highways of Japan"/>
  <tag k="wikipedia" v="ja:一般国道"/>
 </relation>
 <relation id="9400756" visible="true" version="36" changeset="188702677" timestamp="2026-09-08T05:09:23Z" user="taketaketake" uid="4757277">
  <member type="way" ref="119979115" role="forward"/>
  <member type="way" ref="119975732" role=""/>
  <member type="way" ref="1133352259" role=""/>
  <member type="way" ref="119973819" role=""/>
  <member type="way" ref="119973803" role=""/>
  <member type="way" ref="119973938" role=""/>
  <member type="way" ref="119974138" role=""/>
  <member type="way" ref="119973413" role=""/>
  <member type="way" ref="1420290172" role=""/>
  <member type="way" ref="1420290171" role=""/>
  <member type="way" ref="119973531" role=""/>
  <member type="way" ref="119976530" role=""/>
  <member type="way" ref="119973400" role=""/>
  <member type="way" ref="119975801" role=""/>
  <member type="way" ref="119973771" role=""/>
  <member type="way" ref="119974627" role=""/>
  <member type="way" ref="120498928" role=""/>
  <member type="way" ref="684353142" role=""/>
  <member type="way" ref="120498697" role=""/>
  <member type="way" ref="682870885" role=""/>
  <member type="way" ref="120498958" role=""/>
  <member type="way" ref="1275411876" role=""/>
  <member type="way" ref="120498813" role=""/>
  <member type="way" ref="677207843" role=""/>
  <member type="way" ref="332618240" role=""/>
  <member type="way" ref="120498801" role=""/>
  <member type="way" ref="120498705" role=""/>
  <member type="way" ref="120498802" role=""/>
  <member type="way" ref="1266582163" role="forward"/>
  <member type="way" ref="120498803" role="forward"/>
  <member type="way" ref="224701716" role="forward"/>
  <member type="way" ref="120498814" role="forward"/>
  <member type="way" ref="120498835" role="forward"/>
  <member type="way" ref="120498812" role="forward"/>
  <member type="way" ref="120498865" role="forward"/>
  <member type="way" ref="99270651" role="forward"/>
  <member type="way" ref="321781460" role="forward"/>
  <member type="way" ref="189476373" role="forward"/>
  <member type="way" ref="189476375" role="forward"/>
  <member type="way" ref="359302598" role="forward"/>
  <member type="way" ref="190680191" role="forward"/>
  <member type="way" ref="120498766" role="forward"/>
  <member type="way" ref="568590869" role="forward"/>
  <member type="way" ref="343115086" role="forward"/>
  <member type="way" ref="224640569" role="forward"/>
  <member type="way" ref="120498775" role="forward"/>
  <member type="way" ref="120498717" role="forward"/>
  <member type="way" ref="120498685" role="forward"/>
  <member type="way" ref="120498837" role="forward"/>
  <member type="way" ref="120498771" role="forward"/>
  <member type="way" ref="120498834" role="forward"/>
  <member type="way" ref="120498709" role="forward"/>
  <member type="way" ref="343115050" role="forward"/>
  <member type="way" ref="120498832" role="forward"/>
  <member type="way" ref="120498732" role="forward"/>
  <member type="way" ref="120498725" role="forward"/>
  <member type="way" ref="551380089" role="forward"/>
  <member type="way" ref="120498763" role="forward"/>
  <member type="way" ref="574378081" role="forward"/>
  <member type="way" ref="710895576" role="forward"/>
  <member type="way" ref="120498686" role="forward"/>
  <member type="way" ref="120611308" role="forward"/>
  <member type="way" ref="549573480" role="forward"/>
  <member type="way" ref="120611326" role="forward"/>
  <member type="way" ref="224639142" role="forward"/>
  <member type="way" ref="710895574" role="forward"/>
  <member type="way" ref="561578871" role="forward"/>
  <member type="way" ref="224639140" role="forward"/>
  <member type="way" ref="224639153" role="forward"/>
  <member type="way" ref="224639138" role="forward"/>
  <member type="way" ref="224639148" role="forward"/>
  <member type="way" ref="224639135" role="forward"/>
  <member type="way" ref="224639151" role="forward"/>
  <member type="way" ref="224639136" role="forward"/>
  <member type="way" ref="224639147" role="forward"/>
  <member type="way" ref="224639134" role="forward"/>
  <member type="way" ref="224639149" role="forward"/>
  <member type="way" ref="224639139" role="forward"/>
  <member type="way" ref="224639133" role="forward"/>
  <member type="way" ref="224639137" role="forward"/>
  <member type="way" ref="552582736" role="forward"/>
  <member type="way" ref="120498912" role="forward"/>
  <member type="way" ref="99270640" role="forward"/>
  <member type="way" ref="710853761" role="forward"/>
  <member type="way" ref="710853760" role="forward"/>
  <member type="way" ref="359302592" role="forward"/>
  <member type="way" ref="189476374" role="forward"/>
  <member type="way" ref="189476372" role="forward"/>
  <member type="way" ref="224701722" role="forward"/>
  <member type="way" ref="224701710" role="forward"/>
  <member type="way" ref="224701721" role="forward"/>
  <member type="way" ref="224701712" role="forward"/>
  <member type="way" ref="224701725" role="forward"/>
  <member type="way" ref="224701718" role="forward"/>
  <member type="way" ref="224701723" role="forward"/>
  <member type="way" ref="224701726" role="forward"/>
  <member type="way" ref="120611338" role=""/>
  <member type="way" ref="549573478" role=""/>
  <member type="way" ref="120611320" role=""/>
  <member type="way" ref="120611306" role=""/>
  <member type="way" ref="120611294" role=""/>
  <member type="way" ref="120611339" role=""/>
  <member type="way" ref="120611264" role=""/>
  <member type="way" ref="120611298" role=""/>
  <member type="way" ref="120611280" role=""/>
  <member type="way" ref="120611346" role=""/>
  <member type="way" ref="120611265" role="forward"/>
  <member type="way" ref="677207871" role="forward"/>
  <member type="way" ref="677207870" role="forward"/>
  <member type="way" ref="120611307" role="forward"/>
  <member type="way" ref="1427262013" role="forward"/>
  <member type="way" ref="1427262014" role=""/>
  <member type="way" ref="120611333" role="forward"/>
  <member type="way" ref="120611315" role="forward"/>
  <member type="way" ref="677207867" role="forward"/>
  <member type="way" ref="677207866" role="forward"/>
  <member type="way" ref="120611254" role="forward"/>
  <member type="way" ref="120611270" role=""/>
  <member type="way" ref="189616178" role=""/>
  <member type="way" ref="120611268" role=""/>
  <member type="way" ref="711000525" role=""/>
  <member type="way" ref="120611291" role=""/>
  <member type="way" ref="120611262" role=""/>
  <member type="way" ref="120611257" role=""/>
  <member type="way" ref="120611281" role=""/>
  <member type="way" ref="120611263" role=""/>
  <member type="way" ref="120611373" role=""/>
  <member type="way" ref="120611364" role=""/>
  <member type="way" ref="120611357" role=""/>
  <member type="way" ref="120611387" role=""/>
  <member type="way" ref="120611375" role=""/>
  <member type="way" ref="120781126" role="forward"/>
  <member type="way" ref="1442053727" role="forward"/>
  <member type="way" ref="120781119" role="forward"/>
  <member type="way" ref="1257656786" role="forward"/>
  <member type="way" ref="343115096" role="forward"/>
  <tag k="colour" v="red"/>
  <tag k="from" v="山口県山口市"/>
  <tag k="name" v="国道190号"/>
  <tag k="name:en" v="National Highway Route 190"/>
  <tag k="name:ja" v="国道190号"/>
  <tag k="name:ja-Hira" v="こくどうひゃくきゅうじゅうごう"/>
  <tag k="name:ja-Latn" v="Kokudo 190 Gou"/>
  <tag k="network" v="JP:national"/>
  <tag k="official_name" v="一般国道190号"/>
  <tag k="ref" v="190"/>
  <tag k="route" v="road"/>
  <tag k="to" v="山口県山陽小野田市"/>
  <tag k="type" v="route"/>
  <tag k="wikidata" v="Q6156897"/>
  <tag k="wikipedia" v="ja:国道190号"/>
 </relation>
 <relation id="9400757" visible="true" version="2" changeset="73223619" timestamp="2019-08-10T15:39:21Z" user="nakaovic" uid="550181">
  <member type="relation" ref="9400756" role=""/>
  <member type="relation" ref="9400755" role=""/>
  <member type="relation" ref="9400754" role=""/>
  <tag k="name" v="国道190号"/>
  <tag k="network" v="JP:national"/>
  <tag k="ref" v="190"/>
  <tag k="route_master" v="road"/>
  <tag k="type" v="route_master"/>
  <tag k="wikidata" v="Q6156897"/>
  <tag k="wikipedia" v="ja:国道190号"/>
 </relation>
</osm>
