<?xml version="1.0" encoding="UTF-8"?>
<osm version="0.6" generator="openstreetmap-cgimap 2.1.0 (2942787 spike-08.openstreetmap.org)" copyright="OpenStreetMap and contributors" attribution="http://www.openstreetmap.org/copyright" license="http://opendatacommons.org/licenses/odbl/1-0/">
 <bounds minlat="34.0881332" minlon="132.1727526" maxlat="34.0905832" maxlon="132.1757526"/>
 <node id="748915936" visible="true" version="2" changeset="122996402" timestamp="2022-06-29T10:47:48Z" user="AYAGE" uid="521665" lat="34.0912059" lon="132.1754178"/>
 <node id="748970118" visible="true" version="2" changeset="122996402" timestamp="2022-06-29T10:47:48Z" user="AYAGE" uid="521665" lat="34.0884060" lon="132.1738970"/>
 <node id="748996287" visible="true" version="2" changeset="122996402" timestamp="2022-06-29T10:47:48Z" user="AYAGE" uid="521665" lat="34.0907724" lon="132.1748934"/>
 <node id="749037120" visible="true" version="2" changeset="122996402" timestamp="2022-06-29T10:47:48Z" user="AYAGE" uid="521665" lat="34.0891795" lon="132.1743227"/>
 <node id="749073814" visible="true" version="2" changeset="122996402" timestamp="2022-06-29T10:47:48Z" user="AYAGE" uid="521665" lat="34.0914611" lon="132.1758700"/>
 <node id="749091259" visible="true" version="2" changeset="122996402" timestamp="2022-06-29T10:47:48Z" user="AYAGE" uid="521665" lat="34.0911177" lon="132.1751652"/>
 <node id="749139971" visible="true" version="2" changeset="122996402" timestamp="2022-06-29T10:47:48Z" user="AYAGE" uid="521665" lat="34.0887410" lon="132.1742338"/>
 <node id="749149119" visible="true" version="2" changeset="122996402" timestamp="2022-06-29T10:47:48Z" user="AYAGE" uid="521665" lat="34.0916119" lon="132.1759533"/>
 <node id="749175562" visible="true" version="2" changeset="122996402" timestamp="2022-06-29T10:47:48Z" user="AYAGE" uid="521665" lat="34.0877642" lon="132.1732667"/>
 <node id="749212943" visible="true" version="2" changeset="122996402" timestamp="2022-06-29T10:47:48Z" user="AYAGE" uid="521665" lat="34.0902049" lon="132.1744728"/>
 <node id="749247609" visible="true" version="2" changeset="122996402" timestamp="2022-06-29T10:47:48Z" user="AYAGE" uid="521665" lat="34.0889365" lon="132.1742590"/>
 <node id="749294655" visible="true" version="2" changeset="122996402" timestamp="2022-06-29T10:47:48Z" user="AYAGE" uid="521665" lat="34.0912606" lon="132.1756695"/>
 <node id="749361222" visible="true" version="1" changeset="4814433" timestamp="2010-05-26T16:30:05Z" user="Tom_G3X" uid="146930" lat="34.0884930" lon="132.1739860"/>
 <node id="749400094" visible="true" version="1" changeset="4814433" timestamp="2010-05-26T16:39:51Z" user="Tom_G3X" uid="146930" lat="34.0873320" lon="132.1727040"/>
 <node id="749433257" visible="true" version="2" changeset="122996402" timestamp="2022-06-29T10:47:48Z" user="AYAGE" uid="521665" lat="34.0894093" lon="132.1744330"/>
 <node id="749549651" visible="true" version="2" changeset="122996402" timestamp="2022-06-29T10:47:48Z" user="AYAGE" uid="521665" lat="34.0911632" lon="132.1752505"/>
 <node id="749628380" visible="true" version="1" changeset="4815008" timestamp="2010-05-26T17:50:53Z" user="Tom_G3X" uid="146930" lat="34.0880990" lon="132.1734610"/>
 <node id="749677284" visible="true" version="2" changeset="122996402" timestamp="2022-06-29T10:47:48Z" user="AYAGE" uid="521665" lat="34.0904653" lon="132.1746632"/>
 <node id="749720498" visible="true" version="2" changeset="122996402" timestamp="2022-06-29T10:47:48Z" user="AYAGE" uid="521665" lat="34.0890676" lon="132.1742865"/>
 <node id="749772755" visible="true" version="1" changeset="4815008" timestamp="2010-05-26T18:45:17Z" user="Tom_G3X" uid="146930" lat="34.0912950" lon="132.1757430"/>
 <node id="749788692" visible="true" version="2" changeset="122996402" timestamp="2022-06-29T10:47:48Z" user="AYAGE" uid="521665" lat="34.0910324" lon="132.1750838"/>
 <node id="749810262" visible="true" version="2" changeset="122996402" timestamp="2022-06-29T10:47:48Z" user="AYAGE" uid="521665" lat="34.0886439" lon="132.1741556"/>
 <node id="749832300" visible="true" version="1" changeset="4815758" timestamp="2010-05-26T19:17:23Z" user="Tom_G3X" uid="146930" lat="34.0874580" lon="132.1728410"/>
 <node id="749866571" visible="true" version="2" changeset="122996402" timestamp="2022-06-29T10:47:48Z" user="AYAGE" uid="521665" lat="34.0900876" lon="132.1744226"/>
 <node id="1337846319" visible="true" version="2" changeset="123007570" timestamp="2022-06-29T15:05:01Z" user="AYAGE" uid="521665" lat="34.0870741" lon="132.1670807"/>
 <node id="1337846361" visible="true" version="2" changeset="123007570" timestamp="2022-06-29T15:05:01Z" user="AYAGE" uid="521665" lat="34.0923793" lon="132.1664155"/>
 <node id="1337846404" visible="true" version="2" changeset="123007570" timestamp="2022-06-29T15:05:01Z" user="AYAGE" uid="521665" lat="34.0922029" lon="132.1694243"/>
 <node id="1337846437" visible="true" version="2" changeset="122996402" timestamp="2022-06-29T10:47:48Z" user="AYAGE" uid="521665" lat="34.0896123" lon="132.1752034"/>
 <node id="1337846503" visible="true" version="2" changeset="122996402" timestamp="2022-06-29T10:47:48Z" user="AYAGE" uid="521665" lat="34.0911650" lon="132.1763334"/>
 <node id="1337846544" visible="true" version="2" changeset="122996402" timestamp="2022-06-29T10:47:48Z" user="AYAGE" uid="521665" lat="34.0910560" lon="132.1760284"/>
 <node id="1337846588" visible="true" version="2" changeset="122996402" timestamp="2022-06-29T10:47:48Z" user="AYAGE" uid="521665" lat="34.0884936" lon="132.1735989"/>
 <node id="1337846633" visible="true" version="2" changeset="123007570" timestamp="2022-06-29T15:05:01Z" user="AYAGE" uid="521665" lat="34.0876359" lon="132.1717521"/>
 <node id="1337846674" visible="true" version="2" changeset="123007570" timestamp="2022-06-29T15:05:01Z" user="AYAGE" uid="521665" lat="34.0922439" lon="132.1654916"/>
 <node id="1337846717" visible="true" version="2" changeset="123007570" timestamp="2022-06-29T15:05:01Z" user="AYAGE" uid="521665" lat="34.0924152" lon="132.1673160"/>
 <node id="1337846790" visible="true" version="2" changeset="123007570" timestamp="2022-06-29T15:05:01Z" user="AYAGE" uid="521665" lat="34.0905324" lon="132.1724102"/>
 <node id="1337846801" visible="true" version="2" changeset="123007570" timestamp="2022-06-29T15:05:01Z" user="AYAGE" uid="521665" lat="34.0918810" lon="132.1689569"/>
 <node id="1337846833" visible="true" version="2" changeset="123007570" timestamp="2022-06-29T15:05:01Z" user="AYAGE" uid="521665" lat="34.0897580" lon="132.1723592"/>
 <node id="1337846844" visible="true" version="2" changeset="123007570" timestamp="2022-06-29T15:05:01Z" user="AYAGE" uid="521665" lat="34.0920331" lon="132.1699318"/>
 <node id="1337846900" visible="true" version="2" changeset="122996402" timestamp="2022-06-29T10:47:48Z" user="AYAGE" uid="521665" lat="34.0903175" lon="132.1756854"/>
 <node id="1337846928" visible="true" version="2" changeset="123021672" timestamp="2022-06-29T22:22:39Z" user="AYAGE" uid="521665" lat="34.0920572" lon="132.1642222"/>
 <node id="1337846983" visible="true" version="2" changeset="122996402" timestamp="2022-06-29T10:47:48Z" user="AYAGE" uid="521665" lat="34.0876803" lon="132.1725907"/>
 <node id="1337847066" visible="true" version="2" changeset="123007570" timestamp="2022-06-29T15:05:01Z" user="AYAGE" uid="521665" lat="34.0874678" lon="132.1701189"/>
 <node id="1337847158" visible="true" version="2" changeset="123007570" timestamp="2022-06-29T15:05:01Z" user="AYAGE" uid="521665" lat="34.0877174" lon="132.1710846"/>
 <node id="1337847241" visible="true" version="2" changeset="123007570" timestamp="2022-06-29T15:05:01Z" user="AYAGE" uid="521665" lat="34.0870056" lon="132.1671953"/>
 <node id="1337847320" visible="true" version="2" changeset="123007570" timestamp="2022-06-29T15:05:01Z" user="AYAGE" uid="521665" lat="34.0921672" lon="132.1666404"/>
 <node id="1337847383" visible="true" version="2" changeset="123007570" timestamp="2022-06-29T15:05:01Z" user="AYAGE" uid="521665" lat="34.0905852" lon="132.1723010"/>
 <node id="1337847403" visible="true" version="2" changeset="123007570" timestamp="2022-06-29T15:05:01Z" user="AYAGE" uid="521665" lat="34.0921995" lon="132.1693095"/>
 <node id="1337847470" visible="true" version="2" changeset="122996402" timestamp="2022-06-29T10:47:48Z" user="AYAGE" uid="521665" lat="34.0912016" lon="132.1752041"/>
 <node id="1337847493" visible="true" version="2" changeset="123007570" timestamp="2022-06-29T15:05:01Z" user="AYAGE" uid="521665" lat="34.0914108" lon="132.1704155"/>
 <node id="1337847560" visible="true" version="2" changeset="123007570" timestamp="2022-06-29T15:05:01Z" user="AYAGE" uid="521665" lat="34.0903602" lon="132.1730473"/>
 <node id="1337847607" visible="true" version="1" changeset="8538769" timestamp="2011-06-25T03:46:15Z" user="yamasan" uid="32308" lat="34.0912630" lon="132.1754770"/>
 <node id="1337847688" visible="true" version="2" changeset="122996402" timestamp="2022-06-29T10:47:48Z" user="AYAGE" uid="521665" lat="34.0909776" lon="132.1759934"/>
 <node id="1337847773" visible="true" version="2" changeset="122996402" timestamp="2022-06-29T10:47:48Z" user="AYAGE" uid="521665" lat="34.0887753" lon="132.1738759"/>
 <node id="1337847866" visible="true" version="2" changeset="123007570" timestamp="2022-06-29T15:05:01Z" user="AYAGE" uid="521665" lat="34.0875100" lon="132.1719844"/>
 <node id="1337847945" visible="true" version="2" changeset="123007570" timestamp="2022-06-29T15:05:01Z" user="AYAGE" uid="521665" lat="34.0924594" lon="132.1662803"/>
 <node id="1337848011" visible="true" version="2" changeset="123007570" timestamp="2022-06-29T15:05:01Z" user="AYAGE" uid="521665" lat="34.0897975" lon="132.1722391"/>
 <node id="1337848035" visible="true" version="2" changeset="123007570" timestamp="2022-06-29T15:05:01Z" user="AYAGE" uid="521665" lat="34.0924312" lon="132.1672600"/>
 <node id="1337848096" visible="true" version="2" changeset="122996402" timestamp="2022-06-29T10:47:48Z" user="AYAGE" uid="521665" lat="34.0910613" lon="132.1771458"/>
 <node id="1337848123" visible="true" version="2" changeset="123007570" timestamp="2022-06-29T15:05:01Z" user="AYAGE" uid="521665" lat="34.0921962" lon="132.1667994"/>
 <node id="1337848166" visible="true" version="2" changeset="122996402" timestamp="2022-06-29T10:47:48Z" user="AYAGE" uid="521665" lat="34.0911593" lon="132.1750486"/>
 <node id="1337848177" visible="true" version="2" changeset="123007570" timestamp="2022-06-29T15:05:01Z" user="AYAGE" uid="521665" lat="34.0918810" lon="132.1688619"/>
 <node id="1337848209" visible="true" version="2" changeset="122996402" timestamp="2022-06-29T10:47:48Z" user="AYAGE" uid="521665" lat="34.0900662" lon="132.1739226"/>
 <node id="1337848220" visible="true" version="2" changeset="123007570" timestamp="2022-06-29T15:05:01Z" user="AYAGE" uid="521665" lat="34.0918189" lon="132.1700525"/>
 <node id="1337848276" visible="true" version="2" changeset="122996402" timestamp="2022-06-29T10:47:48Z" user="AYAGE" uid="521665" lat="34.0914483" lon="132.1760131"/>
 <node id="1337848281" visible="true" version="2" changeset="123021672" timestamp="2022-06-29T22:22:39Z" user="AYAGE" uid="521665" lat="34.0922601" lon="132.1637858"/>
 <node id="1337848283" visible="true" version="2" changeset="123007570" timestamp="2022-06-29T15:05:01Z" user="AYAGE" uid="521665" lat="34.0919341" lon="132.1647868"/>
 <node id="1337848319" visible="true" version="2" changeset="122996402" timestamp="2022-06-29T10:47:48Z" user="AYAGE" uid="521665" lat="34.0876632" lon="132.1727048"/>
 <node id="1337848361" visible="true" version="2" changeset="123007570" timestamp="2022-06-29T15:05:01Z" user="AYAGE" uid="521665" lat="34.0872616" lon="132.1699601"/>
 <node id="1337848404" visible="true" version="2" changeset="123007570" timestamp="2022-06-29T15:05:01Z" user="AYAGE" uid="521665" lat="34.0876933" lon="132.1715323"/>
 <node id="1337848447" visible="true" version="2" changeset="123007570" timestamp="2022-06-29T15:05:01Z" user="AYAGE" uid="521665" lat="34.0867605" lon="132.1683998"/>
 <node id="1337848477" visible="true" version="1" changeset="8538769" timestamp="2011-06-25T03:46:41Z" user="yamasan" uid="32308" lat="34.0893860" lon="132.1737820"/>
 <node id="1337848489" visible="true" version="2" changeset="123007570" timestamp="2022-06-29T15:05:01Z" user="AYAGE" uid="521665" lat="34.0922002" lon="132.1665414"/>
 <node id="1337848501" visible="true" version="2" changeset="122996402" timestamp="2022-06-29T10:47:48Z" user="AYAGE" uid="521665" lat="34.0909348" lon="132.1773319"/>
 <node id="1337848520" visible="true" version="2" changeset="122996402" timestamp="2022-06-29T10:47:48Z" user="AYAGE" uid="521665" lat="34.0893563" lon="132.1742572"/>
 <node id="1337848531" visible="true" version="2" changeset="123007570" timestamp="2022-06-29T15:05:01Z" user="AYAGE" uid="521665" lat="34.0921158" lon="132.1698068"/>
 <node id="1337848609" visible="true" version="2" changeset="122996402" timestamp="2022-06-29T10:47:48Z" user="AYAGE" uid="521665" lat="34.0893563" lon="132.1742075"/>
 <node id="1337848620" visible="true" version="2" changeset="123007570" timestamp="2022-06-29T15:05:01Z" user="AYAGE" uid="521665" lat="34.0915765" lon="132.1700429"/>
 <node id="1337848633" visible="true" version="2" changeset="122996402" timestamp="2022-06-29T10:47:48Z" user="AYAGE" uid="521665" lat="34.0910799" lon="132.1770829"/>
 <node id="1337848652" visible="true" version="2" changeset="122996402" timestamp="2022-06-29T10:47:48Z" user="AYAGE" uid="521665" lat="34.0903714" lon="132.1744759"/>
 <node id="1337848675" visible="true" version="2" changeset="122996402" timestamp="2022-06-29T10:47:48Z" user="AYAGE" uid="521665" lat="34.0911580" lon="132.1762184"/>
 <node id="1337848719" visible="true" version="2" changeset="122996402" timestamp="2022-06-29T10:47:48Z" user="AYAGE" uid="521665" lat="34.0890569" lon="132.1738277"/>
 <node id="1337848762" visible="true" version="2" changeset="123007570" timestamp="2022-06-29T15:05:01Z" user="AYAGE" uid="521665" lat="34.0867722" lon="132.1696545"/>
 <node id="1337848800" visible="true" version="1" changeset="8538769" timestamp="2011-06-25T03:46:55Z" user="yamasan" uid="32308" lat="34.0924650" lon="132.1661650"/>
 <node id="1337848883" visible="true" version="2" changeset="123007570" timestamp="2022-06-29T15:05:01Z" user="AYAGE" uid="521665" lat="34.0921672" lon="132.1667204"/>
 <node id="1337848890" visible="true" version="2" changeset="123007570" timestamp="2022-06-29T15:05:01Z" user="AYAGE" uid="521665" lat="34.0919971" lon="132.1648964"/>
 <node id="1337848915" visible="true" version="2" changeset="123007570" timestamp="2022-06-29T15:05:01Z" user="AYAGE" uid="521665" lat="34.0906200" lon="132.1721563"/>
 <node id="1337848926" visible="true" version="2" changeset="123007570" timestamp="2022-06-29T15:05:01Z" user="AYAGE" uid="521665" lat="34.0921677" lon="132.1684269"/>
 <node id="1337848958" visible="true" version="2" changeset="123007570" timestamp="2022-06-29T15:05:01Z" user="AYAGE" uid="521665" lat="34.0904675" lon="132.1726137"/>
 <node id="1337848976" visible="true" version="2" changeset="123007570" timestamp="2022-06-29T15:05:01Z" user="AYAGE" uid="521665" lat="34.0918907" lon="132.1700429"/>
 <node id="1337849091" visible="true" version="2" changeset="122996402" timestamp="2022-06-29T10:47:48Z" user="AYAGE" uid="521665" lat="34.0882382" lon="132.1731746"/>
 <node id="1337849148" visible="true" version="2" changeset="123007570" timestamp="2022-06-29T15:05:01Z" user="AYAGE" uid="521665" lat="34.0873914" lon="132.1700124"/>
 <node id="1337849191" visible="true" version="2" changeset="123007570" timestamp="2022-06-29T15:05:01Z" user="AYAGE" uid="521665" lat="34.0875176" lon="132.1703758"/>
 <node id="1337849232" visible="true" version="2" changeset="123007570" timestamp="2022-06-29T15:05:01Z" user="AYAGE" uid="521665" lat="34.0867504" lon="132.1693272"/>
 <node id="1337849262" visible="true" version="2" changeset="122996402" timestamp="2022-06-29T10:47:48Z" user="AYAGE" uid="521665" lat="34.0901065" lon="132.1738414"/>
 <node id="1337849275" visible="true" version="2" changeset="123007570" timestamp="2022-06-29T15:05:01Z" user="AYAGE" uid="521665" lat="34.0919788" lon="132.1678939"/>
 <node id="1337849305" visible="true" version="2" changeset="123007570" timestamp="2022-06-29T15:05:01Z" user="AYAGE" uid="521665" lat="34.0906499" lon="132.1720025"/>
 <node id="1337849316" visible="true" version="2" changeset="123007570" timestamp="2022-06-29T15:05:01Z" user="AYAGE" uid="521665" lat="34.0921610" lon="132.1696343"/>
 <node id="1337849351" visible="true" version="1" changeset="8538769" timestamp="2011-06-25T03:47:18Z" user="yamasan" uid="32308" lat="34.0896310" lon="132.1730890"/>
 <node id="1337849362" visible="true" version="2" changeset="123007570" timestamp="2022-06-29T15:05:01Z" user="AYAGE" uid="521665" lat="34.0911402" lon="132.1709204"/>
 <node id="1337849392" visible="true" version="2" changeset="122996402" timestamp="2022-06-29T10:47:48Z" user="AYAGE" uid="521665" lat="34.0900460" lon="132.1740003"/>
 <node id="1337849462" visible="true" version="2" changeset="122996402" timestamp="2022-06-29T10:47:48Z" user="AYAGE" uid="521665" lat="34.0911250" lon="132.1761154"/>
 <node id="1337849504" visible="true" version="2" changeset="122996402" timestamp="2022-06-29T10:47:48Z" user="AYAGE" uid="521665" lat="34.0886019" lon="132.1738369"/>
 <node id="1337849548" visible="true" version="2" changeset="123007570" timestamp="2022-06-29T15:05:01Z" user="AYAGE" uid="521665" lat="34.0868178" lon="132.1697015"/>
 <node id="1337849627" visible="true" version="2" changeset="123007570" timestamp="2022-06-29T15:05:01Z" user="AYAGE" uid="521665" lat="34.0922996" lon="132.1674567"/>
 <node id="1337849669" visible="true" version="2" changeset="123007570" timestamp="2022-06-29T15:05:01Z" user="AYAGE" uid="521665" lat="34.0924312" lon="132.1671650"/>
 <node id="1337849721" visible="true" version="2" changeset="122996402" timestamp="2022-06-29T10:47:48Z" user="AYAGE" uid="521665" lat="34.0902405" lon="132.1735747"/>
 <node id="1337849732" visible="true" version="2" changeset="123007570" timestamp="2022-06-29T15:05:01Z" user="AYAGE" uid="521665" lat="34.0921477" lon="132.1683519"/>
 <node id="1337849764" visible="true" version="2" changeset="122996402" timestamp="2022-06-29T10:47:48Z" user="AYAGE" uid="521665" lat="34.0893551" lon="132.1747698"/>
 <node id="1337849775" visible="true" version="2" changeset="123007570" timestamp="2022-06-29T15:05:01Z" user="AYAGE" uid="521665" lat="34.0906892" lon="132.1718568"/>
 <node id="1337849830" visible="true" version="2" changeset="122996402" timestamp="2022-06-29T10:47:48Z" user="AYAGE" uid="521665" lat="34.0893206" lon="132.1740330"/>
 <node id="1337849872" visible="true" version="2" changeset="122996402" timestamp="2022-06-29T10:47:48Z" user="AYAGE" uid="521665" lat="34.0882973" lon="132.1732341"/>
 <node id="1337849915" visible="true" version="2" changeset="122996402" timestamp="2022-06-29T10:47:48Z" user="AYAGE" uid="521665" lat="34.0885132" lon="132.1736922"/>
 <node id="1337849959" visible="true" version="2" changeset="123007570" timestamp="2022-06-29T15:05:01Z" user="AYAGE" uid="521665" lat="34.0876106" lon="132.1704978"/>
 <node id="1337850224" visible="true" version="2" changeset="123007570" timestamp="2022-06-29T15:05:01Z" user="AYAGE" uid="521665" lat="34.0868059" lon="132.1679294"/>
 <node id="1337850254" visible="true" version="2" changeset="123007570" timestamp="2022-06-29T15:05:01Z" user="AYAGE" uid="521665" lat="34.0900401" lon="132.1718053"/>
 <node id="1337850266" visible="true" version="2" changeset="123007570" timestamp="2022-06-29T15:05:01Z" user="AYAGE" uid="521665" lat="34.0920259" lon="132.1677963"/>
 <node id="1337850297" visible="true" version="3" changeset="123021672" timestamp="2022-06-29T22:22:39Z" user="AYAGE" uid="521665" lat="34.0919182" lon="132.1646898"/>
 <node id="1337850306" visible="true" version="2" changeset="123007570" timestamp="2022-06-29T15:05:01Z" user="AYAGE" uid="521665" lat="34.0919768" lon="132.1691010"/>
 <node id="1337850339" visible="true" version="2" changeset="122996402" timestamp="2022-06-29T10:47:48Z" user="AYAGE" uid="521665" lat="34.0906959" lon="132.1746526"/>
 <node id="1337850350" visible="true" version="2" changeset="123007570" timestamp="2022-06-29T15:05:01Z" user="AYAGE" uid="521665" lat="34.0913634" lon="132.1705468"/>
 <node id="1337850382" visible="true" version="2" changeset="123007570" timestamp="2022-06-29T15:05:01Z" user="AYAGE" uid="521665" lat="34.0901635" lon="132.1716989"/>
 <node id="1337850393" visible="true" version="2" changeset="123007570" timestamp="2022-06-29T15:05:01Z" user="AYAGE" uid="521665" lat="34.0914551" lon="132.1701926"/>
 <node id="1337850425" visible="true" version="2" changeset="123007570" timestamp="2022-06-29T15:05:01Z" user="AYAGE" uid="521665" lat="34.0900852" lon="132.1717445"/>
 <node id="1337850448" visible="true" version="2" changeset="122996402" timestamp="2022-06-29T10:47:48Z" user="AYAGE" uid="521665" lat="34.0900655" lon="132.1755193"/>
 <node id="1337850491" visible="true" version="2" changeset="122996402" timestamp="2022-06-29T10:47:48Z" user="AYAGE" uid="521665" lat="34.0886789" lon="132.1738669"/>
 <node id="1337850535" visible="true" version="2" changeset="123007570" timestamp="2022-06-29T15:05:01Z" user="AYAGE" uid="521665" lat="34.0867517" lon="132.1694773"/>
 <node id="1337850575" visible="true" version="2" changeset="123007570" timestamp="2022-06-29T15:05:01Z" user="AYAGE" uid="521665" lat="34.0870914" lon="132.1669878"/>
 <node id="1337850617" visible="true" version="2" changeset="123007570" timestamp="2022-06-29T15:05:01Z" user="AYAGE" uid="521665" lat="34.0869813" lon="132.1674410"/>
 <node id="1337850661" visible="true" version="2" changeset="123007570" timestamp="2022-06-29T15:05:01Z" user="AYAGE" uid="521665" lat="34.0923785" lon="132.1670646"/>
 <node id="1337850694" visible="true" version="2" changeset="122996402" timestamp="2022-06-29T10:47:48Z" user="AYAGE" uid="521665" lat="34.0894146" lon="132.1749261"/>
 <node id="1337850708" visible="true" version="2" changeset="123007570" timestamp="2022-06-29T15:05:01Z" user="AYAGE" uid="521665" lat="34.0921277" lon="132.1685729"/>
 <node id="1337850741" visible="true" version="1" changeset="8538769" timestamp="2011-06-25T03:48:46Z" user="yamasan" uid="32308" lat="34.0894530" lon="132.1735490"/>
 <node id="1337850752" visible="true" version="2" changeset="123007570" timestamp="2022-06-29T15:05:01Z" user="AYAGE" uid="521665" lat="34.0910419" lon="132.1710700"/>
 <node id="1337850807" visible="true" version="2" changeset="122996402" timestamp="2022-06-29T10:47:48Z" user="AYAGE" uid="521665" lat="34.0893607" lon="132.1740832"/>
 <node id="1337850826" visible="true" version="1" changeset="8538769" timestamp="2011-06-25T03:48:49Z" user="yamasan" uid="32308" lat="34.0895580" lon="132.1732950"/>
 <node id="1337850850" visible="true" version="2" changeset="122996402" timestamp="2022-06-29T10:47:48Z" user="AYAGE" uid="521665" lat="34.0880744" lon="132.1730491"/>
 <node id="1337850893" visible="true" version="2" changeset="122996402" timestamp="2022-06-29T10:47:48Z" user="AYAGE" uid="521665" lat="34.0885487" lon="132.1737613"/>
 <node id="1337850936" visible="true" version="2" changeset="123007570" timestamp="2022-06-29T15:05:01Z" user="AYAGE" uid="521665" lat="34.0876103" lon="132.1722481"/>
 <node id="1337850977" visible="true" version="2" changeset="123007570" timestamp="2022-06-29T15:05:01Z" user="AYAGE" uid="521665" lat="34.0867628" lon="132.1681291"/>
 <node id="1337851008" visible="true" version="2" changeset="122996402" timestamp="2022-06-29T10:47:48Z" user="AYAGE" uid="521665" lat="34.0907713" lon="132.1746861"/>
 <node id="1337851020" visible="true" version="2" changeset="123007570" timestamp="2022-06-29T15:05:01Z" user="AYAGE" uid="521665" lat="34.0919978" lon="132.1680769"/>
 <node id="1337851049" visible="true" version="2" changeset="122996402" timestamp="2022-06-29T10:47:48Z" user="AYAGE" uid="521665" lat="34.0893661" lon="132.1748453"/>
 <node id="1337851060" visible="true" version="2" changeset="123007570" timestamp="2022-06-29T15:05:01Z" user="AYAGE" uid="521665" lat="34.0919140" lon="132.1690409"/>
 <node id="1337851094" visible="true" version="1" changeset="8538769" timestamp="2011-06-25T03:49:01Z" user="yamasan" uid="32308" lat="34.0894100" lon="132.1736750"/>
 <node id="1337851105" visible="true" version="2" changeset="123007570" timestamp="2022-06-29T15:05:01Z" user="AYAGE" uid="521665" lat="34.0919110" lon="132.1687909"/>
 <node id="1337851137" visible="true" version="2" changeset="122996402" timestamp="2022-06-29T10:47:48Z" user="AYAGE" uid="521665" lat="34.0897962" lon="132.1754062"/>
 <node id="1337851148" visible="true" version="2" changeset="123007570" timestamp="2022-06-29T15:05:01Z" user="AYAGE" uid="521665" lat="34.0915101" lon="132.1700778"/>
 <node id="1337851180" visible="true" version="1" changeset="8538769" timestamp="2011-06-25T03:49:05Z" user="yamasan" uid="32308" lat="34.0896670" lon="132.1729260"/>
 <node id="1337851247" visible="true" version="2" changeset="122996402" timestamp="2022-06-29T10:47:48Z" user="AYAGE" uid="521665" lat="34.0876503" lon="132.1728057"/>
 <node id="1337851290" visible="true" version="2" changeset="123007570" timestamp="2022-06-29T15:05:01Z" user="AYAGE" uid="521665" lat="34.0867512" lon="132.1695878"/>
 <node id="1337851330" visible="true" version="2" changeset="123007570" timestamp="2022-06-29T15:05:01Z" user="AYAGE" uid="521665" lat="34.0921568" lon="132.1652731"/>
 <node id="1337851372" visible="true" version="2" changeset="123007570" timestamp="2022-06-29T15:05:01Z" user="AYAGE" uid="521665" lat="34.0869609" lon="132.1675618"/>
 <node id="1337851415" visible="true" version="2" changeset="123007570" timestamp="2022-06-29T15:05:01Z" user="AYAGE" uid="521665" lat="34.0922522" lon="132.1664784"/>
 <node id="1337851446" visible="true" version="1" changeset="8538769" timestamp="2011-06-25T03:49:16Z" user="yamasan" uid="32308" lat="34.0897100" lon="132.1727010"/>
 <node id="1337851458" visible="true" version="2" changeset="123007570" timestamp="2022-06-29T15:05:01Z" user="AYAGE" uid="521665" lat="34.0921637" lon="132.1685059"/>
 <node id="1337851491" visible="true" version="2" changeset="123007570" timestamp="2022-06-29T15:05:01Z" user="AYAGE" uid="521665" lat="34.0902431" lon="132.1716963"/>
 <node id="1337851554" visible="true" version="2" changeset="122996402" timestamp="2022-06-29T10:47:48Z" user="AYAGE" uid="521665" lat="34.0911491" lon="132.1765565"/>
 <node id="1337851573" visible="true" version="2" changeset="122996402" timestamp="2022-06-29T10:47:48Z" user="AYAGE" uid="521665" lat="34.0893512" lon="132.1746408"/>
 <node id="1337851596" visible="true" version="2" changeset="122996402" timestamp="2022-06-29T10:47:48Z" user="AYAGE" uid="521665" lat="34.0881508" lon="132.1730919"/>
 <node id="1337851639" visible="true" version="2" changeset="122996402" timestamp="2022-06-29T10:47:48Z" user="AYAGE" uid="521665" lat="34.0883634" lon="132.1733325"/>
 <node id="1337851683" visible="true" version="2" changeset="123007570" timestamp="2022-06-29T15:05:01Z" user="AYAGE" uid="521665" lat="34.0876648" lon="132.1723367"/>
 <node id="1337851723" visible="true" version="2" changeset="123007570" timestamp="2022-06-29T15:05:01Z" user="AYAGE" uid="521665" lat="34.0924176" lon="132.1660021"/>
 <node id="1337851766" visible="true" version="2" changeset="123007570" timestamp="2022-06-29T15:05:01Z" user="AYAGE" uid="521665" lat="34.0919748" lon="132.1679819"/>
 <node id="1337851796" visible="true" version="2" changeset="122996402" timestamp="2022-06-29T10:47:48Z" user="AYAGE" uid="521665" lat="34.0911135" lon="132.1749396"/>
 <node id="1337851807" visible="true" version="2" changeset="123007570" timestamp="2022-06-29T15:05:01Z" user="AYAGE" uid="521665" lat="34.0921526" lon="132.1692534"/>
 <node id="1337851839" visible="true" version="2" changeset="123007570" timestamp="2022-06-29T15:05:01Z" user="AYAGE" uid="521665" lat="34.0903814" lon="132.1717472"/>
 <node id="1337851850" visible="true" version="2" changeset="123007570" timestamp="2022-06-29T15:05:01Z" user="AYAGE" uid="521665" lat="34.0919760" lon="132.1687119"/>
 <node id="1337851882" visible="true" version="2" changeset="123007570" timestamp="2022-06-29T15:05:01Z" user="AYAGE" uid="521665" lat="34.0904900" lon="132.1717964"/>
 <node id="1337851894" visible="true" version="2" changeset="123007570" timestamp="2022-06-29T15:05:01Z" user="AYAGE" uid="521665" lat="34.0919667" lon="132.1699958"/>
 <node id="1337851949" visible="true" version="2" changeset="122996402" timestamp="2022-06-29T10:47:48Z" user="AYAGE" uid="521665" lat="34.0905202" lon="132.1758466"/>
 <node id="1337851991" visible="true" version="2" changeset="122996402" timestamp="2022-06-29T10:47:48Z" user="AYAGE" uid="521665" lat="34.0879025" lon="132.1730277"/>
 <node id="1337852036" visible="true" version="2" changeset="123007570" timestamp="2022-06-29T15:05:01Z" user="AYAGE" uid="521665" lat="34.0874486" lon="132.1700544"/>
 <node id="1613881895" visible="true" version="2" changeset="123007570" timestamp="2022-06-29T15:05:01Z" user="AYAGE" uid="521665" lat="34.0887181" lon="132.1738317"/>
 <node id="1613881916" visible="true" version="2" changeset="123007570" timestamp="2022-06-29T15:05:01Z" user="AYAGE" uid="521665" lat="34.0891942" lon="132.1735677"/>
 <node id="1613881960" visible="true" version="2" changeset="123007570" timestamp="2022-06-29T15:05:01Z" user="AYAGE" uid="521665" lat="34.0885332" lon="132.1738502"/>
 <node id="1613881986" visible="true" version="2" changeset="123007570" timestamp="2022-06-29T15:05:01Z" user="AYAGE" uid="521665" lat="34.0892503" lon="132.1735058"/>
 <node id="1613882035" visible="true" version="2" changeset="123007570" timestamp="2022-06-29T15:05:01Z" user="AYAGE" uid="521665" lat="34.0893980" lon="132.1735540"/>
 <node id="1613882054" visible="true" version="2" changeset="123007570" timestamp="2022-06-29T15:05:01Z" user="AYAGE" uid="521665" lat="34.0895003" lon="132.1734170"/>
 <node id="1613882057" visible="true" version="2" changeset="123007570" timestamp="2022-06-29T15:05:01Z" user="AYAGE" uid="521665" lat="34.0892898" lon="132.1744833"/>
 <node id="1613882084" visible="true" version="2" changeset="123007570" timestamp="2022-06-29T15:05:01Z" user="AYAGE" uid="521665" lat="34.0896472" lon="132.1733857"/>
 <node id="1613882087" visible="true" version="2" changeset="123007570" timestamp="2022-06-29T15:05:01Z" user="AYAGE" uid="521665" lat="34.0897888" lon="132.1740786"/>
 <node id="1613882107" visible="true" version="2" changeset="122996402" timestamp="2022-06-29T10:47:48Z" user="AYAGE" uid="521665" lat="34.0898266" lon="132.1782976"/>
 <node id="1613882121" visible="true" version="2" changeset="122996402" timestamp="2022-06-29T10:47:48Z" user="AYAGE" uid="521665" lat="34.0900867" lon="132.1787548"/>
 <node id="1613882141" visible="true" version="2" changeset="122996402" timestamp="2022-06-29T10:47:48Z" user="AYAGE" uid="521665" lat="34.0900299" lon="132.1779484"/>
 <node id="1613882163" visible="true" version="2" changeset="122996402" timestamp="2022-06-29T10:47:48Z" user="AYAGE" uid="521665" lat="34.0902223" lon="132.1784881"/>
 <node id="1613882165" visible="true" version="2" changeset="122996402" timestamp="2022-06-29T10:47:48Z" user="AYAGE" uid="521665" lat="34.0901426" lon="132.1732486"/>
 <node id="1613882167" visible="true" version="2" changeset="122996402" timestamp="2022-06-29T10:47:48Z" user="AYAGE" uid="521665" lat="34.0900754" lon="132.1737703"/>
 <node id="1613882170" visible="true" version="2" changeset="123007570" timestamp="2022-06-29T15:05:01Z" user="AYAGE" uid="521665" lat="34.0900599" lon="132.1730959"/>
 <node id="1613882172" visible="true" version="2" changeset="122996402" timestamp="2022-06-29T10:47:48Z" user="AYAGE" uid="521665" lat="34.0905554" lon="132.1782130"/>
 <node id="1613882175" visible="true" version="2" changeset="122996402" timestamp="2022-06-29T10:47:48Z" user="AYAGE" uid="521665" lat="34.0902207" lon="132.1740539"/>
 <node id="1613882183" visible="true" version="2" changeset="123007570" timestamp="2022-06-29T15:05:01Z" user="AYAGE" uid="521665" lat="34.0902882" lon="132.1757522"/>
 <node id="1613882202" visible="true" version="2" changeset="122996402" timestamp="2022-06-29T10:47:48Z" user="AYAGE" uid="521665" lat="34.0906815" lon="132.1780838"/>
 <node id="1613882205" visible="true" version="2" changeset="122996402" timestamp="2022-06-29T10:47:48Z" user="AYAGE" uid="521665" lat="34.0905427" lon="132.1777155"/>
 <node id="1613882213" visible="true" version="2" changeset="122996402" timestamp="2022-06-29T10:47:48Z" user="AYAGE" uid="521665" lat="34.0905051" lon="132.1743998"/>
 <node id="1613882215" visible="true" version="2" changeset="123007570" timestamp="2022-06-29T15:05:01Z" user="AYAGE" uid="521665" lat="34.0907682" lon="132.1760181"/>
 <node id="1613882218" visible="true" version="2" changeset="122996402" timestamp="2022-06-29T10:47:48Z" user="AYAGE" uid="521665" lat="34.0907021" lon="132.1775280"/>
 <node id="1613882219" visible="true" version="2" changeset="122996402" timestamp="2022-06-29T10:47:48Z" user="AYAGE" uid="521665" lat="34.0908038" lon="132.1779295"/>
 <node id="1613882221" visible="true" version="2" changeset="122996402" timestamp="2022-06-29T10:47:48Z" user="AYAGE" uid="521665" lat="34.0911408" lon="132.1763294"/>
 <node id="1613882225" visible="true" version="2" changeset="122996402" timestamp="2022-06-29T10:47:48Z" user="AYAGE" uid="521665" lat="34.0909117" lon="132.1778012"/>
 <node id="1613882245" visible="true" version="2" changeset="122996402" timestamp="2022-06-29T10:47:48Z" user="AYAGE" uid="521665" lat="34.0911039" lon="132.1777055"/>
 <node id="1613882247" visible="true" version="2" changeset="122996402" timestamp="2022-06-29T10:47:48Z" user="AYAGE" uid="521665" lat="34.0908754" lon="132.1747035"/>
 <node id="1613882272" visible="true" version="2" changeset="122996402" timestamp="2022-06-29T10:47:48Z" user="AYAGE" uid="521665" lat="34.0911691" lon="132.1749887"/>
 <node id="1613882292" visible="true" version="2" changeset="122996402" timestamp="2022-06-29T10:47:48Z" user="AYAGE" uid="521665" lat="34.0912569" lon="132.1775490"/>
 <node id="1613882313" visible="true" version="2" changeset="122996402" timestamp="2022-06-29T10:47:48Z" user="AYAGE" uid="521665" lat="34.0915702" lon="132.1751130"/>
 <node id="1613882321" visible="true" version="2" changeset="122996402" timestamp="2022-06-29T10:47:48Z" user="AYAGE" uid="521665" lat="34.0912829" lon="132.1771579"/>
 <node id="1613882323" visible="true" version="2" changeset="122996402" timestamp="2022-06-29T10:47:48Z" user="AYAGE" uid="521665" lat="34.0915408" lon="132.1765192"/>
 <node id="1613882331" visible="true" version="2" changeset="122996402" timestamp="2022-06-29T10:47:48Z" user="AYAGE" uid="521665" lat="34.0917274" lon="132.1753166"/>
 <node id="1613882337" visible="true" version="2" changeset="122996402" timestamp="2022-06-29T10:47:48Z" user="AYAGE" uid="521665" lat="34.0918923" lon="132.1761466"/>
 <node id="1613882369" visible="true" version="2" changeset="122996402" timestamp="2022-06-29T10:47:48Z" user="AYAGE" uid="521665" lat="34.0918710" lon="132.1756228"/>
 <node id="1613882384" visible="true" version="2" changeset="122996402" timestamp="2022-06-29T10:47:48Z" user="AYAGE" uid="521665" lat="34.0924142" lon="132.1761875"/>
 <node id="1613882428" visible="true" version="2" changeset="122996402" timestamp="2022-06-29T10:47:48Z" user="AYAGE" uid="521665" lat="34.0922804" lon="132.1760500"/>
 <node id="1613882468" visible="true" version="2" changeset="122996402" timestamp="2022-06-29T10:47:48Z" user="AYAGE" uid="521665" lat="34.0927828" lon="132.1758862"/>
 <node id="1613882492" visible="true" version="2" changeset="122996402" timestamp="2022-06-29T10:47:48Z" user="AYAGE" uid="521665" lat="34.0927951" lon="132.1756206"/>
 <node id="9855515146" visible="true" version="1" changeset="122996402" timestamp="2022-06-29T10:47:48Z" user="AYAGE" uid="521665" lat="34.0911493" lon="132.1776040"/>
 <node id="9855515147" visible="true" version="1" changeset="122996402" timestamp="2022-06-29T10:47:48Z" user="AYAGE" uid="521665" lat="34.0910549" lon="132.1776751"/>
 <node id="9855515148" visible="true" version="1" changeset="122996402" timestamp="2022-06-29T10:47:48Z" user="AYAGE" uid="521665" lat="34.0909783" lon="132.1776550"/>
 <node id="9855515149" visible="true" version="1" changeset="122996402" timestamp="2022-06-29T10:47:48Z" user="AYAGE" uid="521665" lat="34.0903075" lon="132.1783765"/>
 <node id="9855515150" visible="true" version="1" changeset="122996402" timestamp="2022-06-29T10:47:48Z" user="AYAGE" uid="521665" lat="34.0901925" lon="132.1786132"/>
 <node id="9855515151" visible="true" version="1" changeset="122996402" timestamp="2022-06-29T10:47:48Z" user="AYAGE" uid="521665" lat="34.0900181" lon="132.1788351"/>
 <node id="9855515152" visible="true" version="1" changeset="122996402" timestamp="2022-06-29T10:47:48Z" user="AYAGE" uid="521665" lat="34.0900359" lon="132.1786822"/>
 <node id="9855515153" visible="true" version="1" changeset="122996402" timestamp="2022-06-29T10:47:48Z" user="AYAGE" uid="521665" lat="34.0900270" lon="132.1786514"/>
 <node id="9855515154" visible="true" version="1" changeset="122996402" timestamp="2022-06-29T10:47:48Z" user="AYAGE" uid="521665" lat="34.0899909" lon="132.1786695"/>
 <node id="9855515155" visible="true" version="1" changeset="122996402" timestamp="2022-06-29T10:47:48Z" user="AYAGE" uid="521665" lat="34.0899532" lon="132.1786501"/>
 <node id="9855515156" visible="true" version="1" changeset="122996402" timestamp="2022-06-29T10:47:48Z" user="AYAGE" uid="521665" lat="34.0899498" lon="132.1785280"/>
 <node id="9855515157" visible="true" version="1" changeset="122996402" timestamp="2022-06-29T10:47:48Z" user="AYAGE" uid="521665" lat="34.0899143" lon="132.1784261"/>
 <node id="9855515158" visible="true" version="1" changeset="122996402" timestamp="2022-06-29T10:47:48Z" user="AYAGE" uid="521665" lat="34.0898232" lon="132.1783805"/>
 <node id="9855515159" visible="true" version="1" changeset="122996402" timestamp="2022-06-29T10:47:48Z" user="AYAGE" uid="521665" lat="34.0898843" lon="132.1782571"/>
 <node id="9855515160" visible="true" version="1" changeset="122996402" timestamp="2022-06-29T10:47:48Z" user="AYAGE" uid="521665" lat="34.0899376" lon="132.1781525"/>
 <node id="9855515161" visible="true" version="1" changeset="122996402" timestamp="2022-06-29T10:47:48Z" user="AYAGE" uid="521665" lat="34.0901442" lon="132.1778575"/>
 <node id="9855515162" visible="true" version="1" changeset="122996402" timestamp="2022-06-29T10:47:48Z" user="AYAGE" uid="521665" lat="34.0903308" lon="132.1778011"/>
 <node id="9855515163" visible="true" version="1" changeset="122996402" timestamp="2022-06-29T10:47:48Z" user="AYAGE" uid="521665" lat="34.0906340" lon="132.1775839"/>
 <node id="9855515164" visible="true" version="1" changeset="122996402" timestamp="2022-06-29T10:47:48Z" user="AYAGE" uid="521665" lat="34.0908006" lon="132.1773720"/>
 <node id="9855515165" visible="true" version="1" changeset="122996402" timestamp="2022-06-29T10:47:48Z" user="AYAGE" uid="521665" lat="34.0908661" lon="132.1774001"/>
 <node id="9855515166" visible="true" version="1" changeset="122996402" timestamp="2022-06-29T10:47:48Z" user="AYAGE" uid="521665" lat="34.0910016" lon="132.1772030"/>
 <node id="9855515167" visible="true" version="1" changeset="122996402" timestamp="2022-06-29T10:47:48Z" user="AYAGE" uid="521665" lat="34.0910516" lon="132.1770461"/>
 <node id="9855515168" visible="true" version="1" changeset="122996402" timestamp="2022-06-29T10:47:48Z" user="AYAGE" uid="521665" lat="34.0910827" lon="132.1768074"/>
 <node id="9855515169" visible="true" version="1" changeset="122996402" timestamp="2022-06-29T10:47:48Z" user="AYAGE" uid="521665" lat="34.0911088" lon="132.1761221"/>
 <node id="9855515170" visible="true" version="1" changeset="122996402" timestamp="2022-06-29T10:47:48Z" user="AYAGE" uid="521665" lat="34.0910166" lon="132.1760510"/>
 <node id="9855515171" visible="true" version="1" changeset="122996402" timestamp="2022-06-29T10:47:48Z" user="AYAGE" uid="521665" lat="34.0908806" lon="132.1760128"/>
 <node id="9855515172" visible="true" version="1" changeset="122996402" timestamp="2022-06-29T10:47:48Z" user="AYAGE" uid="521665" lat="34.0900159" lon="132.1740695"/>
 <node id="9855515173" visible="true" version="1" changeset="122996402" timestamp="2022-06-29T10:47:48Z" user="AYAGE" uid="521665" lat="34.0899576" lon="132.1740843"/>
 <node id="9855515174" visible="true" version="1" changeset="122996402" timestamp="2022-06-29T10:47:48Z" user="AYAGE" uid="521665" lat="34.0898765" lon="132.1741191"/>
 <node id="9855515175" visible="true" version="1" changeset="122996402" timestamp="2022-06-29T10:47:48Z" user="AYAGE" uid="521665" lat="34.0898127" lon="132.1741567"/>
 <node id="9855515176" visible="true" version="1" changeset="122996402" timestamp="2022-06-29T10:47:48Z" user="AYAGE" uid="521665" lat="34.0897133" lon="132.1742378"/>
 <node id="9855515177" visible="true" version="1" changeset="122996402" timestamp="2022-06-29T10:47:48Z" user="AYAGE" uid="521665" lat="34.0896572" lon="132.1742774"/>
 <node id="9855515178" visible="true" version="1" changeset="122996402" timestamp="2022-06-29T10:47:48Z" user="AYAGE" uid="521665" lat="34.0895883" lon="132.1742894"/>
 <node id="9855515179" visible="true" version="1" changeset="122996402" timestamp="2022-06-29T10:47:48Z" user="AYAGE" uid="521665" lat="34.0895222" lon="132.1742848"/>
 <node id="9855515180" visible="true" version="1" changeset="122996402" timestamp="2022-06-29T10:47:48Z" user="AYAGE" uid="521665" lat="34.0894423" lon="132.1742452"/>
 <node id="9855515181" visible="true" version="1" changeset="122996402" timestamp="2022-06-29T10:47:48Z" user="AYAGE" uid="521665" lat="34.0894056" lon="132.1742217"/>
 <node id="9855515182" visible="true" version="1" changeset="122996402" timestamp="2022-06-29T10:47:48Z" user="AYAGE" uid="521665" lat="34.0876574" lon="132.1728679"/>
 <node id="9855515183" visible="true" version="1" changeset="122996402" timestamp="2022-06-29T10:47:48Z" user="AYAGE" uid="521665" lat="34.0876974" lon="132.1729249"/>
 <node id="9855515184" visible="true" version="1" changeset="122996402" timestamp="2022-06-29T10:47:48Z" user="AYAGE" uid="521665" lat="34.0878040" lon="132.1729946"/>
 <node id="9855515185" visible="true" version="1" changeset="122996402" timestamp="2022-06-29T10:47:48Z" user="AYAGE" uid="521665" lat="34.0884643" lon="132.1734399"/>
 <node id="9855515186" visible="true" version="1" changeset="122996402" timestamp="2022-06-29T10:47:48Z" user="AYAGE" uid="521665" lat="34.0884888" lon="132.1734902"/>
 <node id="9855515187" visible="true" version="1" changeset="122996402" timestamp="2022-06-29T10:47:48Z" user="AYAGE" uid="521665" lat="34.0891213" lon="132.1738348"/>
 <node id="9855515188" visible="true" version="1" changeset="122996402" timestamp="2022-06-29T10:47:48Z" user="AYAGE" uid="521665" lat="34.0891824" lon="132.1738569"/>
 <node id="9855515189" visible="true" version="1" changeset="122996402" timestamp="2022-06-29T10:47:48Z" user="AYAGE" uid="521665" lat="34.0892385" lon="132.1739025"/>
 <node id="9855515190" visible="true" version="1" changeset="122996402" timestamp="2022-06-29T10:47:48Z" user="AYAGE" uid="521665" lat="34.0901775" lon="132.1733393"/>
 <node id="9855515191" visible="true" version="1" changeset="122996402" timestamp="2022-06-29T10:47:48Z" user="AYAGE" uid="521665" lat="34.0901164" lon="132.1736504"/>
 <node id="9855515192" visible="true" version="1" changeset="122996402" timestamp="2022-06-29T10:47:48Z" user="AYAGE" uid="521665" lat="34.0901453" lon="132.1737966"/>
 <node id="9855515193" visible="true" version="1" changeset="122996402" timestamp="2022-06-29T10:47:48Z" user="AYAGE" uid="521665" lat="34.0901375" lon="132.1739213"/>
 <node id="9855515194" visible="true" version="1" changeset="122996402" timestamp="2022-06-29T10:47:48Z" user="AYAGE" uid="521665" lat="34.0900620" lon="132.1741942"/>
 <node id="9855515195" visible="true" version="1" changeset="122996402" timestamp="2022-06-29T10:47:48Z" user="AYAGE" uid="521665" lat="34.0900454" lon="132.1740708"/>
 <node id="9855515196" visible="true" version="1" changeset="122996402" timestamp="2022-06-29T10:47:48Z" user="AYAGE" uid="521665" lat="34.0901131" lon="132.1740501"/>
 <node id="9855515197" visible="true" version="1" changeset="122996402" timestamp="2022-06-29T10:47:48Z" user="AYAGE" uid="521665" lat="34.0902730" lon="132.1740943"/>
 <node id="9855515198" visible="true" version="1" changeset="122996402" timestamp="2022-06-29T10:47:48Z" user="AYAGE" uid="521665" lat="34.0903985" lon="132.1743223"/>
 <node id="9855515199" visible="true" version="1" changeset="122996402" timestamp="2022-06-29T10:47:48Z" user="AYAGE" uid="521665" lat="34.0906862" lon="132.1744148"/>
 <node id="9855515200" visible="true" version="1" changeset="122996402" timestamp="2022-06-29T10:47:48Z" user="AYAGE" uid="521665" lat="34.0907806" lon="132.1744363"/>
 <node id="9855515201" visible="true" version="1" changeset="122996402" timestamp="2022-06-29T10:47:48Z" user="AYAGE" uid="521665" lat="34.0908928" lon="132.1745838"/>
 <node id="9855515202" visible="true" version="1" changeset="122996402" timestamp="2022-06-29T10:47:48Z" user="AYAGE" uid="521665" lat="34.0909938" lon="132.1747501"/>
 <node id="9855515203" visible="true" version="1" changeset="122996402" timestamp="2022-06-29T10:47:48Z" user="AYAGE" uid="521665" lat="34.0910960" lon="132.1748239"/>
 <node id="9855515204" visible="true" version="1" changeset="122996402" timestamp="2022-06-29T10:47:48Z" user="AYAGE" uid="521665" lat="34.0884121" lon="132.1739964"/>
 <node id="9855515205" visible="true" version="1" changeset="122996402" timestamp="2022-06-29T10:47:48Z" user="AYAGE" uid="521665" lat="34.0886365" lon="132.1742271"/>
 <node id="9855515206" visible="true" version="1" changeset="122996402" timestamp="2022-06-29T10:47:48Z" user="AYAGE" uid="521665" lat="34.0887065" lon="132.1742821"/>
 <node id="9855515207" visible="true" version="1" changeset="122996402" timestamp="2022-06-29T10:47:48Z" user="AYAGE" uid="521665" lat="34.0887814" lon="132.1742962"/>
 <node id="9855515208" visible="true" version="1" changeset="122996402" timestamp="2022-06-29T10:47:48Z" user="AYAGE" uid="521665" lat="34.0889608" lon="132.1743136"/>
 <node id="9855515209" visible="true" version="1" changeset="122996402" timestamp="2022-06-29T10:47:48Z" user="AYAGE" uid="521665" lat="34.0890813" lon="132.1743357"/>
 <node id="9855515210" visible="true" version="1" changeset="122996402" timestamp="2022-06-29T10:47:48Z" user="AYAGE" uid="521665" lat="34.0891641" lon="132.1743699"/>
 <node id="9855515211" visible="true" version="1" changeset="122996402" timestamp="2022-06-29T10:47:48Z" user="AYAGE" uid="521665" lat="34.0893129" lon="132.1744564"/>
 <node id="9855515212" visible="true" version="1" changeset="122996402" timestamp="2022-06-29T10:47:48Z" user="AYAGE" uid="521665" lat="34.0893890" lon="132.1744792"/>
 <node id="9855515213" visible="true" version="1" changeset="122996402" timestamp="2022-06-29T10:47:48Z" user="AYAGE" uid="521665" lat="34.0894595" lon="132.1744832"/>
 <node id="9855515214" visible="true" version="1" changeset="122996402" timestamp="2022-06-29T10:47:48Z" user="AYAGE" uid="521665" lat="34.0895278" lon="132.1744886"/>
 <node id="9855515215" visible="true" version="1" changeset="122996402" timestamp="2022-06-29T10:47:48Z" user="AYAGE" uid="521665" lat="34.0896344" lon="132.1745322"/>
 <node id="9855515216" visible="true" version="1" changeset="122996402" timestamp="2022-06-29T10:47:48Z" user="AYAGE" uid="521665" lat="34.0902597" lon="132.1748614"/>
 <node id="9855516017" visible="true" version="1" changeset="122996402" timestamp="2022-06-29T10:47:48Z" user="AYAGE" uid="521665" lat="34.0903319" lon="132.1749137"/>
 <node id="9855516018" visible="true" version="1" changeset="122996402" timestamp="2022-06-29T10:47:48Z" user="AYAGE" uid="521665" lat="34.0904002" lon="132.1749895"/>
 <node id="9855516019" visible="true" version="1" changeset="122996402" timestamp="2022-06-29T10:47:48Z" user="AYAGE" uid="521665" lat="34.0906906" lon="132.1753670"/>
 <node id="9855516020" visible="true" version="1" changeset="122996402" timestamp="2022-06-29T10:47:48Z" user="AYAGE" uid="521665" lat="34.0907545" lon="132.1754415"/>
 <node id="9855516021" visible="true" version="1" changeset="122996402" timestamp="2022-06-29T10:47:48Z" user="AYAGE" uid="521665" lat="34.0908189" lon="132.1754964"/>
 <node id="9855516022" visible="true" version="1" changeset="122996402" timestamp="2022-06-29T10:47:48Z" user="AYAGE" uid="521665" lat="34.0909433" lon="132.1755682"/>
 <node id="9855516023" visible="true" version="1" changeset="122996402" timestamp="2022-06-29T10:47:48Z" user="AYAGE" uid="521665" lat="34.0910055" lon="132.1756111"/>
 <node id="9855516024" visible="true" version="1" changeset="122996402" timestamp="2022-06-29T10:47:48Z" user="AYAGE" uid="521665" lat="34.0910727" lon="132.1756728"/>
 <node id="9855516025" visible="true" version="1" changeset="122996402" timestamp="2022-06-29T10:47:48Z" user="AYAGE" uid="521665" lat="34.0911893" lon="132.1758203"/>
 <node id="9855516026" visible="true" version="1" changeset="122996402" timestamp="2022-06-29T10:47:48Z" user="AYAGE" uid="521665" lat="34.0912348" lon="132.1758686"/>
 <node id="9855516027" visible="true" version="1" changeset="122996402" timestamp="2022-06-29T10:47:48Z" user="AYAGE" uid="521665" lat="34.0913942" lon="132.1759866"/>
 <node id="9855516029" visible="true" version="1" changeset="122996402" timestamp="2022-06-29T10:47:48Z" user="AYAGE" uid="521665" lat="34.0912471" lon="132.1750680"/>
 <node id="9855516030" visible="true" version="1" changeset="122996402" timestamp="2022-06-29T10:47:48Z" user="AYAGE" uid="521665" lat="34.0914237" lon="132.1750639"/>
 <node id="9855516031" visible="true" version="1" changeset="122996402" timestamp="2022-06-29T10:47:48Z" user="AYAGE" uid="521665" lat="34.0918501" lon="132.1757144"/>
 <node id="9855516032" visible="true" version="1" changeset="122996402" timestamp="2022-06-29T10:47:48Z" user="AYAGE" uid="521665" lat="34.0918934" lon="132.1758096"/>
 <node id="9855516033" visible="true" version="1" changeset="122996402" timestamp="2022-06-29T10:47:48Z" user="AYAGE" uid="521665" lat="34.0918401" lon="132.1759678"/>
 <node id="9855516034" visible="true" version="1" changeset="122996402" timestamp="2022-06-29T10:47:48Z" user="AYAGE" uid="521665" lat="34.0919412" lon="132.1760416"/>
 <node id="9855516035" visible="true" version="1" changeset="122996402" timestamp="2022-06-29T10:47:48Z" user="AYAGE" uid="521665" lat="34.0924799" lon="132.1759987"/>
 <node id="9855516036" visible="true" version="1" changeset="122996402" timestamp="2022-06-29T10:47:48Z" user="AYAGE" uid="521665" lat="34.0926131" lon="132.1758834"/>
 <node id="9855516037" visible="true" version="1" changeset="122996402" timestamp="2022-06-29T10:47:48Z" user="AYAGE" uid="521665" lat="34.0928875" lon="132.1755749"/>
 <node id="9855516038" visible="true" version="1" changeset="122996402" timestamp="2022-06-29T10:47:48Z" user="AYAGE" uid="521665" lat="34.0930529" lon="132.1756326"/>
 <node id="9855516039" visible="true" version="1" changeset="122996402" timestamp="2022-06-29T10:47:48Z" user="AYAGE" uid="521665" lat="34.0932373" lon="132.1758579"/>
 <node id="9855516045" visible="true" version="1" changeset="122996402" timestamp="2022-06-29T10:47:48Z" user="AYAGE" uid="521665" lat="34.0932384" lon="132.1757197"/>
 <node id="9855516046" visible="true" version="1" changeset="122996402" timestamp="2022-06-29T10:47:48Z" user="AYAGE" uid="521665" lat="34.0932528" lon="132.1757948"/>
 <node id="9855516047" visible="true" version="1" changeset="122996402" timestamp="2022-06-29T10:47:48Z" user="AYAGE" uid="521665" lat="34.0931351" lon="132.1758834"/>
 <node id="9855516048" visible="true" version="1" changeset="122996402" timestamp="2022-06-29T10:47:48Z" user="AYAGE" uid="521665" lat="34.0930740" lon="132.1758391"/>
 <node id="9855516049" visible="true" version="1" changeset="122996402" timestamp="2022-06-29T10:47:48Z" user="AYAGE" uid="521665" lat="34.0930241" lon="132.1759464"/>
 <node id="9855516050" visible="true" version="1" changeset="122996402" timestamp="2022-06-29T10:47:48Z" user="AYAGE" uid="521665" lat="34.0928752" lon="132.1758874"/>
 <node id="9855516051" visible="true" version="1" changeset="122996402" timestamp="2022-06-29T10:47:48Z" user="AYAGE" uid="521665" lat="34.0926009" lon="132.1761046"/>
 <node id="9855516052" visible="true" version="1" changeset="122996402" timestamp="2022-06-29T10:47:48Z" user="AYAGE" uid="521665" lat="34.0921744" lon="132.1761878"/>
 <node id="9855516053" visible="true" version="1" changeset="122996402" timestamp="2022-06-29T10:47:48Z" user="AYAGE" uid="521665" lat="34.0913193" lon="132.1773009"/>
 <node id="9855516054" visible="true" version="1" changeset="122996402" timestamp="2022-06-29T10:47:48Z" user="AYAGE" uid="521665" lat="34.0913837" lon="132.1768436"/>
 <node id="9855516055" visible="true" version="1" changeset="122996402" timestamp="2022-06-29T10:47:48Z" user="AYAGE" uid="521665" lat="34.0917457" lon="132.1762133"/>
 <node id="9855516093" visible="true" version="1" changeset="122996402" timestamp="2022-06-29T10:47:48Z" user="AYAGE" uid="521665" lat="34.0909028" lon="132.1774068"/>
 <node id="9855516094" visible="true" version="1" changeset="122996402" timestamp="2022-06-29T10:47:48Z" user="AYAGE" uid="521665" lat="34.0910144" lon="132.1772345"/>
 <node id="9855516095" visible="true" version="1" changeset="122996402" timestamp="2022-06-29T10:47:48Z" user="AYAGE" uid="521665" lat="34.0906501" lon="132.1759041"/>
 <node id="9855516096" visible="true" version="1" changeset="122996402" timestamp="2022-06-29T10:47:48Z" user="AYAGE" uid="521665" lat="34.0901592" lon="132.1755675"/>
 <node id="9855516097" visible="true" version="1" changeset="122996402" timestamp="2022-06-29T10:47:48Z" user="AYAGE" uid="521665" lat="34.0897210" lon="132.1753429"/>
 <node id="9855516098" visible="true" version="1" changeset="122996402" timestamp="2022-06-29T10:47:48Z" user="AYAGE" uid="521665" lat="34.0875986" lon="132.1730697"/>
 <node id="9855516099" visible="true" version="1" changeset="122996402" timestamp="2022-06-29T10:47:48Z" user="AYAGE" uid="521665" lat="34.0875408" lon="132.1729571"/>
 <node id="9855516100" visible="true" version="1" changeset="122996402" timestamp="2022-06-29T10:47:48Z" user="AYAGE" uid="521665" lat="34.0893068" lon="132.1743974"/>
 <node id="9855516101" visible="true" version="1" changeset="122996402" timestamp="2022-06-29T10:47:48Z" user="AYAGE" uid="521665" lat="34.0895089" lon="132.1744256"/>
 <node id="9855516102" visible="true" version="1" changeset="122996402" timestamp="2022-06-29T10:47:48Z" user="AYAGE" uid="521665" lat="34.0897133" lon="132.1743920"/>
 <node id="9855516103" visible="true" version="1" changeset="122996402" timestamp="2022-06-29T10:47:48Z" user="AYAGE" uid="521665" lat="34.0898488" lon="132.1743827"/>
 <node id="9855516104" visible="true" version="1" changeset="122996402" timestamp="2022-06-29T10:47:48Z" user="AYAGE" uid="521665" lat="34.0900942" lon="132.1742707"/>
 <node id="9855516105" visible="true" version="1" changeset="122996402" timestamp="2022-06-29T10:47:48Z" user="AYAGE" uid="521665" lat="34.0901386" lon="132.1743652"/>
 <node id="9855516106" visible="true" version="1" changeset="122996402" timestamp="2022-06-29T10:47:48Z" user="AYAGE" uid="521665" lat="34.0902214" lon="132.1744195"/>
 <node id="9855516107" visible="true" version="1" changeset="122996402" timestamp="2022-06-29T10:47:48Z" user="AYAGE" uid="521665" lat="34.0903058" lon="132.1744524"/>
 <node id="9855516108" visible="true" version="1" changeset="122996402" timestamp="2022-06-29T10:47:48Z" user="AYAGE" uid="521665" lat="34.0904180" lon="132.1745107"/>
 <node id="9855516109" visible="true" version="1" changeset="122996402" timestamp="2022-06-29T10:47:48Z" user="AYAGE" uid="521665" lat="34.0904624" lon="132.1745711"/>
 <node id="9855516110" visible="true" version="1" changeset="122996402" timestamp="2022-06-29T10:47:48Z" user="AYAGE" uid="521665" lat="34.0905096" lon="132.1746033"/>
 <node id="9855516111" visible="true" version="1" changeset="122996402" timestamp="2022-06-29T10:47:48Z" user="AYAGE" uid="521665" lat="34.0905957" lon="132.1746281"/>
 <node id="9855516112" visible="true" version="1" changeset="122996402" timestamp="2022-06-29T10:47:48Z" user="AYAGE" uid="521665" lat="34.0909850" lon="132.1747937"/>
 <node id="9855516113" visible="true" version="1" changeset="122996402" timestamp="2022-06-29T10:47:48Z" user="AYAGE" uid="521665" lat="34.0910394" lon="132.1748413"/>
 <node id="9855516114" visible="true" version="1" changeset="122996402" timestamp="2022-06-29T10:47:48Z" user="AYAGE" uid="521665" lat="34.0913037" lon="132.1756393"/>
 <node id="9855516115" visible="true" version="1" changeset="122996402" timestamp="2022-06-29T10:47:48Z" user="AYAGE" uid="521665" lat="34.0913515" lon="132.1757385"/>
 <node id="9855516116" visible="true" version="1" changeset="122996402" timestamp="2022-06-29T10:47:48Z" user="AYAGE" uid="521665" lat="34.0914103" lon="132.1757834"/>
 <node id="9855516117" visible="true" version="1" changeset="122996402" timestamp="2022-06-29T10:47:48Z" user="AYAGE" uid="521665" lat="34.0914303" lon="132.1758284"/>
 <node id="9855516118" visible="true" version="1" changeset="122996402" timestamp="2022-06-29T10:47:48Z" user="AYAGE" uid="521665" lat="34.0913609" lon="132.1758042"/>
 <node id="9856001118" visible="true" version="1" changeset="123007570" timestamp="2022-06-29T15:05:01Z" user="AYAGE" uid="521665" lat="34.0861797" lon="132.1668591"/>
 <node id="9856001119" visible="true" version="1" changeset="123007570" timestamp="2022-06-29T15:05:01Z" user="AYAGE" uid="521665" lat="34.0864490" lon="132.1664178"/>
 <node id="9856001120" visible="true" version="1" changeset="123007570" timestamp="2022-06-29T15:05:01Z" user="AYAGE" uid="521665" lat="34.0865068" lon="132.1664058"/>
 <node id="9856001121" visible="true" version="1" changeset="123007570" timestamp="2022-06-29T15:05:01Z" user="AYAGE" uid="521665" lat="34.0865384" lon="132.1664145"/>
 <node id="9856001122" visible="true" version="1" changeset="123007570" timestamp="2022-06-29T15:05:01Z" user="AYAGE" uid="521665" lat="34.0865901" lon="132.1664245"/>
 <node id="9856001123" visible="true" version="1" changeset="123007570" timestamp="2022-06-29T15:05:01Z" user="AYAGE" uid="521665" lat="34.0866450" lon="132.1664158"/>
 <node id="9856001124" visible="true" version="1" changeset="123007570" timestamp="2022-06-29T15:05:01Z" user="AYAGE" uid="521665" lat="34.0867017" lon="132.1664125"/>
 <node id="9856001125" visible="true" version="1" changeset="123007570" timestamp="2022-06-29T15:05:01Z" user="AYAGE" uid="521665" lat="34.0867300" lon="132.1664359"/>
 <node id="9856001126" visible="true" version="1" changeset="123007570" timestamp="2022-06-29T15:05:01Z" user="AYAGE" uid="521665" lat="34.0867972" lon="132.1665794"/>
 <node id="9856001127" visible="true" version="1" changeset="123007570" timestamp="2022-06-29T15:05:01Z" user="AYAGE" uid="521665" lat="34.0869055" lon="132.1668074"/>
 <node id="9856001128" visible="true" version="1" changeset="123007570" timestamp="2022-06-29T15:05:01Z" user="AYAGE" uid="521665" lat="34.0869472" lon="132.1668644"/>
 <node id="9856001129" visible="true" version="1" changeset="123007570" timestamp="2022-06-29T15:05:01Z" user="AYAGE" uid="521665" lat="34.0870371" lon="132.1669335"/>
 <node id="9856001130" visible="true" version="1" changeset="123007570" timestamp="2022-06-29T15:05:01Z" user="AYAGE" uid="521665" lat="34.0870949" lon="132.1669509"/>
 <node id="9856001131" visible="true" version="1" changeset="123007570" timestamp="2022-06-29T15:05:01Z" user="AYAGE" uid="521665" lat="34.0869899" lon="132.1672768"/>
 <node id="9856001132" visible="true" version="1" changeset="123007570" timestamp="2022-06-29T15:05:01Z" user="AYAGE" uid="521665" lat="34.0869188" lon="132.1676892"/>
 <node id="9856001133" visible="true" version="1" changeset="123007570" timestamp="2022-06-29T15:05:01Z" user="AYAGE" uid="521665" lat="34.0867733" lon="132.1680278"/>
 <node id="9856001134" visible="true" version="1" changeset="123007570" timestamp="2022-06-29T15:05:01Z" user="AYAGE" uid="521665" lat="34.0867683" lon="132.1687970"/>
 <node id="9856001135" visible="true" version="1" changeset="123007570" timestamp="2022-06-29T15:05:01Z" user="AYAGE" uid="521665" lat="34.0867578" lon="132.1689337"/>
 <node id="9856001136" visible="true" version="1" changeset="123007570" timestamp="2022-06-29T15:05:01Z" user="AYAGE" uid="521665" lat="34.0867306" lon="132.1690759"/>
 <node id="9856001137" visible="true" version="1" changeset="123007570" timestamp="2022-06-29T15:05:01Z" user="AYAGE" uid="521665" lat="34.0867272" lon="132.1691933"/>
 <node id="9856001138" visible="true" version="1" changeset="123007570" timestamp="2022-06-29T15:05:01Z" user="AYAGE" uid="521665" lat="34.0870255" lon="132.1697853"/>
 <node id="9856001139" visible="true" version="1" changeset="123007570" timestamp="2022-06-29T15:05:01Z" user="AYAGE" uid="521665" lat="34.0871026" lon="132.1698423"/>
 <node id="9856001140" visible="true" version="1" changeset="123007570" timestamp="2022-06-29T15:05:01Z" user="AYAGE" uid="521665" lat="34.0874792" lon="132.1702514"/>
 <node id="9856001141" visible="true" version="1" changeset="123007570" timestamp="2022-06-29T15:05:01Z" user="AYAGE" uid="521665" lat="34.0875630" lon="132.1704532"/>
 <node id="9856001142" visible="true" version="1" changeset="123007570" timestamp="2022-06-29T15:05:01Z" user="AYAGE" uid="521665" lat="34.0876691" lon="132.1705169"/>
 <node id="9856001143" visible="true" version="1" changeset="123007570" timestamp="2022-06-29T15:05:01Z" user="AYAGE" uid="521665" lat="34.0876902" lon="132.1705404"/>
 <node id="9856001144" visible="true" version="1" changeset="123007570" timestamp="2022-06-29T15:05:01Z" user="AYAGE" uid="521665" lat="34.0876974" lon="132.1705887"/>
 <node id="9856001145" visible="true" version="1" changeset="123007570" timestamp="2022-06-29T15:05:01Z" user="AYAGE" uid="521665" lat="34.0876908" lon="132.1706718"/>
 <node id="9856001146" visible="true" version="1" changeset="123007570" timestamp="2022-06-29T15:05:01Z" user="AYAGE" uid="521665" lat="34.0876652" lon="132.1707610"/>
 <node id="9856001147" visible="true" version="1" changeset="123007570" timestamp="2022-06-29T15:05:01Z" user="AYAGE" uid="521665" lat="34.0876513" lon="132.1708368"/>
 <node id="9856001148" visible="true" version="1" changeset="123007570" timestamp="2022-06-29T15:05:01Z" user="AYAGE" uid="521665" lat="34.0876563" lon="132.1709099"/>
 <node id="9856001149" visible="true" version="1" changeset="123007570" timestamp="2022-06-29T15:05:01Z" user="AYAGE" uid="521665" lat="34.0876824" lon="132.1710125"/>
 <node id="9856001150" visible="true" version="1" changeset="123007570" timestamp="2022-06-29T15:05:01Z" user="AYAGE" uid="521665" lat="34.0877480" lon="132.1711493"/>
 <node id="9856001151" visible="true" version="1" changeset="123007570" timestamp="2022-06-29T15:05:01Z" user="AYAGE" uid="521665" lat="34.0877507" lon="132.1712311"/>
 <node id="9856001152" visible="true" version="1" changeset="123007570" timestamp="2022-06-29T15:05:01Z" user="AYAGE" uid="521665" lat="34.0877563" lon="132.1713169"/>
 <node id="9856001153" visible="true" version="1" changeset="123007570" timestamp="2022-06-29T15:05:01Z" user="AYAGE" uid="521665" lat="34.0877280" lon="132.1714155"/>
 <node id="9856001154" visible="true" version="1" changeset="123007570" timestamp="2022-06-29T15:05:01Z" user="AYAGE" uid="521665" lat="34.0876641" lon="132.1716730"/>
 <node id="9856001155" visible="true" version="1" changeset="123007570" timestamp="2022-06-29T15:05:01Z" user="AYAGE" uid="521665" lat="34.0875453" lon="132.1719023"/>
 <node id="9856001156" visible="true" version="1" changeset="123007570" timestamp="2022-06-29T15:05:01Z" user="AYAGE" uid="521665" lat="34.0874836" lon="132.1720592"/>
 <node id="9856001157" visible="true" version="1" changeset="123007570" timestamp="2022-06-29T15:05:01Z" user="AYAGE" uid="521665" lat="34.0874864" lon="132.1721276"/>
 <node id="9856001158" visible="true" version="1" changeset="123007570" timestamp="2022-06-29T15:05:01Z" user="AYAGE" uid="521665" lat="34.0875341" lon="132.1721873"/>
 <node id="9856001159" visible="true" version="1" changeset="123007570" timestamp="2022-06-29T15:05:01Z" user="AYAGE" uid="521665" lat="34.0876458" lon="132.1722798"/>
 <node id="9856001160" visible="true" version="1" changeset="123007570" timestamp="2022-06-29T15:05:01Z" user="AYAGE" uid="521665" lat="34.0876785" lon="132.1724515"/>
 <node id="9856001206" visible="true" version="1" changeset="123007570" timestamp="2022-06-29T15:05:01Z" user="AYAGE" uid="521665" lat="34.0924399" lon="132.1663615"/>
 <node id="9856001207" visible="true" version="1" changeset="123007570" timestamp="2022-06-29T15:05:01Z" user="AYAGE" uid="521665" lat="34.0909294" lon="132.1713062"/>
 <node id="9856001208" visible="true" version="1" changeset="123007570" timestamp="2022-06-29T15:05:01Z" user="AYAGE" uid="521665" lat="34.0907539" lon="132.1717273"/>
 <node id="9856001209" visible="true" version="1" changeset="123007570" timestamp="2022-06-29T15:05:01Z" user="AYAGE" uid="521665" lat="34.0903419" lon="132.1733567"/>
 <node id="9856001210" visible="true" version="1" changeset="123007570" timestamp="2022-06-29T15:05:01Z" user="AYAGE" uid="521665" lat="34.0903497" lon="132.1732347"/>
 <node id="9856001211" visible="true" version="1" changeset="123007570" timestamp="2022-06-29T15:05:01Z" user="AYAGE" uid="521665" lat="34.0903863" lon="132.1729463"/>
 <node id="9856001212" visible="true" version="1" changeset="123007570" timestamp="2022-06-29T15:05:01Z" user="AYAGE" uid="521665" lat="34.0904174" lon="132.1728498"/>
 <node id="9856001213" visible="true" version="1" changeset="123007570" timestamp="2022-06-29T15:05:01Z" user="AYAGE" uid="521665" lat="34.0904152" lon="132.1727586"/>
 <node id="9856001214" visible="true" version="1" changeset="123007570" timestamp="2022-06-29T15:05:01Z" user="AYAGE" uid="521665" lat="34.0899765" lon="132.1731046"/>
 <node id="9856001215" visible="true" version="1" changeset="123007570" timestamp="2022-06-29T15:05:01Z" user="AYAGE" uid="521665" lat="34.0899532" lon="132.1732548"/>
 <node id="9856001216" visible="true" version="1" changeset="123007570" timestamp="2022-06-29T15:05:01Z" user="AYAGE" uid="521665" lat="34.0898788" lon="132.1734425"/>
 <node id="9856001217" visible="true" version="1" changeset="123007570" timestamp="2022-06-29T15:05:01Z" user="AYAGE" uid="521665" lat="34.0897455" lon="132.1735565"/>
 <node id="9856001218" visible="true" version="1" changeset="123007570" timestamp="2022-06-29T15:05:01Z" user="AYAGE" uid="521665" lat="34.0897399" lon="132.1737443"/>
 <node id="9856001219" visible="true" version="1" changeset="123007570" timestamp="2022-06-29T15:05:01Z" user="AYAGE" uid="521665" lat="34.0896800" lon="132.1741962"/>
 <node id="9856001220" visible="true" version="1" changeset="123007570" timestamp="2022-06-29T15:05:01Z" user="AYAGE" uid="521665" lat="34.0895211" lon="132.1742512"/>
 <node id="9856001221" visible="true" version="1" changeset="123007570" timestamp="2022-06-29T15:05:01Z" user="AYAGE" uid="521665" lat="34.0894500" lon="132.1741600"/>
 <node id="9856001222" visible="true" version="1" changeset="123007570" timestamp="2022-06-29T15:05:01Z" user="AYAGE" uid="521665" lat="34.0894489" lon="132.1740367"/>
 <node id="9856001223" visible="true" version="1" changeset="123007570" timestamp="2022-06-29T15:05:01Z" user="AYAGE" uid="521665" lat="34.0895089" lon="132.1739615"/>
 <node id="9856001224" visible="true" version="1" changeset="123007570" timestamp="2022-06-29T15:05:01Z" user="AYAGE" uid="521665" lat="34.0896455" lon="132.1736115"/>
 <node id="9856001225" visible="true" version="1" changeset="123007570" timestamp="2022-06-29T15:05:01Z" user="AYAGE" uid="521665" lat="34.0891635" lon="132.1737456"/>
 <node id="9856001226" visible="true" version="1" changeset="123007570" timestamp="2022-06-29T15:05:01Z" user="AYAGE" uid="521665" lat="34.0890124" lon="132.1738113"/>
 <node id="9856001227" visible="true" version="1" changeset="123007570" timestamp="2022-06-29T15:05:01Z" user="AYAGE" uid="521665" lat="34.0886059" lon="132.1737939"/>
 <node id="9856001228" visible="true" version="1" changeset="123007570" timestamp="2022-06-29T15:05:01Z" user="AYAGE" uid="521665" lat="34.0883905" lon="132.1739361"/>
 <node id="9856001229" visible="true" version="1" changeset="123007570" timestamp="2022-06-29T15:05:01Z" user="AYAGE" uid="521665" lat="34.0883383" lon="132.1740460"/>
 <node id="9856001230" visible="true" version="1" changeset="123007570" timestamp="2022-06-29T15:05:01Z" user="AYAGE" uid="521665" lat="34.0884782" lon="132.1741238"/>
 <node id="9856001231" visible="true" version="1" changeset="123007570" timestamp="2022-06-29T15:05:01Z" user="AYAGE" uid="521665" lat="34.0886515" lon="132.1743156"/>
 <node id="9856001232" visible="true" version="1" changeset="123007570" timestamp="2022-06-29T15:05:01Z" user="AYAGE" uid="521665" lat="34.0889391" lon="132.1743505"/>
 <node id="9856001233" visible="true" version="1" changeset="123007570" timestamp="2022-06-29T15:05:01Z" user="AYAGE" uid="521665" lat="34.0890913" lon="132.1743786"/>
 <node id="9856001234" visible="true" version="1" changeset="123007570" timestamp="2022-06-29T15:05:01Z" user="AYAGE" uid="521665" lat="34.0893112" lon="132.1747971"/>
 <node id="9856001235" visible="true" version="1" changeset="123007570" timestamp="2022-06-29T15:05:01Z" user="AYAGE" uid="521665" lat="34.0893856" lon="132.1749727"/>
 <node id="9856001236" visible="true" version="1" changeset="123007570" timestamp="2022-06-29T15:05:01Z" user="AYAGE" uid="521665" lat="34.0896200" lon="132.1752785"/>
 <node id="9856001237" visible="true" version="1" changeset="123007570" timestamp="2022-06-29T15:05:01Z" user="AYAGE" uid="521665" lat="34.0897544" lon="132.1754435"/>
 <node id="9856001238" visible="true" version="1" changeset="123007570" timestamp="2022-06-29T15:05:01Z" user="AYAGE" uid="521665" lat="34.0900842" lon="132.1755736"/>
 <node id="9856001239" visible="true" version="1" changeset="123007570" timestamp="2022-06-29T15:05:01Z" user="AYAGE" uid="521665" lat="34.0905351" lon="132.1759236"/>
 <node id="9856759552" visible="true" version="1" changeset="123021672" timestamp="2022-06-29T22:22:39Z" user="AYAGE" uid="521665" lat="34.0919779" lon="132.1644042"/>
 <node id="9856759553" visible="true" version="1" changeset="123021672" timestamp="2022-06-29T22:22:39Z" user="AYAGE" uid="521665" lat="34.0919295" lon="132.1645624"/>
 <way id="60302911" visible="true" version="4" changeset="122996402" timestamp="2022-06-29T10:47:48Z" user="AYAGE" uid="521665">
  <nd ref="749400094"/>
  <nd ref="749832300"/>
  <nd ref="9855516099"/>
  <nd ref="9855516098"/>
  <nd ref="749175562"/>
  <nd ref="749628380"/>
  <nd ref="748970118"/>
  <nd ref="749361222"/>
  <nd ref="749810262"/>
  <nd ref="749139971"/>
  <nd ref="749247609"/>
  <nd ref="749720498"/>
  <nd ref="749037120"/>
  <nd ref="9855516100"/>
  <nd ref="749433257"/>
  <nd ref="9855516101"/>
  <nd ref="9855516102"/>
  <nd ref="9855516103"/>
  <nd ref="749866571"/>
  <nd ref="749212943"/>
  <nd ref="749677284"/>
  <nd ref="748996287"/>
  <nd ref="749788692"/>
  <nd ref="749091259"/>
  <nd ref="749549651"/>
  <nd ref="748915936"/>
  <nd ref="749294655"/>
  <nd ref="749772755"/>
  <nd ref="9855516118"/>
  <nd ref="749073814"/>
  <nd ref="749149119"/>
  <tag k="name" v="火打岩川"/>
  <tag k="name:ja" v="火打岩川"/>
  <tag k="note" v="National-Land Numerical Information (River) 2006, MLIT Japan"/>
  <tag k="note:ja" v="国土数値情報(河川データ)平成18年国土交通省"/>
  <tag k="source" v="KSJ2"/>
  <tag k="source_ref" v="http://nlftp.mlit.go.jp/ksj/jpgis/datalist/KsjTmplt-W05.html"/>
  <tag k="waterway" v="river"/>
 </way>
 <way id="119008806" visible="true" version="2" changeset="122996402" timestamp="2022-06-29T10:47:48Z" user="AYAGE" uid="521665">
  <nd ref="9855516117"/>
  <nd ref="9855516116"/>
  <nd ref="9855516115"/>
  <nd ref="9855516114"/>
  <nd ref="1337847607"/>
  <nd ref="1337847470"/>
  <nd ref="1337848166"/>
  <nd ref="1337851796"/>
  <nd ref="9855516113"/>
  <nd ref="9855516112"/>
  <nd ref="1337851008"/>
  <nd ref="1337850339"/>
  <nd ref="9855516111"/>
  <nd ref="9855516110"/>
  <nd ref="9855516109"/>
  <nd ref="9855516108"/>
  <nd ref="1337848652"/>
  <nd ref="9855516107"/>
  <nd ref="9855516106"/>
  <nd ref="9855516105"/>
  <nd ref="9855516104"/>
  <nd ref="9855515194"/>
  <nd ref="9855515195"/>
  <nd ref="1337849392"/>
  <tag k="highway" v="residential"/>
  <tag k="source" v="YahooJapan/ALPSMAP"/>
 </way>
 <way id="119008813" visible="true" version="3" changeset="123007570" timestamp="2022-06-29T15:05:01Z" user="AYAGE" uid="521665">
  <nd ref="9856001118"/>
  <nd ref="9856001119"/>
  <nd ref="9856001120"/>
  <nd ref="9856001121"/>
  <nd ref="9856001122"/>
  <nd ref="9856001123"/>
  <nd ref="9856001124"/>
  <nd ref="9856001125"/>
  <nd ref="9856001126"/>
  <nd ref="9856001127"/>
  <nd ref="9856001128"/>
  <nd ref="9856001129"/>
  <nd ref="9856001130"/>
  <nd ref="1337850575"/>
  <nd ref="1337846319"/>
  <nd ref="1337847241"/>
  <nd ref="9856001131"/>
  <nd ref="1337850617"/>
  <nd ref="1337851372"/>
  <nd ref="9856001132"/>
  <nd ref="1337850224"/>
  <nd ref="9856001133"/>
  <nd ref="1337850977"/>
  <nd ref="1337848447"/>
  <nd ref="9856001134"/>
  <nd ref="9856001135"/>
  <nd ref="9856001136"/>
  <nd ref="9856001137"/>
  <nd ref="1337849232"/>
  <nd ref="1337850535"/>
  <nd ref="1337851290"/>
  <nd ref="1337848762"/>
  <nd ref="1337849548"/>
  <nd ref="9856001138"/>
  <nd ref="9856001139"/>
  <nd ref="1337848361"/>
  <nd ref="1337849148"/>
  <nd ref="1337852036"/>
  <nd ref="1337847066"/>
  <nd ref="9856001140"/>
  <nd ref="1337849191"/>
  <nd ref="9856001141"/>
  <nd ref="1337849959"/>
  <nd ref="9856001142"/>
  <nd ref="9856001143"/>
  <nd ref="9856001144"/>
  <nd ref="9856001145"/>
  <nd ref="9856001146"/>
  <nd ref="9856001147"/>
  <nd ref="9856001148"/>
  <nd ref="9856001149"/>
  <nd ref="1337847158"/>
  <nd ref="9856001150"/>
  <nd ref="9856001151"/>
  <nd ref="9856001152"/>
  <nd ref="9856001153"/>
  <nd ref="1337848404"/>
  <nd ref="9856001154"/>
  <nd ref="1337846633"/>
  <nd ref="9856001155"/>
  <nd ref="1337847866"/>
  <nd ref="9856001156"/>
  <nd ref="9856001157"/>
  <nd ref="9856001158"/>
  <nd ref="1337850936"/>
  <nd ref="9856001159"/>
  <nd ref="1337851683"/>
  <nd ref="9856001160"/>
  <nd ref="1337846983"/>
  <nd ref="1337848319"/>
  <nd ref="1337851247"/>
  <nd ref="9855515182"/>
  <nd ref="9855515183"/>
  <nd ref="9855515184"/>
  <nd ref="1337851991"/>
  <nd ref="1337850850"/>
  <nd ref="1337851596"/>
  <nd ref="1337849091"/>
  <nd ref="1337849872"/>
  <nd ref="1337851639"/>
  <nd ref="9855515185"/>
  <nd ref="9855515186"/>
  <nd ref="1337846588"/>
  <nd ref="1337849915"/>
  <nd ref="1337850893"/>
  <nd ref="1337849504"/>
  <nd ref="1337850491"/>
  <nd ref="1337847773"/>
  <nd ref="1337848719"/>
  <nd ref="9855515187"/>
  <nd ref="9855515188"/>
  <nd ref="9855515189"/>
  <nd ref="1337849830"/>
  <nd ref="1337850807"/>
  <tag k="highway" v="residential"/>
  <tag k="source" v="YahooJapan/ALPSMAP"/>
 </way>
 <way id="119009046" visible="true" version="3" changeset="123007570" timestamp="2022-06-29T15:05:01Z" user="AYAGE" uid="521665">
  <nd ref="1337849392"/>
  <nd ref="1337848209"/>
  <nd ref="1337849262"/>
  <nd ref="1337849721"/>
  <nd ref="9856001209"/>
  <nd ref="9856001210"/>
  <nd ref="1337847560"/>
  <nd ref="9856001211"/>
  <nd ref="9856001212"/>
  <nd ref="9856001213"/>
  <nd ref="1337848958"/>
  <nd ref="1337846790"/>
  <nd ref="1337847383"/>
  <nd ref="1337848915"/>
  <nd ref="1337849305"/>
  <nd ref="1337849775"/>
  <tag k="highway" v="path"/>
  <tag k="source" v="YahooJapan/ALPSMAP"/>
 </way>
 <way id="148285700" visible="true" version="4" changeset="123007570" timestamp="2022-06-29T15:05:01Z" user="AYAGE" uid="521665">
  <nd ref="1613882121"/>
  <nd ref="9855515151"/>
  <nd ref="9855515152"/>
  <nd ref="9855515153"/>
  <nd ref="9855515154"/>
  <nd ref="9855515155"/>
  <nd ref="9855515156"/>
  <nd ref="9855515157"/>
  <nd ref="9855515158"/>
  <nd ref="1613882107"/>
  <nd ref="9855515159"/>
  <nd ref="9855515160"/>
  <nd ref="1613882141"/>
  <nd ref="9855515161"/>
  <nd ref="9855515162"/>
  <nd ref="1613882205"/>
  <nd ref="9855515163"/>
  <nd ref="1613882218"/>
  <nd ref="9855515164"/>
  <nd ref="9855515165"/>
  <nd ref="9855515166"/>
  <nd ref="9855515167"/>
  <nd ref="9855515168"/>
  <nd ref="1613882221"/>
  <nd ref="9855515169"/>
  <nd ref="9855515170"/>
  <nd ref="9855515171"/>
  <nd ref="1613882215"/>
  <nd ref="9856001239"/>
  <nd ref="1613882183"/>
  <nd ref="9856001238"/>
  <nd ref="9856001237"/>
  <nd ref="9856001236"/>
  <nd ref="9856001235"/>
  <nd ref="9856001234"/>
  <nd ref="1613882057"/>
  <nd ref="9856001233"/>
  <nd ref="9856001232"/>
  <nd ref="9856001231"/>
  <nd ref="9856001230"/>
  <nd ref="9856001229"/>
  <nd ref="9856001228"/>
  <nd ref="1613881960"/>
  <nd ref="9856001227"/>
  <nd ref="1613881895"/>
  <nd ref="9856001226"/>
  <nd ref="9856001225"/>
  <nd ref="1613881916"/>
  <nd ref="1613881986"/>
  <nd ref="1613882035"/>
  <nd ref="1613882054"/>
  <nd ref="1613882084"/>
  <nd ref="9856001224"/>
  <nd ref="9856001223"/>
  <nd ref="9856001222"/>
  <nd ref="9856001221"/>
  <nd ref="9856001220"/>
  <nd ref="9856001219"/>
  <nd ref="1613882087"/>
  <nd ref="9856001218"/>
  <nd ref="9856001217"/>
  <nd ref="9856001216"/>
  <nd ref="9856001215"/>
  <nd ref="9856001214"/>
  <nd ref="1613882170"/>
  <nd ref="1613882165"/>
  <nd ref="9855515190"/>
  <nd ref="9855515191"/>
  <nd ref="1613882167"/>
  <nd ref="9855515192"/>
  <nd ref="9855515193"/>
  <nd ref="9855515196"/>
  <nd ref="1613882175"/>
  <nd ref="9855515197"/>
  <nd ref="9855515198"/>
  <nd ref="1613882213"/>
  <nd ref="9855515199"/>
  <nd ref="9855515200"/>
  <nd ref="9855515201"/>
  <nd ref="1613882247"/>
  <nd ref="9855515202"/>
  <nd ref="9855515203"/>
  <nd ref="1613882272"/>
  <nd ref="9855516029"/>
  <nd ref="9855516030"/>
  <nd ref="1613882313"/>
  <nd ref="1613882331"/>
  <nd ref="1613882369"/>
  <nd ref="9855516031"/>
  <nd ref="9855516032"/>
  <nd ref="9855516033"/>
  <nd ref="9855516034"/>
  <nd ref="1613882428"/>
  <nd ref="9855516035"/>
  <nd ref="9855516036"/>
  <nd ref="1613882492"/>
  <nd ref="9855516037"/>
  <nd ref="9855516038"/>
  <nd ref="9855516045"/>
  <nd ref="9855516046"/>
  <nd ref="9855516039"/>
  <nd ref="9855516047"/>
  <nd ref="9855516048"/>
  <nd ref="9855516049"/>
  <nd ref="9855516050"/>
  <nd ref="1613882468"/>
  <nd ref="9855516051"/>
  <nd ref="1613882384"/>
  <nd ref="9855516052"/>
  <nd ref="1613882337"/>
  <nd ref="9855516055"/>
  <nd ref="1613882323"/>
  <nd ref="9855516054"/>
  <nd ref="1613882321"/>
  <nd ref="9855516053"/>
  <nd ref="1613882292"/>
  <nd ref="9855515146"/>
  <nd ref="1613882245"/>
  <nd ref="9855515147"/>
  <nd ref="9855515148"/>
  <nd ref="1613882225"/>
  <nd ref="1613882219"/>
  <nd ref="1613882202"/>
  <nd ref="1613882172"/>
  <nd ref="9855515149"/>
  <nd ref="1613882163"/>
  <nd ref="9855515150"/>
  <nd ref="1613882121"/>
  <tag k="source" v="MLIT, Japan"/>
 </way>
 <way id="1074483127" visible="true" version="1" changeset="122996402" timestamp="2022-06-29T10:47:48Z" user="AYAGE" uid="521665">
  <nd ref="1337848609"/>
  <nd ref="9855515181"/>
  <nd ref="9855515180"/>
  <nd ref="9855515179"/>
  <nd ref="9855515178"/>
  <nd ref="9855515177"/>
  <nd ref="9855515176"/>
  <nd ref="9855515175"/>
  <nd ref="9855515174"/>
  <nd ref="9855515173"/>
  <nd ref="9855515172"/>
  <nd ref="9855515195"/>
  <tag k="highway" v="unclassified"/>
 </way>
 <way id="1074483128" visible="true" version="1" changeset="122996402" timestamp="2022-06-29T10:47:48Z" user="AYAGE" uid="521665">
  <nd ref="1337848276"/>
  <nd ref="9855516027"/>
  <nd ref="9855516026"/>
  <nd ref="9855516025"/>
  <nd ref="9855516024"/>
  <nd ref="9855516023"/>
  <nd ref="9855516022"/>
  <nd ref="9855516021"/>
  <nd ref="9855516020"/>
  <nd ref="9855516019"/>
  <nd ref="9855516018"/>
  <nd ref="9855516017"/>
  <nd ref="9855515216"/>
  <nd ref="9855515215"/>
  <nd ref="9855515214"/>
  <nd ref="9855515213"/>
  <nd ref="9855515212"/>
  <nd ref="9855515211"/>
  <nd ref="9855515210"/>
  <nd ref="9855515209"/>
  <nd ref="9855515208"/>
  <nd ref="9855515207"/>
  <nd ref="9855515206"/>
  <nd ref="9855515205"/>
  <nd ref="9855515204"/>
  <tag k="highway" v="unclassified"/>
 </way>
 <way id="1074483129" visible="true" version="1" changeset="122996402" timestamp="2022-06-29T10:47:48Z" user="AYAGE" uid="521665">
  <nd ref="9855516093"/>
  <nd ref="1337848501"/>
  <nd ref="9855516094"/>
  <nd ref="1337848096"/>
  <nd ref="1337848633"/>
  <nd ref="1337851554"/>
  <nd ref="1337846503"/>
  <nd ref="1337848675"/>
  <nd ref="1337849462"/>
  <nd ref="1337846544"/>
  <nd ref="1337847688"/>
  <nd ref="9855516095"/>
  <nd ref="1337851949"/>
  <nd ref="1337846900"/>
  <nd ref="9855516096"/>
  <nd ref="1337850448"/>
  <nd ref="1337851137"/>
  <nd ref="9855516097"/>
  <nd ref="1337846437"/>
  <nd ref="1337850694"/>
  <nd ref="1337851049"/>
  <nd ref="1337849764"/>
  <nd ref="1337851573"/>
  <tag k="highway" v="unclassified"/>
  <tag k="name" v="林道師木野線"/>
 </way>
 <way id="1074483131" visible="true" version="1" changeset="122996402" timestamp="2022-06-29T10:47:48Z" user="AYAGE" uid="521665">
  <nd ref="1337851573"/>
  <nd ref="1337848520"/>
  <tag k="bridge" v="yes"/>
  <tag k="highway" v="unclassified"/>
  <tag k="layer" v="1"/>
  <tag k="name" v="林道師木野線"/>
 </way>
 <way id="1074642433" visible="true" version="1" changeset="123021672" timestamp="2022-06-29T22:22:39Z" user="AYAGE" uid="521665">
  <nd ref="1337848520"/>
  <nd ref="1337848609"/>
  <nd ref="1337850807"/>
  <nd ref="1337848477"/>
  <nd ref="1337851094"/>
  <nd ref="1337850741"/>
  <nd ref="1337850826"/>
  <nd ref="1337849351"/>
  <nd ref="1337851180"/>
  <nd ref="1337851446"/>
  <nd ref="1337846833"/>
  <nd ref="1337848011"/>
  <nd ref="1337850254"/>
  <nd ref="1337850425"/>
  <nd ref="1337850382"/>
  <nd ref="1337851491"/>
  <nd ref="1337851839"/>
  <nd ref="1337851882"/>
  <nd ref="1337849775"/>
  <nd ref="9856001208"/>
  <nd ref="9856001207"/>
  <nd ref="1337850752"/>
  <nd ref="1337849362"/>
  <nd ref="1337850350"/>
  <nd ref="1337847493"/>
  <nd ref="1337850393"/>
  <nd ref="1337851148"/>
  <nd ref="1337848620"/>
  <nd ref="1337848220"/>
  <nd ref="1337848976"/>
  <nd ref="1337851894"/>
  <nd ref="1337846844"/>
  <nd ref="1337848531"/>
  <nd ref="1337849316"/>
  <nd ref="1337846404"/>
  <nd ref="1337847403"/>
  <nd ref="1337851807"/>
  <nd ref="1337850306"/>
  <nd ref="1337851060"/>
  <nd ref="1337846801"/>
  <nd ref="1337848177"/>
  <nd ref="1337851105"/>
  <nd ref="1337851850"/>
  <nd ref="1337850708"/>
  <nd ref="1337851458"/>
  <nd ref="1337848926"/>
  <nd ref="1337849732"/>
  <nd ref="1337851020"/>
  <nd ref="1337851766"/>
  <nd ref="1337849275"/>
  <nd ref="1337850266"/>
  <nd ref="1337849627"/>
  <nd ref="1337846717"/>
  <nd ref="1337848035"/>
  <nd ref="1337849669"/>
  <nd ref="1337850661"/>
  <nd ref="1337848123"/>
  <nd ref="1337848883"/>
  <nd ref="1337847320"/>
  <nd ref="1337848489"/>
  <nd ref="1337851415"/>
  <nd ref="1337846361"/>
  <nd ref="9856001206"/>
  <nd ref="1337847945"/>
  <nd ref="1337848800"/>
  <nd ref="1337851723"/>
  <nd ref="1337846674"/>
  <nd ref="1337851330"/>
  <nd ref="1337848890"/>
  <nd ref="1337848283"/>
  <nd ref="1337850297"/>
  <nd ref="9856759553"/>
  <nd ref="9856759552"/>
  <nd ref="1337846928"/>
  <nd ref="1337848281"/>
  <tag k="highway" v="unclassified"/>
  <tag k="name" v="林道師木野線"/>
 </way>
 <relation id="1999939" visible="true" version="59" changeset="132937419" timestamp="2023-02-23T17:48:32Z" user="AYAGE" uid="521665">
  <member type="way" ref="148285679" role="outer"/>
  <member type="way" ref="1058360594" role="outer"/>
  <member type="way" ref="1056516466" role="outer"/>
  <member type="way" ref="1056657562" role="outer"/>
  <member type="way" ref="1057669149" role="outer"/>
  <member type="way" ref="1057941267" role="outer"/>
  <member type="way" ref="768554865" role="outer"/>
  <member type="way" ref="1058040761" role="outer"/>
  <member type="way" ref="1073205432" role="outer"/>
  <member type="way" ref="1073927115" role="outer"/>
  <member type="way" ref="1080450919" role="outer"/>
  <member type="way" ref="1080158233" role="outer"/>
  <member type="way" ref="1079809991" role="outer"/>
  <member type="way" ref="1144449068" role="outer"/>
  <member type="way" ref="1147380533" role="outer"/>
  <member type="way" ref="1147066648" role="outer"/>
  <member type="way" ref="1148132147" role="outer"/>
  <member type="way" ref="768554862" role="outer"/>
  <member type="way" ref="1148911832" role="outer"/>
  <member type="way" ref="1075357970" role="outer"/>
  <member type="way" ref="1075357971" role="outer"/>
  <member type="way" ref="1076382817" role="outer"/>
  <member type="way" ref="1076609336" role="outer"/>
  <member type="way" ref="1076609338" role="outer"/>
  <member type="way" ref="148285713" role="inner"/>
  <member type="way" ref="148285711" role="inner"/>
  <member type="way" ref="148285705" role="inner"/>
  <member type="way" ref="148285706" role="inner"/>
  <member type="way" ref="1074891442" role="inner"/>
  <member type="way" ref="148285709" role="inner"/>
  <member type="way" ref="148285700" role="inner"/>
  <member type="way" ref="148285708" role="inner"/>
  <member type="way" ref="148285716" role="inner"/>
  <member type="way" ref="148285712" role="inner"/>
  <member type="way" ref="148285715" role="inner"/>
  <member type="way" ref="931156376" role="inner"/>
  <member type="way" ref="1057941269" role="inner"/>
  <member type="way" ref="1058360592" role="inner"/>
  <member type="way" ref="1073625222" role="inner"/>
  <member type="way" ref="1074891441" role="outer"/>
  <member type="way" ref="1076443923" role="inner"/>
  <member type="way" ref="1076443924" role="inner"/>
  <member type="way" ref="1076469747" role="inner"/>
  <member type="way" ref="1080073695" role="inner"/>
  <tag k="natural" v="wood"/>
  <tag k="note" v="A13-06_35.xml"/>
  <tag k="source" v="MLIT, Japan"/>
  <tag k="source:ja" v="国土数値情報（森林地域データ）平成18年　国土交通省"/>
  <tag k="source_ref" v="http://nlftp.mlit.go.jp/ksj/jpgis/datalist/KsjTmplt-A13.html"/>
  <tag k="type" v="multipolygon"/>
 </relation>
</osm>
