<?xml version="1.0" encoding="UTF-8"?>
<osm version="0.6" generator="openstreetmap-cgimap 2.1.0 (2942771 spike-08.openstreetmap.org)" copyright="OpenStreetMap and contributors" attribution="http://www.openstreetmap.org/copyright" license="http://opendatacommons.org/licenses/odbl/1-0/">
 <bounds minlat="34.1881044" minlon="132.0224526" maxlat="34.1905294" maxlon="132.0254754"/>
 <node id="749459121" visible="true" version="1" changeset="4814433" timestamp="2010-05-26T17:02:13Z" user="Tom_G3X" uid="146930" lat="34.1888840" lon="132.0270290"/>
 <node id="1334175695" visible="true" version="1" changeset="8510736" timestamp="2011-06-22T04:12:10Z" user="yamasan" uid="32308" lat="34.1894880" lon="132.0232690"/>
 <node id="1334175714" visible="true" version="1" changeset="8510736" timestamp="2011-06-22T04:12:11Z" user="yamasan" uid="32308" lat="34.1898610" lon="132.0297110"/>
 <node id="1334175794" visible="true" version="1" changeset="8510736" timestamp="2011-06-22T04:12:14Z" user="yamasan" uid="32308" lat="34.1893610" lon="132.0225510"/>
 <node id="1334175821" visible="true" version="1" changeset="8510736" timestamp="2011-06-22T04:12:15Z" user="yamasan" uid="32308" lat="34.1894240" lon="132.0194950"/>
 <node id="1334175921" visible="true" version="1" changeset="8510736" timestamp="2011-06-22T04:12:19Z" user="yamasan" uid="32308" lat="34.1894190" lon="132.0195320"/>
 <node id="1334176020" visible="true" version="1" changeset="8510736" timestamp="2011-06-22T04:12:23Z" user="yamasan" uid="32308" lat="34.1888220" lon="132.0229760"/>
 <node id="1334176179" visible="true" version="1" changeset="8510736" timestamp="2011-06-22T04:12:27Z" user="yamasan" uid="32308" lat="34.1900940" lon="132.0303420"/>
 <node id="1334176226" visible="true" version="1" changeset="8510736" timestamp="2011-06-22T04:12:29Z" user="yamasan" uid="32308" lat="34.1866880" lon="132.0177340"/>
 <node id="1334176258" visible="true" version="1" changeset="8510736" timestamp="2011-06-22T04:12:30Z" user="yamasan" uid="32308" lat="34.1893200" lon="132.0200600"/>
 <node id="1334176491" visible="true" version="1" changeset="8510736" timestamp="2011-06-22T04:12:39Z" user="yamasan" uid="32308" lat="34.1885050" lon="132.0230730"/>
 <node id="1334176509" visible="true" version="1" changeset="8510736" timestamp="2011-06-22T04:12:40Z" user="yamasan" uid="32308" lat="34.1889850" lon="132.0280470"/>
 <node id="1334176595" visible="true" version="1" changeset="8510736" timestamp="2011-06-22T04:12:43Z" user="yamasan" uid="32308" lat="34.1926020" lon="132.0239580"/>
 <node id="1334176622" visible="true" version="1" changeset="8510736" timestamp="2011-06-22T04:12:44Z" user="yamasan" uid="32308" lat="34.1902970" lon="132.0307350"/>
 <node id="1334176719" visible="true" version="1" changeset="8510736" timestamp="2011-06-22T04:12:47Z" user="yamasan" uid="32308" lat="34.1885530" lon="132.0256280"/>
 <node id="1334176958" visible="true" version="1" changeset="8510736" timestamp="2011-06-22T04:12:56Z" user="yamasan" uid="32308" lat="34.1898210" lon="132.0253710"/>
 <node id="1334176975" visible="true" version="1" changeset="8510736" timestamp="2011-06-22T04:12:57Z" user="yamasan" uid="32308" lat="34.1887920" lon="132.0288250"/>
 <node id="1334177059" visible="true" version="1" changeset="8510736" timestamp="2011-06-22T04:13:00Z" user="yamasan" uid="32308" lat="34.1893570" lon="132.0203400"/>
 <node id="1334177079" visible="true" version="1" changeset="8510736" timestamp="2011-06-22T04:13:01Z" user="yamasan" uid="32308" lat="34.1904830" lon="132.0307920"/>
 <node id="1334177164" visible="true" version="1" changeset="8510736" timestamp="2011-06-22T04:13:04Z" user="yamasan" uid="32308" lat="34.1893860" lon="132.0204620"/>
 <node id="1334177245" visible="true" version="1" changeset="8510736" timestamp="2011-06-22T04:13:07Z" user="yamasan" uid="32308" lat="34.1867380" lon="132.0175200"/>
 <node id="1334177266" visible="true" version="1" changeset="8510736" timestamp="2011-06-22T04:13:08Z" user="yamasan" uid="32308" lat="34.1890640" lon="132.0230270"/>
 <node id="1334177367" visible="true" version="1" changeset="8510736" timestamp="2011-06-22T04:13:12Z" user="yamasan" uid="32308" lat="34.1891930" lon="132.0245570"/>
 <node id="1334177397" visible="true" version="1" changeset="8510736" timestamp="2011-06-22T04:13:13Z" user="yamasan" uid="32308" lat="34.1892600" lon="132.0273480"/>
 <node id="1334177414" visible="true" version="1" changeset="8510736" timestamp="2011-06-22T04:13:14Z" user="yamasan" uid="32308" lat="34.1889020" lon="132.0294140"/>
 <node id="1334177500" visible="true" version="1" changeset="8510736" timestamp="2011-06-22T04:13:17Z" user="yamasan" uid="32308" lat="34.1897120" lon="132.0227930"/>
 <node id="1334177519" visible="true" version="1" changeset="8510736" timestamp="2011-06-22T04:13:18Z" user="yamasan" uid="32308" lat="34.1908180" lon="132.0305790"/>
 <node id="1334177596" visible="true" version="1" changeset="8510736" timestamp="2011-06-22T04:13:21Z" user="yamasan" uid="32308" lat="34.1896090" lon="132.0232180"/>
 <node id="1334177697" visible="true" version="1" changeset="8510736" timestamp="2011-06-22T04:13:25Z" user="yamasan" uid="32308" lat="34.1884950" lon="132.0259870"/>
 <node id="1334177797" visible="true" version="1" changeset="8510736" timestamp="2011-06-22T04:13:29Z" user="yamasan" uid="32308" lat="34.1885170" lon="132.0260490"/>
 <node id="1334177839" visible="true" version="1" changeset="8510736" timestamp="2011-06-22T04:13:30Z" user="yamasan" uid="32308" lat="34.1891250" lon="132.0232200"/>
 <node id="1334177856" visible="true" version="1" changeset="8510736" timestamp="2011-06-22T04:13:31Z" user="yamasan" uid="32308" lat="34.1893500" lon="132.0298010"/>
 <node id="1334177941" visible="true" version="1" changeset="8510736" timestamp="2011-06-22T04:13:34Z" user="yamasan" uid="32308" lat="34.1893130" lon="132.0247180"/>
 <node id="1334177955" visible="true" version="1" changeset="8510736" timestamp="2011-06-22T04:13:35Z" user="yamasan" uid="32308" lat="34.1891530" lon="132.0189580"/>
 <node id="1334178040" visible="true" version="1" changeset="8510736" timestamp="2011-06-22T04:13:38Z" user="yamasan" uid="32308" lat="34.1892940" lon="132.0247630"/>
 <node id="1334178143" visible="true" version="1" changeset="8510736" timestamp="2011-06-22T04:13:43Z" user="yamasan" uid="32308" lat="34.1890370" lon="132.0243700"/>
 <node id="1334178270" visible="true" version="1" changeset="8510736" timestamp="2011-06-22T04:13:48Z" user="yamasan" uid="32308" lat="34.1889920" lon="132.0279750"/>
 <node id="1334178290" visible="true" version="1" changeset="8510736" timestamp="2011-06-22T04:13:48Z" user="yamasan" uid="32308" lat="34.1898180" lon="132.0297330"/>
 <node id="1334178371" visible="true" version="1" changeset="8510736" timestamp="2011-06-22T04:13:52Z" user="yamasan" uid="32308" lat="34.1888220" lon="132.0268060"/>
 <node id="1334178470" visible="true" version="1" changeset="8510736" timestamp="2011-06-22T04:13:56Z" user="yamasan" uid="32308" lat="34.1919640" lon="132.0242850"/>
 <node id="1334178471" visible="true" version="1" changeset="8510736" timestamp="2011-06-22T04:13:56Z" user="yamasan" uid="32308" lat="34.1892100" lon="132.0190790"/>
 <node id="1334178568" visible="true" version="1" changeset="8510736" timestamp="2011-06-22T04:14:00Z" user="yamasan" uid="32308" lat="34.1922060" lon="132.0241360"/>
 <node id="1334178595" visible="true" version="1" changeset="8510736" timestamp="2011-06-22T04:14:01Z" user="yamasan" uid="32308" lat="34.1892290" lon="132.0249480"/>
 <node id="1334178696" visible="true" version="1" changeset="8510736" timestamp="2011-06-22T04:14:05Z" user="yamasan" uid="32308" lat="34.1892420" lon="132.0249990"/>
 <node id="1334178766" visible="true" version="1" changeset="8510736" timestamp="2011-06-22T04:14:08Z" user="yamasan" uid="32308" lat="34.1866510" lon="132.0191170"/>
 <node id="1334178806" visible="true" version="1" changeset="8510736" timestamp="2011-06-22T04:14:10Z" user="yamasan" uid="32308" lat="34.1892380" lon="132.0239680"/>
 <node id="1334178943" visible="true" version="1" changeset="8510736" timestamp="2011-06-22T04:14:14Z" user="yamasan" uid="32308" lat="34.1886570" lon="132.0250410"/>
 <node id="1334178963" visible="true" version="1" changeset="8510736" timestamp="2011-06-22T04:14:15Z" user="yamasan" uid="32308" lat="34.1899240" lon="132.0298030"/>
 <node id="1334179216" visible="true" version="1" changeset="8510736" timestamp="2011-06-22T04:15:02Z" user="yamasan" uid="32308" lat="34.1886400" lon="132.0251250"/>
 <node id="1334179347" visible="true" version="1" changeset="8510736" timestamp="2011-06-22T04:15:08Z" user="yamasan" uid="32308" lat="34.1885570" lon="132.0230640"/>
 <node id="1334179459" visible="true" version="1" changeset="8510736" timestamp="2011-06-22T04:15:12Z" user="yamasan" uid="32308" lat="34.1930300" lon="132.0238420"/>
 <node id="1334179654" visible="true" version="1" changeset="8510736" timestamp="2011-06-22T04:15:16Z" user="yamasan" uid="32308" lat="34.1872750" lon="132.0213420"/>
 <node id="1334179691" visible="true" version="1" changeset="8510736" timestamp="2011-06-22T04:15:17Z" user="yamasan" uid="32308" lat="34.1902460" lon="132.0304710"/>
 <node id="1334179816" visible="true" version="1" changeset="8510736" timestamp="2011-06-22T04:15:20Z" user="yamasan" uid="32308" lat="34.1892440" lon="132.0272660"/>
 <node id="1334179819" visible="true" version="1" changeset="8510736" timestamp="2011-06-22T04:15:21Z" user="yamasan" uid="32308" lat="34.1891010" lon="132.0184170"/>
 <node id="1334179852" visible="true" version="1" changeset="8510736" timestamp="2011-06-22T04:15:22Z" user="yamasan" uid="32308" lat="34.1891440" lon="132.0188790"/>
 <node id="1334180064" visible="true" version="1" changeset="8510736" timestamp="2011-06-22T04:15:31Z" user="yamasan" uid="32308" lat="34.1872600" lon="132.0211720"/>
 <node id="1334180081" visible="true" version="1" changeset="8510736" timestamp="2011-06-22T04:15:31Z" user="yamasan" uid="32308" lat="34.1889520" lon="132.0283070"/>
 <node id="1334180185" visible="true" version="1" changeset="8510736" timestamp="2011-06-22T04:15:35Z" user="yamasan" uid="32308" lat="34.1891750" lon="132.0271110"/>
 <node id="1334180228" visible="true" version="1" changeset="8510736" timestamp="2011-06-22T04:15:36Z" user="yamasan" uid="32308" lat="34.1903230" lon="132.0308270"/>
 <node id="1334180327" visible="true" version="1" changeset="8510736" timestamp="2011-06-22T04:15:38Z" user="yamasan" uid="32308" lat="34.1867500" lon="132.0174860"/>
 <node id="1334180349" visible="true" version="1" changeset="8510736" timestamp="2011-06-22T04:15:39Z" user="yamasan" uid="32308" lat="34.1895200" lon="132.0234790"/>
 <node id="1334180455" visible="true" version="1" changeset="8510736" timestamp="2011-06-22T04:15:43Z" user="yamasan" uid="32308" lat="34.1901490" lon="132.0253660"/>
 <node id="1334180583" visible="true" version="1" changeset="8510736" timestamp="2011-06-22T04:15:49Z" user="yamasan" uid="32308" lat="34.1893330" lon="132.0201950"/>
 <node id="1334180600" visible="true" version="1" changeset="8510736" timestamp="2011-06-22T04:15:50Z" user="yamasan" uid="32308" lat="34.1887980" lon="132.0290550"/>
 <node id="1334180686" visible="true" version="1" changeset="8510736" timestamp="2011-06-22T04:15:53Z" user="yamasan" uid="32308" lat="34.1932160" lon="132.0231340"/>
 <node id="1334180706" visible="true" version="1" changeset="8510736" timestamp="2011-06-22T04:15:54Z" user="yamasan" uid="32308" lat="34.1906650" lon="132.0305690"/>
 <node id="1334180791" visible="true" version="1" changeset="8510736" timestamp="2011-06-22T04:15:58Z" user="yamasan" uid="32308" lat="34.1933610" lon="132.0224830"/>
 <node id="1334180905" visible="true" version="1" changeset="8510736" timestamp="2011-06-22T04:16:02Z" user="yamasan" uid="32308" lat="34.1875120" lon="132.0224020"/>
 <node id="1334181022" visible="true" version="1" changeset="8510736" timestamp="2011-06-22T04:16:07Z" user="yamasan" uid="32308" lat="34.1875620" lon="132.0224590"/>
 <node id="1334181053" visible="true" version="1" changeset="8510736" timestamp="2011-06-22T04:16:08Z" user="yamasan" uid="32308" lat="34.1903870" lon="132.0251250"/>
 <node id="1334181070" visible="true" version="1" changeset="8510736" timestamp="2011-06-22T04:16:09Z" user="yamasan" uid="32308" lat="34.1890470" lon="132.0295930"/>
 <node id="1334181249" visible="true" version="1" changeset="8510736" timestamp="2011-06-22T04:16:13Z" user="yamasan" uid="32308" lat="34.1884770" lon="132.0258780"/>
 <node id="1334181286" visible="true" version="1" changeset="8510736" timestamp="2011-06-22T04:16:14Z" user="yamasan" uid="32308" lat="34.1912090" lon="132.0308570"/>
 <node id="1334181445" visible="true" version="1" changeset="8510736" timestamp="2011-06-22T04:16:18Z" user="yamasan" uid="32308" lat="34.1884800" lon="132.0259280"/>
 <node id="1334181636" visible="true" version="1" changeset="8510736" timestamp="2011-06-22T04:16:22Z" user="yamasan" uid="32308" lat="34.1892240" lon="132.0233480"/>
 <node id="1334181892" visible="true" version="1" changeset="8510736" timestamp="2011-06-22T04:16:28Z" user="yamasan" uid="32308" lat="34.1893990" lon="132.0193370"/>
 <node id="1334181932" visible="true" version="1" changeset="8510736" timestamp="2011-06-22T04:16:29Z" user="yamasan" uid="32308" lat="34.1895790" lon="132.0298550"/>
 <node id="1334182039" visible="true" version="1" changeset="8510736" timestamp="2011-06-22T04:16:33Z" user="yamasan" uid="32308" lat="34.1938720" lon="132.0212770"/>
 <node id="1334182142" visible="true" version="2" changeset="103126185" timestamp="2021-04-18T07:35:40Z" user="Juliet225" uid="10103365" lat="34.1942151" lon="132.0196409"/>
 <node id="1334182373" visible="true" version="1" changeset="8510736" timestamp="2011-06-22T04:16:47Z" user="yamasan" uid="32308" lat="34.1887870" lon="132.0267470"/>
 <node id="1334182475" visible="true" version="1" changeset="8510736" timestamp="2011-06-22T04:16:51Z" user="yamasan" uid="32308" lat="34.1894260" lon="132.0233260"/>
 <node id="1334182598" visible="true" version="1" changeset="8510736" timestamp="2011-06-22T04:16:56Z" user="yamasan" uid="32308" lat="34.1893430" lon="132.0225120"/>
 <node id="1334182747" visible="true" version="1" changeset="8510736" timestamp="2011-06-22T04:17:00Z" user="yamasan" uid="32308" lat="34.1889280" lon="132.0269070"/>
 <node id="1334182769" visible="true" version="1" changeset="8510736" timestamp="2011-06-22T04:17:01Z" user="yamasan" uid="32308" lat="34.1891620" lon="132.0189950"/>
 <node id="1334182774" visible="true" version="1" changeset="8510736" timestamp="2011-06-22T04:17:02Z" user="yamasan" uid="32308" lat="34.1891390" lon="132.0241400"/>
 <node id="1334182877" visible="true" version="1" changeset="8510736" timestamp="2011-06-22T04:17:06Z" user="yamasan" uid="32308" lat="34.1891940" lon="132.0240290"/>
 <node id="1334182977" visible="true" version="1" changeset="8510736" timestamp="2011-06-22T04:17:11Z" user="yamasan" uid="32308" lat="34.1941420" lon="132.0198800"/>
 <node id="1334183106" visible="true" version="1" changeset="8510736" timestamp="2011-06-22T04:17:15Z" user="yamasan" uid="32308" lat="34.1888780" lon="132.0229650"/>
 <node id="1334183125" visible="true" version="1" changeset="8510736" timestamp="2011-06-22T04:17:16Z" user="yamasan" uid="32308" lat="34.1900270" lon="132.0302340"/>
 <node id="1334183316" visible="true" version="1" changeset="8510736" timestamp="2011-06-22T04:18:16Z" user="yamasan" uid="32308" lat="34.1889390" lon="132.0229640"/>
 <node id="1334183590" visible="true" version="1" changeset="8510736" timestamp="2011-06-22T04:18:26Z" user="yamasan" uid="32308" lat="34.1940470" lon="132.0207000"/>
 <node id="1334183695" visible="true" version="1" changeset="8510736" timestamp="2011-06-22T04:18:31Z" user="yamasan" uid="32308" lat="34.1895810" lon="132.0233740"/>
 <node id="1334183715" visible="true" version="1" changeset="8510736" timestamp="2011-06-22T04:18:32Z" user="yamasan" uid="32308" lat="34.1903000" lon="132.0306000"/>
 <node id="1334183798" visible="true" version="1" changeset="8510736" timestamp="2011-06-22T04:18:36Z" user="yamasan" uid="32308" lat="34.1902450" lon="132.0253100"/>
 <node id="1334184024" visible="true" version="1" changeset="8510736" timestamp="2011-06-22T04:18:46Z" user="yamasan" uid="32308" lat="34.1891830" lon="132.0190400"/>
 <node id="1334184032" visible="true" version="1" changeset="8510736" timestamp="2011-06-22T04:18:46Z" user="yamasan" uid="32308" lat="34.1893960" lon="132.0225900"/>
 <node id="1334184049" visible="true" version="1" changeset="8510736" timestamp="2011-06-22T04:18:47Z" user="yamasan" uid="32308" lat="34.1888050" lon="132.0286890"/>
 <node id="1334184146" visible="true" version="1" changeset="8510736" timestamp="2011-06-22T04:18:51Z" user="yamasan" uid="32308" lat="34.1886020" lon="132.0254210"/>
 <node id="1334184167" visible="true" version="1" changeset="8510736" timestamp="2011-06-22T04:18:52Z" user="yamasan" uid="32308" lat="34.1904310" lon="132.0308190"/>
 <node id="1334184252" visible="true" version="1" changeset="8510736" timestamp="2011-06-22T04:18:55Z" user="yamasan" uid="32308" lat="34.1885830" lon="132.0255300"/>
 <node id="1334184358" visible="true" version="1" changeset="8510736" timestamp="2011-06-22T04:19:00Z" user="yamasan" uid="32308" lat="34.1894320" lon="132.0206240"/>
 <node id="1334184460" visible="true" version="1" changeset="8510736" timestamp="2011-06-22T04:19:05Z" user="yamasan" uid="32308" lat="34.1890940" lon="132.0230820"/>
 <node id="1334184491" visible="true" version="1" changeset="8510736" timestamp="2011-06-22T04:19:06Z" user="yamasan" uid="32308" lat="34.1873400" lon="132.0219950"/>
 <node id="1334184507" visible="true" version="1" changeset="8510736" timestamp="2011-06-22T04:19:07Z" user="yamasan" uid="32308" lat="34.1888500" lon="132.0292900"/>
 <node id="1334184595" visible="true" version="1" changeset="8510736" timestamp="2011-06-22T04:19:11Z" user="yamasan" uid="32308" lat="34.1892550" lon="132.0274620"/>
 <node id="1334184614" visible="true" version="1" changeset="8510736" timestamp="2011-06-22T04:19:12Z" user="yamasan" uid="32308" lat="34.1907550" lon="132.0305480"/>
 <node id="1334184698" visible="true" version="1" changeset="8510736" timestamp="2011-06-22T04:19:16Z" user="yamasan" uid="32308" lat="34.1892270" lon="132.0275510"/>
 <node id="1334184800" visible="true" version="1" changeset="8510736" timestamp="2011-06-22T04:19:20Z" user="yamasan" uid="32308" lat="34.1908380" lon="132.0246310"/>
 <node id="1334184903" visible="true" version="1" changeset="8510736" timestamp="2011-06-22T04:19:25Z" user="yamasan" uid="32308" lat="34.1911530" lon="132.0245430"/>
 <node id="1334184935" visible="true" version="1" changeset="8510736" timestamp="2011-06-22T04:19:26Z" user="yamasan" uid="32308" lat="34.1895430" lon="132.0209100"/>
 <node id="1334184952" visible="true" version="1" changeset="8510736" timestamp="2011-06-22T04:19:27Z" user="yamasan" uid="32308" lat="34.1892400" lon="132.0297490"/>
 <node id="1334184991" visible="true" version="1" changeset="8510736" timestamp="2011-06-22T04:19:29Z" user="yamasan" uid="32308" lat="34.1866980" lon="132.0176240"/>
 <node id="1334185038" visible="true" version="1" changeset="8510736" timestamp="2011-06-22T04:19:31Z" user="yamasan" uid="32308" lat="34.1891430" lon="132.0232650"/>
 <node id="1334185067" visible="true" version="1" changeset="8510736" timestamp="2011-06-22T04:19:32Z" user="yamasan" uid="32308" lat="34.1918340" lon="132.0314590"/>
 <node id="1334185185" visible="true" version="1" changeset="8510736" timestamp="2011-06-22T04:19:36Z" user="yamasan" uid="32308" lat="34.1891820" lon="132.0233100"/>
 <node id="1334185287" visible="true" version="1" changeset="8510736" timestamp="2011-06-22T04:19:41Z" user="yamasan" uid="32308" lat="34.1888880" lon="132.0245700"/>
 <node id="1334185417" visible="true" version="1" changeset="8510736" timestamp="2011-06-22T04:19:47Z" user="yamasan" uid="32308" lat="34.1877330" lon="132.0226030"/>
 <node id="1334185437" visible="true" version="1" changeset="8510736" timestamp="2011-06-22T04:19:47Z" user="yamasan" uid="32308" lat="34.1897220" lon="132.0298060"/>
 <node id="1334185521" visible="true" version="1" changeset="8510736" timestamp="2011-06-22T04:19:51Z" user="yamasan" uid="32308" lat="34.1916880" lon="132.0244070"/>
 <node id="1334185621" visible="true" version="1" changeset="8510736" timestamp="2011-06-22T04:19:56Z" user="yamasan" uid="32308" lat="34.1884280" lon="132.0230610"/>
 <node id="1334185723" visible="true" version="1" changeset="8510736" timestamp="2011-06-22T04:20:01Z" user="yamasan" uid="32308" lat="34.1884720" lon="132.0230690"/>
 <node id="1334185751" visible="true" version="1" changeset="8510736" timestamp="2011-06-22T04:20:02Z" user="yamasan" uid="32308" lat="34.1892950" lon="132.0233730"/>
 <node id="1334185854" visible="true" version="1" changeset="8510736" timestamp="2011-06-22T04:20:07Z" user="yamasan" uid="32308" lat="34.1893690" lon="132.0233620"/>
 <node id="1334186000" visible="true" version="1" changeset="8510736" timestamp="2011-06-22T04:20:12Z" user="yamasan" uid="32308" lat="34.1886850" lon="132.0249410"/>
 <node id="1334186103" visible="true" version="1" changeset="8510736" timestamp="2011-06-22T04:20:16Z" user="yamasan" uid="32308" lat="34.1894980" lon="132.0252410"/>
 <node id="1334186124" visible="true" version="1" changeset="8510736" timestamp="2011-06-22T04:20:17Z" user="yamasan" uid="32308" lat="34.1898970" lon="132.0297340"/>
 <node id="1334186128" visible="true" version="1" changeset="8510736" timestamp="2011-06-22T04:20:18Z" user="yamasan" uid="32308" lat="34.1866300" lon="132.0189120"/>
 <node id="1334186210" visible="true" version="1" changeset="8510736" timestamp="2011-06-22T04:20:21Z" user="yamasan" uid="32308" lat="34.1896530" lon="132.0253180"/>
 <node id="1334186340" visible="true" version="1" changeset="8510736" timestamp="2011-06-22T04:20:27Z" user="yamasan" uid="32308" lat="34.1940860" lon="132.0202200"/>
 <node id="1334186542" visible="true" version="1" changeset="8510736" timestamp="2011-06-22T04:20:37Z" user="yamasan" uid="32308" lat="34.1930660" lon="132.0238190"/>
 <node id="1334186562" visible="true" version="1" changeset="8510736" timestamp="2011-06-22T04:20:38Z" user="yamasan" uid="32308" lat="34.1901730" lon="132.0304240"/>
 <node id="1334186644" visible="true" version="1" changeset="8510736" timestamp="2011-06-22T04:20:42Z" user="yamasan" uid="32308" lat="34.1873130" lon="132.0217970"/>
 <node id="1334187606" visible="true" version="1" changeset="8510736" timestamp="2011-06-22T04:23:25Z" user="yamasan" uid="32308" lat="34.1924030" lon="132.0240340"/>
 <node id="1334187624" visible="true" version="1" changeset="8510736" timestamp="2011-06-22T04:23:26Z" user="yamasan" uid="32308" lat="34.1889820" lon="132.0282340"/>
 <node id="1334187705" visible="true" version="1" changeset="8510736" timestamp="2011-06-22T04:23:30Z" user="yamasan" uid="32308" lat="34.1872720" lon="132.0212420"/>
 <node id="1334187726" visible="true" version="1" changeset="8510736" timestamp="2011-06-22T04:23:31Z" user="yamasan" uid="32308" lat="34.1903000" lon="132.0307810"/>
 <node id="1334187810" visible="true" version="1" changeset="8510736" timestamp="2011-06-22T04:23:35Z" user="yamasan" uid="32308" lat="34.1894470" lon="132.0226200"/>
 <node id="1334188052" visible="true" version="1" changeset="8510736" timestamp="2011-06-22T04:23:47Z" user="yamasan" uid="32308" lat="34.1894170" lon="132.0237670"/>
 <node id="1334188084" visible="true" version="1" changeset="8510736" timestamp="2011-06-22T04:23:47Z" user="yamasan" uid="32308" lat="34.1887950" lon="132.0289160"/>
 <node id="1334188182" visible="true" version="1" changeset="8510736" timestamp="2011-06-22T04:23:52Z" user="yamasan" uid="32308" lat="34.1889790" lon="132.0229720"/>
 <node id="1334188203" visible="true" version="1" changeset="8510736" timestamp="2011-06-22T04:23:53Z" user="yamasan" uid="32308" lat="34.1906210" lon="132.0306180"/>
 <node id="1334188289" visible="true" version="1" changeset="8510736" timestamp="2011-06-22T04:23:58Z" user="yamasan" uid="32308" lat="34.1890250" lon="132.0229890"/>
 <node id="1334188395" visible="true" version="1" changeset="8510736" timestamp="2011-06-22T04:24:03Z" user="yamasan" uid="32308" lat="34.1934230" lon="132.0222660"/>
 <node id="1334188498" visible="true" version="1" changeset="8510736" timestamp="2011-06-22T04:24:08Z" user="yamasan" uid="32308" lat="34.1934960" lon="132.0220360"/>
 <node id="1334188530" visible="true" version="1" changeset="8510736" timestamp="2011-06-22T04:24:09Z" user="yamasan" uid="32308" lat="34.1897030" lon="132.0227460"/>
 <node id="1334188547" visible="true" version="1" changeset="8510736" timestamp="2011-06-22T04:24:10Z" user="yamasan" uid="32308" lat="34.1889720" lon="132.0295110"/>
 <node id="1334188635" visible="true" version="1" changeset="8510736" timestamp="2011-06-22T04:24:14Z" user="yamasan" uid="32308" lat="34.1905390" lon="132.0248410"/>
 <node id="1334188654" visible="true" version="1" changeset="8510736" timestamp="2011-06-22T04:24:15Z" user="yamasan" uid="32308" lat="34.1908660" lon="132.0306060"/>
 <node id="1334188738" visible="true" version="1" changeset="8510736" timestamp="2011-06-22T04:24:19Z" user="yamasan" uid="32308" lat="34.1906520" lon="132.0247050"/>
 <node id="1334188837" visible="true" version="1" changeset="8510736" timestamp="2011-06-22T04:24:25Z" user="yamasan" uid="32308" lat="34.1894300" lon="132.0215550"/>
 <node id="1334188969" visible="true" version="1" changeset="8510736" timestamp="2011-06-22T04:24:31Z" user="yamasan" uid="32308" lat="34.1893000" lon="132.0246660"/>
 <node id="1334188986" visible="true" version="1" changeset="8510736" timestamp="2011-06-22T04:24:32Z" user="yamasan" uid="32308" lat="34.1894280" lon="132.0298340"/>
 <node id="1334189072" visible="true" version="1" changeset="8510736" timestamp="2011-06-22T04:24:36Z" user="yamasan" uid="32308" lat="34.1894240" lon="132.0193800"/>
 <node id="1334189092" visible="true" version="2" changeset="134754465" timestamp="2023-04-11T02:34:56Z" user="AYAGE" uid="521665" lat="34.1920335" lon="132.0316313"/>
 <node id="1334189176" visible="true" version="1" changeset="8510736" timestamp="2011-06-22T04:24:41Z" user="yamasan" uid="32308" lat="34.1894310" lon="132.0194100"/>
 <node id="1334189286" visible="true" version="1" changeset="8510736" timestamp="2011-06-22T04:24:46Z" user="yamasan" uid="32308" lat="34.1894310" lon="132.0194550"/>
 <node id="1334189416" visible="true" version="1" changeset="8510736" timestamp="2011-06-22T04:24:53Z" user="yamasan" uid="32308" lat="34.1915020" lon="132.0244750"/>
 <node id="1334189523" visible="true" version="1" changeset="8510736" timestamp="2011-06-22T04:24:58Z" user="yamasan" uid="32308" lat="34.1893340" lon="132.0224430"/>
 <node id="1334189625" visible="true" version="1" changeset="8510736" timestamp="2011-06-22T04:25:03Z" user="yamasan" uid="32308" lat="34.1888680" lon="132.0268570"/>
 <node id="1334189731" visible="true" version="1" changeset="8510736" timestamp="2011-06-22T04:25:08Z" user="yamasan" uid="32308" lat="34.1872380" lon="132.0211070"/>
 <node id="1334189758" visible="true" version="1" changeset="8510736" timestamp="2011-06-22T04:25:10Z" user="yamasan" uid="32308" lat="34.1887370" lon="132.0248200"/>
 <node id="1334189862" visible="true" version="1" changeset="8510736" timestamp="2011-06-22T04:25:15Z" user="yamasan" uid="32308" lat="34.1887030" lon="132.0248850"/>
 <node id="1334189964" visible="true" version="1" changeset="8510736" timestamp="2011-06-22T04:25:20Z" user="yamasan" uid="32308" lat="34.1893230" lon="132.0200050"/>
 <node id="1334190010" visible="true" version="1" changeset="8510736" timestamp="2011-06-22T04:25:23Z" user="yamasan" uid="32308" lat="34.1866300" lon="132.0188120"/>
 <node id="1334190068" visible="true" version="1" changeset="8510736" timestamp="2011-06-22T04:25:25Z" user="yamasan" uid="32308" lat="34.1893720" lon="132.0238530"/>
 <node id="1334190087" visible="true" version="1" changeset="8510736" timestamp="2011-06-22T04:25:26Z" user="yamasan" uid="32308" lat="34.1899930" lon="132.0301710"/>
 <node id="1334190170" visible="true" version="1" changeset="8510736" timestamp="2011-06-22T04:25:31Z" user="yamasan" uid="32308" lat="34.1893980" lon="132.0238200"/>
 <node id="1334190683" visible="true" version="1" changeset="8510736" timestamp="2011-06-22T04:25:42Z" user="yamasan" uid="32308" lat="34.1891230" lon="132.0185550"/>
 <node id="1334190716" visible="true" version="1" changeset="8510736" timestamp="2011-06-22T04:25:43Z" user="yamasan" uid="32308" lat="34.1892050" lon="132.0271660"/>
 <node id="1334190862" visible="true" version="1" changeset="8510736" timestamp="2011-06-22T04:25:49Z" user="yamasan" uid="32308" lat="34.1896520" lon="132.0227050"/>
 <node id="1334190882" visible="true" version="1" changeset="8510736" timestamp="2011-06-22T04:25:50Z" user="yamasan" uid="32308" lat="34.1902920" lon="132.0305320"/>
 <node id="1334190934" visible="true" version="1" changeset="8510736" timestamp="2011-06-22T04:25:52Z" user="yamasan" uid="32308" lat="34.1866860" lon="132.0192920"/>
 <node id="1334190971" visible="true" version="1" changeset="8510736" timestamp="2011-06-22T04:25:54Z" user="yamasan" uid="32308" lat="34.1896810" lon="132.0227220"/>
 <node id="1334193774" visible="true" version="1" changeset="8510736" timestamp="2011-06-22T04:31:00Z" user="yamasan" uid="32308" lat="34.1891370" lon="132.0270610"/>
 <node id="1334193792" visible="true" version="1" changeset="8510736" timestamp="2011-06-22T04:31:01Z" user="yamasan" uid="32308" lat="34.1888370" lon="132.0285820"/>
 <node id="1334193879" visible="true" version="1" changeset="8510736" timestamp="2011-06-22T04:31:07Z" user="yamasan" uid="32308" lat="34.1894750" lon="132.0235750"/>
 <node id="1334193899" visible="true" version="1" changeset="8510736" timestamp="2011-06-22T04:31:08Z" user="yamasan" uid="32308" lat="34.1903630" lon="132.0308350"/>
 <node id="1334193986" visible="true" version="1" changeset="8510736" timestamp="2011-06-22T04:31:13Z" user="yamasan" uid="32308" lat="34.1900490" lon="132.0253870"/>
 <node id="1334194090" visible="true" version="1" changeset="8510736" timestamp="2011-06-22T04:31:19Z" user="yamasan" uid="32308" lat="34.1885700" lon="132.0255740"/>
 <node id="1334194194" visible="true" version="1" changeset="8510736" timestamp="2011-06-22T04:31:25Z" user="yamasan" uid="32308" lat="34.1895280" lon="132.0208550"/>
 <node id="1334194223" visible="true" version="1" changeset="8510736" timestamp="2011-06-22T04:31:26Z" user="yamasan" uid="32308" lat="34.1930930" lon="132.0237600"/>
 <node id="1334194241" visible="true" version="1" changeset="8510736" timestamp="2011-06-22T04:31:27Z" user="yamasan" uid="32308" lat="34.1888220" lon="132.0291760"/>
 <node id="1334194337" visible="true" version="1" changeset="8510736" timestamp="2011-06-22T04:31:32Z" user="yamasan" uid="32308" lat="34.1874240" lon="132.0222550"/>
 <node id="1334194359" visible="true" version="1" changeset="8510736" timestamp="2011-06-22T04:31:33Z" user="yamasan" uid="32308" lat="34.1907110" lon="132.0305410"/>
 <node id="1334194404" visible="true" version="1" changeset="8510736" timestamp="2011-06-22T04:31:35Z" user="yamasan" uid="32308" lat="34.1891370" lon="132.0187090"/>
 <node id="1334194449" visible="true" version="1" changeset="8510736" timestamp="2011-06-22T04:31:38Z" user="yamasan" uid="32308" lat="34.1874500" lon="132.0223090"/>
 <node id="1334194587" visible="true" version="1" changeset="8510736" timestamp="2011-06-22T04:31:43Z" user="yamasan" uid="32308" lat="34.1891820" lon="132.0276460"/>
 <node id="1334194690" visible="true" version="1" changeset="8510736" timestamp="2011-06-22T04:31:49Z" user="yamasan" uid="32308" lat="34.1890170" lon="132.0279160"/>
 <node id="1334194723" visible="true" version="1" changeset="8510736" timestamp="2011-06-22T04:31:51Z" user="yamasan" uid="32308" lat="34.1884880" lon="132.0258230"/>
 <node id="1334194740" visible="true" version="1" changeset="8510736" timestamp="2011-06-22T04:31:52Z" user="yamasan" uid="32308" lat="34.1891320" lon="132.0296630"/>
 <node id="1334194828" visible="true" version="1" changeset="8510736" timestamp="2011-06-22T04:31:56Z" user="yamasan" uid="32308" lat="34.1895450" lon="132.0209820"/>
 <node id="1334194847" visible="true" version="1" changeset="8510736" timestamp="2011-06-22T04:31:57Z" user="yamasan" uid="32308" lat="34.1916210" lon="132.0312220"/>
 <node id="1334194933" visible="true" version="1" changeset="8510736" timestamp="2011-06-22T04:32:02Z" user="yamasan" uid="32308" lat="34.1895330" lon="132.0210530"/>
 <node id="1334195042" visible="true" version="1" changeset="8510736" timestamp="2011-06-22T04:32:08Z" user="yamasan" uid="32308" lat="34.1892250" lon="132.0248970"/>
 <node id="1334195182" visible="true" version="1" changeset="8510736" timestamp="2011-06-22T04:32:16Z" user="yamasan" uid="32308" lat="34.1935970" lon="132.0218050"/>
 <node id="1334195204" visible="true" version="1" changeset="8510736" timestamp="2011-06-22T04:32:17Z" user="yamasan" uid="32308" lat="34.1896550" lon="132.0298370"/>
 <node id="1334195409" visible="true" version="1" changeset="8510736" timestamp="2011-06-22T04:32:22Z" user="yamasan" uid="32308" lat="34.1882350" lon="132.0229570"/>
 <node id="1334195639" visible="true" version="1" changeset="8510736" timestamp="2011-06-22T04:32:28Z" user="yamasan" uid="32308" lat="34.1939390" lon="132.0211200"/>
 <node id="1334195743" visible="true" version="1" changeset="8510736" timestamp="2011-06-22T04:32:34Z" user="yamasan" uid="32308" lat="34.1940130" lon="132.0209040"/>
 <node id="1334195771" visible="true" version="1" changeset="8510736" timestamp="2011-06-22T04:32:35Z" user="yamasan" uid="32308" lat="34.1894140" lon="132.0216240"/>
 <node id="1334195874" visible="true" version="1" changeset="8510736" timestamp="2011-06-22T04:32:41Z" user="yamasan" uid="32308" lat="34.1894030" lon="132.0216980"/>
 <node id="1334195992" visible="true" version="1" changeset="8510736" timestamp="2011-06-22T04:32:47Z" user="yamasan" uid="32308" lat="34.1892940" lon="132.0250690"/>
 <node id="1615024904" visible="true" version="1" changeset="10563494" timestamp="2012-02-02T00:37:49Z" user="yamasan" uid="32308" lat="34.1886087" lon="132.0261657"/>
 <node id="1615024906" visible="true" version="1" changeset="10563494" timestamp="2012-02-02T00:37:49Z" user="yamasan" uid="32308" lat="34.1886273" lon="132.0257666"/>
 <node id="1615024916" visible="true" version="1" changeset="10563494" timestamp="2012-02-02T00:37:51Z" user="yamasan" uid="32308" lat="34.1888259" lon="132.0286988"/>
 <node id="1615024919" visible="true" version="1" changeset="10563494" timestamp="2012-02-02T00:37:51Z" user="yamasan" uid="32308" lat="34.1888525" lon="132.0290365"/>
 <node id="1615024921" visible="true" version="1" changeset="10563494" timestamp="2012-02-02T00:37:51Z" user="yamasan" uid="32308" lat="34.1888756" lon="132.0249126"/>
 <node id="1615024922" visible="true" version="1" changeset="10563494" timestamp="2012-02-02T00:37:51Z" user="yamasan" uid="32308" lat="34.1888842" lon="132.0266912"/>
 <node id="1615024937" visible="true" version="1" changeset="10563494" timestamp="2012-02-02T00:37:52Z" user="yamasan" uid="32308" lat="34.1889051" lon="132.0283229"/>
 <node id="1615024942" visible="true" version="1" changeset="10563494" timestamp="2012-02-02T00:37:53Z" user="yamasan" uid="32308" lat="34.1889431" lon="132.0292607"/>
 <node id="1615024948" visible="true" version="1" changeset="10563494" timestamp="2012-02-02T00:37:53Z" user="yamasan" uid="32308" lat="34.1889826" lon="132.0276627"/>
 <node id="1615024995" visible="true" version="1" changeset="10563494" timestamp="2012-02-02T00:37:54Z" user="yamasan" uid="32308" lat="34.1890918" lon="132.0274877"/>
 <node id="1615024998" visible="true" version="1" changeset="10563494" timestamp="2012-02-02T00:37:54Z" user="yamasan" uid="32308" lat="34.1890947" lon="132.0270143"/>
 <node id="1615025004" visible="true" version="1" changeset="10563494" timestamp="2012-02-02T00:37:55Z" user="yamasan" uid="32308" lat="34.1891371" lon="132.0238722"/>
 <node id="1615025009" visible="true" version="1" changeset="10563494" timestamp="2012-02-02T00:37:55Z" user="yamasan" uid="32308" lat="34.1891573" lon="132.0230523"/>
 <node id="1615025013" visible="true" version="1" changeset="10563494" timestamp="2012-02-02T00:37:55Z" user="yamasan" uid="32308" lat="34.1891592" lon="132.0272376"/>
 <node id="1615025015" visible="true" version="1" changeset="10563494" timestamp="2012-02-02T00:37:55Z" user="yamasan" uid="32308" lat="34.1891603" lon="132.0225789"/>
 <node id="1615025038" visible="true" version="1" changeset="10563494" timestamp="2012-02-02T00:37:56Z" user="yamasan" uid="32308" lat="34.1892568" lon="132.0218563"/>
 <node id="1615025039" visible="true" version="1" changeset="10563494" timestamp="2012-02-02T00:37:56Z" user="yamasan" uid="32308" lat="34.1893325" lon="132.0216170"/>
 <node id="1615025040" visible="true" version="1" changeset="10563494" timestamp="2012-02-02T00:37:56Z" user="yamasan" uid="32308" lat="34.1893659" lon="132.0295909"/>
 <node id="1615025049" visible="true" version="1" changeset="10563494" timestamp="2012-02-02T00:37:58Z" user="yamasan" uid="32308" lat="34.1895654" lon="132.0213938"/>
 <node id="1615025052" visible="true" version="1" changeset="10563494" timestamp="2012-02-02T00:37:58Z" user="yamasan" uid="32308" lat="34.1896084" lon="132.0296837"/>
 <node id="1615025090" visible="true" version="1" changeset="10563494" timestamp="2012-02-02T00:37:59Z" user="yamasan" uid="32308" lat="34.1898922" lon="132.0295150"/>
 <node id="1615025091" visible="true" version="1" changeset="10563494" timestamp="2012-02-02T00:37:59Z" user="yamasan" uid="32308" lat="34.1899151" lon="132.0213852"/>
 <node id="1615025111" visible="true" version="1" changeset="10563494" timestamp="2012-02-02T00:38:00Z" user="yamasan" uid="32308" lat="34.1901107" lon="132.0291651"/>
 <node id="1615025134" visible="true" version="1" changeset="10563494" timestamp="2012-02-02T00:38:01Z" user="yamasan" uid="32308" lat="34.1902220" lon="132.0217014"/>
 <node id="1615025140" visible="true" version="1" changeset="10563494" timestamp="2012-02-02T00:38:01Z" user="yamasan" uid="32308" lat="34.1904551" lon="132.0221727"/>
 <node id="1615025146" visible="true" version="1" changeset="10563494" timestamp="2012-02-02T00:38:02Z" user="yamasan" uid="32308" lat="34.1905499" lon="132.0283706"/>
 <node id="1615025151" visible="true" version="1" changeset="10563494" timestamp="2012-02-02T00:38:02Z" user="yamasan" uid="32308" lat="34.1906152" lon="132.0234831"/>
 <node id="1615025154" visible="true" version="1" changeset="10563494" timestamp="2012-02-02T00:38:02Z" user="yamasan" uid="32308" lat="34.1906430" lon="132.0241261"/>
 <node id="1615025171" visible="true" version="1" changeset="10563494" timestamp="2012-02-02T00:38:03Z" user="yamasan" uid="32308" lat="34.1906465" lon="132.0225688"/>
 <node id="1615025173" visible="true" version="1" changeset="10563494" timestamp="2012-02-02T00:38:03Z" user="yamasan" uid="32308" lat="34.1907197" lon="132.0227924"/>
 <node id="1615025179" visible="true" version="1" changeset="10563494" timestamp="2012-02-02T00:38:03Z" user="yamasan" uid="32308" lat="34.1907827" lon="132.0277896"/>
 <node id="1615025186" visible="true" version="1" changeset="10563494" timestamp="2012-02-02T00:38:03Z" user="yamasan" uid="32308" lat="34.1909568" lon="132.0249916"/>
 <node id="1615025218" visible="true" version="1" changeset="10563494" timestamp="2012-02-02T00:38:05Z" user="yamasan" uid="32308" lat="34.1913133" lon="132.0271930"/>
 <node id="1615025223" visible="true" version="1" changeset="10563494" timestamp="2012-02-02T00:38:05Z" user="yamasan" uid="32308" lat="34.1914565" lon="132.0256409"/>
 <node id="1615025229" visible="true" version="1" changeset="10563494" timestamp="2012-02-02T00:38:06Z" user="yamasan" uid="32308" lat="34.1916276" lon="132.0268570"/>
 <node id="1615025230" visible="true" version="1" changeset="10563494" timestamp="2012-02-02T00:38:06Z" user="yamasan" uid="32308" lat="34.1916386" lon="132.0260578"/>
 <node id="1615025231" visible="true" version="1" changeset="10563494" timestamp="2012-02-02T00:38:06Z" user="yamasan" uid="32308" lat="34.1916887" lon="132.0265015"/>
 <node id="2747237659" visible="true" version="1" changeset="21342804" timestamp="2014-03-27T11:26:53Z" user="ひろときょうたまなかなおや" uid="2000955" lat="34.1895350" lon="132.0228552"/>
 <node id="2747237684" visible="true" version="1" changeset="21342804" timestamp="2014-03-27T11:26:53Z" user="ひろときょうたまなかなおや" uid="2000955" lat="34.1895178" lon="132.0230508"/>
 <node id="2747237719" visible="true" version="1" changeset="21342804" timestamp="2014-03-27T11:26:54Z" user="ひろときょうたまなかなおや" uid="2000955" lat="34.1895152" lon="132.0231896"/>
 <node id="2747237766" visible="true" version="1" changeset="21342804" timestamp="2014-03-27T11:26:54Z" user="ひろときょうたまなかなおや" uid="2000955" lat="34.1894313" lon="132.0235420"/>
 <node id="2747237815" visible="true" version="1" changeset="21342804" timestamp="2014-03-27T11:26:54Z" user="ひろときょうたまなかなおや" uid="2000955" lat="34.1893667" lon="132.0237017"/>
 <node id="2747237840" visible="true" version="1" changeset="21342804" timestamp="2014-03-27T11:26:55Z" user="ひろときょうたまなかなおや" uid="2000955" lat="34.1893052" lon="132.0240038"/>
 <node id="2747237891" visible="true" version="1" changeset="21342804" timestamp="2014-03-27T11:26:55Z" user="ひろときょうたまなかなおや" uid="2000955" lat="34.1892403" lon="132.0242843"/>
 <node id="2747237953" visible="true" version="1" changeset="21342804" timestamp="2014-03-27T11:26:56Z" user="ひろときょうたまなかなおや" uid="2000955" lat="34.1890686" lon="132.0245731"/>
 <node id="2747238006" visible="true" version="1" changeset="21342804" timestamp="2014-03-27T11:26:56Z" user="ひろときょうたまなかなおや" uid="2000955" lat="34.1889154" lon="132.0247540"/>
 <node id="2747238052" visible="true" version="1" changeset="21342804" timestamp="2014-03-27T11:26:57Z" user="ひろときょうたまなかなおや" uid="2000955" lat="34.1887606" lon="132.0250455"/>
 <node id="2747238076" visible="true" version="1" changeset="21342804" timestamp="2014-03-27T11:26:57Z" user="ひろときょうたまなかなおや" uid="2000955" lat="34.1887131" lon="132.0252302"/>
 <node id="2747238094" visible="true" version="1" changeset="21342804" timestamp="2014-03-27T11:26:58Z" user="ひろときょうたまなかなおや" uid="2000955" lat="34.1887056" lon="132.0253645"/>
 <node id="2747238097" visible="true" version="1" changeset="21342804" timestamp="2014-03-27T11:26:58Z" user="ひろときょうたまなかなおや" uid="2000955" lat="34.1886762" lon="132.0261417"/>
 <node id="2747238098" visible="true" version="1" changeset="21342804" timestamp="2014-03-27T11:26:59Z" user="ひろときょうたまなかなおや" uid="2000955" lat="34.1887251" lon="132.0263353"/>
 <node id="2747238099" visible="true" version="1" changeset="21342804" timestamp="2014-03-27T11:26:59Z" user="ひろときょうたまなかなおや" uid="2000955" lat="34.1888095" lon="132.0264865"/>
 <node id="2747238100" visible="true" version="1" changeset="21342804" timestamp="2014-03-27T11:26:59Z" user="ひろときょうたまなかなおや" uid="2000955" lat="34.1888428" lon="132.0266123"/>
 <node id="2747238101" visible="true" version="1" changeset="21342804" timestamp="2014-03-27T11:27:00Z" user="ひろときょうたまなかなおや" uid="2000955" lat="34.1888902" lon="132.0267618"/>
 <way id="118673107" visible="true" version="2" changeset="103126185" timestamp="2021-04-18T07:35:40Z" user="Juliet225" uid="10103365">
  <nd ref="1334179819"/>
  <nd ref="1334190683"/>
  <nd ref="1334194404"/>
  <nd ref="1334179852"/>
  <nd ref="1334177955"/>
  <nd ref="1334182769"/>
  <nd ref="1334184024"/>
  <nd ref="1334178471"/>
  <nd ref="1334181892"/>
  <nd ref="1334189072"/>
  <nd ref="1334189176"/>
  <nd ref="1334189286"/>
  <nd ref="1334175821"/>
  <nd ref="1334175921"/>
  <nd ref="1334189964"/>
  <nd ref="1334176258"/>
  <nd ref="1334180583"/>
  <nd ref="1334177059"/>
  <nd ref="1334177164"/>
  <nd ref="1334184358"/>
  <nd ref="1334194194"/>
  <nd ref="1334184935"/>
  <nd ref="1334194828"/>
  <nd ref="1334194933"/>
  <nd ref="1334188837"/>
  <nd ref="1334195771"/>
  <nd ref="1334195874"/>
  <nd ref="1334189523"/>
  <nd ref="1334182598"/>
  <nd ref="1334175794"/>
  <nd ref="1334184032"/>
  <nd ref="1334187810"/>
  <nd ref="1334190862"/>
  <nd ref="1334190971"/>
  <nd ref="1334188530"/>
  <nd ref="1334177500"/>
  <nd ref="1334177596"/>
  <tag k="highway" v="unclassified"/>
  <tag k="source" v="YahooJapan/ALPSMAP"/>
 </way>
 <way id="118673435" visible="true" version="1" changeset="8510736" timestamp="2011-06-22T04:35:22Z" user="yamasan" uid="32308">
  <nd ref="1334178143"/>
  <nd ref="1334177367"/>
  <nd ref="1334188969"/>
  <nd ref="1334177941"/>
  <nd ref="1334178040"/>
  <nd ref="1334195042"/>
  <nd ref="1334178595"/>
  <nd ref="1334178696"/>
  <nd ref="1334195992"/>
  <nd ref="1334186103"/>
  <nd ref="1334186210"/>
  <nd ref="1334176958"/>
  <nd ref="1334193986"/>
  <nd ref="1334180455"/>
  <nd ref="1334183798"/>
  <nd ref="1334181053"/>
  <nd ref="1334188635"/>
  <nd ref="1334188738"/>
  <nd ref="1334184800"/>
  <nd ref="1334184903"/>
  <nd ref="1334189416"/>
  <nd ref="1334185521"/>
  <nd ref="1334178470"/>
  <nd ref="1334178568"/>
  <nd ref="1334187606"/>
  <nd ref="1334176595"/>
  <nd ref="1334179459"/>
  <nd ref="1334186542"/>
  <nd ref="1334194223"/>
  <nd ref="1334180686"/>
  <nd ref="1334180791"/>
  <nd ref="1334188395"/>
  <nd ref="1334188498"/>
  <nd ref="1334195182"/>
  <nd ref="1334182039"/>
  <nd ref="1334195639"/>
  <nd ref="1334195743"/>
  <nd ref="1334183590"/>
  <nd ref="1334186340"/>
  <nd ref="1334182977"/>
  <nd ref="1334182142"/>
  <tag k="highway" v="path"/>
  <tag k="source" v="YahooJapan/ALPSMAP"/>
  <tag k="yh:STRUCTURE" v="地上"/>
  <tag k="yh:TOTYUMONO" v="供用中"/>
  <tag k="yh:TYPE" v="その他一般道"/>
  <tag k="yh:WIDTH" v="1.5m未満"/>
  <tag k="yh:WIDTH_RANK" v="5"/>
 </way>
 <way id="118673578" visible="true" version="1" changeset="8510736" timestamp="2011-06-22T04:36:09Z" user="yamasan" uid="32308">
  <nd ref="1334180327"/>
  <nd ref="1334177245"/>
  <nd ref="1334184991"/>
  <nd ref="1334176226"/>
  <nd ref="1334190010"/>
  <nd ref="1334186128"/>
  <nd ref="1334178766"/>
  <nd ref="1334190934"/>
  <nd ref="1334189731"/>
  <nd ref="1334180064"/>
  <nd ref="1334187705"/>
  <nd ref="1334179654"/>
  <nd ref="1334186644"/>
  <nd ref="1334184491"/>
  <nd ref="1334194337"/>
  <nd ref="1334194449"/>
  <nd ref="1334180905"/>
  <nd ref="1334181022"/>
  <nd ref="1334185417"/>
  <nd ref="1334195409"/>
  <nd ref="1334185621"/>
  <nd ref="1334185723"/>
  <nd ref="1334176491"/>
  <nd ref="1334179347"/>
  <nd ref="1334176020"/>
  <nd ref="1334183106"/>
  <nd ref="1334183316"/>
  <nd ref="1334188182"/>
  <nd ref="1334188289"/>
  <nd ref="1334177266"/>
  <nd ref="1334184460"/>
  <nd ref="1334177839"/>
  <nd ref="1334185038"/>
  <nd ref="1334185185"/>
  <nd ref="1334181636"/>
  <nd ref="1334185751"/>
  <nd ref="1334185854"/>
  <nd ref="1334182475"/>
  <nd ref="1334175695"/>
  <nd ref="1334177596"/>
  <tag k="highway" v="path"/>
  <tag k="source" v="YahooJapan/ALPSMAP"/>
  <tag k="yh:STRUCTURE" v="地上"/>
  <tag k="yh:TOTYUMONO" v="供用中"/>
  <tag k="yh:TYPE" v="その他一般道"/>
  <tag k="yh:WIDTH" v="1.5m未満"/>
  <tag k="yh:WIDTH_RANK" v="5"/>
 </way>
 <way id="118673716" visible="true" version="1" changeset="8510736" timestamp="2011-06-22T04:37:00Z" user="yamasan" uid="32308">
  <nd ref="1334178143"/>
  <nd ref="1334182774"/>
  <nd ref="1334182877"/>
  <nd ref="1334178806"/>
  <nd ref="1334190068"/>
  <nd ref="1334190170"/>
  <nd ref="1334188052"/>
  <nd ref="1334193879"/>
  <nd ref="1334180349"/>
  <nd ref="1334183695"/>
  <nd ref="1334177596"/>
  <tag k="highway" v="residential"/>
  <tag k="source" v="YahooJapan/ALPSMAP"/>
  <tag k="yh:STRUCTURE" v="地上"/>
  <tag k="yh:TOTYUMONO" v="供用中"/>
  <tag k="yh:TYPE" v="その他一般道"/>
  <tag k="yh:WIDTH" v="1.5m〜3.0m"/>
  <tag k="yh:WIDTH_RANK" v="4"/>
 </way>
 <way id="118673739" visible="true" version="2" changeset="134754465" timestamp="2023-04-11T02:34:56Z" user="AYAGE" uid="521665">
  <nd ref="1334178143"/>
  <nd ref="1334185287"/>
  <nd ref="1334189758"/>
  <nd ref="1334189862"/>
  <nd ref="1334186000"/>
  <nd ref="1334178943"/>
  <nd ref="1334179216"/>
  <nd ref="1334184146"/>
  <nd ref="1334184252"/>
  <nd ref="1334194090"/>
  <nd ref="1334176719"/>
  <nd ref="1334194723"/>
  <nd ref="1334181249"/>
  <nd ref="1334181445"/>
  <nd ref="1334177697"/>
  <nd ref="1334177797"/>
  <nd ref="1334182373"/>
  <nd ref="1334178371"/>
  <nd ref="1334189625"/>
  <nd ref="1334182747"/>
  <nd ref="1334193774"/>
  <nd ref="1334180185"/>
  <nd ref="1334190716"/>
  <nd ref="1334179816"/>
  <nd ref="1334177397"/>
  <nd ref="1334184595"/>
  <nd ref="1334184698"/>
  <nd ref="1334194587"/>
  <nd ref="1334194690"/>
  <nd ref="1334178270"/>
  <nd ref="1334176509"/>
  <nd ref="1334187624"/>
  <nd ref="1334180081"/>
  <nd ref="1334193792"/>
  <nd ref="1334184049"/>
  <nd ref="1334176975"/>
  <nd ref="1334188084"/>
  <nd ref="1334180600"/>
  <nd ref="1334194241"/>
  <nd ref="1334184507"/>
  <nd ref="1334177414"/>
  <nd ref="1334188547"/>
  <nd ref="1334181070"/>
  <nd ref="1334194740"/>
  <nd ref="1334184952"/>
  <nd ref="1334177856"/>
  <nd ref="1334188986"/>
  <nd ref="1334181932"/>
  <nd ref="1334195204"/>
  <nd ref="1334185437"/>
  <nd ref="1334178290"/>
  <nd ref="1334175714"/>
  <nd ref="1334186124"/>
  <nd ref="1334178963"/>
  <nd ref="1334190087"/>
  <nd ref="1334183125"/>
  <nd ref="1334176179"/>
  <nd ref="1334186562"/>
  <nd ref="1334179691"/>
  <nd ref="1334190882"/>
  <nd ref="1334183715"/>
  <nd ref="1334176622"/>
  <nd ref="1334187726"/>
  <nd ref="1334180228"/>
  <nd ref="1334193899"/>
  <nd ref="1334184167"/>
  <nd ref="1334177079"/>
  <nd ref="1334188203"/>
  <nd ref="1334180706"/>
  <nd ref="1334194359"/>
  <nd ref="1334184614"/>
  <nd ref="1334177519"/>
  <nd ref="1334188654"/>
  <nd ref="1334181286"/>
  <nd ref="1334194847"/>
  <nd ref="1334185067"/>
  <nd ref="1334189092"/>
  <tag k="highway" v="residential"/>
  <tag k="source" v="YahooJapan/ALPSMAP"/>
 </way>
 <way id="148395577" visible="true" version="3" changeset="120861328" timestamp="2022-05-11T23:16:53Z" user="AYAGE" uid="521665">
  <nd ref="1615024904"/>
  <nd ref="1615024906"/>
  <nd ref="1615024921"/>
  <nd ref="2747238006"/>
  <nd ref="1615025004"/>
  <nd ref="1615025009"/>
  <nd ref="1615025015"/>
  <nd ref="1615025038"/>
  <nd ref="1615025039"/>
  <nd ref="1615025049"/>
  <nd ref="1615025091"/>
  <nd ref="1615025134"/>
  <nd ref="1615025140"/>
  <nd ref="1615025171"/>
  <nd ref="1615025173"/>
  <nd ref="1615025151"/>
  <nd ref="1615025154"/>
  <nd ref="1615025186"/>
  <nd ref="1615025223"/>
  <nd ref="1615025230"/>
  <nd ref="1615025231"/>
  <nd ref="1615025229"/>
  <nd ref="1615025218"/>
  <nd ref="1615025179"/>
  <nd ref="1615025146"/>
  <nd ref="1615025111"/>
  <nd ref="1615025090"/>
  <nd ref="1615025052"/>
  <nd ref="1615025040"/>
  <nd ref="1615024942"/>
  <nd ref="1615024919"/>
  <nd ref="1615024916"/>
  <nd ref="1615024937"/>
  <nd ref="1615024948"/>
  <nd ref="1615024995"/>
  <nd ref="1615025013"/>
  <nd ref="1615024998"/>
  <nd ref="1615024922"/>
  <nd ref="2747238100"/>
  <nd ref="1615024904"/>
  <tag k="source" v="MLIT, Japan"/>
 </way>
 <way id="269522129" visible="true" version="4" changeset="35698863" timestamp="2015-12-02T04:23:43Z" user="show1017" uid="3244669">
  <nd ref="2747237659"/>
  <nd ref="2747237684"/>
  <nd ref="2747237719"/>
  <nd ref="2747237766"/>
  <nd ref="2747237815"/>
  <nd ref="2747237840"/>
  <nd ref="2747237891"/>
  <nd ref="2747237953"/>
  <nd ref="2747238006"/>
  <nd ref="2747238052"/>
  <nd ref="2747238076"/>
  <nd ref="2747238094"/>
  <nd ref="1615024906"/>
  <nd ref="2747238097"/>
  <nd ref="2747238098"/>
  <nd ref="2747238099"/>
  <nd ref="2747238100"/>
  <nd ref="2747238101"/>
  <nd ref="749459121"/>
  <tag k="note" v="National-Land Numerical Information (River) 2006, MLIT Japan"/>
  <tag k="note:ja" v="国土数値情報(河川データ)平成18年国土交通省"/>
  <tag k="source" v="KSJ2"/>
  <tag k="source_ref" v="http://nlftp.mlit.go.jp/ksj/jpgis/datalist/KsjTmplt-W05.html"/>
  <tag k="waterway" v="stream"/>
 </way>
 <relation id="2001110" visible="true" version="18" changeset="126805544" timestamp="2022-09-30T05:31:45Z" user="AYAGE" uid="521665">
  <member type="way" ref="1098012087" role="outer"/>
  <member type="way" ref="1098989024" role="outer"/>
  <member type="way" ref="1078339412" role="outer"/>
  <member type="way" ref="1076881467" role="outer"/>
  <member type="way" ref="1077146606" role="outer"/>
  <member type="way" ref="1059422568" role="outer"/>
  <member type="way" ref="1059895269" role="outer"/>
  <member type="way" ref="1079155505" role="outer"/>
  <member type="way" ref="1079327275" role="outer"/>
  <member type="way" ref="148413849" role="outer"/>
  <member type="way" ref="148395577" role="inner"/>
  <member type="way" ref="148395553" role="inner"/>
  <member type="way" ref="148395544" role="inner"/>
  <member type="way" ref="148395585" role="inner"/>
  <member type="way" ref="148395556" role="inner"/>
  <member type="way" ref="148395559" role="inner"/>
  <member type="way" ref="148395554" role="inner"/>
  <member type="way" ref="148395621" role="inner"/>
  <member type="way" ref="148395615" role="inner"/>
  <member type="way" ref="148395558" role="inner"/>
  <member type="way" ref="1059407756" role="inner"/>
  <member type="way" ref="1077465897" role="inner"/>
  <member type="way" ref="1078558613" role="inner"/>
  <member type="way" ref="1079155506" role="inner"/>
  <tag k="natural" v="wood"/>
  <tag k="note" v="A13-06_35.xml"/>
  <tag k="source" v="MLIT, Japan"/>
  <tag k="source:ja" v="国土数値情報（森林地域データ）平成18年　国土交通省"/>
  <tag k="source_ref" v="http://nlftp.mlit.go.jp/ksj/jpgis/datalist/KsjTmplt-A13.html"/>
  <tag k="type" v="multipolygon"/>
 </relation>
</osm>
