<?xml version="1.0" encoding="UTF-8"?>
<osm version="0.6" generator="openstreetmap-cgimap 2.1.0 (2942773 spike-08.openstreetmap.org)" copyright="OpenStreetMap and contributors" attribution="http://www.openstreetmap.org/copyright" license="http://opendatacommons.org/licenses/odbl/1-0/">
 <bounds minlat="34.1479553" minlon="132.2116631" maxlat="34.1504929" maxlon="132.2146706"/>
 <node id="734800877" visible="true" version="4" changeset="66484393" timestamp="2019-01-20T20:12:02Z" user="zaizone" uid="1122708" lat="34.1384521" lon="132.2263964"/>
 <node id="1336832742" visible="true" version="6" changeset="132991996" timestamp="2023-02-25T04:01:54Z" user="AYAGE" uid="521665" lat="34.1515278" lon="132.2055843">
  <tag k="highway" v="traffic_signals"/>
  <tag k="name" v="牛野谷3丁目"/>
  <tag k="name:en" v="Ushinoya 3-chome"/>
  <tag k="name:ja" v="牛野谷3丁目"/>
  <tag k="name:ja_rm" v="Ushinoya 3-chome"/>
 </node>
 <node id="1337992844" visible="true" version="2" changeset="132991996" timestamp="2023-02-25T04:01:54Z" user="AYAGE" uid="521665" lat="34.1507752" lon="132.2119701"/>
 <node id="1337992870" visible="true" version="2" changeset="133048492" timestamp="2023-02-26T15:53:59Z" user="AYAGE" uid="521665" lat="34.1490224" lon="132.2141574"/>
 <node id="1337992971" visible="true" version="2" changeset="133093872" timestamp="2023-02-27T16:04:10Z" user="AYAGE" uid="521665" lat="34.1507423" lon="132.2113181"/>
 <node id="1337992997" visible="true" version="3" changeset="132991996" timestamp="2023-02-25T04:01:54Z" user="AYAGE" uid="521665" lat="34.1488230" lon="132.2127301"/>
 <node id="1337993022" visible="true" version="2" changeset="83170390" timestamp="2020-04-07T02:29:42Z" user="Jillybean558" uid="10912192" lat="34.1473263" lon="132.2140330"/>
 <node id="1337993114" visible="true" version="2" changeset="133048492" timestamp="2023-02-26T15:53:59Z" user="AYAGE" uid="521665" lat="34.1479154" lon="132.2153583"/>
 <node id="1337993408" visible="true" version="3" changeset="132991996" timestamp="2023-02-25T04:01:54Z" user="AYAGE" uid="521665" lat="34.1495903" lon="132.2135518"/>
 <node id="1337993513" visible="true" version="2" changeset="83170390" timestamp="2020-04-07T02:29:42Z" user="Jillybean558" uid="10912192" lat="34.1473951" lon="132.2138403">
  <tag k="highway" v="crossing"/>
 </node>
 <node id="1337993565" visible="true" version="3" changeset="132993721" timestamp="2023-02-25T06:19:48Z" user="AYAGE" uid="521665" lat="34.1481925" lon="132.2123016"/>
 <node id="1337993631" visible="true" version="2" changeset="133048492" timestamp="2023-02-26T15:53:59Z" user="AYAGE" uid="521665" lat="34.1499534" lon="132.2093566"/>
 <node id="1337993692" visible="true" version="3" changeset="132993721" timestamp="2023-02-25T06:19:48Z" user="AYAGE" uid="521665" lat="34.1481292" lon="132.2125765"/>
 <node id="1337993846" visible="true" version="3" changeset="132991996" timestamp="2023-02-25T04:01:54Z" user="AYAGE" uid="521665" lat="34.1498844" lon="132.2138792"/>
 <node id="1337993930" visible="true" version="2" changeset="132991996" timestamp="2023-02-25T04:01:54Z" user="AYAGE" uid="521665" lat="34.1509918" lon="132.2115384"/>
 <node id="1337993955" visible="true" version="3" changeset="132991996" timestamp="2023-02-25T04:01:54Z" user="AYAGE" uid="521665" lat="34.1487213" lon="132.2126697"/>
 <node id="1337993981" visible="true" version="2" changeset="133093872" timestamp="2023-02-27T16:04:10Z" user="AYAGE" uid="521665" lat="34.1496907" lon="132.2127039"/>
 <node id="1337994087" visible="true" version="2" changeset="132993721" timestamp="2023-02-25T06:19:48Z" user="AYAGE" uid="521665" lat="34.1487804" lon="132.2120347"/>
 <node id="1337994191" visible="true" version="2" changeset="133093872" timestamp="2023-02-27T16:04:10Z" user="AYAGE" uid="521665" lat="34.1500935" lon="132.2121154"/>
 <node id="1337994271" visible="true" version="3" changeset="132991996" timestamp="2023-02-25T04:01:54Z" user="AYAGE" uid="521665" lat="34.1510828" lon="132.2151872"/>
 <node id="1337994527" visible="true" version="2" changeset="133093872" timestamp="2023-02-27T16:04:10Z" user="AYAGE" uid="521665" lat="34.1504736" lon="132.2116970"/>
 <node id="1337994572" visible="true" version="3" changeset="132991996" timestamp="2023-02-25T04:01:54Z" user="AYAGE" uid="521665" lat="34.1492718" lon="132.2132019"/>
 <node id="1337994604" visible="true" version="3" changeset="132991996" timestamp="2023-02-25T04:01:54Z" user="AYAGE" uid="521665" lat="34.1498499" lon="132.2138437"/>
 <node id="1337994880" visible="true" version="2" changeset="132993721" timestamp="2023-02-25T06:19:48Z" user="AYAGE" uid="521665" lat="34.1504421" lon="132.2108350"/>
 <node id="1337995047" visible="true" version="3" changeset="132993721" timestamp="2023-02-25T06:19:48Z" user="AYAGE" uid="521665" lat="34.1486004" lon="132.2126120"/>
 <node id="1337995091" visible="true" version="2" changeset="132993721" timestamp="2023-02-25T06:19:48Z" user="AYAGE" uid="521665" lat="34.1500316" lon="132.2111540"/>
 <node id="1337995223" visible="true" version="2" changeset="132993721" timestamp="2023-02-25T06:19:48Z" user="AYAGE" uid="521665" lat="34.1501408" lon="132.2110872"/>
 <node id="1337995231" visible="true" version="4" changeset="133048492" timestamp="2023-02-26T15:53:59Z" user="AYAGE" uid="521665" lat="34.1485865" lon="132.2158053">
  <tag k="highway" v="traffic_signals"/>
  <tag k="name" v="門前橋南詰"/>
  <tag k="name:en" v="Monzenbashi Bridge South"/>
  <tag k="name:ja" v="門前橋南詰"/>
 </node>
 <node id="1337995735" visible="true" version="2" changeset="132993721" timestamp="2023-02-25T06:19:48Z" user="AYAGE" uid="521665" lat="34.1502582" lon="132.2109925"/>
 <node id="1337995788" visible="true" version="2" changeset="132993721" timestamp="2023-02-25T06:19:48Z" user="AYAGE" uid="521665" lat="34.1491500" lon="132.2107906"/>
 <node id="1337995814" visible="true" version="3" changeset="132993721" timestamp="2023-02-25T06:19:48Z" user="AYAGE" uid="521665" lat="34.1482536" lon="132.2115991"/>
 <node id="1337995894" visible="true" version="2" changeset="132993721" timestamp="2023-02-25T06:19:48Z" user="AYAGE" uid="521665" lat="34.1488862" lon="132.2119770"/>
 <node id="1337996314" visible="true" version="2" changeset="132991996" timestamp="2023-02-25T04:01:54Z" user="AYAGE" uid="521665" lat="34.1505470" lon="132.2124158"/>
 <node id="1337996367" visible="true" version="2" changeset="132993721" timestamp="2023-02-25T06:19:48Z" user="AYAGE" uid="521665" lat="34.1493117" lon="132.2116313"/>
 <node id="1337996898" visible="true" version="3" changeset="132993721" timestamp="2023-02-25T06:19:48Z" user="AYAGE" uid="521665" lat="34.1484262" lon="132.2119375"/>
 <node id="1423656148" visible="true" version="2" changeset="170134820" timestamp="2025-08-08T04:24:07Z" user="pseek" uid="21586509" lat="34.1493490" lon="132.2129510">
  <tag k="addr:city" v="岩国市"/>
  <tag k="addr:housenumber" v="12"/>
  <tag k="addr:neighbourhood" v="門前町1丁目"/>
  <tag k="addr:postcode" v="740-0031"/>
  <tag k="addr:province" v="山口県"/>
  <tag k="amenity" v="post_office"/>
  <tag k="name" v="岩国愛宕郵便局"/>
  <tag k="name:en" v="Iwakuni Atago Post Office"/>
  <tag k="name:es" v="Oficina de Correos de Iwakuni Atago"/>
  <tag k="name:ja" v="岩国愛宕郵便局"/>
  <tag k="name:ja-Hira" v="いわくに あたご ゆうびんきょく"/>
  <tag k="name:pt" v="Correio de Iwakuni Atago"/>
  <tag k="note" v="National-Land Numerical Information (Public Facility) 2006, MLIT Japan"/>
  <tag k="note:ja" v="国土数値情報（公共施設データ）平成19年　国土交通省"/>
  <tag k="opening_hours" v="Mo-Fr 09:00-17:00"/>
  <tag k="operator" v="日本郵便"/>
  <tag k="operator:en" v="Japan Post"/>
  <tag k="operator:ja" v="日本郵便"/>
  <tag k="operator:short" v="郵便局"/>
  <tag k="operator:short:en" v="JP"/>
  <tag k="operator:short:ja" v="郵便局"/>
  <tag k="operator:wikidata" v="Q11509260"/>
  <tag k="phone" v="+81-827-31-1651"/>
  <tag k="source" v="KSJ2"/>
  <tag k="source_ref" v="http://nlftp.mlit.go.jp/ksj/jpgis/datalist/KsjTmplt-P02-v2_0.html"/>
 </node>
 <node id="1442386330" visible="true" version="2" changeset="132727380" timestamp="2023-02-18T19:50:38Z" user="AYAGE" uid="521665" lat="34.1309166" lon="132.2223086"/>
 <node id="1806921583" visible="true" version="3" changeset="66484393" timestamp="2019-01-20T20:12:03Z" user="zaizone" uid="1122708" lat="34.1483303" lon="132.2195085"/>
 <node id="1806921603" visible="true" version="3" changeset="66484393" timestamp="2019-01-20T20:12:03Z" user="zaizone" uid="1122708" lat="34.1474248" lon="132.2203240"/>
 <node id="1806921635" visible="true" version="3" changeset="66484393" timestamp="2019-01-20T20:12:03Z" user="zaizone" uid="1122708" lat="34.1412149" lon="132.2246613"/>
 <node id="1806921683" visible="true" version="3" changeset="66484393" timestamp="2019-01-20T20:12:03Z" user="zaizone" uid="1122708" lat="34.1491275" lon="132.2181983"/>
 <node id="2068116104" visible="true" version="2" changeset="133157034" timestamp="2023-03-01T06:07:53Z" user="AYAGE" uid="521665" lat="34.1310068" lon="132.2225938"/>
 <node id="2068116105" visible="true" version="2" changeset="133157034" timestamp="2023-03-01T06:07:53Z" user="AYAGE" uid="521665" lat="34.1310340" lon="132.2227185"/>
 <node id="2068116106" visible="true" version="2" changeset="133157034" timestamp="2023-03-01T06:07:53Z" user="AYAGE" uid="521665" lat="34.1312844" lon="132.2229902"/>
 <node id="2068116107" visible="true" version="2" changeset="133157034" timestamp="2023-03-01T06:07:53Z" user="AYAGE" uid="521665" lat="34.1315747" lon="132.2231397"/>
 <node id="2068116108" visible="true" version="1" changeset="14279910" timestamp="2012-12-15T12:33:41Z" user="nmaruichi" uid="317331" lat="34.1338411" lon="132.2236166"/>
 <node id="2068116109" visible="true" version="1" changeset="14279910" timestamp="2012-12-15T12:33:41Z" user="nmaruichi" uid="317331" lat="34.1350586" lon="132.2235710"/>
 <node id="2068116110" visible="true" version="1" changeset="14279910" timestamp="2012-12-15T12:33:41Z" user="nmaruichi" uid="317331" lat="34.1363328" lon="132.2229667"/>
 <node id="2068116111" visible="true" version="1" changeset="14279910" timestamp="2012-12-15T12:33:41Z" user="nmaruichi" uid="317331" lat="34.1364838" lon="132.2231263"/>
 <node id="2068116112" visible="true" version="2" changeset="66158524" timestamp="2019-01-09T11:28:22Z" user="HicksCO" uid="9337111" lat="34.1366226" lon="132.2231826"/>
 <node id="2068116113" visible="true" version="2" changeset="66158524" timestamp="2019-01-09T11:28:22Z" user="HicksCO" uid="9337111" lat="34.1368330" lon="132.2231867"/>
 <node id="2068116114" visible="true" version="2" changeset="66158524" timestamp="2019-01-09T11:28:22Z" user="HicksCO" uid="9337111" lat="34.1377274" lon="132.2227433"/>
 <node id="2068116115" visible="true" version="2" changeset="66158524" timestamp="2019-01-09T11:28:22Z" user="HicksCO" uid="9337111" lat="34.1381383" lon="132.2225696"/>
 <node id="2068116119" visible="true" version="3" changeset="132727380" timestamp="2023-02-18T19:50:38Z" user="AYAGE" uid="521665" lat="34.1394594" lon="132.2218190"/>
 <node id="2068116120" visible="true" version="3" changeset="132727380" timestamp="2023-02-18T19:50:38Z" user="AYAGE" uid="521665" lat="34.1404222" lon="132.2212250"/>
 <node id="2068116121" visible="true" version="2" changeset="66158524" timestamp="2019-01-09T11:28:22Z" user="HicksCO" uid="9337111" lat="34.1409778" lon="132.2209035"/>
 <node id="2068116122" visible="true" version="2" changeset="66158524" timestamp="2019-01-09T11:28:22Z" user="HicksCO" uid="9337111" lat="34.1417644" lon="132.2212999"/>
 <node id="2068116123" visible="true" version="2" changeset="66158524" timestamp="2019-01-09T11:28:22Z" user="HicksCO" uid="9337111" lat="34.1421302" lon="132.2213482"/>
 <node id="2068116124" visible="true" version="3" changeset="133157034" timestamp="2023-03-01T06:07:53Z" user="AYAGE" uid="521665" lat="34.1423328" lon="132.2212892"/>
 <node id="2068116125" visible="true" version="3" changeset="133093872" timestamp="2023-02-27T16:04:10Z" user="AYAGE" uid="521665" lat="34.1473872" lon="132.2176886"/>
 <node id="2068116126" visible="true" version="3" changeset="133093872" timestamp="2023-02-27T16:04:10Z" user="AYAGE" uid="521665" lat="34.1477703" lon="132.2172909"/>
 <node id="2068116127" visible="true" version="2" changeset="66158524" timestamp="2019-01-09T11:28:22Z" user="HicksCO" uid="9337111" lat="34.1486040" lon="132.2159796"/>
 <node id="2068116128" visible="true" version="2" changeset="66158524" timestamp="2019-01-09T11:28:22Z" user="HicksCO" uid="9337111" lat="34.1496404" lon="132.2143559"/>
 <node id="2068116129" visible="true" version="2" changeset="66158524" timestamp="2019-01-09T11:28:22Z" user="HicksCO" uid="9337111" lat="34.1500160" lon="132.2137518"/>
 <node id="2068116130" visible="true" version="1" changeset="14279910" timestamp="2012-12-15T12:33:41Z" user="nmaruichi" uid="317331" lat="34.1510642" lon="132.2116033"/>
 <node id="2068116131" visible="true" version="2" changeset="66158524" timestamp="2019-01-09T11:28:22Z" user="HicksCO" uid="9337111" lat="34.1517128" lon="132.2102617"/>
 <node id="2068116132" visible="true" version="2" changeset="66158524" timestamp="2019-01-09T11:28:22Z" user="HicksCO" uid="9337111" lat="34.1520993" lon="132.2093867"/>
 <node id="2068116133" visible="true" version="2" changeset="66158524" timestamp="2019-01-09T11:28:22Z" user="HicksCO" uid="9337111" lat="34.1522535" lon="132.2089420"/>
 <node id="2068116134" visible="true" version="2" changeset="66158524" timestamp="2019-01-09T11:28:22Z" user="HicksCO" uid="9337111" lat="34.1523786" lon="132.2084134"/>
 <node id="2068116135" visible="true" version="2" changeset="66158524" timestamp="2019-01-09T11:28:22Z" user="HicksCO" uid="9337111" lat="34.1524632" lon="132.2078889"/>
 <node id="2068116136" visible="true" version="2" changeset="66158524" timestamp="2019-01-09T11:28:22Z" user="HicksCO" uid="9337111" lat="34.1524705" lon="132.2072374"/>
 <node id="2068116137" visible="true" version="2" changeset="66158524" timestamp="2019-01-09T11:28:22Z" user="HicksCO" uid="9337111" lat="34.1522869" lon="132.2067081"/>
 <node id="2068116138" visible="true" version="2" changeset="66158524" timestamp="2019-01-09T11:28:22Z" user="HicksCO" uid="9337111" lat="34.1523886" lon="132.2062915"/>
 <node id="2068116139" visible="true" version="2" changeset="66158524" timestamp="2019-01-09T11:28:22Z" user="HicksCO" uid="9337111" lat="34.1525389" lon="132.2058475"/>
 <node id="2068116140" visible="true" version="2" changeset="66158524" timestamp="2019-01-09T11:28:22Z" user="HicksCO" uid="9337111" lat="34.1536531" lon="132.2041759"/>
 <node id="2068116141" visible="true" version="2" changeset="66158524" timestamp="2019-01-09T11:28:22Z" user="HicksCO" uid="9337111" lat="34.1549686" lon="132.2023662"/>
 <node id="2068116142" visible="true" version="2" changeset="66158524" timestamp="2019-01-09T11:28:22Z" user="HicksCO" uid="9337111" lat="34.1553404" lon="132.2020664"/>
 <node id="2068116143" visible="true" version="2" changeset="66158524" timestamp="2019-01-09T11:28:22Z" user="HicksCO" uid="9337111" lat="34.1555669" lon="132.2018424"/>
 <node id="2068116144" visible="true" version="2" changeset="66158524" timestamp="2019-01-09T11:28:22Z" user="HicksCO" uid="9337111" lat="34.1558568" lon="132.2016393"/>
 <node id="2068116145" visible="true" version="2" changeset="66158524" timestamp="2019-01-09T11:28:23Z" user="HicksCO" uid="9337111" lat="34.1562555" lon="132.2013148"/>
 <node id="2068116146" visible="true" version="2" changeset="66158524" timestamp="2019-01-09T11:28:23Z" user="HicksCO" uid="9337111" lat="34.1567610" lon="132.2009280"/>
 <node id="2068116147" visible="true" version="2" changeset="66158524" timestamp="2019-01-09T11:28:23Z" user="HicksCO" uid="9337111" lat="34.1570587" lon="132.2006486"/>
 <node id="2068116148" visible="true" version="2" changeset="66158524" timestamp="2019-01-09T11:28:23Z" user="HicksCO" uid="9337111" lat="34.1573484" lon="132.2003767"/>
 <node id="2068116149" visible="true" version="2" changeset="66243786" timestamp="2019-01-12T04:31:54Z" user="HicksCO" uid="9337111" lat="34.1578151" lon="132.2000076"/>
 <node id="2068116150" visible="true" version="3" changeset="66243786" timestamp="2019-01-12T04:31:54Z" user="HicksCO" uid="9337111" lat="34.1580283" lon="132.1998363"/>
 <node id="2068116151" visible="true" version="2" changeset="133178979" timestamp="2023-03-01T16:24:37Z" user="AYAGE" uid="521665" lat="34.1583297" lon="132.2031032"/>
 <node id="2068116152" visible="true" version="3" changeset="66243786" timestamp="2019-01-12T04:31:54Z" user="HicksCO" uid="9337111" lat="34.1579473" lon="132.2027850"/>
 <node id="2068116153" visible="true" version="2" changeset="66243786" timestamp="2019-01-12T04:31:54Z" user="HicksCO" uid="9337111" lat="34.1578867" lon="132.2028232"/>
 <node id="2068116154" visible="true" version="2" changeset="66158524" timestamp="2019-01-09T11:28:23Z" user="HicksCO" uid="9337111" lat="34.1569776" lon="132.2032910"/>
 <node id="2068116155" visible="true" version="2" changeset="133178979" timestamp="2023-03-01T16:24:37Z" user="AYAGE" uid="521665" lat="34.1558777" lon="132.2039076"/>
 <node id="2068116156" visible="true" version="2" changeset="133178979" timestamp="2023-03-01T16:24:37Z" user="AYAGE" uid="521665" lat="34.1555044" lon="132.2043854"/>
 <node id="2068116157" visible="true" version="2" changeset="133178979" timestamp="2023-03-01T16:24:37Z" user="AYAGE" uid="521665" lat="34.1549778" lon="132.2050810"/>
 <node id="2068116158" visible="true" version="2" changeset="133178979" timestamp="2023-03-01T16:24:37Z" user="AYAGE" uid="521665" lat="34.1540641" lon="132.2068416"/>
 <node id="2068116159" visible="true" version="1" changeset="14279910" timestamp="2012-12-15T12:33:42Z" user="nmaruichi" uid="317331" lat="34.1537130" lon="132.2085741"/>
 <node id="2068116160" visible="true" version="2" changeset="133178979" timestamp="2023-03-01T16:24:37Z" user="AYAGE" uid="521665" lat="34.1530073" lon="132.2121376"/>
 <node id="2068116161" visible="true" version="2" changeset="133178979" timestamp="2023-03-01T16:24:37Z" user="AYAGE" uid="521665" lat="34.1527189" lon="132.2128807"/>
 <node id="2068116162" visible="true" version="2" changeset="133178979" timestamp="2023-03-01T16:24:37Z" user="AYAGE" uid="521665" lat="34.1509530" lon="132.2152707"/>
 <node id="2068116163" visible="true" version="2" changeset="133178979" timestamp="2023-03-01T16:24:37Z" user="AYAGE" uid="521665" lat="34.1497260" lon="132.2174143"/>
 <node id="2068116164" visible="true" version="2" changeset="66484393" timestamp="2019-01-20T20:12:07Z" user="zaizone" uid="1122708" lat="34.1486026" lon="132.2189608"/>
 <node id="2068116165" visible="true" version="2" changeset="66484393" timestamp="2019-01-20T20:12:07Z" user="zaizone" uid="1122708" lat="34.1479664" lon="132.2199992"/>
 <node id="2068116166" visible="true" version="2" changeset="66484393" timestamp="2019-01-20T20:12:07Z" user="zaizone" uid="1122708" lat="34.1476024" lon="132.2202493"/>
 <node id="2068116168" visible="true" version="2" changeset="66484393" timestamp="2019-01-20T20:12:07Z" user="zaizone" uid="1122708" lat="34.1469840" lon="132.2203153"/>
 <node id="2068116169" visible="true" version="2" changeset="66484393" timestamp="2019-01-20T20:12:07Z" user="zaizone" uid="1122708" lat="34.1458525" lon="132.2209820"/>
 <node id="2068116170" visible="true" version="2" changeset="66484393" timestamp="2019-01-20T20:12:07Z" user="zaizone" uid="1122708" lat="34.1456583" lon="132.2214515"/>
 <node id="2068116171" visible="true" version="2" changeset="66484393" timestamp="2019-01-20T20:12:07Z" user="zaizone" uid="1122708" lat="34.1449631" lon="132.2221679"/>
 <node id="2068116172" visible="true" version="1" changeset="14279910" timestamp="2012-12-15T12:33:42Z" user="nmaruichi" uid="317331" lat="34.1422187" lon="132.2240061"/>
 <node id="2068116173" visible="true" version="2" changeset="66484393" timestamp="2019-01-20T20:12:07Z" user="zaizone" uid="1122708" lat="34.1385973" lon="132.2263434"/>
 <node id="2068116174" visible="true" version="3" changeset="66484393" timestamp="2019-01-20T20:12:07Z" user="zaizone" uid="1122708" lat="34.1294064" lon="132.2281046"/>
 <node id="2068116175" visible="true" version="3" changeset="66484393" timestamp="2019-01-20T20:12:08Z" user="zaizone" uid="1122708" lat="34.1293920" lon="132.2280790"/>
 <node id="2068116176" visible="true" version="3" changeset="66484393" timestamp="2019-01-20T20:12:08Z" user="zaizone" uid="1122708" lat="34.1290201" lon="132.2281328"/>
 <node id="2079436711" visible="true" version="2" changeset="133048492" timestamp="2023-02-26T15:53:59Z" user="AYAGE" uid="521665" lat="34.1486468" lon="132.2157277">
  <tag k="highway" v="crossing"/>
 </node>
 <node id="2508265040" visible="true" version="3" changeset="132993721" timestamp="2023-02-25T06:19:48Z" user="AYAGE" uid="521665" lat="34.1484376" lon="132.2121933"/>
 <node id="2826509605" visible="true" version="2" changeset="68196941" timestamp="2019-03-16T07:03:45Z" user="Otenkiya" uid="4702051" lat="34.1515006" lon="132.2058258"/>
 <node id="2826509606" visible="true" version="2" changeset="68196941" timestamp="2019-03-16T07:03:45Z" user="Otenkiya" uid="4702051" lat="34.1514359" lon="132.2062142"/>
 <node id="2826509607" visible="true" version="2" changeset="68196941" timestamp="2019-03-16T07:03:45Z" user="Otenkiya" uid="4702051" lat="34.1513252" lon="132.2066882"/>
 <node id="2826509608" visible="true" version="2" changeset="68196941" timestamp="2019-03-16T07:03:45Z" user="Otenkiya" uid="4702051" lat="34.1512208" lon="132.2070338"/>
 <node id="2826509609" visible="true" version="2" changeset="68196941" timestamp="2019-03-16T07:03:45Z" user="Otenkiya" uid="4702051" lat="34.1511037" lon="132.2073478"/>
 <node id="2826509610" visible="true" version="3" changeset="132993721" timestamp="2023-02-25T06:19:48Z" user="AYAGE" uid="521665" lat="34.1507552" lon="132.2080576"/>
 <node id="2826509611" visible="true" version="2" changeset="132993721" timestamp="2023-02-25T06:19:48Z" user="AYAGE" uid="521665" lat="34.1502850" lon="132.2088377"/>
 <node id="2826509612" visible="true" version="2" changeset="132993721" timestamp="2023-02-25T06:19:48Z" user="AYAGE" uid="521665" lat="34.1496704" lon="132.2097759"/>
 <node id="2826509614" visible="true" version="2" changeset="132993721" timestamp="2023-02-25T06:19:48Z" user="AYAGE" uid="521665" lat="34.1488404" lon="132.2109986"/>
 <node id="2826509615" visible="true" version="2" changeset="132993721" timestamp="2023-02-25T06:19:48Z" user="AYAGE" uid="521665" lat="34.1480442" lon="132.2123532"/>
 <node id="2826509616" visible="true" version="2" changeset="132993721" timestamp="2023-02-25T06:19:48Z" user="AYAGE" uid="521665" lat="34.1479386" lon="132.2125752">
  <tag k="highway" v="traffic_signals"/>
  <tag k="noname" v="yes"/>
 </node>
 <node id="2826509617" visible="true" version="2" changeset="62393092" timestamp="2018-09-08T04:12:05Z" user="nmaruichi" uid="317331" lat="34.1477699" lon="132.2129213"/>
 <node id="2826509618" visible="true" version="2" changeset="62393092" timestamp="2018-09-08T04:12:06Z" user="nmaruichi" uid="317331" lat="34.1470372" lon="132.2148340">
  <tag k="highway" v="traffic_signals"/>
  <tag k="noname" v="yes"/>
  <tag k="source" v="survey"/>
  <tag k="survey:date" v="2018-09-06"/>
 </node>
 <node id="2826509619" visible="true" version="3" changeset="132993721" timestamp="2023-02-25T06:19:48Z" user="AYAGE" uid="521665" lat="34.1476931" lon="132.2124487"/>
 <node id="3732695827" visible="true" version="2" changeset="132993721" timestamp="2023-02-25T06:19:48Z" user="AYAGE" uid="521665" lat="34.1479245" lon="132.2122798"/>
 <node id="3732695828" visible="true" version="2" changeset="132993721" timestamp="2023-02-25T06:19:48Z" user="AYAGE" uid="521665" lat="34.1479721" lon="132.2122301"/>
 <node id="3732695829" visible="true" version="2" changeset="132993721" timestamp="2023-02-25T06:19:48Z" user="AYAGE" uid="521665" lat="34.1482897" lon="132.2118975"/>
 <node id="3732695830" visible="true" version="2" changeset="132993721" timestamp="2023-02-25T06:19:48Z" user="AYAGE" uid="521665" lat="34.1488742" lon="132.2112346"/>
 <node id="4262966063" visible="true" version="3" changeset="132993721" timestamp="2023-02-25T06:19:48Z" user="AYAGE" uid="521665" lat="34.1509404" lon="132.2077017"/>
 <node id="5892053885" visible="true" version="1" changeset="62393092" timestamp="2018-09-08T04:12:05Z" user="nmaruichi" uid="317331" lat="34.1470940" lon="132.2146838">
  <tag k="bicycle" v="yes"/>
  <tag k="crossing" v="traffic_signals"/>
  <tag k="foot" v="yes"/>
  <tag k="highway" v="crossing"/>
 </node>
 <node id="6194948472" visible="true" version="2" changeset="133178979" timestamp="2023-03-01T16:24:37Z" user="AYAGE" uid="521665" lat="34.1582726" lon="132.2030434"/>
 <node id="6194948473" visible="true" version="2" changeset="133178979" timestamp="2023-03-01T16:24:37Z" user="AYAGE" uid="521665" lat="34.1581628" lon="132.2028101"/>
 <node id="6194948474" visible="true" version="1" changeset="66158524" timestamp="2019-01-09T11:27:28Z" user="HicksCO" uid="9337111" lat="34.1581095" lon="132.2027805"/>
 <node id="6194948475" visible="true" version="2" changeset="66243786" timestamp="2019-01-12T04:31:55Z" user="HicksCO" uid="9337111" lat="34.1574066" lon="132.2030537"/>
 <node id="6194948476" visible="true" version="1" changeset="66158524" timestamp="2019-01-09T11:27:28Z" user="HicksCO" uid="9337111" lat="34.1577210" lon="132.1999937"/>
 <node id="6194948477" visible="true" version="1" changeset="66158524" timestamp="2019-01-09T11:27:28Z" user="HicksCO" uid="9337111" lat="34.1575879" lon="132.2000018"/>
 <node id="6194948478" visible="true" version="1" changeset="66158524" timestamp="2019-01-09T11:27:28Z" user="HicksCO" uid="9337111" lat="34.1575168" lon="132.2000340"/>
 <node id="6194948479" visible="true" version="2" changeset="66243786" timestamp="2019-01-12T04:31:55Z" user="HicksCO" uid="9337111" lat="34.1577643" lon="132.2000192"/>
 <node id="6194948480" visible="true" version="1" changeset="66158524" timestamp="2019-01-09T11:27:28Z" user="HicksCO" uid="9337111" lat="34.1575279" lon="132.2001117"/>
 <node id="6194948481" visible="true" version="1" changeset="66158524" timestamp="2019-01-09T11:27:28Z" user="HicksCO" uid="9337111" lat="34.1574258" lon="132.2002432"/>
 <node id="6194949885" visible="true" version="2" changeset="133157034" timestamp="2023-03-01T06:07:53Z" user="AYAGE" uid="521665" lat="34.1391950" lon="132.2221354"/>
 <node id="6194949886" visible="true" version="2" changeset="133157034" timestamp="2023-03-01T06:07:53Z" user="AYAGE" uid="521665" lat="34.1394075" lon="132.2218491"/>
 <node id="6223535976" visible="true" version="1" changeset="66484393" timestamp="2019-01-20T20:12:02Z" user="zaizone" uid="1122708" lat="34.1398476" lon="132.2255605"/>
 <node id="6223535977" visible="true" version="1" changeset="66484393" timestamp="2019-01-20T20:12:02Z" user="zaizone" uid="1122708" lat="34.1431975" lon="132.2232565"/>
 <node id="6223535978" visible="true" version="1" changeset="66484393" timestamp="2019-01-20T20:12:02Z" user="zaizone" uid="1122708" lat="34.1431864" lon="132.2233531"/>
 <node id="6223535979" visible="true" version="1" changeset="66484393" timestamp="2019-01-20T20:12:02Z" user="zaizone" uid="1122708" lat="34.1447381" lon="132.2222373"/>
 <node id="6223535980" visible="true" version="1" changeset="66484393" timestamp="2019-01-20T20:12:02Z" user="zaizone" uid="1122708" lat="34.1441765" lon="132.2226047"/>
 <node id="6223535981" visible="true" version="1" changeset="66484393" timestamp="2019-01-20T20:12:02Z" user="zaizone" uid="1122708" lat="34.1434617" lon="132.2230768"/>
 <node id="6223535982" visible="true" version="2" changeset="133178979" timestamp="2023-03-01T16:24:37Z" user="AYAGE" uid="521665" lat="34.1493204" lon="132.2178009"/>
 <node id="6223535983" visible="true" version="1" changeset="66484393" timestamp="2019-01-20T20:12:02Z" user="zaizone" uid="1122708" lat="34.1488492" lon="132.2186029"/>
 <node id="6223535984" visible="true" version="1" changeset="66484393" timestamp="2019-01-20T20:12:02Z" user="zaizone" uid="1122708" lat="34.1461211" lon="132.2207326"/>
 <node id="6223536085" visible="true" version="1" changeset="66484393" timestamp="2019-01-20T20:12:02Z" user="zaizone" uid="1122708" lat="34.1459279" lon="132.2208694"/>
 <node id="6223536086" visible="true" version="1" changeset="66484393" timestamp="2019-01-20T20:12:02Z" user="zaizone" uid="1122708" lat="34.1454240" lon="132.2217518"/>
 <node id="6223536119" visible="true" version="1" changeset="66484393" timestamp="2019-01-20T20:12:02Z" user="zaizone" uid="1122708" lat="34.1468514" lon="132.2203436"/>
 <node id="6223536122" visible="true" version="1" changeset="66484393" timestamp="2019-01-20T20:12:02Z" user="zaizone" uid="1122708" lat="34.1448269" lon="132.2222561"/>
 <node id="6223536125" visible="true" version="1" changeset="66484393" timestamp="2019-01-20T20:12:02Z" user="zaizone" uid="1122708" lat="34.1449246" lon="132.2222131"/>
 <node id="6341033217" visible="true" version="1" changeset="68196941" timestamp="2019-03-16T07:03:39Z" user="Otenkiya" uid="4702051" lat="34.1513735" lon="132.2065136"/>
 <node id="7373926564" visible="true" version="3" changeset="133048492" timestamp="2023-02-26T15:53:59Z" user="AYAGE" uid="521665" lat="34.1498995" lon="132.2094388"/>
 <node id="7373926566" visible="true" version="1" changeset="83170390" timestamp="2020-04-07T02:29:42Z" user="Jillybean558" uid="10912192" lat="34.1476281" lon="132.2140528">
  <tag k="highway" v="crossing"/>
 </node>
 <node id="10676886640" visible="true" version="1" changeset="132727380" timestamp="2023-02-18T19:50:38Z" user="AYAGE" uid="521665" lat="34.1309772" lon="132.2223459"/>
 <node id="10676886641" visible="true" version="2" changeset="133157034" timestamp="2023-03-01T06:07:53Z" user="AYAGE" uid="521665" lat="34.1310127" lon="132.2224626"/>
 <node id="10692334442" visible="true" version="2" changeset="132993721" timestamp="2023-02-25T06:19:48Z" user="AYAGE" uid="521665" lat="34.1483192" lon="132.2125840"/>
 <node id="10692334443" visible="true" version="2" changeset="132993721" timestamp="2023-02-25T06:19:48Z" user="AYAGE" uid="521665" lat="34.1484857" lon="132.2125988"/>
 <node id="10692334444" visible="true" version="2" changeset="132993721" timestamp="2023-02-25T06:19:48Z" user="AYAGE" uid="521665" lat="34.1485939" lon="132.2125659"/>
 <node id="10692334445" visible="true" version="1" changeset="132991996" timestamp="2023-02-25T04:01:54Z" user="AYAGE" uid="521665" lat="34.1489313" lon="132.2128274"/>
 <node id="10692334446" visible="true" version="1" changeset="132991996" timestamp="2023-02-25T04:01:54Z" user="AYAGE" uid="521665" lat="34.1490378" lon="132.2129414"/>
 <node id="10692334447" visible="true" version="1" changeset="132991996" timestamp="2023-02-25T04:01:54Z" user="AYAGE" uid="521665" lat="34.1499862" lon="132.2136261"/>
 <node id="10692334448" visible="true" version="1" changeset="132991996" timestamp="2023-02-25T04:01:54Z" user="AYAGE" uid="521665" lat="34.1501438" lon="132.2133075"/>
 <node id="10692334449" visible="true" version="1" changeset="132991996" timestamp="2023-02-25T04:01:54Z" user="AYAGE" uid="521665" lat="34.1503153" lon="132.2128992"/>
 <node id="10692407485" visible="true" version="1" changeset="132993721" timestamp="2023-02-25T06:19:48Z" user="AYAGE" uid="521665" lat="34.1485600" lon="132.2124868"/>
 <node id="10692407486" visible="true" version="1" changeset="132993721" timestamp="2023-02-25T06:19:48Z" user="AYAGE" uid="521665" lat="34.1483697" lon="132.2119953"/>
 <node id="10692407489" visible="true" version="1" changeset="132993721" timestamp="2023-02-25T06:19:48Z" user="AYAGE" uid="521665" lat="34.1482138" lon="132.2117954"/>
 <node id="10692407490" visible="true" version="1" changeset="132993721" timestamp="2023-02-25T06:19:48Z" user="AYAGE" uid="521665" lat="34.1482482" lon="132.2116768"/>
 <node id="10692440705" visible="true" version="1" changeset="132993721" timestamp="2023-02-25T06:19:48Z" user="AYAGE" uid="521665" lat="34.1493745" lon="132.2102064"/>
 <node id="10692440715" visible="true" version="1" changeset="132993721" timestamp="2023-02-25T06:19:48Z" user="AYAGE" uid="521665" lat="34.1501366" lon="132.2090770"/>
 <node id="10692440726" visible="true" version="1" changeset="132993721" timestamp="2023-02-25T06:19:48Z" user="AYAGE" uid="521665" lat="34.1505012" lon="132.2084822"/>
 <node id="10692440727" visible="true" version="1" changeset="132993721" timestamp="2023-02-25T06:19:48Z" user="AYAGE" uid="521665" lat="34.1486133" lon="132.2121066"/>
 <node id="10692440728" visible="true" version="1" changeset="132993721" timestamp="2023-02-25T06:19:48Z" user="AYAGE" uid="521665" lat="34.1489613" lon="132.2119148"/>
 <node id="10692440729" visible="true" version="1" changeset="132993721" timestamp="2023-02-25T06:19:48Z" user="AYAGE" uid="521665" lat="34.1490295" lon="132.2118310"/>
 <node id="10692440730" visible="true" version="1" changeset="132993721" timestamp="2023-02-25T06:19:48Z" user="AYAGE" uid="521665" lat="34.1490850" lon="132.2117740"/>
 <node id="10692440731" visible="true" version="1" changeset="132993721" timestamp="2023-02-25T06:19:48Z" user="AYAGE" uid="521665" lat="34.1497787" lon="132.2113180"/>
 <node id="10695078933" visible="true" version="1" changeset="133048492" timestamp="2023-02-26T15:53:59Z" user="AYAGE" uid="521665" lat="34.1490656" lon="132.2151013"/>
 <node id="10695078935" visible="true" version="1" changeset="133048492" timestamp="2023-02-26T15:53:59Z" user="AYAGE" uid="521665" lat="34.1479430" lon="132.2153105"/>
 <node id="10695078936" visible="true" version="1" changeset="133048492" timestamp="2023-02-26T15:53:59Z" user="AYAGE" uid="521665" lat="34.1481549" lon="132.2150711"/>
 <node id="10695078937" visible="true" version="1" changeset="133048492" timestamp="2023-02-26T15:53:59Z" user="AYAGE" uid="521665" lat="34.1484685" lon="132.2147640"/>
 <node id="10695078938" visible="true" version="1" changeset="133048492" timestamp="2023-02-26T15:53:59Z" user="AYAGE" uid="521665" lat="34.1491506" lon="132.2140111"/>
 <node id="10695078939" visible="true" version="1" changeset="133048492" timestamp="2023-02-26T15:53:59Z" user="AYAGE" uid="521665" lat="34.1495184" lon="132.2143757"/>
 <node id="10695082522" visible="true" version="1" changeset="133048492" timestamp="2023-02-26T15:53:59Z" user="AYAGE" uid="521665" lat="34.1497880" lon="132.2096029"/>
 <node id="10697427345" visible="true" version="1" changeset="133093872" timestamp="2023-02-27T16:04:10Z" user="AYAGE" uid="521665" lat="34.1470445" lon="132.2178841"/>
 <node id="10697427346" visible="true" version="1" changeset="133093872" timestamp="2023-02-27T16:04:10Z" user="AYAGE" uid="521665" lat="34.1456482" lon="132.2189194"/>
 <node id="10697427347" visible="true" version="1" changeset="133093872" timestamp="2023-02-27T16:04:10Z" user="AYAGE" uid="521665" lat="34.1474651" lon="132.2175716"/>
 <node id="10697427348" visible="true" version="1" changeset="133093872" timestamp="2023-02-27T16:04:10Z" user="AYAGE" uid="521665" lat="34.1476117" lon="132.2174911"/>
 <node id="10697427349" visible="true" version="1" changeset="133093872" timestamp="2023-02-27T16:04:10Z" user="AYAGE" uid="521665" lat="34.1477027" lon="132.2173409"/>
 <node id="10697427350" visible="true" version="1" changeset="133093872" timestamp="2023-02-27T16:04:10Z" user="AYAGE" uid="521665" lat="34.1479857" lon="132.2168903"/>
 <node id="10697427351" visible="true" version="1" changeset="133093872" timestamp="2023-02-27T16:04:10Z" user="AYAGE" uid="521665" lat="34.1482232" lon="132.2165644"/>
 <node id="10697427354" visible="true" version="1" changeset="133093872" timestamp="2023-02-27T16:04:10Z" user="AYAGE" uid="521665" lat="34.1506849" lon="132.2113784"/>
 <node id="10697427355" visible="true" version="1" changeset="133093872" timestamp="2023-02-27T16:04:10Z" user="AYAGE" uid="521665" lat="34.1505706" lon="132.2115071"/>
 <node id="10697427356" visible="true" version="1" changeset="133093872" timestamp="2023-02-27T16:04:10Z" user="AYAGE" uid="521665" lat="34.1505373" lon="132.2116077"/>
 <node id="10697427357" visible="true" version="1" changeset="133093872" timestamp="2023-02-27T16:04:10Z" user="AYAGE" uid="521665" lat="34.1503963" lon="132.2117579"/>
 <node id="10697427358" visible="true" version="1" changeset="133093872" timestamp="2023-02-27T16:04:10Z" user="AYAGE" uid="521665" lat="34.1505006" lon="132.2123855"/>
 <node id="10697427359" visible="true" version="1" changeset="133093872" timestamp="2023-02-27T16:04:10Z" user="AYAGE" uid="521665" lat="34.1502199" lon="132.2121455"/>
 <node id="10697427360" visible="true" version="1" changeset="133093872" timestamp="2023-02-27T16:04:10Z" user="AYAGE" uid="521665" lat="34.1501510" lon="132.2120623"/>
 <node id="10697427361" visible="true" version="1" changeset="133093872" timestamp="2023-02-27T16:04:10Z" user="AYAGE" uid="521665" lat="34.1498747" lon="132.2124512"/>
 <node id="10697427362" visible="true" version="1" changeset="133093872" timestamp="2023-02-27T16:04:10Z" user="AYAGE" uid="521665" lat="34.1496150" lon="132.2128053"/>
 <node id="10697427363" visible="true" version="1" changeset="133093872" timestamp="2023-02-27T16:04:10Z" user="AYAGE" uid="521665" lat="34.1495051" lon="132.2128952"/>
 <node id="10697427364" visible="true" version="1" changeset="133093872" timestamp="2023-02-27T16:04:10Z" user="AYAGE" uid="521665" lat="34.1493564" lon="132.2130601"/>
 <node id="10701101652" visible="true" version="1" changeset="133157034" timestamp="2023-03-01T06:07:53Z" user="AYAGE" uid="521665" lat="34.1311248" lon="132.2228435"/>
 <node id="10701101659" visible="true" version="1" changeset="133157034" timestamp="2023-03-01T06:07:53Z" user="AYAGE" uid="521665" lat="34.1385456" lon="132.2224438"/>
 <node id="10701101660" visible="true" version="1" changeset="133157034" timestamp="2023-03-01T06:07:53Z" user="AYAGE" uid="521665" lat="34.1390240" lon="132.2222024"/>
 <node id="10701101661" visible="true" version="1" changeset="133157034" timestamp="2023-03-01T06:07:53Z" user="AYAGE" uid="521665" lat="34.1394869" lon="132.2220589"/>
 <node id="10701101664" visible="true" version="1" changeset="133157034" timestamp="2023-03-01T06:07:53Z" user="AYAGE" uid="521665" lat="34.1422774" lon="132.2212878"/>
 <node id="10701101665" visible="true" version="1" changeset="133157034" timestamp="2023-03-01T06:07:53Z" user="AYAGE" uid="521665" lat="34.1421941" lon="132.2213629"/>
 <node id="10701101666" visible="true" version="1" changeset="133157034" timestamp="2023-03-01T06:07:53Z" user="AYAGE" uid="521665" lat="34.1404481" lon="132.2212100"/>
 <node id="10702278700" visible="true" version="1" changeset="133178979" timestamp="2023-03-01T16:24:37Z" user="AYAGE" uid="521665" lat="34.1582204" lon="132.2030260"/>
 <node id="10702278710" visible="true" version="1" changeset="133178979" timestamp="2023-03-01T16:24:37Z" user="AYAGE" uid="521665" lat="34.1557479" lon="132.2039969"/>
 <node id="10702278711" visible="true" version="1" changeset="133178979" timestamp="2023-03-01T16:24:37Z" user="AYAGE" uid="521665" lat="34.1556624" lon="132.2041002"/>
 <node id="10702278712" visible="true" version="1" changeset="133178979" timestamp="2023-03-01T16:24:37Z" user="AYAGE" uid="521665" lat="34.1556724" lon="132.2041498"/>
 <node id="10702278713" visible="true" version="1" changeset="133178979" timestamp="2023-03-01T16:24:37Z" user="AYAGE" uid="521665" lat="34.1547235" lon="132.2055057"/>
 <node id="10702278714" visible="true" version="1" changeset="133178979" timestamp="2023-03-01T16:24:37Z" user="AYAGE" uid="521665" lat="34.1544439" lon="132.2059831"/>
 <node id="10702278715" visible="true" version="1" changeset="133178979" timestamp="2023-03-01T16:24:37Z" user="AYAGE" uid="521665" lat="34.1539456" lon="132.2075361"/>
 <node id="10702278716" visible="true" version="1" changeset="133178979" timestamp="2023-03-01T16:24:37Z" user="AYAGE" uid="521665" lat="34.1535671" lon="132.2095223"/>
 <node id="10702278717" visible="true" version="1" changeset="133178979" timestamp="2023-03-01T16:24:37Z" user="AYAGE" uid="521665" lat="34.1532497" lon="132.2109371"/>
 <node id="10702278718" visible="true" version="1" changeset="133178979" timestamp="2023-03-01T16:24:37Z" user="AYAGE" uid="521665" lat="34.1530355" lon="132.2122172"/>
 <node id="10702278719" visible="true" version="1" changeset="133178979" timestamp="2023-03-01T16:24:37Z" user="AYAGE" uid="521665" lat="34.1530871" lon="132.2122219"/>
 <node id="10702278720" visible="true" version="1" changeset="133178979" timestamp="2023-03-01T16:24:37Z" user="AYAGE" uid="521665" lat="34.1531421" lon="132.2121803"/>
 <node id="10702278721" visible="true" version="1" changeset="133178979" timestamp="2023-03-01T16:24:37Z" user="AYAGE" uid="521665" lat="34.1531687" lon="132.2122065"/>
 <node id="10702278722" visible="true" version="1" changeset="133178979" timestamp="2023-03-01T16:24:37Z" user="AYAGE" uid="521665" lat="34.1530294" lon="132.2123822"/>
 <node id="10702278723" visible="true" version="1" changeset="133178979" timestamp="2023-03-01T16:24:37Z" user="AYAGE" uid="521665" lat="34.1529756" lon="132.2123681"/>
 <node id="10702278724" visible="true" version="1" changeset="133178979" timestamp="2023-03-01T16:24:37Z" user="AYAGE" uid="521665" lat="34.1528646" lon="132.2125639"/>
 <node id="10702278725" visible="true" version="1" changeset="133178979" timestamp="2023-03-01T16:24:37Z" user="AYAGE" uid="521665" lat="34.1524884" lon="132.2131982"/>
 <node id="10702278726" visible="true" version="1" changeset="133178979" timestamp="2023-03-01T16:24:37Z" user="AYAGE" uid="521665" lat="34.1524573" lon="132.2132023"/>
 <node id="10702278727" visible="true" version="1" changeset="133178979" timestamp="2023-03-01T16:24:37Z" user="AYAGE" uid="521665" lat="34.1523829" lon="132.2133552"/>
 <node id="10702278728" visible="true" version="1" changeset="133178979" timestamp="2023-03-01T16:24:37Z" user="AYAGE" uid="521665" lat="34.1523741" lon="132.2134490"/>
 <node id="10702278729" visible="true" version="1" changeset="133178979" timestamp="2023-03-01T16:24:37Z" user="AYAGE" uid="521665" lat="34.1518092" lon="132.2141343"/>
 <node id="10702278730" visible="true" version="1" changeset="133178979" timestamp="2023-03-01T16:24:37Z" user="AYAGE" uid="521665" lat="34.1500600" lon="132.2169332"/>
 <node id="10702278731" visible="true" version="1" changeset="133178979" timestamp="2023-03-01T16:24:37Z" user="AYAGE" uid="521665" lat="34.1502876" lon="132.2165202"/>
 <node id="10702278732" visible="true" version="1" changeset="133178979" timestamp="2023-03-01T16:24:37Z" user="AYAGE" uid="521665" lat="34.1502554" lon="132.2164880"/>
 <node id="10702278733" visible="true" version="1" changeset="133178979" timestamp="2023-03-01T16:24:37Z" user="AYAGE" uid="521665" lat="34.1493081" lon="132.2178552"/>
 <node id="10702278734" visible="true" version="1" changeset="133178979" timestamp="2023-03-01T16:24:37Z" user="AYAGE" uid="521665" lat="34.1492199" lon="132.2180222"/>
 <way id="119017603" visible="true" version="4" changeset="132993721" timestamp="2023-02-25T06:19:48Z" user="AYAGE" uid="521665">
  <nd ref="1337993565"/>
  <nd ref="10692407486"/>
  <nd ref="1337996898"/>
  <nd ref="3732695830"/>
  <nd ref="1337995788"/>
  <tag k="highway" v="unclassified"/>
  <tag k="source" v="YahooJapan/ALPSMAP"/>
 </way>
 <way id="119017638" visible="true" version="3" changeset="132991996" timestamp="2023-02-25T04:01:54Z" user="AYAGE" uid="521665">
  <nd ref="1337995047"/>
  <nd ref="1337993955"/>
  <nd ref="1337992997"/>
  <nd ref="10692334445"/>
  <nd ref="10692334446"/>
  <nd ref="1337994572"/>
  <tag k="highway" v="tertiary"/>
  <tag k="source" v="YahooJapan/ALPSMAP"/>
 </way>
 <way id="119017876" visible="true" version="2" changeset="133048492" timestamp="2023-02-26T15:53:59Z" user="AYAGE" uid="521665">
  <nd ref="1337992870"/>
  <nd ref="10695078938"/>
  <nd ref="1337993408"/>
  <tag k="highway" v="path"/>
  <tag k="source" v="YahooJapan/ALPSMAP"/>
 </way>
 <way id="119017922" visible="true" version="5" changeset="132993721" timestamp="2023-02-25T06:19:48Z" user="AYAGE" uid="521665">
  <nd ref="1337995047"/>
  <nd ref="10692334444"/>
  <nd ref="10692407485"/>
  <nd ref="2508265040"/>
  <nd ref="10692407486"/>
  <tag k="highway" v="unclassified"/>
  <tag k="source" v="YahooJapan/ALPSMAP"/>
 </way>
 <way id="119018053" visible="true" version="2" changeset="132991996" timestamp="2023-02-25T04:01:54Z" user="AYAGE" uid="521665">
  <nd ref="1337994604"/>
  <nd ref="10692334447"/>
  <nd ref="10692334448"/>
  <nd ref="10692334449"/>
  <nd ref="1337996314"/>
  <nd ref="1337992844"/>
  <nd ref="1337993930"/>
  <tag k="highway" v="tertiary"/>
  <tag k="source" v="YahooJapan/ALPSMAP"/>
 </way>
 <way id="119018098" visible="true" version="3" changeset="106873098" timestamp="2021-06-24T05:42:54Z" user="taketaketake" uid="4757277">
  <nd ref="1337993846"/>
  <nd ref="1337994271"/>
  <tag k="bridge" v="yes"/>
  <tag k="highway" v="tertiary"/>
  <tag k="layer" v="1"/>
  <tag k="source" v="YahooJapan/ALPSMAP"/>
 </way>
 <way id="119018129" visible="true" version="4" changeset="132993721" timestamp="2023-02-25T06:19:48Z" user="AYAGE" uid="521665">
  <nd ref="2508265040"/>
  <nd ref="10692440727"/>
  <nd ref="1337994087"/>
  <nd ref="1337995894"/>
  <nd ref="10692440728"/>
  <nd ref="10692440729"/>
  <nd ref="10692440730"/>
  <nd ref="1337996367"/>
  <nd ref="10692440731"/>
  <nd ref="1337995091"/>
  <nd ref="1337995223"/>
  <nd ref="1337995735"/>
  <nd ref="1337994880"/>
  <tag k="highway" v="unclassified"/>
  <tag k="source" v="YahooJapan/ALPSMAP"/>
 </way>
 <way id="119018290" visible="true" version="5" changeset="132993721" timestamp="2023-02-25T06:19:48Z" user="AYAGE" uid="521665">
  <nd ref="2826509619"/>
  <nd ref="3732695827"/>
  <nd ref="3732695828"/>
  <nd ref="10692407489"/>
  <nd ref="10692407490"/>
  <nd ref="1337995814"/>
  <tag k="highway" v="unclassified"/>
  <tag k="source" v="YahooJapan/ALPSMAP"/>
 </way>
 <way id="119018368" visible="true" version="2" changeset="133048492" timestamp="2023-02-26T15:53:59Z" user="AYAGE" uid="521665">
  <nd ref="1337993114"/>
  <nd ref="10695078935"/>
  <nd ref="10695078936"/>
  <nd ref="10695078937"/>
  <nd ref="1337992870"/>
  <tag k="highway" v="path"/>
  <tag k="source" v="YahooJapan/ALPSMAP"/>
 </way>
 <way id="119018387" visible="true" version="3" changeset="133048492" timestamp="2023-02-26T15:53:59Z" user="AYAGE" uid="521665">
  <nd ref="1337995231"/>
  <nd ref="2079436711"/>
  <nd ref="10695078933"/>
  <nd ref="10695078939"/>
  <nd ref="1337994604"/>
  <tag k="highway" v="tertiary"/>
  <tag k="source" v="YahooJapan/ALPSMAP"/>
 </way>
 <way id="119018440" visible="true" version="2" changeset="106873098" timestamp="2021-06-24T05:42:54Z" user="taketaketake" uid="4757277">
  <nd ref="1337994572"/>
  <nd ref="1337993408"/>
  <nd ref="1337994604"/>
  <nd ref="1337993846"/>
  <tag k="highway" v="tertiary"/>
  <tag k="source" v="YahooJapan/ALPSMAP"/>
 </way>
 <way id="119018497" visible="true" version="2" changeset="133093872" timestamp="2023-02-27T16:04:10Z" user="AYAGE" uid="521665">
  <nd ref="1337994572"/>
  <nd ref="10697427364"/>
  <nd ref="10697427363"/>
  <nd ref="10697427362"/>
  <nd ref="1337993981"/>
  <nd ref="10697427361"/>
  <nd ref="1337994191"/>
  <nd ref="10697427360"/>
  <nd ref="10697427357"/>
  <nd ref="1337994527"/>
  <nd ref="10697427356"/>
  <nd ref="10697427355"/>
  <nd ref="10697427354"/>
  <nd ref="1337992971"/>
  <tag k="highway" v="path"/>
  <tag k="source" v="YahooJapan/ALPSMAP"/>
 </way>
 <way id="119018744" visible="true" version="2" changeset="83170390" timestamp="2020-04-07T02:29:42Z" user="Jillybean558" uid="10912192">
  <nd ref="1337993022"/>
  <nd ref="7373926566"/>
  <nd ref="1337992870"/>
  <tag k="highway" v="path"/>
  <tag k="source" v="YahooJapan/ALPSMAP"/>
 </way>
 <way id="119018784" visible="true" version="4" changeset="132991996" timestamp="2023-02-25T04:01:54Z" user="AYAGE" uid="521665">
  <nd ref="2826509616"/>
  <nd ref="1337993692"/>
  <nd ref="10692334442"/>
  <nd ref="10692334443"/>
  <nd ref="1337995047"/>
  <tag k="highway" v="tertiary"/>
  <tag k="source" v="YahooJapan/ALPSMAP"/>
 </way>
 <way id="196483094" visible="true" version="8" changeset="133178979" timestamp="2023-03-01T16:24:37Z" user="AYAGE" uid="521665">
  <nd ref="1442386330"/>
  <nd ref="10676886640"/>
  <nd ref="10676886641"/>
  <nd ref="2068116104"/>
  <nd ref="2068116105"/>
  <nd ref="10701101652"/>
  <nd ref="2068116106"/>
  <nd ref="2068116107"/>
  <nd ref="2068116108"/>
  <nd ref="2068116109"/>
  <nd ref="2068116110"/>
  <nd ref="2068116111"/>
  <nd ref="2068116112"/>
  <nd ref="2068116113"/>
  <nd ref="2068116114"/>
  <nd ref="2068116115"/>
  <nd ref="10701101659"/>
  <nd ref="10701101660"/>
  <nd ref="6194949885"/>
  <nd ref="10701101661"/>
  <nd ref="6194949886"/>
  <nd ref="2068116119"/>
  <nd ref="2068116120"/>
  <nd ref="10701101666"/>
  <nd ref="2068116121"/>
  <nd ref="2068116122"/>
  <nd ref="2068116123"/>
  <nd ref="10701101665"/>
  <nd ref="10701101664"/>
  <nd ref="2068116124"/>
  <nd ref="10697427346"/>
  <nd ref="10697427345"/>
  <nd ref="2068116125"/>
  <nd ref="10697427347"/>
  <nd ref="10697427348"/>
  <nd ref="10697427349"/>
  <nd ref="2068116126"/>
  <nd ref="10697427350"/>
  <nd ref="10697427351"/>
  <nd ref="2068116127"/>
  <nd ref="2068116128"/>
  <nd ref="2068116129"/>
  <nd ref="2068116130"/>
  <nd ref="2068116131"/>
  <nd ref="2068116132"/>
  <nd ref="2068116133"/>
  <nd ref="2068116134"/>
  <nd ref="2068116135"/>
  <nd ref="2068116136"/>
  <nd ref="2068116137"/>
  <nd ref="2068116138"/>
  <nd ref="2068116139"/>
  <nd ref="2068116140"/>
  <nd ref="2068116141"/>
  <nd ref="2068116142"/>
  <nd ref="2068116143"/>
  <nd ref="2068116144"/>
  <nd ref="2068116145"/>
  <nd ref="2068116146"/>
  <nd ref="2068116147"/>
  <nd ref="2068116148"/>
  <nd ref="6194948481"/>
  <nd ref="6194948480"/>
  <nd ref="6194948478"/>
  <nd ref="6194948477"/>
  <nd ref="6194948476"/>
  <nd ref="6194948479"/>
  <nd ref="2068116149"/>
  <nd ref="2068116150"/>
  <nd ref="2068116151"/>
  <nd ref="6194948472"/>
  <nd ref="10702278700"/>
  <nd ref="6194948473"/>
  <nd ref="6194948474"/>
  <nd ref="2068116152"/>
  <nd ref="2068116153"/>
  <nd ref="6194948475"/>
  <nd ref="2068116154"/>
  <nd ref="2068116155"/>
  <nd ref="10702278710"/>
  <nd ref="10702278711"/>
  <nd ref="10702278712"/>
  <nd ref="2068116156"/>
  <nd ref="2068116157"/>
  <nd ref="10702278713"/>
  <nd ref="10702278714"/>
  <nd ref="2068116158"/>
  <nd ref="10702278715"/>
  <nd ref="2068116159"/>
  <nd ref="10702278716"/>
  <nd ref="10702278717"/>
  <nd ref="2068116160"/>
  <nd ref="10702278718"/>
  <nd ref="10702278719"/>
  <nd ref="10702278720"/>
  <nd ref="10702278721"/>
  <nd ref="10702278722"/>
  <nd ref="10702278723"/>
  <nd ref="10702278724"/>
  <nd ref="2068116161"/>
  <nd ref="10702278725"/>
  <nd ref="10702278726"/>
  <nd ref="10702278727"/>
  <nd ref="10702278728"/>
  <nd ref="10702278729"/>
  <nd ref="2068116162"/>
  <nd ref="10702278732"/>
  <nd ref="10702278731"/>
  <nd ref="10702278730"/>
  <nd ref="2068116163"/>
  <nd ref="6223535982"/>
  <nd ref="10702278733"/>
  <nd ref="10702278734"/>
  <nd ref="1806921683"/>
  <nd ref="6223535983"/>
  <nd ref="2068116164"/>
  <nd ref="1806921583"/>
  <nd ref="2068116165"/>
  <nd ref="2068116166"/>
  <nd ref="1806921603"/>
  <nd ref="2068116168"/>
  <nd ref="6223536119"/>
  <nd ref="6223535984"/>
  <nd ref="6223536085"/>
  <nd ref="2068116169"/>
  <nd ref="2068116170"/>
  <nd ref="6223536086"/>
  <nd ref="2068116171"/>
  <nd ref="6223536125"/>
  <nd ref="6223536122"/>
  <nd ref="6223535979"/>
  <nd ref="6223535980"/>
  <nd ref="6223535981"/>
  <nd ref="6223535977"/>
  <nd ref="6223535978"/>
  <nd ref="2068116172"/>
  <nd ref="1806921635"/>
  <nd ref="6223535976"/>
  <nd ref="2068116173"/>
  <nd ref="734800877"/>
  <nd ref="2068116174"/>
  <nd ref="2068116175"/>
  <nd ref="2068116176"/>
  <nd ref="1442386330"/>
  <tag k="natural" v="water"/>
  <tag k="source" v="Bing,2005-06"/>
  <tag k="water" v="river"/>
 </way>
 <way id="278247645" visible="true" version="11" changeset="170704530" timestamp="2025-08-20T06:13:30Z" user="taketaketake" uid="4757277">
  <nd ref="2826509618"/>
  <nd ref="5892053885"/>
  <nd ref="1337993022"/>
  <nd ref="1337993513"/>
  <nd ref="2826509617"/>
  <nd ref="2826509616"/>
  <nd ref="2826509615"/>
  <nd ref="3732695829"/>
  <nd ref="2826509614"/>
  <nd ref="10692440705"/>
  <nd ref="2826509612"/>
  <nd ref="10695082522"/>
  <nd ref="7373926564"/>
  <nd ref="1337993631"/>
  <nd ref="10692440715"/>
  <nd ref="2826509611"/>
  <nd ref="10692440726"/>
  <nd ref="2826509610"/>
  <nd ref="4262966063"/>
  <nd ref="2826509609"/>
  <nd ref="2826509608"/>
  <nd ref="2826509607"/>
  <nd ref="6341033217"/>
  <nd ref="2826509606"/>
  <nd ref="2826509605"/>
  <nd ref="1336832742"/>
  <tag k="highway" v="secondary"/>
  <tag k="lanes" v="2"/>
  <tag k="maxspeed" v="50"/>
  <tag k="name" v="南岩国停車場磯崎線"/>
  <tag k="name:en" v="Minamiiwakuni Station Isozaki Line"/>
  <tag k="name:ja" v="南岩国停車場磯崎線"/>
  <tag k="name:ja-Hira" v="みなみいわくにていしゃじょういそざきせん"/>
  <tag k="name:ja_rm" v="Minamiiwakuni Teishajō Isozaki-sen"/>
  <tag k="ref" v="113"/>
  <tag k="source" v="image;survey"/>
  <tag k="surface" v="asphalt"/>
  <tag k="wikidata" v="Q11467131"/>
  <tag k="wikipedia" v="ja:山口県道113号南岩国停車場磯崎線"/>
 </way>
 <way id="278247646" visible="true" version="2" changeset="33851180" timestamp="2015-09-07T08:56:55Z" user="ruthmaben" uid="2554698">
  <nd ref="1337993565"/>
  <nd ref="2508265040"/>
  <tag k="highway" v="unclassified"/>
  <tag k="source" v="YahooJapan/ALPSMAP"/>
  <tag k="yh:WIDTH" v="3.0m〜5.5m"/>
 </way>
 <way id="1149671841" visible="true" version="1" changeset="133048492" timestamp="2023-02-26T15:53:59Z" user="AYAGE" uid="521665">
  <nd ref="10695078939"/>
  <nd ref="10695078938"/>
  <tag k="highway" v="residential"/>
 </way>
 <way id="1149928027" visible="true" version="1" changeset="133093872" timestamp="2023-02-27T16:04:10Z" user="AYAGE" uid="521665">
  <nd ref="10697427360"/>
  <nd ref="10697427359"/>
  <nd ref="10697427358"/>
  <nd ref="1337996314"/>
  <tag k="highway" v="residential"/>
 </way>
 <relation id="19481950" visible="true" version="3" changeset="188702646" timestamp="2026-09-08T05:07:38Z" user="taketaketake" uid="4757277">
  <member type="way" ref="183569582" role=""/>
  <member type="way" ref="278247645" role=""/>
  <member type="way" ref="119018596" role=""/>
  <member type="way" ref="119018193" role=""/>
  <member type="way" ref="119018734" role=""/>
  <member type="way" ref="119025588" role=""/>
  <member type="way" ref="119024946" role=""/>
  <member type="way" ref="119024834" role=""/>
  <member type="way" ref="119025112" role=""/>
  <tag k="colour" v="Yellow"/>
  <tag k="from" v="山口県岩国市南岩国町1丁目（南岩国駅前）"/>
  <tag k="name" v="山口県道113号　南岩国停車場磯崎線"/>
  <tag k="name:en" v="Yamaguchi Prefectural Route 113 Minamiiwakuni Station Isozaki Line"/>
  <tag k="name:ja" v="山口県道113号　南岩国停車場磯崎線"/>
  <tag k="name:ja-Hira" v="やまぐちけんどう113ごう みなみいわくにていしゃじょういそざきせん"/>
  <tag k="name:ja_rm" v="Yamaguchikendō 113-gō Minamiiwakuni Teishajō Isozaki-sen"/>
  <tag k="network" v="JP:prefectural"/>
  <tag k="ref" v="113"/>
  <tag k="route" v="road"/>
  <tag k="to" v="山口県岩国市室の木町1丁目"/>
  <tag k="type" v="route"/>
  <tag k="wikidata" v="Q11467131"/>
  <tag k="wikipedia" v="ja:山口県道113号南岩国停車場磯崎線"/>
 </relation>
</osm>
