<?xml version="1.0" encoding="UTF-8"?>
<osm version="0.6" generator="openstreetmap-cgimap 2.1.0 (2942768 spike-08.openstreetmap.org)" copyright="OpenStreetMap and contributors" attribution="http://www.openstreetmap.org/copyright" license="http://opendatacommons.org/licenses/odbl/1-0/">
 <bounds minlat="34.1547160" minlon="132.2146893" maxlat="34.1576238" maxlon="132.2177158"/>
 <node id="1338102196" visible="true" version="4" changeset="133237331" timestamp="2023-03-03T06:23:27Z" user="AYAGE" uid="521665" lat="34.1546256" lon="132.2157590"/>
 <node id="1338102217" visible="true" version="3" changeset="133157034" timestamp="2023-03-01T06:07:53Z" user="AYAGE" uid="521665" lat="34.1553506" lon="132.2159653"/>
 <node id="1338102224" visible="true" version="1" changeset="8540490" timestamp="2011-06-25T09:52:51Z" user="yamasan" uid="32308" lat="34.1546640" lon="132.2176060"/>
 <node id="1338102237" visible="true" version="2" changeset="133157034" timestamp="2023-03-01T06:07:53Z" user="AYAGE" uid="521665" lat="34.1562456" lon="132.2147049"/>
 <node id="1338102273" visible="true" version="2" changeset="133157034" timestamp="2023-03-01T06:07:53Z" user="AYAGE" uid="521665" lat="34.1553243" lon="132.2146426"/>
 <node id="1338102294" visible="true" version="2" changeset="133157034" timestamp="2023-03-01T06:07:53Z" user="AYAGE" uid="521665" lat="34.1564082" lon="132.2138467"/>
 <node id="1338102314" visible="true" version="3" changeset="133157034" timestamp="2023-03-01T06:07:53Z" user="AYAGE" uid="521665" lat="34.1564797" lon="132.2156108"/>
 <node id="1338102391" visible="true" version="2" changeset="133157034" timestamp="2023-03-01T06:07:53Z" user="AYAGE" uid="521665" lat="34.1556686" lon="132.2157611"/>
 <node id="1338102459" visible="true" version="2" changeset="133157034" timestamp="2023-03-01T06:07:53Z" user="AYAGE" uid="521665" lat="34.1554605" lon="132.2175387"/>
 <node id="1338102528" visible="true" version="2" changeset="133157034" timestamp="2023-03-01T06:07:53Z" user="AYAGE" uid="521665" lat="34.1552913" lon="132.2178027"/>
 <node id="1338102604" visible="true" version="2" changeset="133157034" timestamp="2023-03-01T06:07:53Z" user="AYAGE" uid="521665" lat="34.1561230" lon="132.2149385"/>
 <node id="1338102625" visible="true" version="2" changeset="133157034" timestamp="2023-03-01T06:07:53Z" user="AYAGE" uid="521665" lat="34.1559862" lon="132.2153404"/>
 <node id="1338102629" visible="true" version="2" changeset="133191082" timestamp="2023-03-01T23:18:38Z" user="AYAGE" uid="521665" lat="34.1572578" lon="132.2182851"/>
 <node id="1338102687" visible="true" version="1" changeset="8540490" timestamp="2011-06-25T09:53:04Z" user="yamasan" uid="32308" lat="34.1575790" lon="132.2172120"/>
 <node id="1338102691" visible="true" version="3" changeset="133191082" timestamp="2023-03-01T23:18:38Z" user="AYAGE" uid="521665" lat="34.1575360" lon="132.2151036"/>
 <node id="1338102723" visible="true" version="2" changeset="133157034" timestamp="2023-03-01T06:07:53Z" user="AYAGE" uid="521665" lat="34.1553954" lon="132.2146702"/>
 <node id="1338102775" visible="true" version="4" changeset="133157034" timestamp="2023-03-01T06:07:53Z" user="AYAGE" uid="521665" lat="34.1565701" lon="132.2163424"/>
 <node id="1338102783" visible="true" version="1" changeset="8540490" timestamp="2011-06-25T09:53:07Z" user="yamasan" uid="32308" lat="34.1570110" lon="132.2147570"/>
 <node id="1338102794" visible="true" version="3" changeset="182702658" timestamp="2026-05-15T14:46:18Z" user="Mzaki" uid="9870387" lat="34.1557129" lon="132.2157151"/>
 <node id="1338102814" visible="true" version="1" changeset="8540490" timestamp="2011-06-25T09:53:09Z" user="yamasan" uid="32308" lat="34.1562150" lon="132.2137770"/>
 <node id="1338102818" visible="true" version="5" changeset="133191082" timestamp="2023-03-01T23:18:38Z" user="AYAGE" uid="521665" lat="34.1555169" lon="132.2181871"/>
 <node id="1338102975" visible="true" version="2" changeset="22537912" timestamp="2014-05-25T08:08:56Z" user="nmaruichi" uid="317331" lat="34.1569578" lon="132.2164612"/>
 <node id="1338103015" visible="true" version="2" changeset="83013275" timestamp="2020-04-03T06:44:34Z" user="Jillybean558" uid="10912192" lat="34.1576746" lon="132.2169635"/>
 <node id="1338103080" visible="true" version="2" changeset="133191082" timestamp="2023-03-01T23:18:38Z" user="AYAGE" uid="521665" lat="34.1572417" lon="132.2149175"/>
 <node id="1338103102" visible="true" version="3" changeset="133178979" timestamp="2023-03-01T16:24:37Z" user="AYAGE" uid="521665" lat="34.1564423" lon="132.2089079"/>
 <node id="1338103222" visible="true" version="4" changeset="133191082" timestamp="2023-03-01T23:18:38Z" user="AYAGE" uid="521665" lat="34.1578263" lon="132.2167614"/>
 <node id="1338103270" visible="true" version="2" changeset="133157034" timestamp="2023-03-01T06:07:53Z" user="AYAGE" uid="521665" lat="34.1561571" lon="132.2149601"/>
 <node id="1338103393" visible="true" version="2" changeset="133237331" timestamp="2023-03-03T06:23:27Z" user="AYAGE" uid="521665" lat="34.1539190" lon="132.2174467"/>
 <node id="1338103420" visible="true" version="5" changeset="133191082" timestamp="2023-03-01T23:18:38Z" user="AYAGE" uid="521665" lat="34.1561851" lon="132.2162067">
  <tag k="highway" v="traffic_signals"/>
  <tag k="name" v="川下出張所"/>
  <tag k="name:ja" v="川下出張所"/>
  <tag k="name:ja_rm" v="Kawashimoshutchojo"/>
 </node>
 <node id="1338103569" visible="true" version="3" changeset="133259244" timestamp="2023-03-03T15:30:50Z" user="AYAGE" uid="521665" lat="34.1572536" lon="132.2180952"/>
 <node id="1338103658" visible="true" version="2" changeset="133157034" timestamp="2023-03-01T06:07:53Z" user="AYAGE" uid="521665" lat="34.1544889" lon="132.2148228"/>
 <node id="1338103684" visible="true" version="3" changeset="133157034" timestamp="2023-03-01T06:07:53Z" user="AYAGE" uid="521665" lat="34.1566703" lon="132.2152044"/>
 <node id="1338103843" visible="true" version="2" changeset="133157034" timestamp="2023-03-01T06:07:53Z" user="AYAGE" uid="521665" lat="34.1546373" lon="132.2147909"/>
 <node id="1338103889" visible="true" version="3" changeset="133157034" timestamp="2023-03-01T06:07:53Z" user="AYAGE" uid="521665" lat="34.1561130" lon="132.2171995"/>
 <node id="1338103925" visible="true" version="4" changeset="133191082" timestamp="2023-03-01T23:18:38Z" user="AYAGE" uid="521665" lat="34.1573059" lon="132.2187977"/>
 <node id="1338104009" visible="true" version="2" changeset="133178979" timestamp="2023-03-01T16:24:37Z" user="AYAGE" uid="521665" lat="34.1579477" lon="132.2152184"/>
 <node id="1338104023" visible="true" version="3" changeset="133191082" timestamp="2023-03-01T23:18:38Z" user="AYAGE" uid="521665" lat="34.1560290" lon="132.2165451"/>
 <node id="1338104061" visible="true" version="3" changeset="133157034" timestamp="2023-03-01T06:07:53Z" user="AYAGE" uid="521665" lat="34.1568781" lon="132.2146744"/>
 <node id="1338104161" visible="true" version="2" changeset="133157034" timestamp="2023-03-01T06:07:53Z" user="AYAGE" uid="521665" lat="34.1547698" lon="132.2147757"/>
 <node id="1338104411" visible="true" version="3" changeset="133259244" timestamp="2023-03-03T15:30:50Z" user="AYAGE" uid="521665" lat="34.1572765" lon="132.2179575"/>
 <node id="1338104413" visible="true" version="3" changeset="133191082" timestamp="2023-03-01T23:18:38Z" user="AYAGE" uid="521665" lat="34.1576059" lon="132.2151347"/>
 <node id="1338104440" visible="true" version="2" changeset="64865815" timestamp="2018-11-25T12:33:46Z" user="iwa map" uid="7211705" lat="34.1557231" lon="132.2138769"/>
 <node id="1338104510" visible="true" version="3" changeset="133191082" timestamp="2023-03-01T23:18:38Z" user="AYAGE" uid="521665" lat="34.1574862" lon="132.2166473"/>
 <node id="1338104602" visible="true" version="2" changeset="133157034" timestamp="2023-03-01T06:07:53Z" user="AYAGE" uid="521665" lat="34.1555804" lon="132.2158073"/>
 <node id="1338104607" visible="true" version="3" changeset="133237331" timestamp="2023-03-03T06:23:27Z" user="AYAGE" uid="521665" lat="34.1538322" lon="132.2173691"/>
 <node id="1338104742" visible="true" version="2" changeset="133191082" timestamp="2023-03-01T23:18:38Z" user="AYAGE" uid="521665" lat="34.1574690" lon="132.2150607"/>
 <node id="1338104759" visible="true" version="2" changeset="133157034" timestamp="2023-03-01T06:07:53Z" user="AYAGE" uid="521665" lat="34.1556884" lon="132.2170773"/>
 <node id="1338104854" visible="true" version="4" changeset="182702658" timestamp="2026-05-15T14:46:18Z" user="Mzaki" uid="9870387" lat="34.1563651" lon="132.2097456"/>
 <node id="1338104870" visible="true" version="2" changeset="133157034" timestamp="2023-03-01T06:07:53Z" user="AYAGE" uid="521665" lat="34.1558445" lon="132.2148492"/>
 <node id="1423656111" visible="true" version="4" changeset="170134820" timestamp="2025-08-08T04:24:07Z" user="pseek" uid="21586509" lat="34.1558150" lon="132.2176052">
  <tag k="addr:block_number" v="14"/>
  <tag k="addr:city" v="岩国市"/>
  <tag k="addr:housenumber" v="4"/>
  <tag k="addr:neighbourhood" v="中津町2丁目"/>
  <tag k="addr:postcode" v="740-0027"/>
  <tag k="addr:province" v="山口県"/>
  <tag k="amenity" v="post_office"/>
  <tag k="name" v="岩国川下郵便局"/>
  <tag k="name:en" v="Iwakuni Kawashimo Post Office"/>
  <tag k="name:es" v="Oficina de Correos de Iwakuni Kawashimo"/>
  <tag k="name:ja" v="岩国川下郵便局"/>
  <tag k="name:ja-Hira" v="いわくに かわしも ゆうびんきょく"/>
  <tag k="name:pt" v="Correio de Iwakuni Kawashimo"/>
  <tag k="note" v="National-Land Numerical Information (Public Facility) 2006, MLIT Japan"/>
  <tag k="note:ja" v="国土数値情報（公共施設データ）平成19年　国土交通省"/>
  <tag k="opening_hours" v="Mo-Fr 09:00-17:00"/>
  <tag k="operator" v="日本郵便"/>
  <tag k="operator:en" v="Japan Post"/>
  <tag k="operator:ja" v="日本郵便"/>
  <tag k="operator:short" v="郵便局"/>
  <tag k="operator:short:en" v="JP"/>
  <tag k="operator:short:ja" v="郵便局"/>
  <tag k="operator:wikidata" v="Q11509260"/>
  <tag k="phone" v="+81-827-22-5404"/>
  <tag k="source" v="KSJ2"/>
  <tag k="source_ref" v="http://nlftp.mlit.go.jp/ksj/jpgis/datalist/KsjTmplt-P02-v2_0.html"/>
 </node>
 <node id="1631265191" visible="true" version="2" changeset="121907660" timestamp="2022-06-03T17:42:16Z" user="Mzaki" uid="9870387" lat="34.1572650" lon="132.2164500">
  <tag k="amenity" v="social_facility"/>
  <tag k="name" v="(社)岩国薬剤師会在宅介護支援センター"/>
  <tag k="note" v="National-Land Numerical Information (Public Facility) 2006, MLIT Japan"/>
  <tag k="note:ja" v="国土数値情報（公共施設データ）平成19年　国土交通省"/>
  <tag k="social_facility" v="outreach"/>
  <tag k="social_facility:for" v="senior"/>
  <tag k="source" v="KSJ2"/>
  <tag k="source_ref" v="http://nlftp.mlit.go.jp/ksj/jpgis/datalist/KsjTmplt-P02-v2_0.html"/>
 </node>
 <node id="2499032636" visible="true" version="4" changeset="39633930" timestamp="2016-05-29T00:29:48Z" user="max-kg" uid="3933181" lat="34.1563986" lon="132.2164270">
  <tag k="amenity" v="bank"/>
  <tag k="atm" v="yes"/>
  <tag k="name" v="岩国市役所川下出張所"/>
  <tag k="name:en" v="Iwakuni City Office Kawashimo Branch"/>
 </node>
 <node id="2499032822" visible="true" version="3" changeset="39624034" timestamp="2016-05-28T13:14:27Z" user="max-kg" uid="3933181" lat="34.1560117" lon="132.2170661">
  <tag k="name" v="中央フード川下店"/>
  <tag k="name:en" v="Chuo Food"/>
  <tag k="shop" v="supermarket"/>
 </node>
 <node id="3004305686" visible="true" version="2" changeset="39624204" timestamp="2016-05-28T13:25:39Z" user="max-kg" uid="3933181" lat="34.1565573" lon="132.2165566">
  <tag k="name" v="ＪＡI岩国川下支所"/>
  <tag k="name:en" v="JA"/>
 </node>
 <node id="6052021685" visible="true" version="2" changeset="133157034" timestamp="2023-03-01T06:07:53Z" user="AYAGE" uid="521665" lat="34.1556851" lon="132.2127214"/>
 <node id="6052021686" visible="true" version="2" changeset="133157034" timestamp="2023-03-01T06:07:53Z" user="AYAGE" uid="521665" lat="34.1556539" lon="132.2127972"/>
 <node id="6052021687" visible="true" version="2" changeset="133157034" timestamp="2023-03-01T06:07:53Z" user="AYAGE" uid="521665" lat="34.1556032" lon="132.2129022"/>
 <node id="6052021688" visible="true" version="2" changeset="133157034" timestamp="2023-03-01T06:07:53Z" user="AYAGE" uid="521665" lat="34.1555295" lon="132.2130073"/>
 <node id="6052021689" visible="true" version="1" changeset="64365634" timestamp="2018-11-11T01:59:54Z" user="iwa map" uid="7211705" lat="34.1553754" lon="132.2131991"/>
 <node id="6052021691" visible="true" version="2" changeset="133157034" timestamp="2023-03-01T06:07:53Z" user="AYAGE" uid="521665" lat="34.1551952" lon="132.2135911"/>
 <node id="6052021692" visible="true" version="2" changeset="133157034" timestamp="2023-03-01T06:07:53Z" user="AYAGE" uid="521665" lat="34.1551420" lon="132.2138793"/>
 <node id="6052021693" visible="true" version="2" changeset="133157034" timestamp="2023-03-01T06:07:53Z" user="AYAGE" uid="521665" lat="34.1550550" lon="132.2143335"/>
 <node id="6052021694" visible="true" version="2" changeset="133157034" timestamp="2023-03-01T06:07:53Z" user="AYAGE" uid="521665" lat="34.1550118" lon="132.2145761"/>
 <node id="6052021695" visible="true" version="2" changeset="133157034" timestamp="2023-03-01T06:07:53Z" user="AYAGE" uid="521665" lat="34.1549956" lon="132.2148340"/>
 <node id="6052021696" visible="true" version="2" changeset="133157034" timestamp="2023-03-01T06:07:53Z" user="AYAGE" uid="521665" lat="34.1549985" lon="132.2149622"/>
 <node id="6052021697" visible="true" version="2" changeset="133157034" timestamp="2023-03-01T06:07:53Z" user="AYAGE" uid="521665" lat="34.1550464" lon="132.2152388"/>
 <node id="6052021698" visible="true" version="2" changeset="133157034" timestamp="2023-03-01T06:07:53Z" user="AYAGE" uid="521665" lat="34.1550691" lon="132.2153448"/>
 <node id="6052021699" visible="true" version="2" changeset="133157034" timestamp="2023-03-01T06:07:53Z" user="AYAGE" uid="521665" lat="34.1550833" lon="132.2154981"/>
 <node id="6052021700" visible="true" version="2" changeset="133157034" timestamp="2023-03-01T06:07:53Z" user="AYAGE" uid="521665" lat="34.1550474" lon="132.2158750"/>
 <node id="6052021702" visible="true" version="2" changeset="133157034" timestamp="2023-03-01T06:07:53Z" user="AYAGE" uid="521665" lat="34.1544893" lon="132.2157130"/>
 <node id="6052021704" visible="true" version="2" changeset="133157034" timestamp="2023-03-01T06:07:53Z" user="AYAGE" uid="521665" lat="34.1544811" lon="132.2156294"/>
 <node id="6089905441" visible="true" version="2" changeset="133157034" timestamp="2023-03-01T06:07:53Z" user="AYAGE" uid="521665" lat="34.1555159" lon="132.2147207"/>
 <node id="6238893131" visible="true" version="2" changeset="133157034" timestamp="2023-03-01T06:07:53Z" user="AYAGE" uid="521665" lat="34.1549927" lon="132.2147483"/>
 <node id="6238893132" visible="true" version="2" changeset="133157034" timestamp="2023-03-01T06:07:53Z" user="AYAGE" uid="521665" lat="34.1551705" lon="132.2137187"/>
 <node id="7046692847" visible="true" version="2" changeset="133157034" timestamp="2023-03-01T06:07:53Z" user="AYAGE" uid="521665" lat="34.1552819" lon="132.2133382"/>
 <node id="7361782550" visible="true" version="2" changeset="133191082" timestamp="2023-03-01T23:18:38Z" user="AYAGE" uid="521665" lat="34.1574717" lon="132.2175451"/>
 <node id="7361782551" visible="true" version="2" changeset="133191082" timestamp="2023-03-01T23:18:38Z" user="AYAGE" uid="521665" lat="34.1574323" lon="132.2176402"/>
 <node id="7361782552" visible="true" version="2" changeset="133191082" timestamp="2023-03-01T23:18:38Z" user="AYAGE" uid="521665" lat="34.1574122" lon="132.2176817"/>
 <node id="7413187408" visible="true" version="1" changeset="83680745" timestamp="2020-04-17T05:24:51Z" user="Jillybean558" uid="10912192" lat="34.1560836" lon="132.2179120"/>
 <node id="7413187409" visible="true" version="1" changeset="83680745" timestamp="2020-04-17T05:24:51Z" user="Jillybean558" uid="10912192" lat="34.1562291" lon="132.2176902"/>
 <node id="7413187410" visible="true" version="1" changeset="83680745" timestamp="2020-04-17T05:24:51Z" user="Jillybean558" uid="10912192" lat="34.1563177" lon="132.2175194"/>
 <node id="7413187411" visible="true" version="1" changeset="83680745" timestamp="2020-04-17T05:24:51Z" user="Jillybean558" uid="10912192" lat="34.1563810" lon="132.2173919"/>
 <node id="7413187412" visible="true" version="1" changeset="83680745" timestamp="2020-04-17T05:24:51Z" user="Jillybean558" uid="10912192" lat="34.1565308" lon="132.2173945"/>
 <node id="7413187413" visible="true" version="1" changeset="83680745" timestamp="2020-04-17T05:24:51Z" user="Jillybean558" uid="10912192" lat="34.1567523" lon="132.2172390"/>
 <node id="7413187414" visible="true" version="1" changeset="83680745" timestamp="2020-04-17T05:24:51Z" user="Jillybean558" uid="10912192" lat="34.1569126" lon="132.2171778"/>
 <node id="7413187415" visible="true" version="1" changeset="83680745" timestamp="2020-04-17T05:24:51Z" user="Jillybean558" uid="10912192" lat="34.1571046" lon="132.2171090"/>
 <node id="7413187416" visible="true" version="2" changeset="133191082" timestamp="2023-03-01T23:18:38Z" user="AYAGE" uid="521665" lat="34.1573132" lon="132.2169454"/>
 <node id="7413187417" visible="true" version="1" changeset="83680745" timestamp="2020-04-17T05:24:51Z" user="Jillybean558" uid="10912192" lat="34.1571424" lon="132.2165335"/>
 <node id="7413187418" visible="true" version="2" changeset="133191082" timestamp="2023-03-01T23:18:38Z" user="AYAGE" uid="521665" lat="34.1571378" lon="132.2166086"/>
 <node id="7413187419" visible="true" version="2" changeset="133191082" timestamp="2023-03-01T23:18:38Z" user="AYAGE" uid="521665" lat="34.1571862" lon="132.2167953"/>
 <node id="7413187420" visible="true" version="2" changeset="133191082" timestamp="2023-03-01T23:18:38Z" user="AYAGE" uid="521665" lat="34.1572857" lon="132.2169227"/>
 <node id="7413187421" visible="true" version="2" changeset="133191082" timestamp="2023-03-01T23:18:38Z" user="AYAGE" uid="521665" lat="34.1574129" lon="132.2170297"/>
 <node id="7413187422" visible="true" version="2" changeset="133191082" timestamp="2023-03-01T23:18:38Z" user="AYAGE" uid="521665" lat="34.1574689" lon="132.2170984"/>
 <node id="7413187423" visible="true" version="2" changeset="133191082" timestamp="2023-03-01T23:18:38Z" user="AYAGE" uid="521665" lat="34.1575327" lon="132.2172317"/>
 <node id="7413187424" visible="true" version="2" changeset="133191082" timestamp="2023-03-01T23:18:38Z" user="AYAGE" uid="521665" lat="34.1575652" lon="132.2172543"/>
 <node id="7413187425" visible="true" version="1" changeset="83680745" timestamp="2020-04-17T05:24:51Z" user="Jillybean558" uid="10912192" lat="34.1575389" lon="132.2173367"/>
 <node id="9185949048" visible="true" version="1" changeset="112725964" timestamp="2021-10-20T05:45:47Z" user="hibagonsan" uid="5939709" lat="34.1547369" lon="132.2176572"/>
 <node id="9185949049" visible="true" version="1" changeset="112725964" timestamp="2021-10-20T05:45:47Z" user="hibagonsan" uid="5939709" lat="34.1547048" lon="132.2177927"/>
 <node id="9185949050" visible="true" version="1" changeset="112725964" timestamp="2021-10-20T05:45:47Z" user="hibagonsan" uid="5939709" lat="34.1547729" lon="132.2178163"/>
 <node id="9185949051" visible="true" version="1" changeset="112725964" timestamp="2021-10-20T05:45:47Z" user="hibagonsan" uid="5939709" lat="34.1548051" lon="132.2176809"/>
 <node id="9185949056" visible="true" version="1" changeset="112725964" timestamp="2021-10-20T05:45:47Z" user="hibagonsan" uid="5939709" lat="34.1549190" lon="132.2177158"/>
 <node id="9185949057" visible="true" version="1" changeset="112725964" timestamp="2021-10-20T05:45:47Z" user="hibagonsan" uid="5939709" lat="34.1548757" lon="132.2178995"/>
 <node id="9185949058" visible="true" version="1" changeset="112725964" timestamp="2021-10-20T05:45:47Z" user="hibagonsan" uid="5939709" lat="34.1549477" lon="132.2179243"/>
 <node id="9185949059" visible="true" version="1" changeset="112725964" timestamp="2021-10-20T05:45:47Z" user="hibagonsan" uid="5939709" lat="34.1549910" lon="132.2177406"/>
 <node id="10701075098" visible="true" version="1" changeset="133157034" timestamp="2023-03-01T06:07:53Z" user="AYAGE" uid="521665" lat="34.1552401" lon="132.2134376"/>
 <node id="10701101512" visible="true" version="1" changeset="133157034" timestamp="2023-03-01T06:07:53Z" user="AYAGE" uid="521665" lat="34.1565197" lon="132.2164739"/>
 <node id="10701101513" visible="true" version="1" changeset="133157034" timestamp="2023-03-01T06:07:53Z" user="AYAGE" uid="521665" lat="34.1564115" lon="132.2166851"/>
 <node id="10701101514" visible="true" version="1" changeset="133157034" timestamp="2023-03-01T06:07:53Z" user="AYAGE" uid="521665" lat="34.1558561" lon="132.2176380"/>
 <node id="10701101517" visible="true" version="1" changeset="133157034" timestamp="2023-03-01T06:07:53Z" user="AYAGE" uid="521665" lat="34.1552285" lon="132.2177674"/>
 <node id="10701101518" visible="true" version="1" changeset="133157034" timestamp="2023-03-01T06:07:53Z" user="AYAGE" uid="521665" lat="34.1555747" lon="132.2173141"/>
 <node id="10701101519" visible="true" version="2" changeset="133191082" timestamp="2023-03-01T23:18:38Z" user="AYAGE" uid="521665" lat="34.1557723" lon="132.2169219"/>
 <node id="10701101520" visible="true" version="2" changeset="133191082" timestamp="2023-03-01T23:18:38Z" user="AYAGE" uid="521665" lat="34.1558405" lon="132.2168146"/>
 <node id="10701101521" visible="true" version="2" changeset="133191082" timestamp="2023-03-01T23:18:38Z" user="AYAGE" uid="521665" lat="34.1559832" lon="132.2166234"/>
 <node id="10701101522" visible="true" version="1" changeset="133157034" timestamp="2023-03-01T06:07:53Z" user="AYAGE" uid="521665" lat="34.1553905" lon="132.2159234"/>
 <node id="10701101523" visible="true" version="1" changeset="133157034" timestamp="2023-03-01T06:07:53Z" user="AYAGE" uid="521665" lat="34.1560619" lon="132.2151925"/>
 <node id="10701101524" visible="true" version="1" changeset="133157034" timestamp="2023-03-01T06:07:53Z" user="AYAGE" uid="521665" lat="34.1561899" lon="132.2149739"/>
 <node id="10701101525" visible="true" version="1" changeset="133157034" timestamp="2023-03-01T06:07:53Z" user="AYAGE" uid="521665" lat="34.1563449" lon="132.2142524"/>
 <node id="10701101526" visible="true" version="2" changeset="182702658" timestamp="2026-05-15T14:46:18Z" user="Mzaki" uid="9870387" lat="34.1562052" lon="132.2148682"/>
 <node id="10701101527" visible="true" version="1" changeset="133157034" timestamp="2023-03-01T06:07:53Z" user="AYAGE" uid="521665" lat="34.1552712" lon="132.2146574"/>
 <node id="10701101528" visible="true" version="1" changeset="133157034" timestamp="2023-03-01T06:07:53Z" user="AYAGE" uid="521665" lat="34.1551996" lon="132.2147056"/>
 <node id="10701101529" visible="true" version="1" changeset="133157034" timestamp="2023-03-01T06:07:53Z" user="AYAGE" uid="521665" lat="34.1551391" lon="132.2147271"/>
 <node id="10701101530" visible="true" version="1" changeset="133157034" timestamp="2023-03-01T06:07:53Z" user="AYAGE" uid="521665" lat="34.1550104" lon="132.2150805"/>
 <node id="10701101531" visible="true" version="1" changeset="133157034" timestamp="2023-03-01T06:07:53Z" user="AYAGE" uid="521665" lat="34.1550154" lon="132.2153621"/>
 <node id="10701101532" visible="true" version="1" changeset="133157034" timestamp="2023-03-01T06:07:53Z" user="AYAGE" uid="521665" lat="34.1550787" lon="132.2156746"/>
 <node id="10701101533" visible="true" version="1" changeset="133157034" timestamp="2023-03-01T06:07:53Z" user="AYAGE" uid="521665" lat="34.1550598" lon="132.2157886"/>
 <node id="10701101537" visible="true" version="1" changeset="133157034" timestamp="2023-03-01T06:07:53Z" user="AYAGE" uid="521665" lat="34.1544949" lon="132.2156826"/>
 <node id="10702278634" visible="true" version="1" changeset="133178979" timestamp="2023-03-01T16:24:37Z" user="AYAGE" uid="521665" lat="34.1577277" lon="132.2151670"/>
 <node id="10703003303" visible="true" version="1" changeset="133191082" timestamp="2023-03-01T23:18:38Z" user="AYAGE" uid="521665" lat="34.1575168" lon="132.2140498"/>
 <node id="10703003304" visible="true" version="1" changeset="133191082" timestamp="2023-03-01T23:18:38Z" user="AYAGE" uid="521665" lat="34.1575801" lon="132.2138393"/>
 <node id="10703073405" visible="true" version="1" changeset="133191082" timestamp="2023-03-01T23:18:38Z" user="AYAGE" uid="521665" lat="34.1576633" lon="132.2137763"/>
 <node id="10703073406" visible="true" version="1" changeset="133191082" timestamp="2023-03-01T23:18:38Z" user="AYAGE" uid="521665" lat="34.1575490" lon="132.2134182"/>
 <node id="10703073407" visible="true" version="1" changeset="133191082" timestamp="2023-03-01T23:18:38Z" user="AYAGE" uid="521665" lat="34.1575257" lon="132.2132613"/>
 <node id="10703073408" visible="true" version="1" changeset="133191082" timestamp="2023-03-01T23:18:38Z" user="AYAGE" uid="521665" lat="34.1575635" lon="132.2132452"/>
 <node id="10703073409" visible="true" version="1" changeset="133191082" timestamp="2023-03-01T23:18:38Z" user="AYAGE" uid="521665" lat="34.1578453" lon="132.2130641"/>
 <node id="10703073410" visible="true" version="1" changeset="133191082" timestamp="2023-03-01T23:18:38Z" user="AYAGE" uid="521665" lat="34.1581538" lon="132.2129273"/>
 <node id="10703073411" visible="true" version="1" changeset="133191082" timestamp="2023-03-01T23:18:38Z" user="AYAGE" uid="521665" lat="34.1582171" lon="132.2131459"/>
 <node id="10703073412" visible="true" version="1" changeset="133191082" timestamp="2023-03-01T23:18:38Z" user="AYAGE" uid="521665" lat="34.1583181" lon="132.2134303"/>
 <node id="10703073413" visible="true" version="1" changeset="133191082" timestamp="2023-03-01T23:18:38Z" user="AYAGE" uid="521665" lat="34.1584291" lon="132.2137414"/>
 <node id="10703073414" visible="true" version="1" changeset="133191082" timestamp="2023-03-01T23:18:38Z" user="AYAGE" uid="521665" lat="34.1585201" lon="132.2139372"/>
 <node id="10703073415" visible="true" version="1" changeset="133191082" timestamp="2023-03-01T23:18:38Z" user="AYAGE" uid="521665" lat="34.1585722" lon="132.2140485"/>
 <node id="10703073416" visible="true" version="1" changeset="133191082" timestamp="2023-03-01T23:18:38Z" user="AYAGE" uid="521665" lat="34.1586432" lon="132.2141907"/>
 <node id="10703073417" visible="true" version="1" changeset="133191082" timestamp="2023-03-01T23:18:38Z" user="AYAGE" uid="521665" lat="34.1589062" lon="132.2146963"/>
 <node id="10703073418" visible="true" version="1" changeset="133191082" timestamp="2023-03-01T23:18:38Z" user="AYAGE" uid="521665" lat="34.1586111" lon="132.2150798"/>
 <node id="10703073419" visible="true" version="1" changeset="133191082" timestamp="2023-03-01T23:18:38Z" user="AYAGE" uid="521665" lat="34.1585389" lon="132.2149980"/>
 <node id="10703073420" visible="true" version="1" changeset="133191082" timestamp="2023-03-01T23:18:38Z" user="AYAGE" uid="521665" lat="34.1584723" lon="132.2148505"/>
 <node id="10703073421" visible="true" version="1" changeset="133191082" timestamp="2023-03-01T23:18:38Z" user="AYAGE" uid="521665" lat="34.1584035" lon="132.2146802"/>
 <node id="10703073422" visible="true" version="1" changeset="133191082" timestamp="2023-03-01T23:18:38Z" user="AYAGE" uid="521665" lat="34.1583325" lon="132.2146560"/>
 <node id="10703073423" visible="true" version="1" changeset="133191082" timestamp="2023-03-01T23:18:38Z" user="AYAGE" uid="521665" lat="34.1580418" lon="132.2144803"/>
 <node id="10703073424" visible="true" version="1" changeset="133191082" timestamp="2023-03-01T23:18:38Z" user="AYAGE" uid="521665" lat="34.1579053" lon="132.2145621"/>
 <node id="10703073425" visible="true" version="1" changeset="133191082" timestamp="2023-03-01T23:18:38Z" user="AYAGE" uid="521665" lat="34.1575435" lon="132.2150677"/>
 <node id="10703073426" visible="true" version="1" changeset="133191082" timestamp="2023-03-01T23:18:38Z" user="AYAGE" uid="521665" lat="34.1572738" lon="132.2149082"/>
 <node id="10703073427" visible="true" version="1" changeset="133191082" timestamp="2023-03-01T23:18:38Z" user="AYAGE" uid="521665" lat="34.1570785" lon="132.2147673"/>
 <node id="10703073428" visible="true" version="1" changeset="133191082" timestamp="2023-03-01T23:18:38Z" user="AYAGE" uid="521665" lat="34.1571118" lon="132.2146600"/>
 <node id="10703073429" visible="true" version="1" changeset="133191082" timestamp="2023-03-01T23:18:38Z" user="AYAGE" uid="521665" lat="34.1571961" lon="132.2144254"/>
 <node id="10703073430" visible="true" version="1" changeset="133191082" timestamp="2023-03-01T23:18:38Z" user="AYAGE" uid="521665" lat="34.1574070" lon="132.2141303"/>
 <node id="10703073431" visible="true" version="1" changeset="133191082" timestamp="2023-03-01T23:18:38Z" user="AYAGE" uid="521665" lat="34.1576267" lon="132.2170593"/>
 <node id="10703073432" visible="true" version="1" changeset="133191082" timestamp="2023-03-01T23:18:38Z" user="AYAGE" uid="521665" lat="34.1576023" lon="132.2170465"/>
 <node id="10703073433" visible="true" version="1" changeset="133191082" timestamp="2023-03-01T23:18:38Z" user="AYAGE" uid="521665" lat="34.1575585" lon="132.2170439"/>
 <node id="10703073434" visible="true" version="1" changeset="133191082" timestamp="2023-03-01T23:18:38Z" user="AYAGE" uid="521665" lat="34.1574453" lon="132.2170532"/>
 <node id="10703073435" visible="true" version="1" changeset="133191082" timestamp="2023-03-01T23:18:38Z" user="AYAGE" uid="521665" lat="34.1572488" lon="132.2168802"/>
 <node id="10703073436" visible="true" version="1" changeset="133191082" timestamp="2023-03-01T23:18:38Z" user="AYAGE" uid="521665" lat="34.1571595" lon="132.2167307"/>
 <node id="10703073437" visible="true" version="1" changeset="133191082" timestamp="2023-03-01T23:18:38Z" user="AYAGE" uid="521665" lat="34.1571038" lon="132.2165184"/>
 <node id="10703073438" visible="true" version="1" changeset="133191082" timestamp="2023-03-01T23:18:38Z" user="AYAGE" uid="521665" lat="34.1571029" lon="132.2164256"/>
 <node id="10703073439" visible="true" version="1" changeset="133191082" timestamp="2023-03-01T23:18:38Z" user="AYAGE" uid="521665" lat="34.1570896" lon="132.2163793"/>
 <node id="10703073440" visible="true" version="1" changeset="133191082" timestamp="2023-03-01T23:18:38Z" user="AYAGE" uid="521665" lat="34.1570125" lon="132.2162741"/>
 <node id="10703073441" visible="true" version="1" changeset="133191082" timestamp="2023-03-01T23:18:38Z" user="AYAGE" uid="521665" lat="34.1570047" lon="132.2162493"/>
 <node id="10703073442" visible="true" version="1" changeset="133191082" timestamp="2023-03-01T23:18:38Z" user="AYAGE" uid="521665" lat="34.1570108" lon="132.2161990"/>
 <node id="10703073443" visible="true" version="1" changeset="133191082" timestamp="2023-03-01T23:18:38Z" user="AYAGE" uid="521665" lat="34.1570441" lon="132.2160809"/>
 <node id="10703073444" visible="true" version="1" changeset="133191082" timestamp="2023-03-01T23:18:38Z" user="AYAGE" uid="521665" lat="34.1571978" lon="132.2157752"/>
 <node id="10703073445" visible="true" version="1" changeset="133191082" timestamp="2023-03-01T23:18:38Z" user="AYAGE" uid="521665" lat="34.1573776" lon="132.2154433"/>
 <node id="10703073446" visible="true" version="1" changeset="133191082" timestamp="2023-03-01T23:18:38Z" user="AYAGE" uid="521665" lat="34.1575252" lon="132.2151361"/>
 <node id="10703073464" visible="true" version="1" changeset="133191082" timestamp="2023-03-01T23:18:38Z" user="AYAGE" uid="521665" lat="34.1561563" lon="132.2162774"/>
 <node id="10703073465" visible="true" version="1" changeset="133191082" timestamp="2023-03-01T23:18:38Z" user="AYAGE" uid="521665" lat="34.1562395" lon="132.2160830"/>
 <node id="10703073475" visible="true" version="1" changeset="133191082" timestamp="2023-03-01T23:18:38Z" user="AYAGE" uid="521665" lat="34.1577865" lon="132.2168286"/>
 <node id="10703073476" visible="true" version="1" changeset="133191082" timestamp="2023-03-01T23:18:38Z" user="AYAGE" uid="521665" lat="34.1576506" lon="132.2170036"/>
 <node id="10703073477" visible="true" version="1" changeset="133191082" timestamp="2023-03-01T23:18:38Z" user="AYAGE" uid="521665" lat="34.1572749" lon="132.2185526"/>
 <node id="10703073478" visible="true" version="1" changeset="133191082" timestamp="2023-03-01T23:18:38Z" user="AYAGE" uid="521665" lat="34.1572949" lon="132.2187202"/>
 <node id="10705771885" visible="true" version="1" changeset="133235812" timestamp="2023-03-03T04:56:43Z" user="AYAGE" uid="521665" lat="34.1548822" lon="132.2158258"/>
 <node id="10705771886" visible="true" version="1" changeset="133235812" timestamp="2023-03-03T04:56:43Z" user="AYAGE" uid="521665" lat="34.1548978" lon="132.2158965"/>
 <node id="10705771887" visible="true" version="1" changeset="133235812" timestamp="2023-03-03T04:56:43Z" user="AYAGE" uid="521665" lat="34.1550764" lon="132.2160025"/>
 <node id="10705771888" visible="true" version="1" changeset="133235812" timestamp="2023-03-03T04:56:43Z" user="AYAGE" uid="521665" lat="34.1559853" lon="132.2161489"/>
 <node id="10705771893" visible="true" version="1" changeset="133235812" timestamp="2023-03-03T04:56:43Z" user="AYAGE" uid="521665" lat="34.1555531" lon="132.2162385"/>
 <node id="10705771894" visible="true" version="1" changeset="133235812" timestamp="2023-03-03T04:56:43Z" user="AYAGE" uid="521665" lat="34.1553356" lon="132.2161587"/>
 <node id="10705771895" visible="true" version="1" changeset="133235812" timestamp="2023-03-03T04:56:43Z" user="AYAGE" uid="521665" lat="34.1552829" lon="132.2163860"/>
 <node id="10705771896" visible="true" version="1" changeset="133235812" timestamp="2023-03-03T04:56:43Z" user="AYAGE" uid="521665" lat="34.1552579" lon="132.2165322"/>
 <node id="10705771897" visible="true" version="1" changeset="133235812" timestamp="2023-03-03T04:56:43Z" user="AYAGE" uid="521665" lat="34.1552379" lon="132.2166952"/>
 <node id="10705771898" visible="true" version="1" changeset="133235812" timestamp="2023-03-03T04:56:43Z" user="AYAGE" uid="521665" lat="34.1551863" lon="132.2169077"/>
 <node id="10705771899" visible="true" version="1" changeset="133235812" timestamp="2023-03-03T04:56:43Z" user="AYAGE" uid="521665" lat="34.1551502" lon="132.2170828"/>
 <node id="10705771900" visible="true" version="1" changeset="133235812" timestamp="2023-03-03T04:56:43Z" user="AYAGE" uid="521665" lat="34.1551203" lon="132.2172960"/>
 <node id="10705771901" visible="true" version="1" changeset="133235812" timestamp="2023-03-03T04:56:43Z" user="AYAGE" uid="521665" lat="34.1551042" lon="132.2173785"/>
 <node id="10705771902" visible="true" version="1" changeset="133235812" timestamp="2023-03-03T04:56:43Z" user="AYAGE" uid="521665" lat="34.1551025" lon="132.2174623"/>
 <node id="10705771903" visible="true" version="1" changeset="133235812" timestamp="2023-03-03T04:56:43Z" user="AYAGE" uid="521665" lat="34.1551059" lon="132.2175428"/>
 <node id="10705771904" visible="true" version="1" changeset="133235812" timestamp="2023-03-03T04:56:43Z" user="AYAGE" uid="521665" lat="34.1551247" lon="132.2176876"/>
 <node id="10705813305" visible="true" version="1" changeset="133235812" timestamp="2023-03-03T04:56:43Z" user="AYAGE" uid="521665" lat="34.1551340" lon="132.2177473"/>
 <node id="10705813306" visible="true" version="1" changeset="133235812" timestamp="2023-03-03T04:56:43Z" user="AYAGE" uid="521665" lat="34.1550581" lon="132.2177312"/>
 <node id="10705813307" visible="true" version="1" changeset="133235812" timestamp="2023-03-03T04:56:43Z" user="AYAGE" uid="521665" lat="34.1548634" lon="132.2176648"/>
 <node id="10705890795" visible="true" version="1" changeset="133237331" timestamp="2023-03-03T06:23:27Z" user="AYAGE" uid="521665" lat="34.1544028" lon="132.2175441"/>
 <node id="10705890799" visible="true" version="1" changeset="133237331" timestamp="2023-03-03T06:23:27Z" user="AYAGE" uid="521665" lat="34.1542641" lon="132.2175140"/>
 <node id="10705890802" visible="true" version="1" changeset="133237331" timestamp="2023-03-03T06:23:27Z" user="AYAGE" uid="521665" lat="34.1539833" lon="132.2174683"/>
 <node id="10707008186" visible="true" version="1" changeset="133259244" timestamp="2023-03-03T15:30:50Z" user="AYAGE" uid="521665" lat="34.1559410" lon="132.2122501"/>
 <node id="10707008187" visible="true" version="1" changeset="133259244" timestamp="2023-03-03T15:30:50Z" user="AYAGE" uid="521665" lat="34.1557823" lon="132.2124942"/>
 <node id="10707008188" visible="true" version="1" changeset="133259244" timestamp="2023-03-03T15:30:50Z" user="AYAGE" uid="521665" lat="34.1557235" lon="132.2126149"/>
 <node id="10707008198" visible="true" version="1" changeset="133259244" timestamp="2023-03-03T15:30:50Z" user="AYAGE" uid="521665" lat="34.1572614" lon="132.2183413"/>
 <node id="10707026108" visible="true" version="1" changeset="133259244" timestamp="2023-03-03T15:30:50Z" user="AYAGE" uid="521665" lat="34.1572560" lon="132.2180215"/>
 <node id="12338384254" visible="true" version="1" changeset="159114172" timestamp="2024-11-14T03:42:34Z" user="tempapapaa" uid="22175623" lat="34.1575848" lon="132.2135304"/>
 <node id="12338384256" visible="true" version="1" changeset="159114172" timestamp="2024-11-14T03:42:34Z" user="tempapapaa" uid="22175623" lat="34.1572889" lon="132.2142956"/>
 <node id="12338384257" visible="true" version="1" changeset="159114172" timestamp="2024-11-14T03:42:34Z" user="tempapapaa" uid="22175623" lat="34.1571522" lon="132.2145475"/>
 <node id="12338682874" visible="true" version="1" changeset="159114461" timestamp="2024-11-14T03:59:18Z" user="tempapapaa" uid="22175623" lat="34.1570863" lon="132.2165115"/>
 <node id="12373648130" visible="true" version="1" changeset="159573092" timestamp="2024-11-25T13:13:11Z" user="tutuw002" uid="4531722" lat="34.1568019" lon="132.2147758"/>
 <node id="12373648131" visible="true" version="1" changeset="159573092" timestamp="2024-11-25T13:13:11Z" user="tutuw002" uid="4531722" lat="34.1567131" lon="132.2148441"/>
 <node id="12373648132" visible="true" version="1" changeset="159573092" timestamp="2024-11-25T13:13:11Z" user="tutuw002" uid="4531722" lat="34.1566189" lon="132.2148897"/>
 <node id="12373648133" visible="true" version="1" changeset="159573092" timestamp="2024-11-25T13:13:11Z" user="tutuw002" uid="4531722" lat="34.1564548" lon="132.2149222"/>
 <node id="12373648134" visible="true" version="2" changeset="182702658" timestamp="2026-05-15T14:46:18Z" user="Mzaki" uid="9870387" lat="34.1562897" lon="132.2148962"/>
 <node id="12373648135" visible="true" version="2" changeset="182702658" timestamp="2026-05-15T14:46:18Z" user="Mzaki" uid="9870387" lat="34.1561425" lon="132.2148475"/>
 <node id="12373648136" visible="true" version="1" changeset="159573092" timestamp="2024-11-25T13:13:11Z" user="tutuw002" uid="4531722" lat="34.1558997" lon="132.2147978"/>
 <node id="12373648137" visible="true" version="1" changeset="159573092" timestamp="2024-11-25T13:13:11Z" user="tutuw002" uid="4531722" lat="34.1566628" lon="132.2149905"/>
 <node id="12373648138" visible="true" version="1" changeset="159573092" timestamp="2024-11-25T13:13:11Z" user="tutuw002" uid="4531722" lat="34.1566856" lon="132.2150691"/>
 <node id="12373648139" visible="true" version="1" changeset="159573092" timestamp="2024-11-25T13:13:11Z" user="tutuw002" uid="4531722" lat="34.1566841" lon="132.2151392"/>
 <node id="13830975422" visible="true" version="1" changeset="182702658" timestamp="2026-05-15T14:46:18Z" user="Mzaki" uid="9870387" lat="34.1562853" lon="132.2106124"/>
 <node id="13830975423" visible="true" version="1" changeset="182702658" timestamp="2026-05-15T14:46:18Z" user="Mzaki" uid="9870387" lat="34.1562407" lon="132.2110963"/>
 <node id="13830975424" visible="true" version="1" changeset="182702658" timestamp="2026-05-15T14:46:18Z" user="Mzaki" uid="9870387" lat="34.1560756" lon="132.2128887"/>
 <node id="13830975425" visible="true" version="1" changeset="182702658" timestamp="2026-05-15T14:46:18Z" user="Mzaki" uid="9870387" lat="34.1560007" lon="132.2137014"/>
 <node id="13830975426" visible="true" version="1" changeset="182702658" timestamp="2026-05-15T14:46:18Z" user="Mzaki" uid="9870387" lat="34.1559512" lon="132.2153906"/>
 <node id="13830975427" visible="true" version="1" changeset="182702658" timestamp="2026-05-15T14:46:18Z" user="Mzaki" uid="9870387" lat="34.1558454" lon="132.2153834"/>
 <node id="13830975428" visible="true" version="1" changeset="182702658" timestamp="2026-05-15T14:46:18Z" user="Mzaki" uid="9870387" lat="34.1563740" lon="132.2149157"/>
 <node id="13830975429" visible="true" version="1" changeset="182702658" timestamp="2026-05-15T14:46:18Z" user="Mzaki" uid="9870387" lat="34.1560158" lon="132.2148054"/>
 <node id="13830975430" visible="true" version="1" changeset="182702658" timestamp="2026-05-15T14:46:18Z" user="Mzaki" uid="9870387" lat="34.1557800" lon="132.2160895"/>
 <way id="119024892" visible="true" version="2" changeset="133178979" timestamp="2023-03-01T16:24:37Z" user="AYAGE" uid="521665">
  <nd ref="1338104061"/>
  <nd ref="1338102783"/>
  <nd ref="1338103080"/>
  <nd ref="1338104742"/>
  <nd ref="1338102691"/>
  <nd ref="1338104413"/>
  <nd ref="10702278634"/>
  <nd ref="1338104009"/>
  <tag k="highway" v="unclassified"/>
  <tag k="source" v="YahooJapan/ALPSMAP"/>
 </way>
 <way id="119024955" visible="true" version="5" changeset="133235812" timestamp="2023-03-03T04:56:43Z" user="AYAGE" uid="521665">
  <nd ref="1338102196"/>
  <nd ref="10705771885"/>
  <nd ref="6052021700"/>
  <nd ref="1338102217"/>
  <tag k="highway" v="tertiary"/>
  <tag k="source" v="YahooJapan/ALPSMAP"/>
 </way>
 <way id="119024973" visible="true" version="2" changeset="133157034" timestamp="2023-03-01T06:07:53Z" user="AYAGE" uid="521665">
  <nd ref="1338102818"/>
  <nd ref="10701101514"/>
  <nd ref="1338103889"/>
  <nd ref="10701101513"/>
  <nd ref="10701101512"/>
  <nd ref="1338102775"/>
  <tag k="highway" v="tertiary"/>
  <tag k="source" v="YahooJapan/ALPSMAP"/>
 </way>
 <way id="119025008" visible="true" version="2" changeset="133157034" timestamp="2023-03-01T06:07:53Z" user="AYAGE" uid="521665">
  <nd ref="1338103684"/>
  <nd ref="10701101524"/>
  <nd ref="1338103270"/>
  <tag k="highway" v="unclassified"/>
  <tag k="source" v="YahooJapan/ALPSMAP"/>
 </way>
 <way id="119025034" visible="true" version="2" changeset="133157034" timestamp="2023-03-01T06:07:53Z" user="AYAGE" uid="521665">
  <nd ref="1338102237"/>
  <nd ref="10701101526"/>
  <nd ref="10701101524"/>
  <tag k="highway" v="path"/>
  <tag k="source" v="YahooJapan/ALPSMAP"/>
 </way>
 <way id="119025224" visible="true" version="4" changeset="133157034" timestamp="2023-03-01T06:07:53Z" user="AYAGE" uid="521665">
  <nd ref="1338102604"/>
  <nd ref="1338104870"/>
  <nd ref="6089905441"/>
  <nd ref="1338102723"/>
  <nd ref="1338102273"/>
  <nd ref="10701101527"/>
  <nd ref="10701101528"/>
  <nd ref="10701101529"/>
  <nd ref="6238893131"/>
  <nd ref="1338104161"/>
  <nd ref="1338103843"/>
  <nd ref="1338103658"/>
  <tag k="highway" v="path"/>
  <tag k="source" v="YahooJapan/ALPSMAP"/>
 </way>
 <way id="119025280" visible="true" version="4" changeset="182702658" timestamp="2026-05-15T14:46:18Z" user="Mzaki" uid="9870387">
  <nd ref="1338102217"/>
  <nd ref="13830975430"/>
  <nd ref="10705771888"/>
  <nd ref="1338103420"/>
  <tag k="highway" v="tertiary"/>
  <tag k="source" v="YahooJapan/ALPSMAP"/>
 </way>
 <way id="119025333" visible="true" version="3" changeset="106873098" timestamp="2021-06-24T05:42:54Z" user="taketaketake" uid="4757277">
  <nd ref="1338102775"/>
  <nd ref="1338103420"/>
  <tag k="highway" v="tertiary"/>
  <tag k="source" v="YahooJapan/ALPSMAP"/>
 </way>
 <way id="119025367" visible="true" version="2" changeset="133157034" timestamp="2023-03-01T06:07:53Z" user="AYAGE" uid="521665">
  <nd ref="1338102237"/>
  <nd ref="10701101525"/>
  <nd ref="1338102294"/>
  <nd ref="1338102814"/>
  <tag k="highway" v="unclassified"/>
  <tag k="source" v="YahooJapan/ALPSMAP"/>
 </way>
 <way id="119025406" visible="true" version="2" changeset="133191082" timestamp="2023-03-01T23:18:38Z" user="AYAGE" uid="521665">
  <nd ref="1338103420"/>
  <nd ref="10703073465"/>
  <nd ref="1338102314"/>
  <nd ref="1338103684"/>
  <tag k="highway" v="tertiary"/>
  <tag k="source" v="YahooJapan/ALPSMAP"/>
 </way>
 <way id="119025424" visible="true" version="3" changeset="133191082" timestamp="2023-03-01T23:18:38Z" user="AYAGE" uid="521665">
  <nd ref="1338102528"/>
  <nd ref="1338102459"/>
  <nd ref="10701101518"/>
  <nd ref="1338104759"/>
  <nd ref="10701101519"/>
  <nd ref="10701101520"/>
  <nd ref="10701101521"/>
  <nd ref="1338104023"/>
  <nd ref="10703073464"/>
  <nd ref="1338103420"/>
  <tag k="highway" v="unclassified"/>
  <tag k="source" v="YahooJapan/ALPSMAP"/>
 </way>
 <way id="119025432" visible="true" version="3" changeset="182702658" timestamp="2026-05-15T14:46:18Z" user="Mzaki" uid="9870387">
  <nd ref="1338103270"/>
  <nd ref="10701101523"/>
  <nd ref="1338102625"/>
  <nd ref="13830975426"/>
  <nd ref="13830975427"/>
  <tag k="highway" v="path"/>
  <tag k="source" v="YahooJapan/ALPSMAP"/>
 </way>
 <way id="119025545" visible="true" version="2" changeset="133191082" timestamp="2023-03-01T23:18:38Z" user="AYAGE" uid="521665">
  <nd ref="1338103222"/>
  <nd ref="10703073475"/>
  <nd ref="1338103015"/>
  <nd ref="10703073476"/>
  <nd ref="10703073431"/>
  <nd ref="1338102687"/>
  <tag k="highway" v="unclassified"/>
  <tag k="source" v="YahooJapan/ALPSMAP"/>
 </way>
 <way id="119025580" visible="true" version="6" changeset="159114461" timestamp="2024-11-14T03:59:18Z" user="tempapapaa" uid="22175623">
  <nd ref="1338102775"/>
  <nd ref="1338102975"/>
  <nd ref="12338682874"/>
  <nd ref="10703073437"/>
  <nd ref="7413187417"/>
  <nd ref="1338104510"/>
  <nd ref="1338103222"/>
  <tag k="highway" v="tertiary"/>
  <tag k="source" v="YahooJapan/ALPSMAP"/>
 </way>
 <way id="119025606" visible="true" version="3" changeset="133259244" timestamp="2023-03-03T15:30:50Z" user="AYAGE" uid="521665">
  <nd ref="1338103925"/>
  <nd ref="10703073478"/>
  <nd ref="10703073477"/>
  <nd ref="10707008198"/>
  <nd ref="1338102629"/>
  <nd ref="1338103569"/>
  <nd ref="10707026108"/>
  <nd ref="1338104411"/>
  <nd ref="7361782552"/>
  <nd ref="7361782551"/>
  <nd ref="7361782550"/>
  <nd ref="7413187425"/>
  <nd ref="7413187424"/>
  <nd ref="1338102687"/>
  <tag k="highway" v="residential"/>
 </way>
 <way id="119025627" visible="true" version="4" changeset="133237331" timestamp="2023-03-03T06:23:27Z" user="AYAGE" uid="521665">
  <nd ref="1338104607"/>
  <nd ref="1338103393"/>
  <nd ref="10705890802"/>
  <nd ref="10705890799"/>
  <nd ref="10705890795"/>
  <nd ref="1338102224"/>
  <nd ref="10705813307"/>
  <nd ref="10705813306"/>
  <nd ref="10705813305"/>
  <nd ref="10701101517"/>
  <nd ref="1338102528"/>
  <tag k="highway" v="unclassified"/>
  <tag k="source" v="YahooJapan/ALPSMAP"/>
 </way>
 <way id="119025634" visible="true" version="1" changeset="8540490" timestamp="2011-06-25T09:56:27Z" user="yamasan" uid="32308">
  <nd ref="1338102604"/>
  <nd ref="1338103270"/>
  <tag k="highway" v="path"/>
  <tag k="source" v="YahooJapan/ALPSMAP"/>
  <tag k="yh:STRUCTURE" v="地上"/>
  <tag k="yh:TOTYUMONO" v="供用中"/>
  <tag k="yh:TYPE" v="その他一般道"/>
  <tag k="yh:WIDTH" v="1.5m未満"/>
  <tag k="yh:WIDTH_RANK" v="5"/>
 </way>
 <way id="643002157" visible="true" version="5" changeset="133259244" timestamp="2023-03-03T15:30:50Z" user="AYAGE" uid="521665">
  <nd ref="10707008186"/>
  <nd ref="10707008187"/>
  <nd ref="10707008188"/>
  <nd ref="6052021685"/>
  <nd ref="6052021686"/>
  <nd ref="6052021687"/>
  <nd ref="6052021688"/>
  <nd ref="6052021689"/>
  <nd ref="7046692847"/>
  <nd ref="10701075098"/>
  <nd ref="6052021691"/>
  <nd ref="6238893132"/>
  <nd ref="6052021692"/>
  <nd ref="6052021693"/>
  <nd ref="6052021694"/>
  <nd ref="6238893131"/>
  <nd ref="6052021695"/>
  <nd ref="6052021696"/>
  <nd ref="10701101530"/>
  <nd ref="6052021697"/>
  <nd ref="6052021698"/>
  <nd ref="6052021699"/>
  <nd ref="10701101532"/>
  <nd ref="10701101533"/>
  <nd ref="6052021700"/>
  <tag k="highway" v="unclassified"/>
 </way>
 <way id="643002159" visible="true" version="2" changeset="133157034" timestamp="2023-03-01T06:07:53Z" user="AYAGE" uid="521665">
  <nd ref="6052021698"/>
  <nd ref="10701101531"/>
  <nd ref="6052021704"/>
  <nd ref="10701101537"/>
  <nd ref="6052021702"/>
  <tag k="highway" v="unclassified"/>
 </way>
 <way id="792783067" visible="true" version="1" changeset="83680745" timestamp="2020-04-17T05:24:51Z" user="Jillybean558" uid="10912192">
  <nd ref="7413187408"/>
  <nd ref="7413187409"/>
  <nd ref="7413187410"/>
  <nd ref="7413187411"/>
  <nd ref="7413187412"/>
  <nd ref="7413187413"/>
  <nd ref="7413187414"/>
  <nd ref="7413187415"/>
  <nd ref="7413187416"/>
  <tag k="highway" v="path"/>
 </way>
 <way id="792783068" visible="true" version="2" changeset="133191082" timestamp="2023-03-01T23:18:38Z" user="AYAGE" uid="521665">
  <nd ref="7413187417"/>
  <nd ref="7413187418"/>
  <nd ref="10703073436"/>
  <nd ref="7413187419"/>
  <nd ref="10703073435"/>
  <nd ref="7413187420"/>
  <nd ref="7413187416"/>
  <nd ref="7413187421"/>
  <nd ref="10703073434"/>
  <tag k="highway" v="path"/>
 </way>
 <way id="994691064" visible="true" version="1" changeset="112725964" timestamp="2021-10-20T05:45:47Z" user="hibagonsan" uid="5939709">
  <nd ref="9185949051"/>
  <nd ref="9185949050"/>
  <nd ref="9185949049"/>
  <nd ref="9185949048"/>
  <nd ref="9185949051"/>
  <tag k="building" v="yes"/>
 </way>
 <way id="994691066" visible="true" version="1" changeset="112725964" timestamp="2021-10-20T05:45:47Z" user="hibagonsan" uid="5939709">
  <nd ref="9185949059"/>
  <nd ref="9185949058"/>
  <nd ref="9185949057"/>
  <nd ref="9185949056"/>
  <nd ref="9185949059"/>
  <tag k="building" v="yes"/>
 </way>
 <way id="1150347771" visible="true" version="1" changeset="133157034" timestamp="2023-03-01T06:07:53Z" user="AYAGE" uid="521665">
  <nd ref="1338104440"/>
  <nd ref="6089905441"/>
  <tag k="highway" v="path"/>
 </way>
 <way id="1150577058" visible="true" version="2" changeset="159114172" timestamp="2024-11-14T03:42:34Z" user="tempapapaa" uid="22175623">
  <nd ref="10703073430"/>
  <nd ref="12338384256"/>
  <nd ref="10703073429"/>
  <nd ref="12338384257"/>
  <nd ref="10703073428"/>
  <nd ref="10703073427"/>
  <nd ref="10703073426"/>
  <nd ref="10703073425"/>
  <nd ref="10703073424"/>
  <nd ref="10703073423"/>
  <nd ref="10703073422"/>
  <nd ref="10703073421"/>
  <nd ref="10703073420"/>
  <nd ref="10703073419"/>
  <nd ref="10703073418"/>
  <nd ref="10703073417"/>
  <nd ref="10703073416"/>
  <nd ref="10703073415"/>
  <nd ref="10703073414"/>
  <nd ref="10703073413"/>
  <nd ref="10703073412"/>
  <nd ref="10703073411"/>
  <nd ref="10703073410"/>
  <nd ref="10703073409"/>
  <nd ref="10703073408"/>
  <nd ref="10703073407"/>
  <nd ref="10703073406"/>
  <nd ref="12338384254"/>
  <nd ref="10703073405"/>
  <nd ref="10703003304"/>
  <nd ref="10703003303"/>
  <nd ref="10703073430"/>
  <tag k="amenity" v="school"/>
  <tag k="name" v="市立川下小学校"/>
  <tag k="note" v="National-Land Numerical Information (Public Facility) 2006, MLIT Japan"/>
  <tag k="note:ja" v="国土数値情報（公共施設データ）平成19年　国土交通省"/>
  <tag k="source" v="KSJ2"/>
  <tag k="source_ref" v="http://nlftp.mlit.go.jp/ksj/jpgis/datalist/KsjTmplt-P02-v2_0.html"/>
  <tag k="wikidata" v="Q97674588"/>
 </way>
 <way id="1150577059" visible="true" version="1" changeset="133191082" timestamp="2023-03-01T23:18:38Z" user="AYAGE" uid="521665">
  <nd ref="10703073431"/>
  <nd ref="10703073432"/>
  <nd ref="10703073433"/>
  <nd ref="10703073434"/>
  <nd ref="7413187422"/>
  <nd ref="7413187423"/>
  <nd ref="7413187424"/>
  <tag k="highway" v="path"/>
 </way>
 <way id="1150577060" visible="true" version="1" changeset="133191082" timestamp="2023-03-01T23:18:38Z" user="AYAGE" uid="521665">
  <nd ref="1338102691"/>
  <nd ref="10703073446"/>
  <nd ref="10703073445"/>
  <nd ref="10703073444"/>
  <nd ref="10703073443"/>
  <nd ref="10703073442"/>
  <nd ref="10703073441"/>
  <nd ref="10703073440"/>
  <nd ref="10703073439"/>
  <nd ref="10703073438"/>
  <nd ref="10703073437"/>
  <tag k="highway" v="path"/>
 </way>
 <way id="1150862624" visible="true" version="1" changeset="133235812" timestamp="2023-03-03T04:56:43Z" user="AYAGE" uid="521665">
  <nd ref="10705813305"/>
  <nd ref="10705771904"/>
  <nd ref="10705771903"/>
  <nd ref="10705771902"/>
  <nd ref="10705771901"/>
  <nd ref="10705771900"/>
  <nd ref="10705771899"/>
  <nd ref="10705771898"/>
  <nd ref="10705771897"/>
  <nd ref="10705771896"/>
  <nd ref="10705771895"/>
  <nd ref="10705771894"/>
  <tag k="highway" v="residential"/>
 </way>
 <way id="1150872482" visible="true" version="1" changeset="133237331" timestamp="2023-03-03T06:23:27Z" user="AYAGE" uid="521665">
  <nd ref="10705771885"/>
  <nd ref="10705771886"/>
  <nd ref="10705771887"/>
  <nd ref="10705771894"/>
  <tag k="highway" v="path"/>
 </way>
 <way id="1337709317" visible="true" version="3" changeset="182702658" timestamp="2026-05-15T14:46:18Z" user="Mzaki" uid="9870387">
  <nd ref="1338103102"/>
  <nd ref="1338104854"/>
  <nd ref="13830975422"/>
  <nd ref="13830975423"/>
  <nd ref="13830975424"/>
  <nd ref="13830975425"/>
  <nd ref="12373648136"/>
  <nd ref="13830975427"/>
  <nd ref="13830975430"/>
  <nd ref="1338104759"/>
  <tag k="highway" v="tertiary"/>
  <tag k="start_date" v="2026-05-07"/>
 </way>
 <way id="1337709318" visible="true" version="2" changeset="182702658" timestamp="2026-05-15T14:46:18Z" user="Mzaki" uid="9870387">
  <nd ref="12373648132"/>
  <nd ref="12373648133"/>
  <nd ref="13830975428"/>
  <nd ref="12373648134"/>
  <nd ref="10701101526"/>
  <nd ref="12373648135"/>
  <nd ref="13830975429"/>
  <nd ref="12373648136"/>
  <tag k="highway" v="tertiary"/>
 </way>
 <way id="1337709319" visible="true" version="1" changeset="159573092" timestamp="2024-11-25T13:13:11Z" user="tutuw002" uid="4531722">
  <nd ref="12373648132"/>
  <nd ref="12373648137"/>
  <nd ref="12373648138"/>
  <nd ref="12373648139"/>
  <nd ref="1338103684"/>
  <tag k="highway" v="tertiary"/>
 </way>
 <way id="1337709320" visible="true" version="1" changeset="159573092" timestamp="2024-11-25T13:13:11Z" user="tutuw002" uid="4531722">
  <nd ref="1338104061"/>
  <nd ref="12373648130"/>
  <nd ref="12373648131"/>
  <nd ref="12373648132"/>
  <tag k="highway" v="tertiary"/>
 </way>
 <way id="1514003514" visible="true" version="1" changeset="182702658" timestamp="2026-05-15T14:46:18Z" user="Mzaki" uid="9870387">
  <nd ref="1338102794"/>
  <nd ref="1338102391"/>
  <nd ref="1338104602"/>
  <nd ref="10701101522"/>
  <nd ref="1338102217"/>
  <tag k="highway" v="path"/>
  <tag k="source" v="YahooJapan/ALPSMAP"/>
 </way>
 <way id="1514003515" visible="true" version="1" changeset="182702658" timestamp="2026-05-15T14:46:18Z" user="Mzaki" uid="9870387">
  <nd ref="10705771894"/>
  <nd ref="10705771893"/>
  <tag k="highway" v="residential"/>
 </way>
</osm>
