<?xml version="1.0" encoding="UTF-8"?>
<osm version="0.6" generator="openstreetmap-cgimap 2.1.0 (2942778 spike-08.openstreetmap.org)" copyright="OpenStreetMap and contributors" attribution="http://www.openstreetmap.org/copyright" license="http://opendatacommons.org/licenses/odbl/1-0/">
 <bounds minlat="34.1877396" minlon="132.0254774" maxlat="34.1901496" maxlon="132.0284945"/>
 <node id="748900105" visible="true" version="1" changeset="4813224" timestamp="2010-05-26T13:39:28Z" user="Tom_G3X" uid="146930" lat="34.1836070" lon="132.0219140"/>
 <node id="748904375" visible="true" version="1" changeset="4813224" timestamp="2010-05-26T13:40:57Z" user="Tom_G3X" uid="146930" lat="34.1882130" lon="132.0265140"/>
 <node id="748904671" visible="true" version="1" changeset="4813224" timestamp="2010-05-26T13:41:04Z" user="Tom_G3X" uid="146930" lat="34.1888180" lon="132.0283500"/>
 <node id="748908036" visible="true" version="1" changeset="4813224" timestamp="2010-05-26T13:42:35Z" user="Tom_G3X" uid="146930" lat="34.1921160" lon="132.0327680"/>
 <node id="748920224" visible="true" version="1" changeset="4813224" timestamp="2010-05-26T13:47:01Z" user="Tom_G3X" uid="146930" lat="34.1891260" lon="132.0273340"/>
 <node id="748923045" visible="true" version="1" changeset="4813224" timestamp="2010-05-26T13:48:24Z" user="Tom_G3X" uid="146930" lat="34.1858540" lon="132.0237090"/>
 <node id="748923344" visible="true" version="1" changeset="4813224" timestamp="2010-05-26T13:48:32Z" user="Tom_G3X" uid="146930" lat="34.1918680" lon="132.0317380"/>
 <node id="748934046" visible="true" version="1" changeset="4813224" timestamp="2010-05-26T13:54:20Z" user="Tom_G3X" uid="146930" lat="34.1889680" lon="132.0296650"/>
 <node id="748936517" visible="true" version="1" changeset="4813224" timestamp="2010-05-26T13:56:05Z" user="Tom_G3X" uid="146930" lat="34.1856680" lon="132.0231470"/>
 <node id="748955425" visible="true" version="1" changeset="4813224" timestamp="2010-05-26T14:03:00Z" user="Tom_G3X" uid="146930" lat="34.1903140" lon="132.0311490"/>
 <node id="748961003" visible="true" version="1" changeset="4813224" timestamp="2010-05-26T14:04:59Z" user="Tom_G3X" uid="146930" lat="34.1866930" lon="132.0247660"/>
 <node id="748961561" visible="true" version="1" changeset="4813224" timestamp="2010-05-26T14:05:10Z" user="Tom_G3X" uid="146930" lat="34.1921560" lon="132.0328560"/>
 <node id="748981247" visible="true" version="1" changeset="4813224" timestamp="2010-05-26T14:13:47Z" user="Tom_G3X" uid="146930" lat="34.1832630" lon="132.0217720"/>
 <node id="748981796" visible="true" version="1" changeset="4813224" timestamp="2010-05-26T14:14:01Z" user="Tom_G3X" uid="146930" lat="34.1898580" lon="132.0304780"/>
 <node id="748987008" visible="true" version="1" changeset="4813224" timestamp="2010-05-26T14:16:28Z" user="Tom_G3X" uid="146930" lat="34.1859040" lon="132.0238310"/>
 <node id="749013661" visible="true" version="1" changeset="4813224" timestamp="2010-05-26T14:26:17Z" user="Tom_G3X" uid="146930" lat="34.1820810" lon="132.0217110"/>
 <node id="749014512" visible="true" version="1" changeset="4813224" timestamp="2010-05-26T14:26:32Z" user="Tom_G3X" uid="146930" lat="34.1910180" lon="132.0310810"/>
 <node id="749024653" visible="true" version="1" changeset="4813224" timestamp="2010-05-26T14:29:24Z" user="Tom_G3X" uid="146930" lat="34.1876450" lon="132.0255860"/>
 <node id="749051906" visible="true" version="1" changeset="4813224" timestamp="2010-05-26T14:40:24Z" user="Tom_G3X" uid="146930" lat="34.1848400" lon="132.0228220"/>
 <node id="749052402" visible="true" version="1" changeset="4813224" timestamp="2010-05-26T14:40:43Z" user="Tom_G3X" uid="146930" lat="34.1904320" lon="132.0311280"/>
 <node id="749058347" visible="true" version="1" changeset="4813224" timestamp="2010-05-26T14:43:53Z" user="Tom_G3X" uid="146930" lat="34.1886860" lon="132.0268670"/>
 <node id="749073329" visible="true" version="1" changeset="4813826" timestamp="2010-05-26T14:51:39Z" user="Tom_G3X" uid="146930" lat="34.1833880" lon="132.0217920"/>
 <node id="749076415" visible="true" version="1" changeset="4813826" timestamp="2010-05-26T14:52:53Z" user="Tom_G3X" uid="146930" lat="34.1880670" lon="132.0262840"/>
 <node id="749076631" visible="true" version="1" changeset="4813826" timestamp="2010-05-26T14:52:58Z" user="Tom_G3X" uid="146930" lat="34.1889680" lon="132.0278830"/>
 <node id="749079763" visible="true" version="1" changeset="4813826" timestamp="2010-05-26T14:54:14Z" user="Tom_G3X" uid="146930" lat="34.1920650" lon="132.0321110"/>
 <node id="749095806" visible="true" version="1" changeset="4813826" timestamp="2010-05-26T15:00:25Z" user="Tom_G3X" uid="146930" lat="34.1896380" lon="132.0301800"/>
 <node id="749100223" visible="true" version="1" changeset="4813826" timestamp="2010-05-26T15:02:18Z" user="Tom_G3X" uid="146930" lat="34.1857920" lon="132.0233710"/>
 <node id="749100461" visible="true" version="1" changeset="4813826" timestamp="2010-05-26T15:02:26Z" user="Tom_G3X" uid="146930" lat="34.1915470" lon="132.0316030"/>
 <node id="749120818" visible="true" version="1" changeset="4813826" timestamp="2010-05-26T15:08:58Z" user="Tom_G3X" uid="146930" lat="34.1887090" lon="132.0292770"/>
 <node id="749127133" visible="true" version="1" changeset="4813826" timestamp="2010-05-26T15:10:57Z" user="Tom_G3X" uid="146930" lat="34.1855220" lon="132.0230660"/>
 <node id="749127952" visible="true" version="1" changeset="4813826" timestamp="2010-05-26T15:11:08Z" user="Tom_G3X" uid="146930" lat="34.1923300" lon="132.0332690"/>
 <node id="749157268" visible="true" version="1" changeset="4813826" timestamp="2010-05-26T15:18:30Z" user="Tom_G3X" uid="146930" lat="34.1901790" lon="132.0310880"/>
 <node id="749164163" visible="true" version="1" changeset="4813826" timestamp="2010-05-26T15:20:36Z" user="Tom_G3X" uid="146930" lat="34.1865010" lon="132.0244480"/>
 <node id="749192639" visible="true" version="1" changeset="4813826" timestamp="2010-05-26T15:29:06Z" user="Tom_G3X" uid="146930" lat="34.1830610" lon="132.0217990"/>
 <node id="749193631" visible="true" version="1" changeset="4813826" timestamp="2010-05-26T15:29:21Z" user="Tom_G3X" uid="146930" lat="34.1897680" lon="132.0303150"/>
 <node id="749201146" visible="true" version="1" changeset="4813826" timestamp="2010-05-26T15:32:01Z" user="Tom_G3X" uid="146930" lat="34.1879600" lon="132.0257820"/>
 <node id="749228747" visible="true" version="1" changeset="4813826" timestamp="2010-05-26T15:42:09Z" user="Tom_G3X" uid="146930" lat="34.1814160" lon="132.0216500"/>
 <node id="749229525" visible="true" version="1" changeset="4813826" timestamp="2010-05-26T15:42:26Z" user="Tom_G3X" uid="146930" lat="34.1908420" lon="132.0309440"/>
 <node id="749236658" visible="true" version="1" changeset="4813826" timestamp="2010-05-26T15:45:24Z" user="Tom_G3X" uid="146930" lat="34.1873240" lon="132.0253960"/>
 <node id="749263928" visible="true" version="1" changeset="4813826" timestamp="2010-05-26T15:56:40Z" user="Tom_G3X" uid="146930" lat="34.1841190" lon="132.0223200"/>
 <node id="749272729" visible="true" version="1" changeset="4813826" timestamp="2010-05-26T16:00:36Z" user="Tom_G3X" uid="146930" lat="34.1884050" lon="132.0266840"/>
 <node id="749273557" visible="true" version="1" changeset="4813826" timestamp="2010-05-26T16:00:57Z" user="Tom_G3X" uid="146930" lat="34.1887600" lon="132.0286010"/>
 <node id="749299726" visible="true" version="1" changeset="4814433" timestamp="2010-05-26T16:11:06Z" user="Tom_G3X" uid="146930" lat="34.1891200" lon="132.0274560"/>
 <node id="749303911" visible="true" version="1" changeset="4814433" timestamp="2010-05-26T16:12:25Z" user="Tom_G3X" uid="146930" lat="34.1919810" lon="132.0318730"/>
 <node id="749317334" visible="true" version="1" changeset="4814433" timestamp="2010-05-26T16:17:35Z" user="Tom_G3X" uid="146930" lat="34.1891650" lon="132.0298410"/>
 <node id="749321921" visible="true" version="1" changeset="4814433" timestamp="2010-05-26T16:18:58Z" user="Tom_G3X" uid="146930" lat="34.1857240" lon="132.0232220"/>
 <node id="749322217" visible="true" version="2" changeset="103098827" timestamp="2021-04-17T11:20:03Z" user="Juliet225" uid="10103365" lat="34.1921429" lon="132.0336433"/>
 <node id="749341561" visible="true" version="1" changeset="4814433" timestamp="2010-05-26T16:25:34Z" user="Tom_G3X" uid="146930" lat="34.1886980" lon="132.0290080"/>
 <node id="749348427" visible="true" version="1" changeset="4814433" timestamp="2010-05-26T16:27:21Z" user="Tom_G3X" uid="146930" lat="34.1867830" lon="132.0248950"/>
 <node id="749349329" visible="true" version="1" changeset="4814433" timestamp="2010-05-26T16:27:31Z" user="Tom_G3X" uid="146930" lat="34.1922740" lon="132.0330320"/>
 <node id="749381120" visible="true" version="1" changeset="4814433" timestamp="2010-05-26T16:33:57Z" user="Tom_G3X" uid="146930" lat="34.1899370" lon="132.0307220"/>
 <node id="749388885" visible="true" version="1" changeset="4814433" timestamp="2010-05-26T16:36:04Z" user="Tom_G3X" uid="146930" lat="34.1861350" lon="132.0241020"/>
 <node id="749411938" visible="true" version="1" changeset="4814433" timestamp="2010-05-26T16:45:05Z" user="Tom_G3X" uid="146930" lat="34.1826780" lon="132.0217850"/>
 <node id="749412452" visible="true" version="1" changeset="4814433" timestamp="2010-05-26T16:45:18Z" user="Tom_G3X" uid="146930" lat="34.1913390" lon="132.0314670"/>
 <node id="749418829" visible="true" version="1" changeset="4814433" timestamp="2010-05-26T16:48:15Z" user="Tom_G3X" uid="146930" lat="34.1878020" lon="132.0256200"/>
 <node id="749450147" visible="true" version="1" changeset="4814433" timestamp="2010-05-26T16:58:56Z" user="Tom_G3X" uid="146930" lat="34.1851390" lon="132.0229710"/>
 <node id="749450903" visible="true" version="1" changeset="4814433" timestamp="2010-05-26T16:59:13Z" user="Tom_G3X" uid="146930" lat="34.1906910" lon="132.0309930"/>
 <node id="749459121" visible="true" version="1" changeset="4814433" timestamp="2010-05-26T17:02:13Z" user="Tom_G3X" uid="146930" lat="34.1888840" lon="132.0270290"/>
 <node id="749501766" visible="true" version="1" changeset="4814433" timestamp="2010-05-26T17:14:52Z" user="Tom_G3X" uid="146930" lat="34.1834890" lon="132.0218390"/>
 <node id="749514556" visible="true" version="1" changeset="4814433" timestamp="2010-05-26T17:18:32Z" user="Tom_G3X" uid="146930" lat="34.1881180" lon="132.0263860"/>
 <node id="749515814" visible="true" version="1" changeset="4814433" timestamp="2010-05-26T17:18:54Z" user="Tom_G3X" uid="146930" lat="34.1888950" lon="132.0281400"/>
 <node id="749530471" visible="true" version="1" changeset="4814433" timestamp="2010-05-26T17:23:27Z" user="Tom_G3X" uid="146930" lat="34.1920650" lon="132.0326050"/>
 <node id="749554240" visible="true" version="1" changeset="4815008" timestamp="2010-05-26T17:30:08Z" user="Tom_G3X" uid="146930" lat="34.1890580" lon="132.0272120"/>
 <node id="749558953" visible="true" version="1" changeset="4815008" timestamp="2010-05-26T17:31:29Z" user="Tom_G3X" uid="146930" lat="34.1858030" lon="132.0235400"/>
 <node id="749559444" visible="true" version="1" changeset="4815008" timestamp="2010-05-26T17:31:37Z" user="Tom_G3X" uid="146930" lat="34.1916660" lon="132.0316630"/>
 <node id="749577381" visible="true" version="1" changeset="4815008" timestamp="2010-05-26T17:37:20Z" user="Tom_G3X" uid="146930" lat="34.1888330" lon="132.0294960"/>
 <node id="749582320" visible="true" version="1" changeset="4815008" timestamp="2010-05-26T17:39:14Z" user="Tom_G3X" uid="146930" lat="34.1855890" lon="132.0230860"/>
 <node id="749582847" visible="true" version="1" changeset="4815008" timestamp="2010-05-26T17:39:24Z" user="Tom_G3X" uid="146930" lat="34.1922850" lon="132.0333440"/>
 <node id="749606147" visible="true" version="1" changeset="4815008" timestamp="2010-05-26T17:45:47Z" user="Tom_G3X" uid="146930" lat="34.1902410" lon="132.0311350"/>
 <node id="749615107" visible="true" version="1" changeset="4815008" timestamp="2010-05-26T17:47:41Z" user="Tom_G3X" uid="146930" lat="34.1865690" lon="132.0245560"/>
 <node id="749646146" visible="true" version="1" changeset="4815008" timestamp="2010-05-26T17:55:24Z" user="Tom_G3X" uid="146930" lat="34.1831230" lon="132.0217780"/>
 <node id="749647452" visible="true" version="1" changeset="4815008" timestamp="2010-05-26T17:55:41Z" user="Tom_G3X" uid="146930" lat="34.1898070" lon="132.0303690"/>
 <node id="749659102" visible="true" version="1" changeset="4815008" timestamp="2010-05-26T18:00:14Z" user="Tom_G3X" uid="146930" lat="34.1880050" lon="132.0259110"/>
 <node id="749695892" visible="true" version="1" changeset="4815008" timestamp="2010-05-26T18:13:53Z" user="Tom_G3X" uid="146930" lat="34.1819060" lon="132.0216770"/>
 <node id="749696724" visible="true" version="1" changeset="4815008" timestamp="2010-05-26T18:14:10Z" user="Tom_G3X" uid="146930" lat="34.1909110" lon="132.0309790"/>
 <node id="749704342" visible="true" version="1" changeset="4815008" timestamp="2010-05-26T18:17:00Z" user="Tom_G3X" uid="146930" lat="34.1875380" lon="132.0255450"/>
 <node id="749741242" visible="true" version="1" changeset="4815008" timestamp="2010-05-26T18:29:47Z" user="Tom_G3X" uid="146930" lat="34.1845530" lon="132.0226390"/>
 <node id="749751782" visible="true" version="1" changeset="4815008" timestamp="2010-05-26T18:33:34Z" user="Tom_G3X" uid="146930" lat="34.1886800" lon="132.0268620"/>
 <node id="749775982" visible="true" version="1" changeset="4815008" timestamp="2010-05-26T18:47:55Z" user="Tom_G3X" uid="146930" lat="34.1880390" lon="132.0261820"/>
 <node id="749776376" visible="true" version="1" changeset="4815008" timestamp="2010-05-26T18:48:18Z" user="Tom_G3X" uid="146930" lat="34.1891030" lon="132.0275380"/>
 <node id="749780282" visible="true" version="1" changeset="4815008" timestamp="2010-05-26T18:51:54Z" user="Tom_G3X" uid="146930" lat="34.1920260" lon="132.0319680"/>
 <node id="749790954" visible="true" version="1" changeset="4815758" timestamp="2010-05-26T18:57:57Z" user="Tom_G3X" uid="146930" lat="34.1894410" lon="132.0300510"/>
 <node id="749794806" visible="true" version="1" changeset="4815758" timestamp="2010-05-26T18:59:10Z" user="Tom_G3X" uid="146930" lat="34.1857810" lon="132.0233230"/>
 <node id="749803297" visible="true" version="1" changeset="4815758" timestamp="2010-05-26T19:03:54Z" user="Tom_G3X" uid="146930" lat="34.1886910" lon="132.0292150"/>
 <node id="749806085" visible="true" version="1" changeset="4815758" timestamp="2010-05-26T19:05:29Z" user="Tom_G3X" uid="146930" lat="34.1868790" lon="132.0249970"/>
 <node id="749806334" visible="true" version="1" changeset="4815758" timestamp="2010-05-26T19:05:38Z" user="Tom_G3X" uid="146930" lat="34.1923360" lon="132.0331610"/>
 <node id="749816268" visible="true" version="1" changeset="4815758" timestamp="2010-05-26T19:12:21Z" user="Tom_G3X" uid="146930" lat="34.1900210" lon="132.0308840"/>
 <node id="749819624" visible="true" version="1" changeset="4815758" timestamp="2010-05-26T19:14:19Z" user="Tom_G3X" uid="146930" lat="34.1863660" lon="132.0243130"/>
 <node id="749847556" visible="true" version="1" changeset="4815758" timestamp="2010-05-26T19:22:45Z" user="Tom_G3X" uid="146930" lat="34.1827680" lon="132.0218060"/>
 <node id="749848012" visible="true" version="1" changeset="4815758" timestamp="2010-05-26T19:23:01Z" user="Tom_G3X" uid="146930" lat="34.1914410" lon="132.0315420"/>
 <node id="749855460" visible="true" version="1" changeset="4815758" timestamp="2010-05-26T19:26:24Z" user="Tom_G3X" uid="146930" lat="34.1878760" lon="132.0256610"/>
 <node id="749881933" visible="true" version="1" changeset="4815758" timestamp="2010-05-26T19:35:27Z" user="Tom_G3X" uid="146930" lat="34.1853470" lon="132.0230390"/>
 <node id="749882529" visible="true" version="1" changeset="4815758" timestamp="2010-05-26T19:35:43Z" user="Tom_G3X" uid="146930" lat="34.1907940" lon="132.0309440"/>
 <node id="749890399" visible="true" version="1" changeset="4815758" timestamp="2010-05-26T19:38:11Z" user="Tom_G3X" uid="146930" lat="34.1870650" lon="132.0251390"/>
 <node id="1334175714" visible="true" version="1" changeset="8510736" timestamp="2011-06-22T04:12:11Z" user="yamasan" uid="32308" lat="34.1898610" lon="132.0297110"/>
 <node id="1334176179" visible="true" version="1" changeset="8510736" timestamp="2011-06-22T04:12:27Z" user="yamasan" uid="32308" lat="34.1900940" lon="132.0303420"/>
 <node id="1334176509" visible="true" version="1" changeset="8510736" timestamp="2011-06-22T04:12:40Z" user="yamasan" uid="32308" lat="34.1889850" lon="132.0280470"/>
 <node id="1334176622" visible="true" version="1" changeset="8510736" timestamp="2011-06-22T04:12:44Z" user="yamasan" uid="32308" lat="34.1902970" lon="132.0307350"/>
 <node id="1334176719" visible="true" version="1" changeset="8510736" timestamp="2011-06-22T04:12:47Z" user="yamasan" uid="32308" lat="34.1885530" lon="132.0256280"/>
 <node id="1334176975" visible="true" version="1" changeset="8510736" timestamp="2011-06-22T04:12:57Z" user="yamasan" uid="32308" lat="34.1887920" lon="132.0288250"/>
 <node id="1334177079" visible="true" version="1" changeset="8510736" timestamp="2011-06-22T04:13:01Z" user="yamasan" uid="32308" lat="34.1904830" lon="132.0307920"/>
 <node id="1334177397" visible="true" version="1" changeset="8510736" timestamp="2011-06-22T04:13:13Z" user="yamasan" uid="32308" lat="34.1892600" lon="132.0273480"/>
 <node id="1334177414" visible="true" version="1" changeset="8510736" timestamp="2011-06-22T04:13:14Z" user="yamasan" uid="32308" lat="34.1889020" lon="132.0294140"/>
 <node id="1334177519" visible="true" version="1" changeset="8510736" timestamp="2011-06-22T04:13:18Z" user="yamasan" uid="32308" lat="34.1908180" lon="132.0305790"/>
 <node id="1334177697" visible="true" version="1" changeset="8510736" timestamp="2011-06-22T04:13:25Z" user="yamasan" uid="32308" lat="34.1884950" lon="132.0259870"/>
 <node id="1334177797" visible="true" version="1" changeset="8510736" timestamp="2011-06-22T04:13:29Z" user="yamasan" uid="32308" lat="34.1885170" lon="132.0260490"/>
 <node id="1334177856" visible="true" version="1" changeset="8510736" timestamp="2011-06-22T04:13:31Z" user="yamasan" uid="32308" lat="34.1893500" lon="132.0298010"/>
 <node id="1334178143" visible="true" version="1" changeset="8510736" timestamp="2011-06-22T04:13:43Z" user="yamasan" uid="32308" lat="34.1890370" lon="132.0243700"/>
 <node id="1334178270" visible="true" version="1" changeset="8510736" timestamp="2011-06-22T04:13:48Z" user="yamasan" uid="32308" lat="34.1889920" lon="132.0279750"/>
 <node id="1334178290" visible="true" version="1" changeset="8510736" timestamp="2011-06-22T04:13:48Z" user="yamasan" uid="32308" lat="34.1898180" lon="132.0297330"/>
 <node id="1334178371" visible="true" version="1" changeset="8510736" timestamp="2011-06-22T04:13:52Z" user="yamasan" uid="32308" lat="34.1888220" lon="132.0268060"/>
 <node id="1334178943" visible="true" version="1" changeset="8510736" timestamp="2011-06-22T04:14:14Z" user="yamasan" uid="32308" lat="34.1886570" lon="132.0250410"/>
 <node id="1334178963" visible="true" version="1" changeset="8510736" timestamp="2011-06-22T04:14:15Z" user="yamasan" uid="32308" lat="34.1899240" lon="132.0298030"/>
 <node id="1334179216" visible="true" version="1" changeset="8510736" timestamp="2011-06-22T04:15:02Z" user="yamasan" uid="32308" lat="34.1886400" lon="132.0251250"/>
 <node id="1334179691" visible="true" version="1" changeset="8510736" timestamp="2011-06-22T04:15:17Z" user="yamasan" uid="32308" lat="34.1902460" lon="132.0304710"/>
 <node id="1334179816" visible="true" version="1" changeset="8510736" timestamp="2011-06-22T04:15:20Z" user="yamasan" uid="32308" lat="34.1892440" lon="132.0272660"/>
 <node id="1334180081" visible="true" version="1" changeset="8510736" timestamp="2011-06-22T04:15:31Z" user="yamasan" uid="32308" lat="34.1889520" lon="132.0283070"/>
 <node id="1334180185" visible="true" version="1" changeset="8510736" timestamp="2011-06-22T04:15:35Z" user="yamasan" uid="32308" lat="34.1891750" lon="132.0271110"/>
 <node id="1334180228" visible="true" version="1" changeset="8510736" timestamp="2011-06-22T04:15:36Z" user="yamasan" uid="32308" lat="34.1903230" lon="132.0308270"/>
 <node id="1334180600" visible="true" version="1" changeset="8510736" timestamp="2011-06-22T04:15:50Z" user="yamasan" uid="32308" lat="34.1887980" lon="132.0290550"/>
 <node id="1334180706" visible="true" version="1" changeset="8510736" timestamp="2011-06-22T04:15:54Z" user="yamasan" uid="32308" lat="34.1906650" lon="132.0305690"/>
 <node id="1334181070" visible="true" version="1" changeset="8510736" timestamp="2011-06-22T04:16:09Z" user="yamasan" uid="32308" lat="34.1890470" lon="132.0295930"/>
 <node id="1334181249" visible="true" version="1" changeset="8510736" timestamp="2011-06-22T04:16:13Z" user="yamasan" uid="32308" lat="34.1884770" lon="132.0258780"/>
 <node id="1334181286" visible="true" version="1" changeset="8510736" timestamp="2011-06-22T04:16:14Z" user="yamasan" uid="32308" lat="34.1912090" lon="132.0308570"/>
 <node id="1334181445" visible="true" version="1" changeset="8510736" timestamp="2011-06-22T04:16:18Z" user="yamasan" uid="32308" lat="34.1884800" lon="132.0259280"/>
 <node id="1334181932" visible="true" version="1" changeset="8510736" timestamp="2011-06-22T04:16:29Z" user="yamasan" uid="32308" lat="34.1895790" lon="132.0298550"/>
 <node id="1334182373" visible="true" version="1" changeset="8510736" timestamp="2011-06-22T04:16:47Z" user="yamasan" uid="32308" lat="34.1887870" lon="132.0267470"/>
 <node id="1334182747" visible="true" version="1" changeset="8510736" timestamp="2011-06-22T04:17:00Z" user="yamasan" uid="32308" lat="34.1889280" lon="132.0269070"/>
 <node id="1334183125" visible="true" version="1" changeset="8510736" timestamp="2011-06-22T04:17:16Z" user="yamasan" uid="32308" lat="34.1900270" lon="132.0302340"/>
 <node id="1334183715" visible="true" version="1" changeset="8510736" timestamp="2011-06-22T04:18:32Z" user="yamasan" uid="32308" lat="34.1903000" lon="132.0306000"/>
 <node id="1334184049" visible="true" version="1" changeset="8510736" timestamp="2011-06-22T04:18:47Z" user="yamasan" uid="32308" lat="34.1888050" lon="132.0286890"/>
 <node id="1334184146" visible="true" version="1" changeset="8510736" timestamp="2011-06-22T04:18:51Z" user="yamasan" uid="32308" lat="34.1886020" lon="132.0254210"/>
 <node id="1334184167" visible="true" version="1" changeset="8510736" timestamp="2011-06-22T04:18:52Z" user="yamasan" uid="32308" lat="34.1904310" lon="132.0308190"/>
 <node id="1334184252" visible="true" version="1" changeset="8510736" timestamp="2011-06-22T04:18:55Z" user="yamasan" uid="32308" lat="34.1885830" lon="132.0255300"/>
 <node id="1334184507" visible="true" version="1" changeset="8510736" timestamp="2011-06-22T04:19:07Z" user="yamasan" uid="32308" lat="34.1888500" lon="132.0292900"/>
 <node id="1334184595" visible="true" version="1" changeset="8510736" timestamp="2011-06-22T04:19:11Z" user="yamasan" uid="32308" lat="34.1892550" lon="132.0274620"/>
 <node id="1334184614" visible="true" version="1" changeset="8510736" timestamp="2011-06-22T04:19:12Z" user="yamasan" uid="32308" lat="34.1907550" lon="132.0305480"/>
 <node id="1334184698" visible="true" version="1" changeset="8510736" timestamp="2011-06-22T04:19:16Z" user="yamasan" uid="32308" lat="34.1892270" lon="132.0275510"/>
 <node id="1334184952" visible="true" version="1" changeset="8510736" timestamp="2011-06-22T04:19:27Z" user="yamasan" uid="32308" lat="34.1892400" lon="132.0297490"/>
 <node id="1334185067" visible="true" version="1" changeset="8510736" timestamp="2011-06-22T04:19:32Z" user="yamasan" uid="32308" lat="34.1918340" lon="132.0314590"/>
 <node id="1334185287" visible="true" version="1" changeset="8510736" timestamp="2011-06-22T04:19:41Z" user="yamasan" uid="32308" lat="34.1888880" lon="132.0245700"/>
 <node id="1334185437" visible="true" version="1" changeset="8510736" timestamp="2011-06-22T04:19:47Z" user="yamasan" uid="32308" lat="34.1897220" lon="132.0298060"/>
 <node id="1334186000" visible="true" version="1" changeset="8510736" timestamp="2011-06-22T04:20:12Z" user="yamasan" uid="32308" lat="34.1886850" lon="132.0249410"/>
 <node id="1334186124" visible="true" version="1" changeset="8510736" timestamp="2011-06-22T04:20:17Z" user="yamasan" uid="32308" lat="34.1898970" lon="132.0297340"/>
 <node id="1334186562" visible="true" version="1" changeset="8510736" timestamp="2011-06-22T04:20:38Z" user="yamasan" uid="32308" lat="34.1901730" lon="132.0304240"/>
 <node id="1334187624" visible="true" version="1" changeset="8510736" timestamp="2011-06-22T04:23:26Z" user="yamasan" uid="32308" lat="34.1889820" lon="132.0282340"/>
 <node id="1334187726" visible="true" version="1" changeset="8510736" timestamp="2011-06-22T04:23:31Z" user="yamasan" uid="32308" lat="34.1903000" lon="132.0307810"/>
 <node id="1334188084" visible="true" version="1" changeset="8510736" timestamp="2011-06-22T04:23:47Z" user="yamasan" uid="32308" lat="34.1887950" lon="132.0289160"/>
 <node id="1334188203" visible="true" version="1" changeset="8510736" timestamp="2011-06-22T04:23:53Z" user="yamasan" uid="32308" lat="34.1906210" lon="132.0306180"/>
 <node id="1334188547" visible="true" version="1" changeset="8510736" timestamp="2011-06-22T04:24:10Z" user="yamasan" uid="32308" lat="34.1889720" lon="132.0295110"/>
 <node id="1334188654" visible="true" version="1" changeset="8510736" timestamp="2011-06-22T04:24:15Z" user="yamasan" uid="32308" lat="34.1908660" lon="132.0306060"/>
 <node id="1334188986" visible="true" version="1" changeset="8510736" timestamp="2011-06-22T04:24:32Z" user="yamasan" uid="32308" lat="34.1894280" lon="132.0298340"/>
 <node id="1334189092" visible="true" version="2" changeset="134754465" timestamp="2023-04-11T02:34:56Z" user="AYAGE" uid="521665" lat="34.1920335" lon="132.0316313"/>
 <node id="1334189625" visible="true" version="1" changeset="8510736" timestamp="2011-06-22T04:25:03Z" user="yamasan" uid="32308" lat="34.1888680" lon="132.0268570"/>
 <node id="1334189758" visible="true" version="1" changeset="8510736" timestamp="2011-06-22T04:25:10Z" user="yamasan" uid="32308" lat="34.1887370" lon="132.0248200"/>
 <node id="1334189862" visible="true" version="1" changeset="8510736" timestamp="2011-06-22T04:25:15Z" user="yamasan" uid="32308" lat="34.1887030" lon="132.0248850"/>
 <node id="1334190087" visible="true" version="1" changeset="8510736" timestamp="2011-06-22T04:25:26Z" user="yamasan" uid="32308" lat="34.1899930" lon="132.0301710"/>
 <node id="1334190716" visible="true" version="1" changeset="8510736" timestamp="2011-06-22T04:25:43Z" user="yamasan" uid="32308" lat="34.1892050" lon="132.0271660"/>
 <node id="1334190882" visible="true" version="1" changeset="8510736" timestamp="2011-06-22T04:25:50Z" user="yamasan" uid="32308" lat="34.1902920" lon="132.0305320"/>
 <node id="1334193774" visible="true" version="1" changeset="8510736" timestamp="2011-06-22T04:31:00Z" user="yamasan" uid="32308" lat="34.1891370" lon="132.0270610"/>
 <node id="1334193792" visible="true" version="1" changeset="8510736" timestamp="2011-06-22T04:31:01Z" user="yamasan" uid="32308" lat="34.1888370" lon="132.0285820"/>
 <node id="1334193899" visible="true" version="1" changeset="8510736" timestamp="2011-06-22T04:31:08Z" user="yamasan" uid="32308" lat="34.1903630" lon="132.0308350"/>
 <node id="1334194090" visible="true" version="1" changeset="8510736" timestamp="2011-06-22T04:31:19Z" user="yamasan" uid="32308" lat="34.1885700" lon="132.0255740"/>
 <node id="1334194241" visible="true" version="1" changeset="8510736" timestamp="2011-06-22T04:31:27Z" user="yamasan" uid="32308" lat="34.1888220" lon="132.0291760"/>
 <node id="1334194359" visible="true" version="1" changeset="8510736" timestamp="2011-06-22T04:31:33Z" user="yamasan" uid="32308" lat="34.1907110" lon="132.0305410"/>
 <node id="1334194587" visible="true" version="1" changeset="8510736" timestamp="2011-06-22T04:31:43Z" user="yamasan" uid="32308" lat="34.1891820" lon="132.0276460"/>
 <node id="1334194690" visible="true" version="1" changeset="8510736" timestamp="2011-06-22T04:31:49Z" user="yamasan" uid="32308" lat="34.1890170" lon="132.0279160"/>
 <node id="1334194723" visible="true" version="1" changeset="8510736" timestamp="2011-06-22T04:31:51Z" user="yamasan" uid="32308" lat="34.1884880" lon="132.0258230"/>
 <node id="1334194740" visible="true" version="1" changeset="8510736" timestamp="2011-06-22T04:31:52Z" user="yamasan" uid="32308" lat="34.1891320" lon="132.0296630"/>
 <node id="1334194847" visible="true" version="1" changeset="8510736" timestamp="2011-06-22T04:31:57Z" user="yamasan" uid="32308" lat="34.1916210" lon="132.0312220"/>
 <node id="1334195204" visible="true" version="1" changeset="8510736" timestamp="2011-06-22T04:32:17Z" user="yamasan" uid="32308" lat="34.1896550" lon="132.0298370"/>
 <node id="1615024904" visible="true" version="1" changeset="10563494" timestamp="2012-02-02T00:37:49Z" user="yamasan" uid="32308" lat="34.1886087" lon="132.0261657"/>
 <node id="1615024906" visible="true" version="1" changeset="10563494" timestamp="2012-02-02T00:37:49Z" user="yamasan" uid="32308" lat="34.1886273" lon="132.0257666"/>
 <node id="1615024916" visible="true" version="1" changeset="10563494" timestamp="2012-02-02T00:37:51Z" user="yamasan" uid="32308" lat="34.1888259" lon="132.0286988"/>
 <node id="1615024919" visible="true" version="1" changeset="10563494" timestamp="2012-02-02T00:37:51Z" user="yamasan" uid="32308" lat="34.1888525" lon="132.0290365"/>
 <node id="1615024921" visible="true" version="1" changeset="10563494" timestamp="2012-02-02T00:37:51Z" user="yamasan" uid="32308" lat="34.1888756" lon="132.0249126"/>
 <node id="1615024922" visible="true" version="1" changeset="10563494" timestamp="2012-02-02T00:37:51Z" user="yamasan" uid="32308" lat="34.1888842" lon="132.0266912"/>
 <node id="1615024937" visible="true" version="1" changeset="10563494" timestamp="2012-02-02T00:37:52Z" user="yamasan" uid="32308" lat="34.1889051" lon="132.0283229"/>
 <node id="1615024942" visible="true" version="1" changeset="10563494" timestamp="2012-02-02T00:37:53Z" user="yamasan" uid="32308" lat="34.1889431" lon="132.0292607"/>
 <node id="1615024948" visible="true" version="1" changeset="10563494" timestamp="2012-02-02T00:37:53Z" user="yamasan" uid="32308" lat="34.1889826" lon="132.0276627"/>
 <node id="1615024995" visible="true" version="1" changeset="10563494" timestamp="2012-02-02T00:37:54Z" user="yamasan" uid="32308" lat="34.1890918" lon="132.0274877"/>
 <node id="1615024998" visible="true" version="1" changeset="10563494" timestamp="2012-02-02T00:37:54Z" user="yamasan" uid="32308" lat="34.1890947" lon="132.0270143"/>
 <node id="1615025004" visible="true" version="1" changeset="10563494" timestamp="2012-02-02T00:37:55Z" user="yamasan" uid="32308" lat="34.1891371" lon="132.0238722"/>
 <node id="1615025009" visible="true" version="1" changeset="10563494" timestamp="2012-02-02T00:37:55Z" user="yamasan" uid="32308" lat="34.1891573" lon="132.0230523"/>
 <node id="1615025013" visible="true" version="1" changeset="10563494" timestamp="2012-02-02T00:37:55Z" user="yamasan" uid="32308" lat="34.1891592" lon="132.0272376"/>
 <node id="1615025015" visible="true" version="1" changeset="10563494" timestamp="2012-02-02T00:37:55Z" user="yamasan" uid="32308" lat="34.1891603" lon="132.0225789"/>
 <node id="1615025038" visible="true" version="1" changeset="10563494" timestamp="2012-02-02T00:37:56Z" user="yamasan" uid="32308" lat="34.1892568" lon="132.0218563"/>
 <node id="1615025039" visible="true" version="1" changeset="10563494" timestamp="2012-02-02T00:37:56Z" user="yamasan" uid="32308" lat="34.1893325" lon="132.0216170"/>
 <node id="1615025040" visible="true" version="1" changeset="10563494" timestamp="2012-02-02T00:37:56Z" user="yamasan" uid="32308" lat="34.1893659" lon="132.0295909"/>
 <node id="1615025049" visible="true" version="1" changeset="10563494" timestamp="2012-02-02T00:37:58Z" user="yamasan" uid="32308" lat="34.1895654" lon="132.0213938"/>
 <node id="1615025052" visible="true" version="1" changeset="10563494" timestamp="2012-02-02T00:37:58Z" user="yamasan" uid="32308" lat="34.1896084" lon="132.0296837"/>
 <node id="1615025090" visible="true" version="1" changeset="10563494" timestamp="2012-02-02T00:37:59Z" user="yamasan" uid="32308" lat="34.1898922" lon="132.0295150"/>
 <node id="1615025091" visible="true" version="1" changeset="10563494" timestamp="2012-02-02T00:37:59Z" user="yamasan" uid="32308" lat="34.1899151" lon="132.0213852"/>
 <node id="1615025111" visible="true" version="1" changeset="10563494" timestamp="2012-02-02T00:38:00Z" user="yamasan" uid="32308" lat="34.1901107" lon="132.0291651"/>
 <node id="1615025134" visible="true" version="1" changeset="10563494" timestamp="2012-02-02T00:38:01Z" user="yamasan" uid="32308" lat="34.1902220" lon="132.0217014"/>
 <node id="1615025140" visible="true" version="1" changeset="10563494" timestamp="2012-02-02T00:38:01Z" user="yamasan" uid="32308" lat="34.1904551" lon="132.0221727"/>
 <node id="1615025146" visible="true" version="1" changeset="10563494" timestamp="2012-02-02T00:38:02Z" user="yamasan" uid="32308" lat="34.1905499" lon="132.0283706"/>
 <node id="1615025151" visible="true" version="1" changeset="10563494" timestamp="2012-02-02T00:38:02Z" user="yamasan" uid="32308" lat="34.1906152" lon="132.0234831"/>
 <node id="1615025154" visible="true" version="1" changeset="10563494" timestamp="2012-02-02T00:38:02Z" user="yamasan" uid="32308" lat="34.1906430" lon="132.0241261"/>
 <node id="1615025171" visible="true" version="1" changeset="10563494" timestamp="2012-02-02T00:38:03Z" user="yamasan" uid="32308" lat="34.1906465" lon="132.0225688"/>
 <node id="1615025173" visible="true" version="1" changeset="10563494" timestamp="2012-02-02T00:38:03Z" user="yamasan" uid="32308" lat="34.1907197" lon="132.0227924"/>
 <node id="1615025179" visible="true" version="1" changeset="10563494" timestamp="2012-02-02T00:38:03Z" user="yamasan" uid="32308" lat="34.1907827" lon="132.0277896"/>
 <node id="1615025186" visible="true" version="1" changeset="10563494" timestamp="2012-02-02T00:38:03Z" user="yamasan" uid="32308" lat="34.1909568" lon="132.0249916"/>
 <node id="1615025218" visible="true" version="1" changeset="10563494" timestamp="2012-02-02T00:38:05Z" user="yamasan" uid="32308" lat="34.1913133" lon="132.0271930"/>
 <node id="1615025223" visible="true" version="1" changeset="10563494" timestamp="2012-02-02T00:38:05Z" user="yamasan" uid="32308" lat="34.1914565" lon="132.0256409"/>
 <node id="1615025229" visible="true" version="1" changeset="10563494" timestamp="2012-02-02T00:38:06Z" user="yamasan" uid="32308" lat="34.1916276" lon="132.0268570"/>
 <node id="1615025230" visible="true" version="1" changeset="10563494" timestamp="2012-02-02T00:38:06Z" user="yamasan" uid="32308" lat="34.1916386" lon="132.0260578"/>
 <node id="1615025231" visible="true" version="1" changeset="10563494" timestamp="2012-02-02T00:38:06Z" user="yamasan" uid="32308" lat="34.1916887" lon="132.0265015"/>
 <node id="2747237659" visible="true" version="1" changeset="21342804" timestamp="2014-03-27T11:26:53Z" user="ひろときょうたまなかなおや" uid="2000955" lat="34.1895350" lon="132.0228552"/>
 <node id="2747237684" visible="true" version="1" changeset="21342804" timestamp="2014-03-27T11:26:53Z" user="ひろときょうたまなかなおや" uid="2000955" lat="34.1895178" lon="132.0230508"/>
 <node id="2747237719" visible="true" version="1" changeset="21342804" timestamp="2014-03-27T11:26:54Z" user="ひろときょうたまなかなおや" uid="2000955" lat="34.1895152" lon="132.0231896"/>
 <node id="2747237766" visible="true" version="1" changeset="21342804" timestamp="2014-03-27T11:26:54Z" user="ひろときょうたまなかなおや" uid="2000955" lat="34.1894313" lon="132.0235420"/>
 <node id="2747237815" visible="true" version="1" changeset="21342804" timestamp="2014-03-27T11:26:54Z" user="ひろときょうたまなかなおや" uid="2000955" lat="34.1893667" lon="132.0237017"/>
 <node id="2747237840" visible="true" version="1" changeset="21342804" timestamp="2014-03-27T11:26:55Z" user="ひろときょうたまなかなおや" uid="2000955" lat="34.1893052" lon="132.0240038"/>
 <node id="2747237891" visible="true" version="1" changeset="21342804" timestamp="2014-03-27T11:26:55Z" user="ひろときょうたまなかなおや" uid="2000955" lat="34.1892403" lon="132.0242843"/>
 <node id="2747237953" visible="true" version="1" changeset="21342804" timestamp="2014-03-27T11:26:56Z" user="ひろときょうたまなかなおや" uid="2000955" lat="34.1890686" lon="132.0245731"/>
 <node id="2747238006" visible="true" version="1" changeset="21342804" timestamp="2014-03-27T11:26:56Z" user="ひろときょうたまなかなおや" uid="2000955" lat="34.1889154" lon="132.0247540"/>
 <node id="2747238052" visible="true" version="1" changeset="21342804" timestamp="2014-03-27T11:26:57Z" user="ひろときょうたまなかなおや" uid="2000955" lat="34.1887606" lon="132.0250455"/>
 <node id="2747238076" visible="true" version="1" changeset="21342804" timestamp="2014-03-27T11:26:57Z" user="ひろときょうたまなかなおや" uid="2000955" lat="34.1887131" lon="132.0252302"/>
 <node id="2747238094" visible="true" version="1" changeset="21342804" timestamp="2014-03-27T11:26:58Z" user="ひろときょうたまなかなおや" uid="2000955" lat="34.1887056" lon="132.0253645"/>
 <node id="2747238097" visible="true" version="1" changeset="21342804" timestamp="2014-03-27T11:26:58Z" user="ひろときょうたまなかなおや" uid="2000955" lat="34.1886762" lon="132.0261417"/>
 <node id="2747238098" visible="true" version="1" changeset="21342804" timestamp="2014-03-27T11:26:59Z" user="ひろときょうたまなかなおや" uid="2000955" lat="34.1887251" lon="132.0263353"/>
 <node id="2747238099" visible="true" version="1" changeset="21342804" timestamp="2014-03-27T11:26:59Z" user="ひろときょうたまなかなおや" uid="2000955" lat="34.1888095" lon="132.0264865"/>
 <node id="2747238100" visible="true" version="1" changeset="21342804" timestamp="2014-03-27T11:26:59Z" user="ひろときょうたまなかなおや" uid="2000955" lat="34.1888428" lon="132.0266123"/>
 <node id="2747238101" visible="true" version="1" changeset="21342804" timestamp="2014-03-27T11:27:00Z" user="ひろときょうたまなかなおや" uid="2000955" lat="34.1888902" lon="132.0267618"/>
 <node id="2807922801" visible="true" version="2" changeset="111794059" timestamp="2021-09-28T02:23:39Z" user="nyampire_import" uid="1178360" lat="34.1894981" lon="132.0257536">
  <tag k="ISJ:city_name" v="岩国市"/>
  <tag k="ISJ:name" v="滝山"/>
  <tag k="ISJ:prefecture_name" v="山口県"/>
  <tag k="name" v="滝山"/>
  <tag k="name:ja" v="滝山"/>
  <tag k="place" v="hamlet"/>
  <tag k="source" v="ISJ,2012"/>
  <tag k="source_ref" v="http://wiki.openstreetmap.org/wiki/Import/Catalogue/Japan_ISJ_Import"/>
 </node>
 <node id="2837085918" visible="true" version="4" changeset="103098827" timestamp="2021-04-17T11:20:03Z" user="Juliet225" uid="10103365" lat="34.1920792" lon="132.0342943"/>
 <way id="60300787" visible="true" version="4" changeset="35698863" timestamp="2015-12-02T04:23:44Z" user="show1017" uid="3244669">
  <nd ref="749228747"/>
  <nd ref="749695892"/>
  <nd ref="749013661"/>
  <nd ref="749411938"/>
  <nd ref="749847556"/>
  <nd ref="749192639"/>
  <nd ref="749646146"/>
  <nd ref="748981247"/>
  <nd ref="749073329"/>
  <nd ref="749501766"/>
  <nd ref="748900105"/>
  <nd ref="749263928"/>
  <nd ref="749741242"/>
  <nd ref="749051906"/>
  <nd ref="749450147"/>
  <nd ref="749881933"/>
  <nd ref="749127133"/>
  <nd ref="749582320"/>
  <nd ref="748936517"/>
  <nd ref="749321921"/>
  <nd ref="749794806"/>
  <nd ref="749100223"/>
  <nd ref="749558953"/>
  <nd ref="748923045"/>
  <nd ref="748987008"/>
  <nd ref="749388885"/>
  <nd ref="749819624"/>
  <nd ref="749164163"/>
  <nd ref="749615107"/>
  <nd ref="748961003"/>
  <nd ref="749348427"/>
  <nd ref="749806085"/>
  <nd ref="749890399"/>
  <nd ref="749236658"/>
  <nd ref="749704342"/>
  <nd ref="749024653"/>
  <nd ref="749418829"/>
  <nd ref="749855460"/>
  <nd ref="749201146"/>
  <nd ref="749659102"/>
  <nd ref="749775982"/>
  <nd ref="749076415"/>
  <nd ref="749514556"/>
  <nd ref="748904375"/>
  <nd ref="749272729"/>
  <nd ref="749751782"/>
  <nd ref="749058347"/>
  <nd ref="749459121"/>
  <tag k="name" v="椋野川"/>
  <tag k="name:ja" v="椋野川"/>
  <tag k="note" v="National-Land Numerical Information (River) 2006, MLIT Japan"/>
  <tag k="note:ja" v="国土数値情報(河川データ)平成18年国土交通省"/>
  <tag k="source" v="KSJ2"/>
  <tag k="source_ref" v="http://nlftp.mlit.go.jp/ksj/jpgis/datalist/KsjTmplt-W05.html"/>
  <tag k="waterway" v="river"/>
 </way>
 <way id="118673739" visible="true" version="2" changeset="134754465" timestamp="2023-04-11T02:34:56Z" user="AYAGE" uid="521665">
  <nd ref="1334178143"/>
  <nd ref="1334185287"/>
  <nd ref="1334189758"/>
  <nd ref="1334189862"/>
  <nd ref="1334186000"/>
  <nd ref="1334178943"/>
  <nd ref="1334179216"/>
  <nd ref="1334184146"/>
  <nd ref="1334184252"/>
  <nd ref="1334194090"/>
  <nd ref="1334176719"/>
  <nd ref="1334194723"/>
  <nd ref="1334181249"/>
  <nd ref="1334181445"/>
  <nd ref="1334177697"/>
  <nd ref="1334177797"/>
  <nd ref="1334182373"/>
  <nd ref="1334178371"/>
  <nd ref="1334189625"/>
  <nd ref="1334182747"/>
  <nd ref="1334193774"/>
  <nd ref="1334180185"/>
  <nd ref="1334190716"/>
  <nd ref="1334179816"/>
  <nd ref="1334177397"/>
  <nd ref="1334184595"/>
  <nd ref="1334184698"/>
  <nd ref="1334194587"/>
  <nd ref="1334194690"/>
  <nd ref="1334178270"/>
  <nd ref="1334176509"/>
  <nd ref="1334187624"/>
  <nd ref="1334180081"/>
  <nd ref="1334193792"/>
  <nd ref="1334184049"/>
  <nd ref="1334176975"/>
  <nd ref="1334188084"/>
  <nd ref="1334180600"/>
  <nd ref="1334194241"/>
  <nd ref="1334184507"/>
  <nd ref="1334177414"/>
  <nd ref="1334188547"/>
  <nd ref="1334181070"/>
  <nd ref="1334194740"/>
  <nd ref="1334184952"/>
  <nd ref="1334177856"/>
  <nd ref="1334188986"/>
  <nd ref="1334181932"/>
  <nd ref="1334195204"/>
  <nd ref="1334185437"/>
  <nd ref="1334178290"/>
  <nd ref="1334175714"/>
  <nd ref="1334186124"/>
  <nd ref="1334178963"/>
  <nd ref="1334190087"/>
  <nd ref="1334183125"/>
  <nd ref="1334176179"/>
  <nd ref="1334186562"/>
  <nd ref="1334179691"/>
  <nd ref="1334190882"/>
  <nd ref="1334183715"/>
  <nd ref="1334176622"/>
  <nd ref="1334187726"/>
  <nd ref="1334180228"/>
  <nd ref="1334193899"/>
  <nd ref="1334184167"/>
  <nd ref="1334177079"/>
  <nd ref="1334188203"/>
  <nd ref="1334180706"/>
  <nd ref="1334194359"/>
  <nd ref="1334184614"/>
  <nd ref="1334177519"/>
  <nd ref="1334188654"/>
  <nd ref="1334181286"/>
  <nd ref="1334194847"/>
  <nd ref="1334185067"/>
  <nd ref="1334189092"/>
  <tag k="highway" v="residential"/>
  <tag k="source" v="YahooJapan/ALPSMAP"/>
 </way>
 <way id="148395577" visible="true" version="3" changeset="120861328" timestamp="2022-05-11T23:16:53Z" user="AYAGE" uid="521665">
  <nd ref="1615024904"/>
  <nd ref="1615024906"/>
  <nd ref="1615024921"/>
  <nd ref="2747238006"/>
  <nd ref="1615025004"/>
  <nd ref="1615025009"/>
  <nd ref="1615025015"/>
  <nd ref="1615025038"/>
  <nd ref="1615025039"/>
  <nd ref="1615025049"/>
  <nd ref="1615025091"/>
  <nd ref="1615025134"/>
  <nd ref="1615025140"/>
  <nd ref="1615025171"/>
  <nd ref="1615025173"/>
  <nd ref="1615025151"/>
  <nd ref="1615025154"/>
  <nd ref="1615025186"/>
  <nd ref="1615025223"/>
  <nd ref="1615025230"/>
  <nd ref="1615025231"/>
  <nd ref="1615025229"/>
  <nd ref="1615025218"/>
  <nd ref="1615025179"/>
  <nd ref="1615025146"/>
  <nd ref="1615025111"/>
  <nd ref="1615025090"/>
  <nd ref="1615025052"/>
  <nd ref="1615025040"/>
  <nd ref="1615024942"/>
  <nd ref="1615024919"/>
  <nd ref="1615024916"/>
  <nd ref="1615024937"/>
  <nd ref="1615024948"/>
  <nd ref="1615024995"/>
  <nd ref="1615025013"/>
  <nd ref="1615024998"/>
  <nd ref="1615024922"/>
  <nd ref="2747238100"/>
  <nd ref="1615024904"/>
  <tag k="source" v="MLIT, Japan"/>
 </way>
 <way id="269522129" visible="true" version="4" changeset="35698863" timestamp="2015-12-02T04:23:43Z" user="show1017" uid="3244669">
  <nd ref="2747237659"/>
  <nd ref="2747237684"/>
  <nd ref="2747237719"/>
  <nd ref="2747237766"/>
  <nd ref="2747237815"/>
  <nd ref="2747237840"/>
  <nd ref="2747237891"/>
  <nd ref="2747237953"/>
  <nd ref="2747238006"/>
  <nd ref="2747238052"/>
  <nd ref="2747238076"/>
  <nd ref="2747238094"/>
  <nd ref="1615024906"/>
  <nd ref="2747238097"/>
  <nd ref="2747238098"/>
  <nd ref="2747238099"/>
  <nd ref="2747238100"/>
  <nd ref="2747238101"/>
  <nd ref="749459121"/>
  <tag k="note" v="National-Land Numerical Information (River) 2006, MLIT Japan"/>
  <tag k="note:ja" v="国土数値情報(河川データ)平成18年国土交通省"/>
  <tag k="source" v="KSJ2"/>
  <tag k="source_ref" v="http://nlftp.mlit.go.jp/ksj/jpgis/datalist/KsjTmplt-W05.html"/>
  <tag k="waterway" v="stream"/>
 </way>
 <way id="276167081" visible="true" version="3" changeset="103098827" timestamp="2021-04-17T11:20:03Z" user="Juliet225" uid="10103365">
  <nd ref="749459121"/>
  <nd ref="749554240"/>
  <nd ref="748920224"/>
  <nd ref="749299726"/>
  <nd ref="749776376"/>
  <nd ref="749076631"/>
  <nd ref="749515814"/>
  <nd ref="748904671"/>
  <nd ref="749273557"/>
  <nd ref="749341561"/>
  <nd ref="749803297"/>
  <nd ref="749120818"/>
  <nd ref="749577381"/>
  <nd ref="748934046"/>
  <nd ref="749317334"/>
  <nd ref="749790954"/>
  <nd ref="749095806"/>
  <nd ref="749193631"/>
  <nd ref="749647452"/>
  <nd ref="748981796"/>
  <nd ref="749381120"/>
  <nd ref="749816268"/>
  <nd ref="749157268"/>
  <nd ref="749606147"/>
  <nd ref="748955425"/>
  <nd ref="749052402"/>
  <nd ref="749450903"/>
  <nd ref="749882529"/>
  <nd ref="749229525"/>
  <nd ref="749696724"/>
  <nd ref="749014512"/>
  <nd ref="749412452"/>
  <nd ref="749848012"/>
  <nd ref="749100461"/>
  <nd ref="749559444"/>
  <nd ref="748923344"/>
  <nd ref="749303911"/>
  <nd ref="749780282"/>
  <nd ref="749079763"/>
  <nd ref="749530471"/>
  <nd ref="748908036"/>
  <nd ref="748961561"/>
  <nd ref="749349329"/>
  <nd ref="749806334"/>
  <nd ref="749127952"/>
  <nd ref="749582847"/>
  <nd ref="749322217"/>
  <nd ref="2837085918"/>
  <tag k="name" v="椋野川"/>
  <tag k="name:ja" v="椋野川"/>
  <tag k="note" v="National-Land Numerical Information (River) 2006, MLIT Japan"/>
  <tag k="note:ja" v="国土数値情報(河川データ)平成18年国土交通省"/>
  <tag k="source" v="KSJ2"/>
  <tag k="source_ref" v="http://nlftp.mlit.go.jp/ksj/jpgis/datalist/KsjTmplt-W05.html"/>
  <tag k="waterway" v="river"/>
 </way>
 <relation id="2001110" visible="true" version="18" changeset="126805544" timestamp="2022-09-30T05:31:45Z" user="AYAGE" uid="521665">
  <member type="way" ref="1098012087" role="outer"/>
  <member type="way" ref="1098989024" role="outer"/>
  <member type="way" ref="1078339412" role="outer"/>
  <member type="way" ref="1076881467" role="outer"/>
  <member type="way" ref="1077146606" role="outer"/>
  <member type="way" ref="1059422568" role="outer"/>
  <member type="way" ref="1059895269" role="outer"/>
  <member type="way" ref="1079155505" role="outer"/>
  <member type="way" ref="1079327275" role="outer"/>
  <member type="way" ref="148413849" role="outer"/>
  <member type="way" ref="148395577" role="inner"/>
  <member type="way" ref="148395553" role="inner"/>
  <member type="way" ref="148395544" role="inner"/>
  <member type="way" ref="148395585" role="inner"/>
  <member type="way" ref="148395556" role="inner"/>
  <member type="way" ref="148395559" role="inner"/>
  <member type="way" ref="148395554" role="inner"/>
  <member type="way" ref="148395621" role="inner"/>
  <member type="way" ref="148395615" role="inner"/>
  <member type="way" ref="148395558" role="inner"/>
  <member type="way" ref="1059407756" role="inner"/>
  <member type="way" ref="1077465897" role="inner"/>
  <member type="way" ref="1078558613" role="inner"/>
  <member type="way" ref="1079155506" role="inner"/>
  <tag k="natural" v="wood"/>
  <tag k="note" v="A13-06_35.xml"/>
  <tag k="source" v="MLIT, Japan"/>
  <tag k="source:ja" v="国土数値情報（森林地域データ）平成18年　国土交通省"/>
  <tag k="source_ref" v="http://nlftp.mlit.go.jp/ksj/jpgis/datalist/KsjTmplt-A13.html"/>
  <tag k="type" v="multipolygon"/>
 </relation>
</osm>
