<?xml version="1.0" encoding="UTF-8"?>
<osm version="0.6" generator="openstreetmap-cgimap 2.1.0 (244689 spike-07.openstreetmap.org)" copyright="OpenStreetMap and contributors" attribution="http://www.openstreetmap.org/copyright" license="http://opendatacommons.org/licenses/odbl/1-0/">
 <bounds minlat="34.0449618" minlon="132.2057280" maxlat="34.0473618" maxlon="132.2087280"/>
 <node id="748912521" visible="true" version="1" changeset="4813224" timestamp="2010-05-26T13:44:30Z" user="Tom_G3X" uid="146930" lat="34.0485630" lon="132.2164040"/>
 <node id="748924389" visible="true" version="1" changeset="4813224" timestamp="2010-05-26T13:49:08Z" user="Tom_G3X" uid="146930" lat="34.0468410" lon="132.2095910"/>
 <node id="748938618" visible="true" version="2" changeset="123955726" timestamp="2022-07-22T20:51:50Z" user="AYAGE" uid="521665" lat="34.0444852" lon="132.2056541"/>
 <node id="748989619" visible="true" version="1" changeset="4813224" timestamp="2010-05-26T14:17:36Z" user="Tom_G3X" uid="146930" lat="34.0470590" lon="132.2104860"/>
 <node id="749103328" visible="true" version="1" changeset="4813826" timestamp="2010-05-26T15:03:05Z" user="Tom_G3X" uid="146930" lat="34.0457790" lon="132.2073240"/>
 <node id="749167722" visible="true" version="1" changeset="4813826" timestamp="2010-05-26T15:21:39Z" user="Tom_G3X" uid="146930" lat="34.0481360" lon="132.2147450"/>
 <node id="749324227" visible="true" version="2" changeset="123955726" timestamp="2022-07-22T20:51:50Z" user="AYAGE" uid="521665" lat="34.0446125" lon="132.2059844"/>
 <node id="749392372" visible="true" version="1" changeset="4814433" timestamp="2010-05-26T16:37:12Z" user="Tom_G3X" uid="146930" lat="34.0473570" lon="132.2117250"/>
 <node id="749561382" visible="true" version="2" changeset="123955726" timestamp="2022-07-22T20:51:50Z" user="AYAGE" uid="521665" lat="34.0463206" lon="132.2084842"/>
 <node id="749584813" visible="true" version="2" changeset="123955726" timestamp="2022-07-22T20:51:50Z" user="AYAGE" uid="521665" lat="34.0444611" lon="132.2055166"/>
 <node id="749619586" visible="true" version="1" changeset="4815008" timestamp="2010-05-26T17:48:39Z" user="Tom_G3X" uid="146930" lat="34.0482680" lon="132.2152590"/>
 <node id="749795828" visible="true" version="2" changeset="123955726" timestamp="2022-07-22T20:51:50Z" user="AYAGE" uid="521665" lat="34.0451348" lon="132.2065481"/>
 <node id="749822349" visible="true" version="1" changeset="4815758" timestamp="2010-05-26T19:15:09Z" user="Tom_G3X" uid="146930" lat="34.0476700" lon="132.2130470"/>
 <node id="1336520285" visible="true" version="4" changeset="123961191" timestamp="2022-07-23T04:21:21Z" user="AYAGE" uid="521665" lat="34.0461391" lon="132.2089835"/>
 <node id="1336520360" visible="true" version="2" changeset="123960139" timestamp="2022-07-23T02:14:53Z" user="AYAGE" uid="521665" lat="34.0445529" lon="132.2094936"/>
 <node id="1336520951" visible="true" version="2" changeset="123960139" timestamp="2022-07-23T02:14:53Z" user="AYAGE" uid="521665" lat="34.0444732" lon="132.2095763"/>
 <node id="1336521318" visible="true" version="3" changeset="123955726" timestamp="2022-07-22T20:51:50Z" user="AYAGE" uid="521665" lat="34.0461590" lon="132.2073212"/>
 <node id="1336521345" visible="true" version="3" changeset="123955726" timestamp="2022-07-22T20:51:50Z" user="AYAGE" uid="521665" lat="34.0450890" lon="132.1973196"/>
 <node id="1336521613" visible="true" version="2" changeset="123945856" timestamp="2022-07-22T15:59:10Z" user="AYAGE" uid="521665" lat="34.0471337" lon="132.2052974"/>
 <node id="1336521709" visible="true" version="2" changeset="33573708" timestamp="2015-08-25T15:00:12Z" user="nmaruichi" uid="317331" lat="34.0453940" lon="132.1992666"/>
 <node id="1336521797" visible="true" version="3" changeset="123960139" timestamp="2022-07-23T02:14:53Z" user="AYAGE" uid="521665" lat="34.0449079" lon="132.2054668"/>
 <node id="1336522256" visible="true" version="2" changeset="33573708" timestamp="2015-08-25T15:00:13Z" user="nmaruichi" uid="317331" lat="34.0448757" lon="132.2052926"/>
 <node id="1336522297" visible="true" version="2" changeset="123955726" timestamp="2022-07-22T20:51:50Z" user="AYAGE" uid="521665" lat="34.0458171" lon="132.2034192"/>
 <node id="1336522705" visible="true" version="3" changeset="40652005" timestamp="2016-07-11T14:43:18Z" user="nmaruichi" uid="317331" lat="34.0446185" lon="132.2063771"/>
 <node id="1336523276" visible="true" version="3" changeset="123960139" timestamp="2022-07-23T02:14:53Z" user="AYAGE" uid="521665" lat="34.0452539" lon="132.2071857"/>
 <node id="1336523402" visible="true" version="3" changeset="123960139" timestamp="2022-07-23T02:14:53Z" user="AYAGE" uid="521665" lat="34.0452544" lon="132.2077600"/>
 <node id="1336523849" visible="true" version="3" changeset="123960139" timestamp="2022-07-23T02:14:53Z" user="AYAGE" uid="521665" lat="34.0450098" lon="132.2089720"/>
 <node id="1336524684" visible="true" version="3" changeset="123955726" timestamp="2022-07-22T20:51:50Z" user="AYAGE" uid="521665" lat="34.0465079" lon="132.2080446"/>
 <node id="1336526626" visible="true" version="3" changeset="123960139" timestamp="2022-07-23T02:14:53Z" user="AYAGE" uid="521665" lat="34.0443971" lon="132.2096696"/>
 <node id="1336527136" visible="true" version="3" changeset="33573708" timestamp="2015-08-25T15:00:14Z" user="nmaruichi" uid="317331" lat="34.0462128" lon="132.2089391"/>
 <node id="1336527191" visible="true" version="3" changeset="123955726" timestamp="2022-07-22T20:51:50Z" user="AYAGE" uid="521665" lat="34.0452447" lon="132.2014432"/>
 <node id="1336527294" visible="true" version="3" changeset="123960139" timestamp="2022-07-23T02:14:53Z" user="AYAGE" uid="521665" lat="34.0452073" lon="132.2071687"/>
 <node id="1336527862" visible="true" version="3" changeset="33573708" timestamp="2015-08-25T15:00:14Z" user="nmaruichi" uid="317331" lat="34.0475915" lon="132.2106911"/>
 <node id="1336527987" visible="true" version="4" changeset="123955726" timestamp="2022-07-22T20:51:50Z" user="AYAGE" uid="521665" lat="34.0453009" lon="132.2061619">
  <tag k="highway" v="traffic_signals"/>
  <tag k="noname" v="yes"/>
  <tag k="source" v="survey"/>
  <tag k="survey:date" v="2018-09-06"/>
 </node>
 <node id="1336528074" visible="true" version="3" changeset="123961191" timestamp="2022-07-23T04:21:21Z" user="AYAGE" uid="521665" lat="34.0457239" lon="132.2079424"/>
 <node id="1336528312" visible="true" version="3" changeset="123955726" timestamp="2022-07-22T20:51:50Z" user="AYAGE" uid="521665" lat="34.0450820" lon="132.2029291"/>
 <node id="1336528454" visible="true" version="2" changeset="33573708" timestamp="2015-08-25T15:00:12Z" user="nmaruichi" uid="317331" lat="34.0452760" lon="132.2011826"/>
 <node id="1336528656" visible="true" version="2" changeset="123960139" timestamp="2022-07-23T02:14:53Z" user="AYAGE" uid="521665" lat="34.0447433" lon="132.2092711"/>
 <node id="1336529728" visible="true" version="4" changeset="123955726" timestamp="2022-07-22T20:51:50Z" user="AYAGE" uid="521665" lat="34.0472878" lon="132.2102105"/>
 <node id="1336530593" visible="true" version="2" changeset="33573708" timestamp="2015-08-25T15:00:13Z" user="nmaruichi" uid="317331" lat="34.0449717" lon="132.2056533"/>
 <node id="1336531416" visible="true" version="2" changeset="33573708" timestamp="2015-08-25T15:00:12Z" user="nmaruichi" uid="317331" lat="34.0449620" lon="132.1966890"/>
 <node id="1336531943" visible="true" version="3" changeset="123955726" timestamp="2022-07-22T20:51:50Z" user="AYAGE" uid="521665" lat="34.0466929" lon="132.2086629"/>
 <node id="1336532927" visible="true" version="2" changeset="33573708" timestamp="2015-08-25T15:00:12Z" user="nmaruichi" uid="317331" lat="34.0453638" lon="132.2003024"/>
 <node id="1336537052" visible="true" version="3" changeset="156671000" timestamp="2024-09-16T04:43:57Z" user="taketaketake" uid="4757277" lat="34.0448941" lon="132.1963292"/>
 <node id="1336537151" visible="true" version="3" changeset="123960139" timestamp="2022-07-23T02:14:53Z" user="AYAGE" uid="521665" lat="34.0452120" lon="132.2085112"/>
 <node id="1336537689" visible="true" version="2" changeset="33573708" timestamp="2015-08-25T15:00:12Z" user="nmaruichi" uid="317331" lat="34.0453885" lon="132.1999218"/>
 <node id="1336537787" visible="true" version="3" changeset="123960139" timestamp="2022-07-23T02:14:53Z" user="AYAGE" uid="521665" lat="34.0451288" lon="132.2087522"/>
 <node id="1336538109" visible="true" version="2" changeset="33573708" timestamp="2015-08-25T15:00:12Z" user="nmaruichi" uid="317331" lat="34.0454022" lon="132.1996538"/>
 <node id="1336538437" visible="true" version="4" changeset="123955726" timestamp="2022-07-22T20:51:50Z" user="AYAGE" uid="521665" lat="34.0470224" lon="132.2094524"/>
 <node id="1336538949" visible="true" version="5" changeset="123961191" timestamp="2022-07-23T04:21:21Z" user="AYAGE" uid="521665" lat="34.0443487" lon="132.2060760"/>
 <node id="1336539167" visible="true" version="3" changeset="123955726" timestamp="2022-07-22T20:51:50Z" user="AYAGE" uid="521665" lat="34.0458681" lon="132.2068488"/>
 <node id="1336539853" visible="true" version="4" changeset="171161423" timestamp="2025-08-29T02:47:27Z" user="taketaketake" uid="4757277" lat="34.0455977" lon="132.2064675"/>
 <node id="1336539919" visible="true" version="3" changeset="123955726" timestamp="2022-07-22T20:51:50Z" user="AYAGE" uid="521665" lat="34.0451777" lon="132.2020098"/>
 <node id="1336540376" visible="true" version="3" changeset="123955726" timestamp="2022-07-22T20:51:50Z" user="AYAGE" uid="521665" lat="34.0467335" lon="132.2086400"/>
 <node id="1336540417" visible="true" version="2" changeset="33573708" timestamp="2015-08-25T15:00:12Z" user="nmaruichi" uid="317331" lat="34.0452980" lon="132.1984294"/>
 <node id="1336540536" visible="true" version="2" changeset="33573708" timestamp="2015-08-25T15:00:13Z" user="nmaruichi" uid="317331" lat="34.0449552" lon="132.2041708"/>
 <node id="1336542476" visible="true" version="3" changeset="123955726" timestamp="2022-07-22T20:51:50Z" user="AYAGE" uid="521665" lat="34.0466266" lon="132.2083444"/>
 <node id="1336542861" visible="true" version="3" changeset="123960139" timestamp="2022-07-23T02:14:53Z" user="AYAGE" uid="521665" lat="34.0452761" lon="132.2082330"/>
 <node id="1336544559" visible="true" version="4" changeset="123979928" timestamp="2022-07-23T15:16:24Z" user="AYAGE" uid="521665" lat="34.0450169" lon="132.1969633"/>
 <node id="1336544623" visible="true" version="2" changeset="123955726" timestamp="2022-07-22T20:51:50Z" user="AYAGE" uid="521665" lat="34.0460394" lon="132.2057993"/>
 <node id="1336545172" visible="true" version="3" changeset="33573708" timestamp="2015-08-25T15:00:15Z" user="nmaruichi" uid="317331" lat="34.0473467" lon="132.2103455"/>
 <node id="1336547695" visible="true" version="2" changeset="123955726" timestamp="2022-07-22T20:51:50Z" user="AYAGE" uid="521665" lat="34.0479003" lon="132.2077196"/>
 <node id="1336547819" visible="true" version="3" changeset="123955726" timestamp="2022-07-22T20:51:50Z" user="AYAGE" uid="521665" lat="34.0463513" lon="132.2076860"/>
 <node id="1336548947" visible="true" version="2" changeset="123955726" timestamp="2022-07-22T20:51:50Z" user="AYAGE" uid="521665" lat="34.0450286" lon="132.2034668"/>
 <node id="1336549296" visible="true" version="3" changeset="123960139" timestamp="2022-07-23T02:14:53Z" user="AYAGE" uid="521665" lat="34.0442461" lon="132.2058536"/>
 <node id="1336549635" visible="true" version="3" changeset="123955726" timestamp="2022-07-22T20:51:50Z" user="AYAGE" uid="521665" lat="34.0451752" lon="132.1977577"/>
 <node id="1336549748" visible="true" version="3" changeset="123960139" timestamp="2022-07-23T02:14:53Z" user="AYAGE" uid="521665" lat="34.0452292" lon="132.2076383"/>
 <node id="1336550689" visible="true" version="3" changeset="123961191" timestamp="2022-07-23T04:21:21Z" user="AYAGE" uid="521665" lat="34.0458530" lon="132.2082316"/>
 <node id="1336550908" visible="true" version="3" changeset="123960139" timestamp="2022-07-23T02:14:53Z" user="AYAGE" uid="521665" lat="34.0452613" lon="132.2083425"/>
 <node id="1442373411" visible="true" version="2" changeset="123933255" timestamp="2022-07-22T10:50:47Z" user="AYAGE" uid="521665" lat="34.0477624" lon="132.2167031"/>
 <node id="1442373865" visible="true" version="2" changeset="123955726" timestamp="2022-07-22T20:51:50Z" user="AYAGE" uid="521665" lat="34.0493261" lon="132.2158653"/>
 <node id="2826247646" visible="true" version="3" changeset="123955726" timestamp="2022-07-22T20:51:50Z" user="AYAGE" uid="521665" lat="34.0475344" lon="132.2106265"/>
 <node id="2999436233" visible="true" version="2" changeset="123955726" timestamp="2022-07-22T20:51:50Z" user="AYAGE" uid="521665" lat="34.0491104" lon="132.2155389"/>
 <node id="2999436533" visible="true" version="3" changeset="123955726" timestamp="2022-07-22T20:51:50Z" user="AYAGE" uid="521665" lat="34.0482866" lon="132.2135223"/>
 <node id="2999436633" visible="true" version="2" changeset="33573708" timestamp="2015-08-25T15:00:14Z" user="nmaruichi" uid="317331" lat="34.0476533" lon="132.2116164"/>
 <node id="2999436833" visible="true" version="3" changeset="123955726" timestamp="2022-07-22T20:51:50Z" user="AYAGE" uid="521665" lat="34.0472506" lon="132.2102716"/>
 <node id="2999437033" visible="true" version="3" changeset="123955726" timestamp="2022-07-22T20:51:50Z" user="AYAGE" uid="521665" lat="34.0469929" lon="132.2095318"/>
 <node id="2999437133" visible="true" version="2" changeset="123955726" timestamp="2022-07-22T20:51:50Z" user="AYAGE" uid="521665" lat="34.0466283" lon="132.2085255"/>
 <node id="2999437333" visible="true" version="2" changeset="123955726" timestamp="2022-07-22T20:51:50Z" user="AYAGE" uid="521665" lat="34.0463235" lon="132.2077643"/>
 <node id="2999437334" visible="true" version="2" changeset="123955726" timestamp="2022-07-22T20:51:50Z" user="AYAGE" uid="521665" lat="34.0454217" lon="132.2063629"/>
 <node id="2999437335" visible="true" version="2" changeset="123979928" timestamp="2022-07-23T15:16:24Z" user="AYAGE" uid="521665" lat="34.0442947" lon="132.2052438"/>
 <node id="2999437336" visible="true" version="3" changeset="123979928" timestamp="2022-07-23T15:16:24Z" user="AYAGE" uid="521665" lat="34.0443866" lon="132.2058187"/>
 <node id="2999437433" visible="true" version="2" changeset="123955726" timestamp="2022-07-22T20:51:50Z" user="AYAGE" uid="521665" lat="34.0459831" lon="132.2071494"/>
 <node id="2999437434" visible="true" version="3" changeset="123933255" timestamp="2022-07-22T10:50:47Z" user="AYAGE" uid="521665" lat="34.0470223" lon="132.2114792"/>
 <node id="2999437533" visible="true" version="2" changeset="123955726" timestamp="2022-07-22T20:51:50Z" user="AYAGE" uid="521665" lat="34.0456618" lon="132.2066630"/>
 <node id="2999437633" visible="true" version="1" changeset="24571399" timestamp="2014-08-06T09:08:22Z" user="ひろときょうたまなかなおや" uid="2000955" lat="34.0448955" lon="132.2057282"/>
 <node id="2999437733" visible="true" version="1" changeset="24571399" timestamp="2014-08-06T09:08:22Z" user="ひろときょうたまなかなおや" uid="2000955" lat="34.0448093" lon="132.2053932"/>
 <node id="2999437734" visible="true" version="1" changeset="24571399" timestamp="2014-08-06T09:08:23Z" user="ひろときょうたまなかなおや" uid="2000955" lat="34.0449051" lon="132.2040097"/>
 <node id="2999437735" visible="true" version="2" changeset="123979928" timestamp="2022-07-23T15:16:24Z" user="AYAGE" uid="521665" lat="34.0445213" lon="132.2039741"/>
 <node id="2999437736" visible="true" version="2" changeset="33573708" timestamp="2015-08-25T15:00:13Z" user="nmaruichi" uid="317331" lat="34.0446756" lon="132.2063218"/>
 <node id="2999437833" visible="true" version="2" changeset="123960139" timestamp="2022-07-23T02:14:53Z" user="AYAGE" uid="521665" lat="34.0447979" lon="132.2050420"/>
 <node id="2999437834" visible="true" version="3" changeset="123960139" timestamp="2022-07-23T02:14:53Z" user="AYAGE" uid="521665" lat="34.0467475" lon="132.2104576"/>
 <node id="2999438033" visible="true" version="1" changeset="24571399" timestamp="2014-08-06T09:08:27Z" user="ひろときょうたまなかなおや" uid="2000955" lat="34.0456407" lon="132.2074918"/>
 <node id="2999438034" visible="true" version="2" changeset="33573708" timestamp="2015-08-25T15:00:15Z" user="nmaruichi" uid="317331" lat="34.0462083" lon="132.2088831"/>
 <node id="2999438133" visible="true" version="2" changeset="123933255" timestamp="2022-07-22T10:50:47Z" user="AYAGE" uid="521665" lat="34.0474100" lon="132.2130658"/>
 <node id="3713762923" visible="true" version="1" changeset="33573708" timestamp="2015-08-25T15:00:12Z" user="nmaruichi" uid="317331" lat="34.0453528" lon="132.1988364"/>
 <node id="3713762924" visible="true" version="2" changeset="123955726" timestamp="2022-07-22T20:51:50Z" user="AYAGE" uid="521665" lat="34.0448760" lon="132.2049085"/>
 <node id="3713763025" visible="true" version="1" changeset="33573708" timestamp="2015-08-25T15:00:13Z" user="nmaruichi" uid="317331" lat="34.0448702" lon="132.2050841"/>
 <node id="3713763026" visible="true" version="1" changeset="33573708" timestamp="2015-08-25T15:00:13Z" user="nmaruichi" uid="317331" lat="34.0451088" lon="132.2059180"/>
 <node id="3713763027" visible="true" version="2" changeset="123955726" timestamp="2022-07-22T20:51:50Z" user="AYAGE" uid="521665" lat="34.0457453" lon="132.2066590"/>
 <node id="4296623724" visible="true" version="2" changeset="123960139" timestamp="2022-07-23T02:14:53Z" user="AYAGE" uid="521665" lat="34.0452788" lon="132.2079341"/>
 <node id="4296623725" visible="true" version="2" changeset="123960139" timestamp="2022-07-23T02:14:53Z" user="AYAGE" uid="521665" lat="34.0450659" lon="132.2088969"/>
 <node id="4296623728" visible="true" version="2" changeset="123960139" timestamp="2022-07-23T02:14:53Z" user="AYAGE" uid="521665" lat="34.0451052" lon="132.2069308"/>
 <node id="4296623729" visible="true" version="2" changeset="123960139" timestamp="2022-07-23T02:14:53Z" user="AYAGE" uid="521665" lat="34.0451617" lon="132.2070300"/>
 <node id="4296623730" visible="true" version="1" changeset="40652005" timestamp="2016-07-11T14:43:18Z" user="nmaruichi" uid="317331" lat="34.0444739" lon="132.2062645"/>
 <node id="4296623731" visible="true" version="2" changeset="123960139" timestamp="2022-07-23T02:14:53Z" user="AYAGE" uid="521665" lat="34.0451998" lon="132.2071047"/>
 <node id="5892053422" visible="true" version="2" changeset="123955726" timestamp="2022-07-22T20:51:50Z" user="AYAGE" uid="521665" lat="34.0449131" lon="132.2045492">
  <tag k="button_operated" v="yes"/>
  <tag k="crossing" v="traffic_signals"/>
  <tag k="highway" v="crossing"/>
  <tag k="source" v="survey"/>
  <tag k="survey:date" v="2018-09-06"/>
 </node>
 <node id="5892053423" visible="true" version="2" changeset="123955726" timestamp="2022-07-22T20:51:50Z" user="AYAGE" uid="521665" lat="34.0449028" lon="132.2046413">
  <tag k="highway" v="traffic_signals"/>
  <tag k="noname" v="yes"/>
  <tag k="source" v="survey"/>
  <tag k="survey:date" v="2018-09-06"/>
 </node>
 <node id="5892053424" visible="true" version="1" changeset="62393092" timestamp="2018-09-08T04:11:48Z" user="nmaruichi" uid="317331" lat="34.0452469" lon="132.2061074">
  <tag k="button_operated" v="yes"/>
  <tag k="crossing" v="traffic_signals"/>
  <tag k="highway" v="crossing"/>
  <tag k="source" v="survey"/>
  <tag k="survey:date" v="2018-09-06"/>
 </node>
 <node id="9128353782" visible="true" version="1" changeset="111794059" timestamp="2021-09-28T02:23:39Z" user="nyampire_import" uid="1178360" lat="34.0469560" lon="132.2067590">
  <tag k="name" v="由宇町北三丁目"/>
  <tag k="place" v="neighbourhood"/>
 </node>
 <node id="9903874855" visible="true" version="1" changeset="123933255" timestamp="2022-07-22T10:50:47Z" user="AYAGE" uid="521665" lat="34.0476303" lon="132.2158053"/>
 <node id="9903874856" visible="true" version="1" changeset="123933255" timestamp="2022-07-22T10:50:47Z" user="AYAGE" uid="521665" lat="34.0475503" lon="132.2148907"/>
 <node id="9903874857" visible="true" version="1" changeset="123933255" timestamp="2022-07-22T10:50:47Z" user="AYAGE" uid="521665" lat="34.0476525" lon="132.2146869"/>
 <node id="9903874858" visible="true" version="1" changeset="123933255" timestamp="2022-07-22T10:50:47Z" user="AYAGE" uid="521665" lat="34.0476569" lon="132.2143221"/>
 <node id="9903874859" visible="true" version="1" changeset="123933255" timestamp="2022-07-22T10:50:47Z" user="AYAGE" uid="521665" lat="34.0475769" lon="132.2135711"/>
 <node id="9903874860" visible="true" version="1" changeset="123933255" timestamp="2022-07-22T10:50:47Z" user="AYAGE" uid="521665" lat="34.0473202" lon="132.2126846"/>
 <node id="9903874861" visible="true" version="1" changeset="123933255" timestamp="2022-07-22T10:50:47Z" user="AYAGE" uid="521665" lat="34.0472336" lon="132.2124915"/>
 <node id="9903874862" visible="true" version="1" changeset="123933255" timestamp="2022-07-22T10:50:47Z" user="AYAGE" uid="521665" lat="34.0469180" lon="132.2110404"/>
 <node id="9904892893" visible="true" version="1" changeset="123955726" timestamp="2022-07-22T20:51:50Z" user="AYAGE" uid="521665" lat="34.0470691" lon="132.2068468"/>
 <node id="9904892894" visible="true" version="1" changeset="123955726" timestamp="2022-07-22T20:51:50Z" user="AYAGE" uid="521665" lat="34.0475527" lon="132.2066214"/>
 <node id="9904892895" visible="true" version="1" changeset="123955726" timestamp="2022-07-22T20:51:50Z" user="AYAGE" uid="521665" lat="34.0468969" lon="132.2070258"/>
 <node id="9904892896" visible="true" version="1" changeset="123955726" timestamp="2022-07-22T20:51:50Z" user="AYAGE" uid="521665" lat="34.0463729" lon="132.2072683"/>
 <node id="9904892897" visible="true" version="1" changeset="123955726" timestamp="2022-07-22T20:51:50Z" user="AYAGE" uid="521665" lat="34.0465483" lon="132.2069055"/>
 <node id="9904892898" visible="true" version="1" changeset="123955726" timestamp="2022-07-22T20:51:50Z" user="AYAGE" uid="521665" lat="34.0464718" lon="132.2066490"/>
 <node id="9904892899" visible="true" version="1" changeset="123955726" timestamp="2022-07-22T20:51:50Z" user="AYAGE" uid="521665" lat="34.0468107" lon="132.2067861"/>
 <node id="9904892900" visible="true" version="1" changeset="123955726" timestamp="2022-07-22T20:51:50Z" user="AYAGE" uid="521665" lat="34.0467335" lon="132.2065202"/>
 <node id="9904892901" visible="true" version="1" changeset="123955726" timestamp="2022-07-22T20:51:50Z" user="AYAGE" uid="521665" lat="34.0469102" lon="132.2067408"/>
 <node id="9904892902" visible="true" version="1" changeset="123955726" timestamp="2022-07-22T20:51:50Z" user="AYAGE" uid="521665" lat="34.0460423" lon="132.2058537"/>
 <node id="9904892903" visible="true" version="1" changeset="123955726" timestamp="2022-07-22T20:51:50Z" user="AYAGE" uid="521665" lat="34.0460585" lon="132.2059201"/>
 <node id="9904892904" visible="true" version="1" changeset="123955726" timestamp="2022-07-22T20:51:50Z" user="AYAGE" uid="521665" lat="34.0461857" lon="132.2065095"/>
 <node id="9904892905" visible="true" version="1" changeset="123955726" timestamp="2022-07-22T20:51:50Z" user="AYAGE" uid="521665" lat="34.0462701" lon="132.2069500"/>
 <node id="9904892906" visible="true" version="1" changeset="123955726" timestamp="2022-07-22T20:51:50Z" user="AYAGE" uid="521665" lat="34.0460729" lon="132.2071130"/>
 <node id="9904892907" visible="true" version="1" changeset="123955726" timestamp="2022-07-22T20:51:50Z" user="AYAGE" uid="521665" lat="34.0462940" lon="132.2070211"/>
 <node id="9904892908" visible="true" version="1" changeset="123955726" timestamp="2022-07-22T20:51:50Z" user="AYAGE" uid="521665" lat="34.0464096" lon="132.2073832"/>
 <node id="9904892909" visible="true" version="1" changeset="123955726" timestamp="2022-07-22T20:51:50Z" user="AYAGE" uid="521665" lat="34.0464268" lon="132.2074308"/>
 <node id="9904892910" visible="true" version="1" changeset="123955726" timestamp="2022-07-22T20:51:50Z" user="AYAGE" uid="521665" lat="34.0465602" lon="132.2075381"/>
 <node id="9904892911" visible="true" version="1" changeset="123955726" timestamp="2022-07-22T20:51:50Z" user="AYAGE" uid="521665" lat="34.0465985" lon="132.2075931"/>
 <node id="9904892912" visible="true" version="1" changeset="123955726" timestamp="2022-07-22T20:51:50Z" user="AYAGE" uid="521665" lat="34.0468210" lon="132.2082401"/>
 <node id="9904901284" visible="true" version="1" changeset="123955726" timestamp="2022-07-22T20:51:50Z" user="AYAGE" uid="521665" lat="34.0452406" lon="132.1980907"/>
 <node id="9904901354" visible="true" version="1" changeset="123955726" timestamp="2022-07-22T20:51:50Z" user="AYAGE" uid="521665" lat="34.0451423" lon="132.2060790"/>
 <node id="9904901355" visible="true" version="1" changeset="123955726" timestamp="2022-07-22T20:51:50Z" user="AYAGE" uid="521665" lat="34.0455684" lon="132.2065269"/>
 <node id="9904901356" visible="true" version="1" changeset="123955726" timestamp="2022-07-22T20:51:50Z" user="AYAGE" uid="521665" lat="34.0452423" lon="132.2061668"/>
 <node id="9904901357" visible="true" version="1" changeset="123955726" timestamp="2022-07-22T20:51:50Z" user="AYAGE" uid="521665" lat="34.0453867" lon="132.2063586"/>
 <node id="9904901364" visible="true" version="1" changeset="123955726" timestamp="2022-07-22T20:51:50Z" user="AYAGE" uid="521665" lat="34.0459201" lon="132.2038843"/>
 <node id="9904901365" visible="true" version="1" changeset="123955726" timestamp="2022-07-22T20:51:50Z" user="AYAGE" uid="521665" lat="34.0459312" lon="132.2040036"/>
 <node id="9904901366" visible="true" version="2" changeset="123960139" timestamp="2022-07-23T02:14:53Z" user="AYAGE" uid="521665" lat="34.0459602" lon="132.2044770"/>
 <node id="9904901367" visible="true" version="1" changeset="123955726" timestamp="2022-07-22T20:51:50Z" user="AYAGE" uid="521665" lat="34.0453234" lon="132.2061320"/>
 <node id="9904901368" visible="true" version="1" changeset="123955726" timestamp="2022-07-22T20:51:50Z" user="AYAGE" uid="521665" lat="34.0460412" lon="132.2071284"/>
 <node id="9904901369" visible="true" version="1" changeset="123955726" timestamp="2022-07-22T20:51:50Z" user="AYAGE" uid="521665" lat="34.0467546" lon="132.2082804"/>
 <node id="9904901370" visible="true" version="1" changeset="123955726" timestamp="2022-07-22T20:51:50Z" user="AYAGE" uid="521665" lat="34.0469647" lon="132.2081530"/>
 <node id="9904901371" visible="true" version="1" changeset="123955726" timestamp="2022-07-22T20:51:50Z" user="AYAGE" uid="521665" lat="34.0474041" lon="132.2104510"/>
 <node id="9904901375" visible="true" version="1" changeset="123955726" timestamp="2022-07-22T20:51:50Z" user="AYAGE" uid="521665" lat="34.0484837" lon="132.2137414"/>
 <node id="9904901376" visible="true" version="1" changeset="123955726" timestamp="2022-07-22T20:51:50Z" user="AYAGE" uid="521665" lat="34.0485548" lon="132.2138862"/>
 <node id="9904901377" visible="true" version="1" changeset="123955726" timestamp="2022-07-22T20:51:50Z" user="AYAGE" uid="521665" lat="34.0492054" lon="132.2157108"/>
 <node id="9904901378" visible="true" version="1" changeset="123955726" timestamp="2022-07-22T20:51:50Z" user="AYAGE" uid="521665" lat="34.0493115" lon="132.2158161"/>
 <node id="9905150842" visible="true" version="1" changeset="123960139" timestamp="2022-07-23T02:14:53Z" user="AYAGE" uid="521665" lat="34.0442899" lon="132.2079317"/>
 <node id="9905150843" visible="true" version="1" changeset="123960139" timestamp="2022-07-23T02:14:53Z" user="AYAGE" uid="521665" lat="34.0443355" lon="132.2079130"/>
 <node id="9905150844" visible="true" version="1" changeset="123960139" timestamp="2022-07-23T02:14:53Z" user="AYAGE" uid="521665" lat="34.0443599" lon="132.2078935"/>
 <node id="9905150845" visible="true" version="1" changeset="123960139" timestamp="2022-07-23T02:14:53Z" user="AYAGE" uid="521665" lat="34.0443994" lon="132.2078446"/>
 <node id="9905150846" visible="true" version="1" changeset="123960139" timestamp="2022-07-23T02:14:53Z" user="AYAGE" uid="521665" lat="34.0444966" lon="132.2077373"/>
 <node id="9905150847" visible="true" version="1" changeset="123960139" timestamp="2022-07-23T02:14:53Z" user="AYAGE" uid="521665" lat="34.0445861" lon="132.2076602"/>
 <node id="9905150848" visible="true" version="1" changeset="123960139" timestamp="2022-07-23T02:14:53Z" user="AYAGE" uid="521665" lat="34.0446539" lon="132.2076353"/>
 <node id="9905150849" visible="true" version="1" changeset="123960139" timestamp="2022-07-23T02:14:53Z" user="AYAGE" uid="521665" lat="34.0446978" lon="132.2076293"/>
 <node id="9905150850" visible="true" version="2" changeset="123961191" timestamp="2022-07-23T04:21:21Z" user="AYAGE" uid="521665" lat="34.0447772" lon="132.2076448"/>
 <node id="9905150851" visible="true" version="1" changeset="123960139" timestamp="2022-07-23T02:14:53Z" user="AYAGE" uid="521665" lat="34.0451811" lon="132.2077064"/>
 <node id="9905150852" visible="true" version="2" changeset="123961191" timestamp="2022-07-23T04:21:21Z" user="AYAGE" uid="521665" lat="34.0444227" lon="132.2061963"/>
 <node id="9905150853" visible="true" version="1" changeset="123960139" timestamp="2022-07-23T02:14:53Z" user="AYAGE" uid="521665" lat="34.0448628" lon="132.2066349"/>
 <node id="9905150854" visible="true" version="1" changeset="123960139" timestamp="2022-07-23T02:14:53Z" user="AYAGE" uid="521665" lat="34.0452145" lon="132.2076850"/>
 <node id="9905204323" visible="true" version="1" changeset="123960139" timestamp="2022-07-23T02:14:53Z" user="AYAGE" uid="521665" lat="34.0460161" lon="132.2054100"/>
 <node id="9905204326" visible="true" version="1" changeset="123960139" timestamp="2022-07-23T02:14:53Z" user="AYAGE" uid="521665" lat="34.0459686" lon="132.2046171"/>
 <node id="9905204652" visible="true" version="1" changeset="123960139" timestamp="2022-07-23T02:14:53Z" user="AYAGE" uid="521665" lat="34.0470383" lon="132.2053411"/>
 <node id="9905254889" visible="true" version="1" changeset="123961191" timestamp="2022-07-23T04:21:21Z" user="AYAGE" uid="521665" lat="34.0458079" lon="132.2081208"/>
 <node id="9905254890" visible="true" version="1" changeset="123961191" timestamp="2022-07-23T04:21:21Z" user="AYAGE" uid="521665" lat="34.0459707" lon="132.2085882"/>
 <node id="9905254891" visible="true" version="1" changeset="123961191" timestamp="2022-07-23T04:21:21Z" user="AYAGE" uid="521665" lat="34.0447301" lon="132.2076356"/>
 <node id="9905254903" visible="true" version="1" changeset="123961191" timestamp="2022-07-23T04:21:21Z" user="AYAGE" uid="521665" lat="34.0444499" lon="132.2062359"/>
 <node id="9906077505" visible="true" version="1" changeset="123979928" timestamp="2022-07-23T15:16:24Z" user="AYAGE" uid="521665" lat="34.0444033" lon="132.2047479"/>
 <node id="9906077506" visible="true" version="1" changeset="123979928" timestamp="2022-07-23T15:16:24Z" user="AYAGE" uid="521665" lat="34.0443077" lon="132.2053984"/>
 <node id="9906077507" visible="true" version="1" changeset="123979928" timestamp="2022-07-23T15:16:24Z" user="AYAGE" uid="521665" lat="34.0442844" lon="132.2054654"/>
 <node id="9906077508" visible="true" version="1" changeset="123979928" timestamp="2022-07-23T15:16:24Z" user="AYAGE" uid="521665" lat="34.0443377" lon="132.2055325"/>
 <node id="9906077509" visible="true" version="1" changeset="123979928" timestamp="2022-07-23T15:16:24Z" user="AYAGE" uid="521665" lat="34.0444644" lon="132.2059187"/>
 <node id="9906077510" visible="true" version="1" changeset="123979928" timestamp="2022-07-23T15:16:24Z" user="AYAGE" uid="521665" lat="34.0445100" lon="132.2060502"/>
 <node id="13104827532" visible="true" version="1" changeset="171161423" timestamp="2025-08-29T02:47:27Z" user="taketaketake" uid="4757277" lat="34.0476645" lon="132.2107810"/>
 <way id="60301543" visible="true" version="2" changeset="153270390" timestamp="2024-06-28T00:30:31Z" user="taketaketake" uid="4757277">
  <nd ref="749584813"/>
  <nd ref="748938618"/>
  <nd ref="749324227"/>
  <nd ref="749795828"/>
  <nd ref="749103328"/>
  <nd ref="749561382"/>
  <nd ref="748924389"/>
  <nd ref="748989619"/>
  <nd ref="749392372"/>
  <nd ref="749822349"/>
  <nd ref="749167722"/>
  <nd ref="749619586"/>
  <nd ref="748912521"/>
  <tag k="name" v="由宇川"/>
  <tag k="name:ja" v="由宇川"/>
  <tag k="note" v="National-Land Numerical Information (River) 2006, MLIT Japan"/>
  <tag k="note:ja" v="国土数値情報(河川データ)平成18年国土交通省"/>
  <tag k="source" v="KSJ2"/>
  <tag k="source_ref" v="http://nlftp.mlit.go.jp/ksj/jpgis/datalist/KsjTmplt-W05.html"/>
  <tag k="waterway" v="river"/>
 </way>
 <way id="118901890" visible="true" version="1" changeset="8529683" timestamp="2011-06-24T07:51:50Z" user="yamasan" uid="32308">
  <nd ref="1336527136"/>
  <nd ref="1336531943"/>
  <tag k="bridge" v="yes"/>
  <tag k="highway" v="unclassified"/>
  <tag k="source" v="YahooJapan/ALPSMAP"/>
  <tag k="yh:STRUCTURE" v="橋"/>
  <tag k="yh:TOTYUMONO" v="供用中"/>
  <tag k="yh:TYPE" v="その他一般道"/>
  <tag k="yh:WIDTH" v="3.0m〜5.5m"/>
  <tag k="yh:WIDTH_RANK" v="3"/>
 </way>
 <way id="118901912" visible="true" version="2" changeset="123955726" timestamp="2022-07-22T20:51:50Z" user="AYAGE" uid="521665">
  <nd ref="1336547695"/>
  <nd ref="9904901370"/>
  <nd ref="9904892912"/>
  <nd ref="9904901369"/>
  <nd ref="1336542476"/>
  <tag k="highway" v="residential"/>
  <tag k="source" v="YahooJapan/ALPSMAP"/>
 </way>
 <way id="118901963" visible="true" version="3" changeset="171161423" timestamp="2025-08-29T02:47:27Z" user="taketaketake" uid="4757277">
  <nd ref="1336537052"/>
  <nd ref="1336531416"/>
  <nd ref="1336544559"/>
  <nd ref="1336521345"/>
  <nd ref="1336549635"/>
  <nd ref="9904901284"/>
  <nd ref="1336540417"/>
  <nd ref="3713762923"/>
  <nd ref="1336521709"/>
  <nd ref="1336538109"/>
  <nd ref="1336537689"/>
  <nd ref="1336532927"/>
  <nd ref="1336528454"/>
  <nd ref="1336527191"/>
  <nd ref="1336539919"/>
  <nd ref="1336528312"/>
  <nd ref="1336548947"/>
  <nd ref="1336540536"/>
  <nd ref="5892053422"/>
  <nd ref="5892053423"/>
  <nd ref="3713762924"/>
  <nd ref="3713763025"/>
  <nd ref="1336522256"/>
  <nd ref="1336521797"/>
  <nd ref="1336530593"/>
  <nd ref="3713763026"/>
  <nd ref="5892053424"/>
  <nd ref="1336527987"/>
  <nd ref="1336539853"/>
  <tag k="highway" v="secondary"/>
  <tag k="lanes" v="2"/>
  <tag k="name" v="柳井由宇線"/>
  <tag k="name:en" v="Yanai Yu Line"/>
  <tag k="name:ja" v="柳井由宇線"/>
  <tag k="name:ja-Hira" v="やないゆうせん"/>
  <tag k="name:ja_rm" v="Yanai Yuu-sen"/>
  <tag k="ref" v="149"/>
  <tag k="source" v="YahooJapan/ALPSMAP"/>
  <tag k="surface" v="asphalt"/>
  <tag k="wikidata" v="Q11467151"/>
  <tag k="wikipedia" v="ja:山口県道149号柳井由宇線"/>
 </way>
 <way id="118902158" visible="true" version="1" changeset="8529683" timestamp="2011-06-24T07:53:04Z" user="yamasan" uid="32308">
  <nd ref="1336527294"/>
  <nd ref="1336523276"/>
  <tag k="highway" v="unclassified"/>
  <tag k="source" v="YahooJapan/ALPSMAP"/>
  <tag k="yh:STRUCTURE" v="地上"/>
  <tag k="yh:TOTYUMONO" v="供用中"/>
  <tag k="yh:TYPE" v="その他一般道"/>
  <tag k="yh:WIDTH" v="3.0m〜5.5m"/>
  <tag k="yh:WIDTH_RANK" v="3"/>
 </way>
 <way id="118902223" visible="true" version="2" changeset="123961191" timestamp="2022-07-23T04:21:21Z" user="AYAGE" uid="521665">
  <nd ref="1336549296"/>
  <nd ref="1336538949"/>
  <nd ref="9905150852"/>
  <nd ref="9905254903"/>
  <nd ref="4296623730"/>
  <nd ref="1336522705"/>
  <nd ref="9905150853"/>
  <nd ref="4296623728"/>
  <nd ref="4296623729"/>
  <nd ref="4296623731"/>
  <nd ref="1336527294"/>
  <tag k="highway" v="unclassified"/>
  <tag k="source" v="YahooJapan/ALPSMAP"/>
 </way>
 <way id="118902458" visible="true" version="2" changeset="123960139" timestamp="2022-07-23T02:14:53Z" user="AYAGE" uid="521665">
  <nd ref="1336521613"/>
  <nd ref="9905204652"/>
  <nd ref="1336544623"/>
  <tag k="highway" v="unclassified"/>
  <tag k="source" v="YahooJapan/ALPSMAP"/>
 </way>
 <way id="118902540" visible="true" version="2" changeset="123955726" timestamp="2022-07-22T20:51:50Z" user="AYAGE" uid="521665">
  <nd ref="1336544623"/>
  <nd ref="9904901367"/>
  <nd ref="1336527987"/>
  <tag k="highway" v="unclassified"/>
  <tag k="source" v="YahooJapan/ALPSMAP"/>
 </way>
 <way id="118902601" visible="true" version="3" changeset="123960139" timestamp="2022-07-23T02:14:53Z" user="AYAGE" uid="521665">
  <nd ref="1336522297"/>
  <nd ref="9904901364"/>
  <nd ref="9904901365"/>
  <nd ref="9904901366"/>
  <nd ref="9905204326"/>
  <nd ref="9905204323"/>
  <nd ref="1336544623"/>
  <tag k="highway" v="residential"/>
  <tag k="source" v="YahooJapan/ALPSMAP"/>
 </way>
 <way id="118902698" visible="true" version="1" changeset="8529683" timestamp="2011-06-24T07:55:20Z" user="yamasan" uid="32308">
  <nd ref="1336531943"/>
  <nd ref="1336540376"/>
  <tag k="highway" v="unclassified"/>
  <tag k="source" v="YahooJapan/ALPSMAP"/>
  <tag k="yh:STRUCTURE" v="地上"/>
  <tag k="yh:TOTYUMONO" v="供用中"/>
  <tag k="yh:TYPE" v="その他一般道"/>
  <tag k="yh:WIDTH" v="3.0m〜5.5m"/>
  <tag k="yh:WIDTH_RANK" v="3"/>
 </way>
 <way id="118902710" visible="true" version="3" changeset="123960139" timestamp="2022-07-23T02:14:53Z" user="AYAGE" uid="521665">
  <nd ref="9905150854"/>
  <nd ref="1336523402"/>
  <nd ref="4296623724"/>
  <nd ref="1336542861"/>
  <nd ref="1336550908"/>
  <nd ref="1336537151"/>
  <nd ref="1336537787"/>
  <nd ref="4296623725"/>
  <nd ref="1336523849"/>
  <nd ref="1336528656"/>
  <nd ref="1336520360"/>
  <nd ref="1336520951"/>
  <nd ref="1336526626"/>
  <tag k="highway" v="unclassified"/>
  <tag k="source" v="YahooJapan/ALPSMAP"/>
  <tag k="survey:date" v="2016-07-09"/>
 </way>
 <way id="118903017" visible="true" version="4" changeset="123961191" timestamp="2022-07-23T04:21:21Z" user="AYAGE" uid="521665">
  <nd ref="1336523276"/>
  <nd ref="1336528074"/>
  <nd ref="9905254889"/>
  <nd ref="1336550689"/>
  <nd ref="9905254890"/>
  <nd ref="1336520285"/>
  <tag k="highway" v="unclassified"/>
  <tag k="source" v="YahooJapan/ALPSMAP"/>
  <tag k="survey:date" v="2016-07-09"/>
 </way>
 <way id="296153256" visible="true" version="5" changeset="123979928" timestamp="2022-07-23T15:16:24Z" user="AYAGE" uid="521665">
  <nd ref="1442373411"/>
  <nd ref="1442373865"/>
  <nd ref="9904901378"/>
  <nd ref="9904901377"/>
  <nd ref="2999436233"/>
  <nd ref="9904901376"/>
  <nd ref="9904901375"/>
  <nd ref="2999436533"/>
  <nd ref="2999436633"/>
  <nd ref="2999436833"/>
  <nd ref="2999437033"/>
  <nd ref="2999437133"/>
  <nd ref="2999437333"/>
  <nd ref="2999437433"/>
  <nd ref="2999437533"/>
  <nd ref="9904901355"/>
  <nd ref="2999437334"/>
  <nd ref="9904901357"/>
  <nd ref="9904901356"/>
  <nd ref="9904901354"/>
  <nd ref="2999437633"/>
  <nd ref="2999437733"/>
  <nd ref="2999437833"/>
  <nd ref="2999437734"/>
  <nd ref="2999437735"/>
  <nd ref="9906077505"/>
  <nd ref="2999437335"/>
  <nd ref="9906077506"/>
  <nd ref="9906077507"/>
  <nd ref="9906077508"/>
  <nd ref="2999437336"/>
  <nd ref="9906077509"/>
  <nd ref="9906077510"/>
  <nd ref="2999437736"/>
  <nd ref="2999438033"/>
  <nd ref="2999438034"/>
  <nd ref="2999437834"/>
  <nd ref="9903874862"/>
  <nd ref="2999437434"/>
  <nd ref="9903874861"/>
  <nd ref="9903874860"/>
  <nd ref="2999438133"/>
  <nd ref="9903874859"/>
  <nd ref="9903874858"/>
  <nd ref="9903874857"/>
  <nd ref="9903874856"/>
  <nd ref="9903874855"/>
  <nd ref="1442373411"/>
  <tag k="natural" v="water"/>
  <tag k="source" v="bing"/>
  <tag k="water" v="river"/>
 </way>
 <way id="1080637160" visible="true" version="1" changeset="123955726" timestamp="2022-07-22T20:51:50Z" user="AYAGE" uid="521665">
  <nd ref="9904892894"/>
  <nd ref="9904892893"/>
  <tag k="highway" v="residential"/>
 </way>
 <way id="1080637161" visible="true" version="1" changeset="123955726" timestamp="2022-07-22T20:51:50Z" user="AYAGE" uid="521665">
  <nd ref="9904892896"/>
  <nd ref="9904892895"/>
  <tag k="highway" v="residential"/>
 </way>
 <way id="1080637162" visible="true" version="1" changeset="123955726" timestamp="2022-07-22T20:51:50Z" user="AYAGE" uid="521665">
  <nd ref="9904892898"/>
  <nd ref="9904892897"/>
  <tag k="highway" v="residential"/>
 </way>
 <way id="1080637163" visible="true" version="1" changeset="123955726" timestamp="2022-07-22T20:51:50Z" user="AYAGE" uid="521665">
  <nd ref="9904892900"/>
  <nd ref="9904892899"/>
  <tag k="highway" v="residential"/>
 </way>
 <way id="1080637164" visible="true" version="1" changeset="123955726" timestamp="2022-07-22T20:51:50Z" user="AYAGE" uid="521665">
  <nd ref="9904892901"/>
  <nd ref="9904892899"/>
  <nd ref="9904892897"/>
  <nd ref="9904892907"/>
  <tag k="highway" v="residential"/>
 </way>
 <way id="1080637165" visible="true" version="1" changeset="123955726" timestamp="2022-07-22T20:51:50Z" user="AYAGE" uid="521665">
  <nd ref="9904892907"/>
  <nd ref="9904892906"/>
  <nd ref="9904901368"/>
  <tag k="highway" v="residential"/>
 </way>
 <way id="1080637166" visible="true" version="1" changeset="123955726" timestamp="2022-07-22T20:51:50Z" user="AYAGE" uid="521665">
  <nd ref="9904892912"/>
  <nd ref="9904892911"/>
  <nd ref="9904892910"/>
  <nd ref="9904892909"/>
  <nd ref="9904892908"/>
  <nd ref="9904892896"/>
  <nd ref="9904892907"/>
  <nd ref="9904892905"/>
  <nd ref="9904892904"/>
  <nd ref="9904892903"/>
  <nd ref="9904892902"/>
  <nd ref="1336544623"/>
  <tag k="highway" v="residential"/>
 </way>
 <way id="1080669362" visible="true" version="2" changeset="123961191" timestamp="2022-07-23T04:21:21Z" user="AYAGE" uid="521665">
  <nd ref="1336527294"/>
  <nd ref="1336549748"/>
  <nd ref="9905150854"/>
  <nd ref="9905150851"/>
  <nd ref="9905150850"/>
  <nd ref="9905254891"/>
  <nd ref="9905150849"/>
  <nd ref="9905150848"/>
  <nd ref="9905150847"/>
  <nd ref="9905150846"/>
  <nd ref="9905150845"/>
  <nd ref="9905150844"/>
  <nd ref="9905150843"/>
  <nd ref="9905150842"/>
  <tag k="highway" v="unclassified"/>
  <tag k="source" v="YahooJapan/ALPSMAP"/>
  <tag k="survey:date" v="2016-07-09"/>
 </way>
 <way id="1425712172" visible="true" version="1" changeset="171161423" timestamp="2025-08-29T02:47:27Z" user="taketaketake" uid="4757277">
  <nd ref="1336539853"/>
  <nd ref="3713763027"/>
  <nd ref="1336539167"/>
  <nd ref="9904901368"/>
  <nd ref="1336521318"/>
  <nd ref="1336547819"/>
  <nd ref="1336524684"/>
  <nd ref="1336542476"/>
  <nd ref="1336540376"/>
  <nd ref="1336538437"/>
  <nd ref="1336529728"/>
  <nd ref="1336545172"/>
  <nd ref="9904901371"/>
  <nd ref="2826247646"/>
  <nd ref="1336527862"/>
  <nd ref="13104827532"/>
  <tag k="highway" v="secondary"/>
  <tag k="lanes" v="1"/>
  <tag k="name" v="柳井由宇線"/>
  <tag k="name:en" v="Yanai Yu Line"/>
  <tag k="name:ja" v="柳井由宇線"/>
  <tag k="name:ja-Hira" v="やないゆうせん"/>
  <tag k="name:ja_rm" v="Yanai Yuu-sen"/>
  <tag k="ref" v="149"/>
  <tag k="source" v="YahooJapan/ALPSMAP"/>
  <tag k="surface" v="asphalt"/>
  <tag k="wikidata" v="Q11467151"/>
  <tag k="wikipedia" v="ja:山口県道149号柳井由宇線"/>
 </way>
 <relation id="19537258" visible="true" version="1" changeset="171161423" timestamp="2025-08-29T02:47:27Z" user="taketaketake" uid="4757277">
  <member type="way" ref="113402073" role=""/>
  <member type="way" ref="1085388524" role=""/>
  <member type="way" ref="113402147" role=""/>
  <member type="way" ref="1085249777" role=""/>
  <member type="way" ref="113402069" role=""/>
  <member type="way" ref="1315844693" role=""/>
  <member type="way" ref="1315844694" role=""/>
  <member type="way" ref="113402377" role=""/>
  <member type="way" ref="113402144" role=""/>
  <member type="way" ref="113402085" role=""/>
  <member type="way" ref="1425712171" role=""/>
  <member type="way" ref="113561800" role=""/>
  <member type="way" ref="113561731" role=""/>
  <member type="way" ref="113563215" role=""/>
  <member type="way" ref="113561762" role=""/>
  <member type="way" ref="113561657" role=""/>
  <member type="way" ref="118902132" role=""/>
  <member type="way" ref="118902167" role=""/>
  <member type="way" ref="118902427" role=""/>
  <member type="way" ref="118901891" role=""/>
  <member type="way" ref="118902068" role=""/>
  <member type="way" ref="118901963" role=""/>
  <member type="way" ref="1425712172" role=""/>
  <member type="way" ref="1425712173" role=""/>
  <tag k="from" v="山口県柳井市柳井"/>
  <tag k="name" v="山口県道149号　柳井由宇線"/>
  <tag k="name:en" v="Yamaguchi Prefectural Route 149 Yanai Yu Line"/>
  <tag k="name:ja" v="山口県道149号　柳井由宇線"/>
  <tag k="name:ja-Hira" v="やまぐちけんどう149ごう やないゆうせん"/>
  <tag k="name:ja_rm" v="Yamaguchikendō 149-gō Yanai Yuu-sen"/>
  <tag k="network" v="JP:prefectural"/>
  <tag k="ref" v="149"/>
  <tag k="route" v="road"/>
  <tag k="to" v="山口県岩国市由宇町北1丁目"/>
  <tag k="type" v="route"/>
  <tag k="wikidata" v="Q11467151"/>
  <tag k="wikipedia" v="ja:山口県道149号柳井由宇線"/>
 </relation>
</osm>
