<?xml version="1.0" encoding="UTF-8"?>
<osm version="0.6" generator="openstreetmap-cgimap 2.1.0 (244702 spike-07.openstreetmap.org)" copyright="OpenStreetMap and contributors" attribution="http://www.openstreetmap.org/copyright" license="http://opendatacommons.org/licenses/odbl/1-0/">
 <bounds minlat="34.0440515" minlon="132.2002728" maxlat="34.0464515" maxlon="132.2032728"/>
 <node id="748891170" visible="true" version="1" changeset="4813224" timestamp="2010-05-26T13:37:27Z" user="Tom_G3X" uid="146930" lat="34.0451640" lon="132.1994780"/>
 <node id="748910408" visible="true" version="1" changeset="4813224" timestamp="2010-05-26T13:43:31Z" user="Tom_G3X" uid="146930" lat="34.0447000" lon="132.1960870"/>
 <node id="748921549" visible="true" version="2" changeset="123960139" timestamp="2022-07-23T02:14:53Z" user="AYAGE" uid="521665" lat="34.0394876" lon="132.1835005"/>
 <node id="748925515" visible="true" version="1" changeset="4813224" timestamp="2010-05-26T13:49:43Z" user="Tom_G3X" uid="146930" lat="34.0446460" lon="132.2041750"/>
 <node id="748935317" visible="true" version="1" changeset="4813224" timestamp="2010-05-26T13:55:09Z" user="Tom_G3X" uid="146930" lat="34.0441500" lon="132.1855800"/>
 <node id="748958389" visible="true" version="1" changeset="4813224" timestamp="2010-05-26T14:03:57Z" user="Tom_G3X" uid="146930" lat="34.0429140" lon="132.1842700"/>
 <node id="748984326" visible="true" version="1" changeset="4813224" timestamp="2010-05-26T14:15:10Z" user="Tom_G3X" uid="146930" lat="34.0442460" lon="132.1900260"/>
 <node id="748998936" visible="true" version="1" changeset="4813224" timestamp="2010-05-26T14:21:45Z" user="Tom_G3X" uid="146930" lat="34.0442000" lon="132.1937220"/>
 <node id="749039961" visible="true" version="1" changeset="4813224" timestamp="2010-05-26T14:35:39Z" user="Tom_G3X" uid="146930" lat="34.0433820" lon="132.1918060"/>
 <node id="749069328" visible="true" version="1" changeset="4813826" timestamp="2010-05-26T14:50:09Z" user="Tom_G3X" uid="146930" lat="34.0450500" lon="132.1977800"/>
 <node id="749077907" visible="true" version="1" changeset="4813826" timestamp="2010-05-26T14:53:27Z" user="Tom_G3X" uid="146930" lat="34.0407180" lon="132.1839530"/>
 <node id="749105483" visible="true" version="1" changeset="4813826" timestamp="2010-05-26T15:03:44Z" user="Tom_G3X" uid="146930" lat="34.0448780" lon="132.2030610"/>
 <node id="749123924" visible="true" version="1" changeset="4813826" timestamp="2010-05-26T15:09:56Z" user="Tom_G3X" uid="146930" lat="34.0439870" lon="132.1848370"/>
 <node id="749160785" visible="true" version="1" changeset="4813826" timestamp="2010-05-26T15:19:33Z" user="Tom_G3X" uid="146930" lat="34.0434870" lon="132.1915220"/>
 <node id="749197319" visible="true" version="1" changeset="4813826" timestamp="2010-05-26T15:30:40Z" user="Tom_G3X" uid="146930" lat="34.0445370" lon="132.1890040"/>
 <node id="749217111" visible="true" version="1" changeset="4813826" timestamp="2010-05-26T15:37:32Z" user="Tom_G3X" uid="146930" lat="34.0437690" lon="132.1930290"/>
 <node id="749250305" visible="true" version="1" changeset="4813826" timestamp="2010-05-26T15:51:15Z" user="Tom_G3X" uid="146930" lat="34.0451690" lon="132.2001340"/>
 <node id="749288100" visible="true" version="1" changeset="4814433" timestamp="2010-05-26T16:07:49Z" user="Tom_G3X" uid="146930" lat="34.0448730" lon="132.1967370"/>
 <node id="749301597" visible="true" version="2" changeset="123960139" timestamp="2022-07-23T02:14:53Z" user="AYAGE" uid="521665" lat="34.0397880" lon="132.1836446"/>
 <node id="749306593" visible="true" version="1" changeset="4814433" timestamp="2010-05-26T16:13:21Z" user="Tom_G3X" uid="146930" lat="34.0445140" lon="132.2048410"/>
 <node id="749319174" visible="true" version="1" changeset="4814433" timestamp="2010-05-26T16:18:14Z" user="Tom_G3X" uid="146930" lat="34.0442320" lon="132.1865190"/>
 <node id="749345094" visible="true" version="1" changeset="4814433" timestamp="2010-05-26T16:26:25Z" user="Tom_G3X" uid="146930" lat="34.0435500" lon="132.1843460"/>
 <node id="749385360" visible="true" version="1" changeset="4814433" timestamp="2010-05-26T16:34:56Z" user="Tom_G3X" uid="146930" lat="34.0437590" lon="132.1909320"/>
 <node id="749402855" visible="true" version="1" changeset="4814433" timestamp="2010-05-26T16:40:53Z" user="Tom_G3X" uid="146930" lat="34.0443500" lon="132.1944110"/>
 <node id="749415499" visible="true" version="1" changeset="4814433" timestamp="2010-05-26T16:46:46Z" user="Tom_G3X" uid="146930" lat="34.0443320" lon="132.1872130"/>
 <node id="749436702" visible="true" version="1" changeset="4814433" timestamp="2010-05-26T16:54:16Z" user="Tom_G3X" uid="146930" lat="34.0433820" lon="132.1920350"/>
 <node id="749483338" visible="true" version="1" changeset="4814433" timestamp="2010-05-26T17:09:14Z" user="Tom_G3X" uid="146930" lat="34.0451050" lon="132.1986970"/>
 <node id="749522408" visible="true" version="1" changeset="4814433" timestamp="2010-05-26T17:20:49Z" user="Tom_G3X" uid="146930" lat="34.0414180" lon="132.1841500"/>
 <node id="749556474" visible="true" version="2" changeset="123960139" timestamp="2022-07-23T02:14:53Z" user="AYAGE" uid="521665" lat="34.0392193" lon="132.1832312"/>
 <node id="749563272" visible="true" version="1" changeset="4815008" timestamp="2010-05-26T17:32:54Z" user="Tom_G3X" uid="146930" lat="34.0448050" lon="132.2035690"/>
 <node id="749579954" visible="true" version="1" changeset="4815008" timestamp="2010-05-26T17:38:14Z" user="Tom_G3X" uid="146930" lat="34.0441280" lon="132.1851650"/>
 <node id="749584813" visible="true" version="2" changeset="123955726" timestamp="2022-07-22T20:51:50Z" user="AYAGE" uid="521665" lat="34.0444611" lon="132.2055166"/>
 <node id="749610757" visible="true" version="1" changeset="4815008" timestamp="2010-05-26T17:46:43Z" user="Tom_G3X" uid="146930" lat="34.0419820" lon="132.1842090"/>
 <node id="749654835" visible="true" version="1" changeset="4815008" timestamp="2010-05-26T17:58:27Z" user="Tom_G3X" uid="146930" lat="34.0444460" lon="132.1894900"/>
 <node id="749682063" visible="true" version="1" changeset="4815008" timestamp="2010-05-26T18:09:44Z" user="Tom_G3X" uid="146930" lat="34.0441140" lon="132.1934880"/>
 <node id="749724387" visible="true" version="1" changeset="4815008" timestamp="2010-05-26T18:23:31Z" user="Tom_G3X" uid="146930" lat="34.0451190" lon="132.2009310"/>
 <node id="749765525" visible="true" version="1" changeset="4815008" timestamp="2010-05-26T18:39:46Z" user="Tom_G3X" uid="146930" lat="34.0449550" lon="132.1971520"/>
 <node id="749778169" visible="true" version="1" changeset="4815008" timestamp="2010-05-26T18:49:52Z" user="Tom_G3X" uid="146930" lat="34.0404270" lon="132.1838330"/>
 <node id="749783639" visible="true" version="1" changeset="4815008" timestamp="2010-05-26T18:54:42Z" user="Tom_G3X" uid="146930" lat="34.0444410" lon="132.2053650"/>
 <node id="749796792" visible="true" version="1" changeset="4815758" timestamp="2010-05-26T19:00:18Z" user="Tom_G3X" uid="146930" lat="34.0450600" lon="132.2015420"/>
 <node id="749804571" visible="true" version="1" changeset="4815758" timestamp="2010-05-26T19:04:41Z" user="Tom_G3X" uid="146930" lat="34.0437410" lon="132.1844880"/>
 <node id="749817325" visible="true" version="1" changeset="4815758" timestamp="2010-05-26T19:13:20Z" user="Tom_G3X" uid="146930" lat="34.0435930" lon="132.1912930"/>
 <node id="749836784" visible="true" version="1" changeset="4815758" timestamp="2010-05-26T19:18:19Z" user="Tom_G3X" uid="146930" lat="34.0446140" lon="132.1955740"/>
 <node id="749851341" visible="true" version="1" changeset="4815758" timestamp="2010-05-26T19:24:56Z" user="Tom_G3X" uid="146930" lat="34.0445140" lon="132.1884310"/>
 <node id="749869640" visible="true" version="1" changeset="4815758" timestamp="2010-05-26T19:31:02Z" user="Tom_G3X" uid="146930" lat="34.0434730" lon="132.1924770"/>
 <node id="1336520673" visible="true" version="3" changeset="123955726" timestamp="2022-07-22T20:51:50Z" user="AYAGE" uid="521665" lat="34.0457479" lon="132.2013720"/>
 <node id="1336521345" visible="true" version="3" changeset="123955726" timestamp="2022-07-22T20:51:50Z" user="AYAGE" uid="521665" lat="34.0450890" lon="132.1973196"/>
 <node id="1336521471" visible="true" version="2" changeset="123979928" timestamp="2022-07-23T15:16:24Z" user="AYAGE" uid="521665" lat="34.0444106" lon="132.2025618"/>
 <node id="1336521709" visible="true" version="2" changeset="33573708" timestamp="2015-08-25T15:00:12Z" user="nmaruichi" uid="317331" lat="34.0453940" lon="132.1992666"/>
 <node id="1336521797" visible="true" version="3" changeset="123960139" timestamp="2022-07-23T02:14:53Z" user="AYAGE" uid="521665" lat="34.0449079" lon="132.2054668"/>
 <node id="1336522256" visible="true" version="2" changeset="33573708" timestamp="2015-08-25T15:00:13Z" user="nmaruichi" uid="317331" lat="34.0448757" lon="132.2052926"/>
 <node id="1336522297" visible="true" version="2" changeset="123955726" timestamp="2022-07-22T20:51:50Z" user="AYAGE" uid="521665" lat="34.0458171" lon="132.2034192"/>
 <node id="1336522982" visible="true" version="2" changeset="123979928" timestamp="2022-07-23T15:16:24Z" user="AYAGE" uid="521665" lat="34.0444387" lon="132.2025378"/>
 <node id="1336523776" visible="true" version="3" changeset="123955726" timestamp="2022-07-22T20:51:50Z" user="AYAGE" uid="521665" lat="34.0462764" lon="132.2010335"/>
 <node id="1336523915" visible="true" version="2" changeset="123979928" timestamp="2022-07-23T15:16:24Z" user="AYAGE" uid="521665" lat="34.0442222" lon="132.2026175"/>
 <node id="1336527191" visible="true" version="3" changeset="123955726" timestamp="2022-07-22T20:51:50Z" user="AYAGE" uid="521665" lat="34.0452447" lon="132.2014432"/>
 <node id="1336527987" visible="true" version="4" changeset="123955726" timestamp="2022-07-22T20:51:50Z" user="AYAGE" uid="521665" lat="34.0453009" lon="132.2061619">
  <tag k="highway" v="traffic_signals"/>
  <tag k="noname" v="yes"/>
  <tag k="source" v="survey"/>
  <tag k="survey:date" v="2018-09-06"/>
 </node>
 <node id="1336528312" visible="true" version="3" changeset="123955726" timestamp="2022-07-22T20:51:50Z" user="AYAGE" uid="521665" lat="34.0450820" lon="132.2029291"/>
 <node id="1336528454" visible="true" version="2" changeset="33573708" timestamp="2015-08-25T15:00:12Z" user="nmaruichi" uid="317331" lat="34.0452760" lon="132.2011826"/>
 <node id="1336528620" visible="true" version="2" changeset="123979928" timestamp="2022-07-23T15:16:24Z" user="AYAGE" uid="521665" lat="34.0445952" lon="132.2025738"/>
 <node id="1336528944" visible="true" version="3" changeset="123955726" timestamp="2022-07-22T20:51:50Z" user="AYAGE" uid="521665" lat="34.0457270" lon="132.2013133"/>
 <node id="1336529253" visible="true" version="2" changeset="123955726" timestamp="2022-07-22T20:51:50Z" user="AYAGE" uid="521665" lat="34.0457826" lon="132.2032066"/>
 <node id="1336529817" visible="true" version="2" changeset="123979928" timestamp="2022-07-23T15:16:24Z" user="AYAGE" uid="521665" lat="34.0440308" lon="132.2013934"/>
 <node id="1336530593" visible="true" version="2" changeset="33573708" timestamp="2015-08-25T15:00:13Z" user="nmaruichi" uid="317331" lat="34.0449717" lon="132.2056533"/>
 <node id="1336531073" visible="true" version="3" changeset="123955726" timestamp="2022-07-22T20:51:50Z" user="AYAGE" uid="521665" lat="34.0453180" lon="132.2014456"/>
 <node id="1336531254" visible="true" version="3" changeset="123945856" timestamp="2022-07-22T15:59:10Z" user="AYAGE" uid="521665" lat="34.0468924" lon="132.2008097"/>
 <node id="1336531416" visible="true" version="2" changeset="33573708" timestamp="2015-08-25T15:00:12Z" user="nmaruichi" uid="317331" lat="34.0449620" lon="132.1966890"/>
 <node id="1336532927" visible="true" version="2" changeset="33573708" timestamp="2015-08-25T15:00:12Z" user="nmaruichi" uid="317331" lat="34.0453638" lon="132.2003024"/>
 <node id="1336537052" visible="true" version="3" changeset="156671000" timestamp="2024-09-16T04:43:57Z" user="taketaketake" uid="4757277" lat="34.0448941" lon="132.1963292"/>
 <node id="1336537689" visible="true" version="2" changeset="33573708" timestamp="2015-08-25T15:00:12Z" user="nmaruichi" uid="317331" lat="34.0453885" lon="132.1999218"/>
 <node id="1336538109" visible="true" version="2" changeset="33573708" timestamp="2015-08-25T15:00:12Z" user="nmaruichi" uid="317331" lat="34.0454022" lon="132.1996538"/>
 <node id="1336539238" visible="true" version="2" changeset="123961191" timestamp="2022-07-23T04:21:21Z" user="AYAGE" uid="521665" lat="34.0440096" lon="132.2026128"/>
 <node id="1336539853" visible="true" version="4" changeset="171161423" timestamp="2025-08-29T02:47:27Z" user="taketaketake" uid="4757277" lat="34.0455977" lon="132.2064675"/>
 <node id="1336539919" visible="true" version="3" changeset="123955726" timestamp="2022-07-22T20:51:50Z" user="AYAGE" uid="521665" lat="34.0451777" lon="132.2020098"/>
 <node id="1336539932" visible="true" version="2" changeset="123979928" timestamp="2022-07-23T15:16:24Z" user="AYAGE" uid="521665" lat="34.0442902" lon="132.2025955"/>
 <node id="1336540417" visible="true" version="2" changeset="33573708" timestamp="2015-08-25T15:00:12Z" user="nmaruichi" uid="317331" lat="34.0452980" lon="132.1984294"/>
 <node id="1336540536" visible="true" version="2" changeset="33573708" timestamp="2015-08-25T15:00:13Z" user="nmaruichi" uid="317331" lat="34.0449552" lon="132.2041708"/>
 <node id="1336541571" visible="true" version="3" changeset="123955726" timestamp="2022-07-22T20:51:50Z" user="AYAGE" uid="521665" lat="34.0459428" lon="132.2019352"/>
 <node id="1336541780" visible="true" version="3" changeset="123955726" timestamp="2022-07-22T20:51:50Z" user="AYAGE" uid="521665" lat="34.0459388" lon="132.2026345"/>
 <node id="1336542252" visible="true" version="3" changeset="123955726" timestamp="2022-07-22T20:51:50Z" user="AYAGE" uid="521665" lat="34.0459324" lon="132.2026969"/>
 <node id="1336543009" visible="true" version="2" changeset="123979928" timestamp="2022-07-23T15:16:24Z" user="AYAGE" uid="521665" lat="34.0441673" lon="132.2013905"/>
 <node id="1336543673" visible="true" version="3" changeset="123955726" timestamp="2022-07-22T20:51:50Z" user="AYAGE" uid="521665" lat="34.0458050" lon="132.2030317"/>
 <node id="1336544278" visible="true" version="2" changeset="123979928" timestamp="2022-07-23T15:16:24Z" user="AYAGE" uid="521665" lat="34.0445308" lon="132.2014624"/>
 <node id="1336544559" visible="true" version="4" changeset="123979928" timestamp="2022-07-23T15:16:24Z" user="AYAGE" uid="521665" lat="34.0450169" lon="132.1969633"/>
 <node id="1336547965" visible="true" version="2" changeset="123979928" timestamp="2022-07-23T15:16:24Z" user="AYAGE" uid="521665" lat="34.0442151" lon="132.2014514"/>
 <node id="1336548947" visible="true" version="2" changeset="123955726" timestamp="2022-07-22T20:51:50Z" user="AYAGE" uid="521665" lat="34.0450286" lon="132.2034668"/>
 <node id="1336549037" visible="true" version="3" changeset="123955726" timestamp="2022-07-22T20:51:50Z" user="AYAGE" uid="521665" lat="34.0459342" lon="132.2018694"/>
 <node id="1336549635" visible="true" version="3" changeset="123955726" timestamp="2022-07-22T20:51:50Z" user="AYAGE" uid="521665" lat="34.0451752" lon="132.1977577"/>
 <node id="1423657317" visible="true" version="2" changeset="88521680" timestamp="2020-07-26T13:54:04Z" user="higa4" uid="162590" lat="34.0461170" lon="132.2003420">
  <tag k="amenity" v="school"/>
  <tag k="KSJ2:AdminArea" v="山口県岩国市"/>
  <tag k="KSJ2:ADS" v="由宇町4944"/>
  <tag k="KSJ2:PubFacAdmin" v="市区町村"/>
  <tag k="name" v="市立由宇中学校"/>
  <tag k="note" v="National-Land Numerical Information (Public Facility) 2006, MLIT Japan"/>
  <tag k="note:ja" v="国土数値情報（公共施設データ）平成19年　国土交通省"/>
  <tag k="source" v="KSJ2"/>
  <tag k="source_ref" v="http://nlftp.mlit.go.jp/ksj/jpgis/datalist/KsjTmplt-P02-v2_0.html"/>
  <tag k="wikidata" v="Q96431432"/>
 </node>
 <node id="2999436234" visible="true" version="2" changeset="123979928" timestamp="2022-07-23T15:16:24Z" user="AYAGE" uid="521665" lat="34.0444154" lon="132.1959199"/>
 <node id="2999437034" visible="true" version="2" changeset="33573708" timestamp="2015-08-25T15:00:12Z" user="nmaruichi" uid="317331" lat="34.0447973" lon="132.1963014"/>
 <node id="2999437035" visible="true" version="1" changeset="24571474" timestamp="2014-08-06T09:12:22Z" user="ひろときょうたまなかなおや" uid="2000955" lat="34.0448495" lon="132.2018829"/>
 <node id="2999437134" visible="true" version="2" changeset="33573708" timestamp="2015-08-25T15:00:12Z" user="nmaruichi" uid="317331" lat="34.0444569" lon="132.1946548"/>
 <node id="2999437435" visible="true" version="1" changeset="24571474" timestamp="2014-08-06T09:12:21Z" user="ひろときょうたまなかなおや" uid="2000955" lat="34.0449647" lon="132.2002403"/>
 <node id="2999437634" visible="true" version="1" changeset="24571474" timestamp="2014-08-06T09:12:13Z" user="ひろときょうたまなかなおや" uid="2000955" lat="34.0453217" lon="132.1994554"/>
 <node id="2999437635" visible="true" version="1" changeset="24571474" timestamp="2014-08-06T09:12:18Z" user="ひろときょうたまなかなおや" uid="2000955" lat="34.0438390" lon="132.1934716"/>
 <node id="2999437734" visible="true" version="1" changeset="24571399" timestamp="2014-08-06T09:08:23Z" user="ひろときょうたまなかなおや" uid="2000955" lat="34.0449051" lon="132.2040097"/>
 <node id="2999437735" visible="true" version="2" changeset="123979928" timestamp="2022-07-23T15:16:24Z" user="AYAGE" uid="521665" lat="34.0445213" lon="132.2039741"/>
 <node id="2999437737" visible="true" version="1" changeset="24571474" timestamp="2014-08-06T09:12:12Z" user="ひろときょうたまなかなおや" uid="2000955" lat="34.0449847" lon="132.2030581"/>
 <node id="2999441733" visible="true" version="2" changeset="123955726" timestamp="2022-07-22T20:51:50Z" user="AYAGE" uid="521665" lat="34.0452771" lon="132.2004514"/>
 <node id="2999441734" visible="true" version="2" changeset="123960139" timestamp="2022-07-23T02:14:53Z" user="AYAGE" uid="521665" lat="34.0441046" lon="132.1933350"/>
 <node id="2999441833" visible="true" version="1" changeset="24571474" timestamp="2014-08-06T09:12:14Z" user="ひろときょうたまなかなおや" uid="2000955" lat="34.0452643" lon="132.1986873"/>
 <node id="2999441933" visible="true" version="2" changeset="123960139" timestamp="2022-07-23T02:14:53Z" user="AYAGE" uid="521665" lat="34.0450281" lon="132.1973321"/>
 <node id="2999442133" visible="true" version="1" changeset="24571474" timestamp="2014-08-06T09:12:18Z" user="ひろときょうたまなかなおや" uid="2000955" lat="34.0440524" lon="132.1940632"/>
 <node id="2999442134" visible="true" version="3" changeset="123984831" timestamp="2022-07-23T17:35:49Z" user="AYAGE" uid="521665" lat="34.0446894" lon="132.1971447"/>
 <node id="2999442135" visible="true" version="1" changeset="24571474" timestamp="2014-08-06T09:12:21Z" user="ひろときょうたまなかなおや" uid="2000955" lat="34.0449408" lon="132.1985558"/>
 <node id="3219903263" visible="true" version="2" changeset="123955726" timestamp="2022-07-22T20:51:50Z" user="AYAGE" uid="521665" lat="34.0454543" lon="132.1998841"/>
 <node id="3219903264" visible="true" version="2" changeset="123955726" timestamp="2022-07-22T20:51:50Z" user="AYAGE" uid="521665" lat="34.0464259" lon="132.1993751"/>
 <node id="3219903265" visible="true" version="2" changeset="123955726" timestamp="2022-07-22T20:51:50Z" user="AYAGE" uid="521665" lat="34.0464850" lon="132.1995496"/>
 <node id="3219903266" visible="true" version="2" changeset="123955726" timestamp="2022-07-22T20:51:50Z" user="AYAGE" uid="521665" lat="34.0465619" lon="132.1998464"/>
 <node id="3219903562" visible="true" version="2" changeset="123955726" timestamp="2022-07-22T20:51:50Z" user="AYAGE" uid="521665" lat="34.0454547" lon="132.1995499"/>
 <node id="3219905861" visible="true" version="2" changeset="123955726" timestamp="2022-07-22T20:51:50Z" user="AYAGE" uid="521665" lat="34.0467407" lon="132.2004014"/>
 <node id="3219905862" visible="true" version="2" changeset="123955726" timestamp="2022-07-22T20:51:50Z" user="AYAGE" uid="521665" lat="34.0456900" lon="132.2011453"/>
 <node id="3219906161" visible="true" version="2" changeset="123955726" timestamp="2022-07-22T20:51:50Z" user="AYAGE" uid="521665" lat="34.0467078" lon="132.2002816"/>
 <node id="3713762923" visible="true" version="1" changeset="33573708" timestamp="2015-08-25T15:00:12Z" user="nmaruichi" uid="317331" lat="34.0453528" lon="132.1988364"/>
 <node id="3713762924" visible="true" version="2" changeset="123955726" timestamp="2022-07-22T20:51:50Z" user="AYAGE" uid="521665" lat="34.0448760" lon="132.2049085"/>
 <node id="3713763025" visible="true" version="1" changeset="33573708" timestamp="2015-08-25T15:00:13Z" user="nmaruichi" uid="317331" lat="34.0448702" lon="132.2050841"/>
 <node id="3713763026" visible="true" version="1" changeset="33573708" timestamp="2015-08-25T15:00:13Z" user="nmaruichi" uid="317331" lat="34.0451088" lon="132.2059180"/>
 <node id="5892053422" visible="true" version="2" changeset="123955726" timestamp="2022-07-22T20:51:50Z" user="AYAGE" uid="521665" lat="34.0449131" lon="132.2045492">
  <tag k="button_operated" v="yes"/>
  <tag k="crossing" v="traffic_signals"/>
  <tag k="highway" v="crossing"/>
  <tag k="source" v="survey"/>
  <tag k="survey:date" v="2018-09-06"/>
 </node>
 <node id="5892053423" visible="true" version="2" changeset="123955726" timestamp="2022-07-22T20:51:50Z" user="AYAGE" uid="521665" lat="34.0449028" lon="132.2046413">
  <tag k="highway" v="traffic_signals"/>
  <tag k="noname" v="yes"/>
  <tag k="source" v="survey"/>
  <tag k="survey:date" v="2018-09-06"/>
 </node>
 <node id="5892053424" visible="true" version="1" changeset="62393092" timestamp="2018-09-08T04:11:48Z" user="nmaruichi" uid="317331" lat="34.0452469" lon="132.2061074">
  <tag k="button_operated" v="yes"/>
  <tag k="crossing" v="traffic_signals"/>
  <tag k="highway" v="crossing"/>
  <tag k="source" v="survey"/>
  <tag k="survey:date" v="2018-09-06"/>
 </node>
 <node id="9904901282" visible="true" version="1" changeset="123955726" timestamp="2022-07-22T20:51:50Z" user="AYAGE" uid="521665" lat="34.0466955" lon="132.2001969"/>
 <node id="9904901283" visible="true" version="1" changeset="123955726" timestamp="2022-07-22T20:51:50Z" user="AYAGE" uid="521665" lat="34.0465346" lon="132.1997356"/>
 <node id="9904901284" visible="true" version="1" changeset="123955726" timestamp="2022-07-22T20:51:50Z" user="AYAGE" uid="521665" lat="34.0452406" lon="132.1980907"/>
 <node id="9904901301" visible="true" version="1" changeset="123955726" timestamp="2022-07-22T20:51:50Z" user="AYAGE" uid="521665" lat="34.0466485" lon="132.2000393"/>
 <node id="9904901302" visible="true" version="1" changeset="123955726" timestamp="2022-07-22T20:51:50Z" user="AYAGE" uid="521665" lat="34.0466819" lon="132.2001312"/>
 <node id="9904901303" visible="true" version="1" changeset="123955726" timestamp="2022-07-22T20:51:50Z" user="AYAGE" uid="521665" lat="34.0468424" lon="132.2007085"/>
 <node id="9904901304" visible="true" version="1" changeset="123955726" timestamp="2022-07-22T20:51:50Z" user="AYAGE" uid="521665" lat="34.0468263" lon="132.2007441"/>
 <node id="9904901305" visible="true" version="1" changeset="123955726" timestamp="2022-07-22T20:51:50Z" user="AYAGE" uid="521665" lat="34.0467380" lon="132.2007729"/>
 <node id="9904901306" visible="true" version="1" changeset="123955726" timestamp="2022-07-22T20:51:50Z" user="AYAGE" uid="521665" lat="34.0462790" lon="132.1993064"/>
 <node id="9904901307" visible="true" version="1" changeset="123955726" timestamp="2022-07-22T20:51:50Z" user="AYAGE" uid="521665" lat="34.0455856" lon="132.1992441"/>
 <node id="9904901308" visible="true" version="1" changeset="123955726" timestamp="2022-07-22T20:51:50Z" user="AYAGE" uid="521665" lat="34.0455806" lon="132.1992280"/>
 <node id="9904901309" visible="true" version="1" changeset="123955726" timestamp="2022-07-22T20:51:50Z" user="AYAGE" uid="521665" lat="34.0463102" lon="132.1993037"/>
 <node id="9904901310" visible="true" version="1" changeset="123955726" timestamp="2022-07-22T20:51:50Z" user="AYAGE" uid="521665" lat="34.0454201" lon="132.2003303"/>
 <node id="9904901311" visible="true" version="1" changeset="123955726" timestamp="2022-07-22T20:51:50Z" user="AYAGE" uid="521665" lat="34.0454684" lon="132.2004645"/>
 <node id="9904901312" visible="true" version="1" changeset="123955726" timestamp="2022-07-22T20:51:50Z" user="AYAGE" uid="521665" lat="34.0455612" lon="132.2007139"/>
 <node id="9904901313" visible="true" version="1" changeset="123955726" timestamp="2022-07-22T20:51:50Z" user="AYAGE" uid="521665" lat="34.0460079" lon="132.2010344"/>
 <node id="9904901314" visible="true" version="1" changeset="123955726" timestamp="2022-07-22T20:51:50Z" user="AYAGE" uid="521665" lat="34.0465735" lon="132.2009070"/>
 <node id="9904901315" visible="true" version="1" changeset="123955726" timestamp="2022-07-22T20:51:50Z" user="AYAGE" uid="521665" lat="34.0459346" lon="132.2012141"/>
 <node id="9904901316" visible="true" version="1" changeset="123955726" timestamp="2022-07-22T20:51:50Z" user="AYAGE" uid="521665" lat="34.0454417" lon="132.1992186"/>
 <node id="9904901362" visible="true" version="1" changeset="123955726" timestamp="2022-07-22T20:51:50Z" user="AYAGE" uid="521665" lat="34.0454534" lon="132.2014153"/>
 <node id="9904901363" visible="true" version="1" changeset="123955726" timestamp="2022-07-22T20:51:50Z" user="AYAGE" uid="521665" lat="34.0457834" lon="132.2031212"/>
 <node id="9905204315" visible="true" version="1" changeset="123960139" timestamp="2022-07-23T02:14:53Z" user="AYAGE" uid="521665" lat="34.0466763" lon="132.2031715"/>
 <node id="9905204316" visible="true" version="1" changeset="123960139" timestamp="2022-07-23T02:14:53Z" user="AYAGE" uid="521665" lat="34.0465741" lon="132.2030280"/>
 <node id="9905204317" visible="true" version="1" changeset="123960139" timestamp="2022-07-23T02:14:53Z" user="AYAGE" uid="521665" lat="34.0463357" lon="132.2027571"/>
 <node id="9905204318" visible="true" version="1" changeset="123960139" timestamp="2022-07-23T02:14:53Z" user="AYAGE" uid="521665" lat="34.0461701" lon="132.2026042"/>
 <node id="9905204319" visible="true" version="1" changeset="123960139" timestamp="2022-07-23T02:14:53Z" user="AYAGE" uid="521665" lat="34.0459635" lon="132.2024453"/>
 <node id="9905204320" visible="true" version="1" changeset="123960139" timestamp="2022-07-23T02:14:53Z" user="AYAGE" uid="521665" lat="34.0459399" lon="132.2024433"/>
 <node id="9905204580" visible="true" version="1" changeset="123960139" timestamp="2022-07-23T02:14:53Z" user="AYAGE" uid="521665" lat="34.0442510" lon="132.1936999"/>
 <node id="9905204581" visible="true" version="1" changeset="123960139" timestamp="2022-07-23T02:14:53Z" user="AYAGE" uid="521665" lat="34.0451723" lon="132.1980599"/>
 <node id="9906077422" visible="true" version="2" changeset="123984831" timestamp="2022-07-23T17:35:49Z" user="AYAGE" uid="521665" lat="34.0445111" lon="132.1963741"/>
 <node id="9906077423" visible="true" version="1" changeset="123979928" timestamp="2022-07-23T15:16:24Z" user="AYAGE" uid="521665" lat="34.0447311" lon="132.1975100"/>
 <node id="9906077424" visible="true" version="1" changeset="123979928" timestamp="2022-07-23T15:16:24Z" user="AYAGE" uid="521665" lat="34.0448267" lon="132.1980451"/>
 <node id="9906077425" visible="true" version="1" changeset="123979928" timestamp="2022-07-23T15:16:24Z" user="AYAGE" uid="521665" lat="34.0449745" lon="132.1989222"/>
 <node id="9906077426" visible="true" version="1" changeset="123979928" timestamp="2022-07-23T15:16:24Z" user="AYAGE" uid="521665" lat="34.0449978" lon="132.1994264"/>
 <node id="9906077435" visible="true" version="1" changeset="123979928" timestamp="2022-07-23T15:16:24Z" user="AYAGE" uid="521665" lat="34.0442119" lon="132.2052514"/>
 <node id="9906077471" visible="true" version="1" changeset="123979928" timestamp="2022-07-23T15:16:24Z" user="AYAGE" uid="521665" lat="34.0440627" lon="132.2013938"/>
 <node id="9906077474" visible="true" version="1" changeset="123979928" timestamp="2022-07-23T15:16:24Z" user="AYAGE" uid="521665" lat="34.0440288" lon="132.2018927"/>
 <node id="9906077487" visible="true" version="1" changeset="123979928" timestamp="2022-07-23T15:16:24Z" user="AYAGE" uid="521665" lat="34.0444797" lon="132.1971252"/>
 <node id="9906077488" visible="true" version="1" changeset="123979928" timestamp="2022-07-23T15:16:24Z" user="AYAGE" uid="521665" lat="34.0445800" lon="132.1975167"/>
 <node id="9906077489" visible="true" version="1" changeset="123979928" timestamp="2022-07-23T15:16:24Z" user="AYAGE" uid="521665" lat="34.0446533" lon="132.1977487"/>
 <node id="9906077490" visible="true" version="1" changeset="123979928" timestamp="2022-07-23T15:16:24Z" user="AYAGE" uid="521665" lat="34.0446966" lon="132.1979405"/>
 <node id="9906077491" visible="true" version="1" changeset="123979928" timestamp="2022-07-23T15:16:24Z" user="AYAGE" uid="521665" lat="34.0447444" lon="132.1982825"/>
 <node id="9906077492" visible="true" version="1" changeset="123979928" timestamp="2022-07-23T15:16:24Z" user="AYAGE" uid="521665" lat="34.0448689" lon="132.1993352"/>
 <node id="9906077493" visible="true" version="1" changeset="123979928" timestamp="2022-07-23T15:16:24Z" user="AYAGE" uid="521665" lat="34.0448700" lon="132.1994439"/>
 <node id="9906077494" visible="true" version="1" changeset="123979928" timestamp="2022-07-23T15:16:24Z" user="AYAGE" uid="521665" lat="34.0448678" lon="132.1996611"/>
 <node id="9906077495" visible="true" version="1" changeset="123979928" timestamp="2022-07-23T15:16:24Z" user="AYAGE" uid="521665" lat="34.0447855" lon="132.2006468"/>
 <node id="9906077496" visible="true" version="1" changeset="123979928" timestamp="2022-07-23T15:16:24Z" user="AYAGE" uid="521665" lat="34.0446733" lon="132.2018740"/>
 <node id="9906077497" visible="true" version="1" changeset="123979928" timestamp="2022-07-23T15:16:24Z" user="AYAGE" uid="521665" lat="34.0445033" lon="132.2034793"/>
 <node id="9906077498" visible="true" version="1" changeset="123979928" timestamp="2022-07-23T15:16:24Z" user="AYAGE" uid="521665" lat="34.0443577" lon="132.2046822"/>
 <node id="9906077499" visible="true" version="1" changeset="123979928" timestamp="2022-07-23T15:16:24Z" user="AYAGE" uid="521665" lat="34.0443333" lon="132.2048230"/>
 <node id="9906077500" visible="true" version="1" changeset="123979928" timestamp="2022-07-23T15:16:24Z" user="AYAGE" uid="521665" lat="34.0442277" lon="132.2052254"/>
 <node id="9906077504" visible="true" version="1" changeset="123979928" timestamp="2022-07-23T15:16:24Z" user="AYAGE" uid="521665" lat="34.0444499" lon="132.2025519"/>
 <node id="9906246741" visible="true" version="1" changeset="123984831" timestamp="2022-07-23T17:35:49Z" user="AYAGE" uid="521665" lat="34.0444900" lon="132.1966195"/>
 <node id="9906246742" visible="true" version="1" changeset="123984831" timestamp="2022-07-23T17:35:49Z" user="AYAGE" uid="521665" lat="34.0445611" lon="132.1966785"/>
 <node id="9906246743" visible="true" version="1" changeset="123984831" timestamp="2022-07-23T17:35:49Z" user="AYAGE" uid="521665" lat="34.0446411" lon="132.1968529"/>
 <node id="9906290392" visible="true" version="1" changeset="123984831" timestamp="2022-07-23T17:35:49Z" user="AYAGE" uid="521665" lat="34.0445355" lon="132.2008386"/>
 <node id="9906290393" visible="true" version="1" changeset="123984831" timestamp="2022-07-23T17:35:49Z" user="AYAGE" uid="521665" lat="34.0445200" lon="132.2011793"/>
 <node id="9906290394" visible="true" version="1" changeset="123984831" timestamp="2022-07-23T17:35:49Z" user="AYAGE" uid="521665" lat="34.0440343" lon="132.2011644"/>
 <node id="9906290395" visible="true" version="1" changeset="123984831" timestamp="2022-07-23T17:35:49Z" user="AYAGE" uid="521665" lat="34.0445011" lon="132.2017841"/>
 <node id="9906290396" visible="true" version="1" changeset="123984831" timestamp="2022-07-23T17:35:49Z" user="AYAGE" uid="521665" lat="34.0444933" lon="132.2018833"/>
 <way id="60302453" visible="true" version="2" changeset="153270390" timestamp="2024-06-28T00:30:31Z" user="taketaketake" uid="4757277">
  <nd ref="749556474"/>
  <nd ref="748921549"/>
  <nd ref="749301597"/>
  <nd ref="749778169"/>
  <nd ref="749077907"/>
  <nd ref="749522408"/>
  <nd ref="749610757"/>
  <nd ref="748958389"/>
  <nd ref="749345094"/>
  <nd ref="749804571"/>
  <nd ref="749123924"/>
  <nd ref="749579954"/>
  <nd ref="748935317"/>
  <nd ref="749319174"/>
  <nd ref="749415499"/>
  <nd ref="749851341"/>
  <nd ref="749197319"/>
  <nd ref="749654835"/>
  <nd ref="748984326"/>
  <nd ref="749385360"/>
  <nd ref="749817325"/>
  <nd ref="749160785"/>
  <nd ref="749039961"/>
  <nd ref="749436702"/>
  <nd ref="749869640"/>
  <nd ref="749217111"/>
  <nd ref="749682063"/>
  <nd ref="748998936"/>
  <nd ref="749402855"/>
  <nd ref="749836784"/>
  <nd ref="748910408"/>
  <nd ref="749288100"/>
  <nd ref="749765525"/>
  <nd ref="749069328"/>
  <nd ref="749483338"/>
  <nd ref="748891170"/>
  <nd ref="749250305"/>
  <nd ref="749724387"/>
  <nd ref="749796792"/>
  <nd ref="749105483"/>
  <nd ref="749563272"/>
  <nd ref="748925515"/>
  <nd ref="749306593"/>
  <nd ref="749783639"/>
  <nd ref="749584813"/>
  <tag k="name" v="由宇川"/>
  <tag k="name:ja" v="由宇川"/>
  <tag k="note" v="National-Land Numerical Information (River) 2006, MLIT Japan"/>
  <tag k="note:ja" v="国土数値情報(河川データ)平成18年国土交通省"/>
  <tag k="source" v="KSJ2"/>
  <tag k="source_ref" v="http://nlftp.mlit.go.jp/ksj/jpgis/datalist/KsjTmplt-W05.html"/>
  <tag k="waterway" v="river"/>
 </way>
 <way id="118901963" visible="true" version="3" changeset="171161423" timestamp="2025-08-29T02:47:27Z" user="taketaketake" uid="4757277">
  <nd ref="1336537052"/>
  <nd ref="1336531416"/>
  <nd ref="1336544559"/>
  <nd ref="1336521345"/>
  <nd ref="1336549635"/>
  <nd ref="9904901284"/>
  <nd ref="1336540417"/>
  <nd ref="3713762923"/>
  <nd ref="1336521709"/>
  <nd ref="1336538109"/>
  <nd ref="1336537689"/>
  <nd ref="1336532927"/>
  <nd ref="1336528454"/>
  <nd ref="1336527191"/>
  <nd ref="1336539919"/>
  <nd ref="1336528312"/>
  <nd ref="1336548947"/>
  <nd ref="1336540536"/>
  <nd ref="5892053422"/>
  <nd ref="5892053423"/>
  <nd ref="3713762924"/>
  <nd ref="3713763025"/>
  <nd ref="1336522256"/>
  <nd ref="1336521797"/>
  <nd ref="1336530593"/>
  <nd ref="3713763026"/>
  <nd ref="5892053424"/>
  <nd ref="1336527987"/>
  <nd ref="1336539853"/>
  <tag k="highway" v="secondary"/>
  <tag k="lanes" v="2"/>
  <tag k="name" v="柳井由宇線"/>
  <tag k="name:en" v="Yanai Yu Line"/>
  <tag k="name:ja" v="柳井由宇線"/>
  <tag k="name:ja-Hira" v="やないゆうせん"/>
  <tag k="name:ja_rm" v="Yanai Yuu-sen"/>
  <tag k="ref" v="149"/>
  <tag k="source" v="YahooJapan/ALPSMAP"/>
  <tag k="surface" v="asphalt"/>
  <tag k="wikidata" v="Q11467151"/>
  <tag k="wikipedia" v="ja:山口県道149号柳井由宇線"/>
 </way>
 <way id="118902027" visible="true" version="2" changeset="123955726" timestamp="2022-07-22T20:51:50Z" user="AYAGE" uid="521665">
  <nd ref="1336527191"/>
  <nd ref="1336531073"/>
  <nd ref="9904901362"/>
  <nd ref="1336528944"/>
  <tag k="highway" v="unclassified"/>
  <tag k="source" v="YahooJapan/ALPSMAP"/>
 </way>
 <way id="118902047" visible="true" version="2" changeset="123979928" timestamp="2022-07-23T15:16:24Z" user="AYAGE" uid="521665">
  <nd ref="1336528620"/>
  <nd ref="9906077504"/>
  <nd ref="1336522982"/>
  <nd ref="1336521471"/>
  <nd ref="1336539932"/>
  <nd ref="1336523915"/>
  <nd ref="1336539238"/>
  <tag k="highway" v="residential"/>
  <tag k="source" v="YahooJapan/ALPSMAP"/>
 </way>
 <way id="118902154" visible="true" version="2" changeset="123955726" timestamp="2022-07-22T20:51:50Z" user="AYAGE" uid="521665">
  <nd ref="1336528944"/>
  <nd ref="9904901315"/>
  <nd ref="1336523776"/>
  <nd ref="9904901314"/>
  <nd ref="1336531254"/>
  <tag k="highway" v="unclassified"/>
  <tag k="source" v="YahooJapan/ALPSMAP"/>
 </way>
 <way id="118902284" visible="true" version="2" changeset="123979928" timestamp="2022-07-23T15:16:24Z" user="AYAGE" uid="521665">
  <nd ref="1336544278"/>
  <nd ref="1336547965"/>
  <nd ref="1336543009"/>
  <nd ref="9906077471"/>
  <nd ref="1336529817"/>
  <tag k="highway" v="residential"/>
  <tag k="source" v="YahooJapan/ALPSMAP"/>
 </way>
 <way id="118903061" visible="true" version="3" changeset="123960139" timestamp="2022-07-23T02:14:53Z" user="AYAGE" uid="521665">
  <nd ref="1336528944"/>
  <nd ref="1336520673"/>
  <nd ref="1336549037"/>
  <nd ref="1336541571"/>
  <nd ref="9905204320"/>
  <nd ref="1336541780"/>
  <nd ref="1336542252"/>
  <nd ref="1336543673"/>
  <nd ref="9904901363"/>
  <nd ref="1336529253"/>
  <nd ref="1336522297"/>
  <tag k="highway" v="residential"/>
  <tag k="source" v="YahooJapan/ALPSMAP"/>
 </way>
 <way id="296153743" visible="true" version="5" changeset="123984831" timestamp="2022-07-23T17:35:49Z" user="AYAGE" uid="521665">
  <nd ref="2999437735"/>
  <nd ref="2999437734"/>
  <nd ref="2999437737"/>
  <nd ref="2999441733"/>
  <nd ref="2999437634"/>
  <nd ref="2999441833"/>
  <nd ref="9905204581"/>
  <nd ref="2999441933"/>
  <nd ref="2999437034"/>
  <nd ref="2999437134"/>
  <nd ref="9905204580"/>
  <nd ref="2999441734"/>
  <nd ref="2999437635"/>
  <nd ref="2999442133"/>
  <nd ref="2999436234"/>
  <nd ref="9906077422"/>
  <nd ref="9906246741"/>
  <nd ref="9906246742"/>
  <nd ref="9906246743"/>
  <nd ref="2999442134"/>
  <nd ref="9906077423"/>
  <nd ref="9906077424"/>
  <nd ref="2999442135"/>
  <nd ref="9906077425"/>
  <nd ref="9906077426"/>
  <nd ref="2999437435"/>
  <nd ref="2999437035"/>
  <nd ref="2999437735"/>
  <tag k="natural" v="water"/>
  <tag k="source" v="bing"/>
  <tag k="water" v="river"/>
 </way>
 <way id="315858015" visible="true" version="2" changeset="123955726" timestamp="2022-07-22T20:51:50Z" user="AYAGE" uid="521665">
  <nd ref="3219905861"/>
  <nd ref="9904901303"/>
  <nd ref="9904901304"/>
  <nd ref="9904901305"/>
  <nd ref="9904901313"/>
  <nd ref="3219905862"/>
  <nd ref="9904901312"/>
  <nd ref="9904901311"/>
  <nd ref="9904901310"/>
  <nd ref="3219903263"/>
  <nd ref="3219903562"/>
  <nd ref="9904901316"/>
  <nd ref="9904901308"/>
  <nd ref="9904901307"/>
  <nd ref="9904901306"/>
  <nd ref="9904901309"/>
  <nd ref="3219903264"/>
  <nd ref="3219903265"/>
  <nd ref="9904901283"/>
  <nd ref="3219903266"/>
  <nd ref="9904901301"/>
  <nd ref="9904901302"/>
  <nd ref="9904901282"/>
  <nd ref="3219906161"/>
  <nd ref="3219905861"/>
  <tag k="amenity" v="school"/>
 </way>
 <way id="1080669366" visible="true" version="1" changeset="123960139" timestamp="2022-07-23T02:14:53Z" user="AYAGE" uid="521665">
  <nd ref="9905204320"/>
  <nd ref="9905204319"/>
  <nd ref="9905204318"/>
  <nd ref="9905204317"/>
  <nd ref="9905204316"/>
  <nd ref="9905204315"/>
  <tag k="highway" v="residential"/>
 </way>
 <way id="1080774316" visible="true" version="1" changeset="123979928" timestamp="2022-07-23T15:16:24Z" user="AYAGE" uid="521665">
  <nd ref="9906077435"/>
  <nd ref="9906077500"/>
  <nd ref="9906077499"/>
  <nd ref="9906077498"/>
  <nd ref="9906077497"/>
  <nd ref="1336528620"/>
  <nd ref="9906077496"/>
  <nd ref="9906077495"/>
  <nd ref="9906077494"/>
  <nd ref="9906077493"/>
  <nd ref="9906077492"/>
  <nd ref="9906077491"/>
  <nd ref="9906077490"/>
  <nd ref="9906077489"/>
  <nd ref="9906077488"/>
  <nd ref="9906077487"/>
  <tag k="highway" v="unclassified"/>
 </way>
 <way id="1080797489" visible="true" version="1" changeset="123984831" timestamp="2022-07-23T17:35:49Z" user="AYAGE" uid="521665">
  <nd ref="9906290394"/>
  <nd ref="9906290393"/>
  <nd ref="9906290392"/>
  <tag k="highway" v="residential"/>
 </way>
 <way id="1080797490" visible="true" version="1" changeset="123984831" timestamp="2022-07-23T17:35:49Z" user="AYAGE" uid="521665">
  <nd ref="9906077474"/>
  <nd ref="9906290396"/>
  <nd ref="9906290395"/>
  <tag k="highway" v="residential"/>
 </way>
 <relation id="19537258" visible="true" version="1" changeset="171161423" timestamp="2025-08-29T02:47:27Z" user="taketaketake" uid="4757277">
  <member type="way" ref="113402073" role=""/>
  <member type="way" ref="1085388524" role=""/>
  <member type="way" ref="113402147" role=""/>
  <member type="way" ref="1085249777" role=""/>
  <member type="way" ref="113402069" role=""/>
  <member type="way" ref="1315844693" role=""/>
  <member type="way" ref="1315844694" role=""/>
  <member type="way" ref="113402377" role=""/>
  <member type="way" ref="113402144" role=""/>
  <member type="way" ref="113402085" role=""/>
  <member type="way" ref="1425712171" role=""/>
  <member type="way" ref="113561800" role=""/>
  <member type="way" ref="113561731" role=""/>
  <member type="way" ref="113563215" role=""/>
  <member type="way" ref="113561762" role=""/>
  <member type="way" ref="113561657" role=""/>
  <member type="way" ref="118902132" role=""/>
  <member type="way" ref="118902167" role=""/>
  <member type="way" ref="118902427" role=""/>
  <member type="way" ref="118901891" role=""/>
  <member type="way" ref="118902068" role=""/>
  <member type="way" ref="118901963" role=""/>
  <member type="way" ref="1425712172" role=""/>
  <member type="way" ref="1425712173" role=""/>
  <tag k="from" v="山口県柳井市柳井"/>
  <tag k="name" v="山口県道149号　柳井由宇線"/>
  <tag k="name:en" v="Yamaguchi Prefectural Route 149 Yanai Yu Line"/>
  <tag k="name:ja" v="山口県道149号　柳井由宇線"/>
  <tag k="name:ja-Hira" v="やまぐちけんどう149ごう やないゆうせん"/>
  <tag k="name:ja_rm" v="Yamaguchikendō 149-gō Yanai Yuu-sen"/>
  <tag k="network" v="JP:prefectural"/>
  <tag k="ref" v="149"/>
  <tag k="route" v="road"/>
  <tag k="to" v="山口県岩国市由宇町北1丁目"/>
  <tag k="type" v="route"/>
  <tag k="wikidata" v="Q11467151"/>
  <tag k="wikipedia" v="ja:山口県道149号柳井由宇線"/>
 </relation>
</osm>
