<?xml version="1.0" encoding="UTF-8"?>
<osm version="0.6" generator="openstreetmap-cgimap 2.1.0 (244696 spike-07.openstreetmap.org)" copyright="OpenStreetMap and contributors" attribution="http://www.openstreetmap.org/copyright" license="http://opendatacommons.org/licenses/odbl/1-0/">
 <bounds minlat="34.0375155" minlon="132.1764928" maxlat="34.0399322" maxlon="132.1795023"/>
 <node id="748926284" visible="true" version="2" changeset="124014248" timestamp="2022-07-24T15:27:05Z" user="AYAGE" uid="521665" lat="34.0344094" lon="132.1758397"/>
 <node id="748941514" visible="true" version="2" changeset="123960139" timestamp="2022-07-23T02:14:53Z" user="AYAGE" uid="521665" lat="34.0384692" lon="132.1781858"/>
 <node id="748967525" visible="true" version="2" changeset="124014248" timestamp="2022-07-24T15:27:05Z" user="AYAGE" uid="521665" lat="34.0357015" lon="132.1771388"/>
 <node id="748993200" visible="true" version="2" changeset="123960139" timestamp="2022-07-23T02:14:53Z" user="AYAGE" uid="521665" lat="34.0392925" lon="132.1803228"/>
 <node id="749024728" visible="true" version="2" changeset="124014248" timestamp="2022-07-24T15:27:05Z" user="AYAGE" uid="521665" lat="34.0342917" lon="132.1746933"/>
 <node id="749064934" visible="true" version="2" changeset="123960139" timestamp="2022-07-23T02:14:53Z" user="AYAGE" uid="521665" lat="34.0389558" lon="132.1826556"/>
 <node id="749084024" visible="true" version="2" changeset="124014248" timestamp="2022-07-24T15:27:05Z" user="AYAGE" uid="521665" lat="34.0348434" lon="132.1764833"/>
 <node id="749106341" visible="true" version="2" changeset="124014248" timestamp="2022-07-24T15:27:05Z" user="AYAGE" uid="521665" lat="34.0343598" lon="132.1755835"/>
 <node id="749136028" visible="true" version="1" changeset="4813826" timestamp="2010-05-26T15:13:00Z" user="Tom_G3X" uid="146930" lat="34.0376790" lon="132.1778290"/>
 <node id="749172085" visible="true" version="2" changeset="123960139" timestamp="2022-07-23T02:14:53Z" user="AYAGE" uid="521665" lat="34.0391147" lon="132.1817826"/>
 <node id="749209124" visible="true" version="2" changeset="123960139" timestamp="2022-07-23T02:14:53Z" user="AYAGE" uid="521665" lat="34.0391827" lon="132.1794877"/>
 <node id="749236731" visible="true" version="2" changeset="124014248" timestamp="2022-07-24T15:27:05Z" user="AYAGE" uid="521665" lat="34.0342650" lon="132.1738590"/>
 <node id="749280884" visible="true" version="1" changeset="4813826" timestamp="2010-05-26T16:04:40Z" user="Tom_G3X" uid="146930" lat="34.0390320" lon="132.1821160"/>
 <node id="749307447" visible="true" version="2" changeset="124014248" timestamp="2022-07-24T15:27:05Z" user="AYAGE" uid="521665" lat="34.0344778" lon="132.1760090"/>
 <node id="749327169" visible="true" version="2" changeset="123960139" timestamp="2022-07-23T02:14:53Z" user="AYAGE" uid="521665" lat="34.0386213" lon="132.1783066"/>
 <node id="749357157" visible="true" version="1" changeset="4814433" timestamp="2010-05-26T16:29:17Z" user="Tom_G3X" uid="146930" lat="34.0363840" lon="132.1773590"/>
 <node id="749396677" visible="true" version="2" changeset="123960139" timestamp="2022-07-23T02:14:53Z" user="AYAGE" uid="521665" lat="34.0392935" lon="132.1810193"/>
 <node id="749428915" visible="true" version="1" changeset="4814433" timestamp="2010-05-26T16:51:36Z" user="Tom_G3X" uid="146930" lat="34.0388770" lon="132.1788420"/>
 <node id="749471469" visible="true" version="2" changeset="123960139" timestamp="2022-07-23T02:14:53Z" user="AYAGE" uid="521665" lat="34.0390457" lon="132.1829701"/>
 <node id="749542612" visible="true" version="2" changeset="124014248" timestamp="2022-07-24T15:27:05Z" user="AYAGE" uid="521665" lat="34.0351668" lon="132.1768073"/>
 <node id="749556474" visible="true" version="2" changeset="123960139" timestamp="2022-07-23T02:14:53Z" user="AYAGE" uid="521665" lat="34.0392193" lon="132.1832312"/>
 <node id="749587931" visible="true" version="1" changeset="4815008" timestamp="2010-05-26T17:41:25Z" user="Tom_G3X" uid="146930" lat="34.0380860" lon="132.1779950"/>
 <node id="749624337" visible="true" version="2" changeset="124014248" timestamp="2022-07-24T15:27:05Z" user="AYAGE" uid="521665" lat="34.0354235" lon="132.1769863"/>
 <node id="749671679" visible="true" version="2" changeset="123960139" timestamp="2022-07-23T02:14:53Z" user="AYAGE" uid="521665" lat="34.0392527" lon="132.1798661"/>
 <node id="749704418" visible="true" version="2" changeset="124014248" timestamp="2022-07-24T15:27:05Z" user="AYAGE" uid="521665" lat="34.0342702" lon="132.1742508"/>
 <node id="749760226" visible="true" version="2" changeset="123960139" timestamp="2022-07-23T02:14:53Z" user="AYAGE" uid="521665" lat="34.0389794" lon="132.1823198"/>
 <node id="749784905" visible="true" version="2" changeset="124014248" timestamp="2022-07-24T15:27:05Z" user="AYAGE" uid="521665" lat="34.0346014" lon="132.1761786"/>
 <node id="749797297" visible="true" version="2" changeset="124014248" timestamp="2022-07-24T15:27:05Z" user="AYAGE" uid="521665" lat="34.0343185" lon="132.1751998"/>
 <node id="749809059" visible="true" version="1" changeset="4815758" timestamp="2010-05-26T19:07:22Z" user="Tom_G3X" uid="146930" lat="34.0369340" lon="132.1775560"/>
 <node id="749827819" visible="true" version="2" changeset="123960139" timestamp="2022-07-23T02:14:53Z" user="AYAGE" uid="521665" lat="34.0392540" lon="132.1813714"/>
 <node id="749862564" visible="true" version="2" changeset="123960139" timestamp="2022-07-23T02:14:53Z" user="AYAGE" uid="521665" lat="34.0390927" lon="132.1791910"/>
 <node id="749890468" visible="true" version="2" changeset="124014248" timestamp="2022-07-24T15:27:05Z" user="AYAGE" uid="521665" lat="34.0342906" lon="132.1735876"/>
 <node id="1336520293" visible="true" version="2" changeset="124021253" timestamp="2022-07-24T19:04:01Z" user="AYAGE" uid="521665" lat="34.0390394" lon="132.1775601"/>
 <node id="1336520363" visible="true" version="2" changeset="33573708" timestamp="2015-08-25T15:00:17Z" user="nmaruichi" uid="317331" lat="34.0351285" lon="132.1719526"/>
 <node id="1336520405" visible="true" version="1" changeset="8529683" timestamp="2011-06-24T07:39:56Z" user="yamasan" uid="32308" lat="34.0386320" lon="132.1768950"/>
 <node id="1336520669" visible="true" version="2" changeset="33573708" timestamp="2015-08-25T15:00:16Z" user="nmaruichi" uid="317331" lat="34.0400265" lon="132.1795253"/>
 <node id="1336521086" visible="true" version="1" changeset="8529683" timestamp="2011-06-24T07:40:12Z" user="yamasan" uid="32308" lat="34.0413320" lon="132.1837820"/>
 <node id="1336521211" visible="true" version="3" changeset="122964857" timestamp="2022-06-28T16:20:55Z" user="AYAGE" uid="521665" lat="34.0429481" lon="132.1839614"/>
 <node id="1336521313" visible="true" version="4" changeset="122964857" timestamp="2022-06-28T16:20:55Z" user="AYAGE" uid="521665" lat="34.0446466" lon="132.1862207"/>
 <node id="1336521329" visible="true" version="2" changeset="124021253" timestamp="2022-07-24T19:04:01Z" user="AYAGE" uid="521665" lat="34.0372653" lon="132.1771993"/>
 <node id="1336521434" visible="true" version="2" changeset="124014248" timestamp="2022-07-24T15:27:05Z" user="AYAGE" uid="521665" lat="34.0372535" lon="132.1790747"/>
 <node id="1336521529" visible="true" version="2" changeset="123960139" timestamp="2022-07-23T02:14:53Z" user="AYAGE" uid="521665" lat="34.0391941" lon="132.1791636"/>
 <node id="1336521669" visible="true" version="3" changeset="123960139" timestamp="2022-07-23T02:14:53Z" user="AYAGE" uid="521665" lat="34.0429760" lon="132.1828520"/>
 <node id="1336521885" visible="true" version="4" changeset="124021253" timestamp="2022-07-24T19:04:01Z" user="AYAGE" uid="521665" lat="34.0325690" lon="132.1624643"/>
 <node id="1336521932" visible="true" version="3" changeset="40652005" timestamp="2016-07-11T14:43:23Z" user="nmaruichi" uid="317331" lat="34.0330502" lon="132.1630620"/>
 <node id="1336522121" visible="true" version="2" changeset="124014248" timestamp="2022-07-24T15:27:05Z" user="AYAGE" uid="521665" lat="34.0367066" lon="132.1776568"/>
 <node id="1336522148" visible="true" version="2" changeset="124014248" timestamp="2022-07-24T15:27:05Z" user="AYAGE" uid="521665" lat="34.0383773" lon="132.1784769"/>
 <node id="1336522252" visible="true" version="4" changeset="122964857" timestamp="2022-06-28T16:20:55Z" user="AYAGE" uid="521665" lat="34.0456695" lon="132.1879384"/>
 <node id="1336522462" visible="true" version="2" changeset="33573708" timestamp="2015-08-25T15:00:16Z" user="nmaruichi" uid="317331" lat="34.0365049" lon="132.1749008"/>
 <node id="1336522510" visible="true" version="2" changeset="123960139" timestamp="2022-07-23T02:14:53Z" user="AYAGE" uid="521665" lat="34.0420751" lon="132.1838762"/>
 <node id="1336522535" visible="true" version="2" changeset="33573708" timestamp="2015-08-25T15:00:17Z" user="nmaruichi" uid="317331" lat="34.0379702" lon="132.1766988"/>
 <node id="1336522655" visible="true" version="2" changeset="124014248" timestamp="2022-07-24T15:27:05Z" user="AYAGE" uid="521665" lat="34.0382821" lon="132.1784087"/>
 <node id="1336522796" visible="true" version="2" changeset="123960139" timestamp="2022-07-23T02:14:53Z" user="AYAGE" uid="521665" lat="34.0399424" lon="132.1833417"/>
 <node id="1336522954" visible="true" version="2" changeset="123960139" timestamp="2022-07-23T02:14:53Z" user="AYAGE" uid="521665" lat="34.0397100" lon="132.1831699"/>
 <node id="1336523056" visible="true" version="1" changeset="8529683" timestamp="2011-06-24T07:41:01Z" user="yamasan" uid="32308" lat="34.0386460" lon="132.1767000"/>
 <node id="1336523064" visible="true" version="2" changeset="124021253" timestamp="2022-07-24T19:04:01Z" user="AYAGE" uid="521665" lat="34.0358907" lon="132.1762891"/>
 <node id="1336523570" visible="true" version="2" changeset="123960139" timestamp="2022-07-23T02:14:53Z" user="AYAGE" uid="521665" lat="34.0380468" lon="132.1776932"/>
 <node id="1336523622" visible="true" version="2" changeset="124014248" timestamp="2022-07-24T15:27:05Z" user="AYAGE" uid="521665" lat="34.0389089" lon="132.1794413"/>
 <node id="1336523694" visible="true" version="1" changeset="8529683" timestamp="2011-06-24T07:41:17Z" user="yamasan" uid="32308" lat="34.0393520" lon="132.1778910"/>
 <node id="1336523752" visible="true" version="2" changeset="123960139" timestamp="2022-07-23T02:14:53Z" user="AYAGE" uid="521665" lat="34.0384439" lon="132.1778755"/>
 <node id="1336523858" visible="true" version="2" changeset="123960139" timestamp="2022-07-23T02:14:53Z" user="AYAGE" uid="521665" lat="34.0388098" lon="132.1781940"/>
 <node id="1336524005" visible="true" version="3" changeset="124021253" timestamp="2022-07-24T19:04:01Z" user="AYAGE" uid="521665" lat="34.0397975" lon="132.1790620"/>
 <node id="1336524162" visible="true" version="2" changeset="124021253" timestamp="2022-07-24T19:04:01Z" user="AYAGE" uid="521665" lat="34.0366896" lon="132.1768377"/>
 <node id="1336524247" visible="true" version="2" changeset="123960139" timestamp="2022-07-23T02:14:53Z" user="AYAGE" uid="521665" lat="34.0387141" lon="132.1780597"/>
 <node id="1336524272" visible="true" version="2" changeset="123960139" timestamp="2022-07-23T02:14:53Z" user="AYAGE" uid="521665" lat="34.0393398" lon="132.1796748"/>
 <node id="1336524408" visible="true" version="3" changeset="123960139" timestamp="2022-07-23T02:14:53Z" user="AYAGE" uid="521665" lat="34.0426307" lon="132.1824529"/>
 <node id="1336524672" visible="true" version="4" changeset="122964857" timestamp="2022-06-28T16:20:55Z" user="AYAGE" uid="521665" lat="34.0445529" lon="132.1858693"/>
 <node id="1336524838" visible="true" version="3" changeset="123960139" timestamp="2022-07-23T02:14:53Z" user="AYAGE" uid="521665" lat="34.0420865" lon="132.1818469"/>
 <node id="1336526537" visible="true" version="2" changeset="33573708" timestamp="2015-08-25T15:00:16Z" user="nmaruichi" uid="317331" lat="34.0361052" lon="132.1740592"/>
 <node id="1336526628" visible="true" version="2" changeset="124030618" timestamp="2022-07-25T04:14:57Z" user="AYAGE" uid="521665" lat="34.0383138" lon="132.1769864"/>
 <node id="1336526640" visible="true" version="2" changeset="124014248" timestamp="2022-07-24T15:27:05Z" user="AYAGE" uid="521665" lat="34.0372401" lon="132.1778783"/>
 <node id="1336526675" visible="true" version="4" changeset="124021253" timestamp="2022-07-24T19:04:01Z" user="AYAGE" uid="521665" lat="34.0338912" lon="132.1662769"/>
 <node id="1336526687" visible="true" version="4" changeset="122964857" timestamp="2022-06-28T16:20:55Z" user="AYAGE" uid="521665" lat="34.0450008" lon="132.1869231"/>
 <node id="1336526743" visible="true" version="2" changeset="123960139" timestamp="2022-07-23T02:14:53Z" user="AYAGE" uid="521665" lat="34.0392550" lon="132.1817645"/>
 <node id="1336526757" visible="true" version="1" changeset="8529683" timestamp="2011-06-24T07:43:27Z" user="yamasan" uid="32308" lat="34.0394910" lon="132.1828840"/>
 <node id="1336526822" visible="true" version="3" changeset="124021253" timestamp="2022-07-24T19:04:01Z" user="AYAGE" uid="521665" lat="34.0369107" lon="132.1756552"/>
 <node id="1336527046" visible="true" version="2" changeset="33573708" timestamp="2015-08-25T15:00:16Z" user="nmaruichi" uid="317331" lat="34.0401887" lon="132.1797410"/>
 <node id="1336527268" visible="true" version="2" changeset="124014248" timestamp="2022-07-24T15:27:05Z" user="AYAGE" uid="521665" lat="34.0388275" lon="132.1792016"/>
 <node id="1336527631" visible="true" version="2" changeset="33573708" timestamp="2015-08-25T15:00:16Z" user="nmaruichi" uid="317331" lat="34.0356570" lon="132.1731155"/>
 <node id="1336527935" visible="true" version="2" changeset="124014248" timestamp="2022-07-24T15:27:05Z" user="AYAGE" uid="521665" lat="34.0390732" lon="132.1806600"/>
 <node id="1336527996" visible="true" version="2" changeset="124014248" timestamp="2022-07-24T15:27:05Z" user="AYAGE" uid="521665" lat="34.0372662" lon="132.1789220"/>
 <node id="1336528166" visible="true" version="3" changeset="123960139" timestamp="2022-07-23T02:14:53Z" user="AYAGE" uid="521665" lat="34.0411465" lon="132.1807947"/>
 <node id="1336528427" visible="true" version="2" changeset="123960139" timestamp="2022-07-23T02:14:53Z" user="AYAGE" uid="521665" lat="34.0380320" lon="132.1777285"/>
 <node id="1336528541" visible="true" version="2" changeset="123960139" timestamp="2022-07-23T02:14:53Z" user="AYAGE" uid="521665" lat="34.0402145" lon="132.1834999"/>
 <node id="1336528570" visible="true" version="2" changeset="124014248" timestamp="2022-07-24T15:27:05Z" user="AYAGE" uid="521665" lat="34.0386823" lon="132.1820107"/>
 <node id="1336528608" visible="true" version="2" changeset="33573708" timestamp="2015-08-25T15:00:17Z" user="nmaruichi" uid="317331" lat="34.0349005" lon="132.1713692"/>
 <node id="1336528627" visible="true" version="2" changeset="33573708" timestamp="2015-08-25T15:00:17Z" user="nmaruichi" uid="317331" lat="34.0342494" lon="132.1685345"/>
 <node id="1336528726" visible="true" version="2" changeset="33573708" timestamp="2015-08-25T15:00:17Z" user="nmaruichi" uid="317331" lat="34.0347824" lon="132.1710311"/>
 <node id="1336528731" visible="true" version="2" changeset="33573708" timestamp="2015-08-25T15:00:17Z" user="nmaruichi" uid="317331" lat="34.0352631" lon="132.1722609"/>
 <node id="1336528778" visible="true" version="2" changeset="124014248" timestamp="2022-07-24T15:27:05Z" user="AYAGE" uid="521665" lat="34.0386988" lon="132.1789110"/>
 <node id="1336528937" visible="true" version="2" changeset="123960139" timestamp="2022-07-23T02:14:53Z" user="AYAGE" uid="521665" lat="34.0404758" lon="132.1836103"/>
 <node id="1336528955" visible="true" version="2" changeset="123960139" timestamp="2022-07-23T02:14:53Z" user="AYAGE" uid="521665" lat="34.0381849" lon="132.1777572"/>
 <node id="1336529127" visible="true" version="1" changeset="8529683" timestamp="2011-06-24T07:44:10Z" user="yamasan" uid="32308" lat="34.0395630" lon="132.1782820"/>
 <node id="1336529345" visible="true" version="2" changeset="123960139" timestamp="2022-07-23T02:14:53Z" user="AYAGE" uid="521665" lat="34.0394458" lon="132.1812617"/>
 <node id="1336529710" visible="true" version="3" changeset="124021253" timestamp="2022-07-24T19:04:01Z" user="AYAGE" uid="521665" lat="34.0343660" lon="132.1693300"/>
 <node id="1336529904" visible="true" version="2" changeset="124021253" timestamp="2022-07-24T19:04:01Z" user="AYAGE" uid="521665" lat="34.0361102" lon="132.1764658"/>
 <node id="1336530167" visible="true" version="2" changeset="124014248" timestamp="2022-07-24T15:27:05Z" user="AYAGE" uid="521665" lat="34.0377315" lon="132.1780871"/>
 <node id="1336530441" visible="true" version="2" changeset="33573708" timestamp="2015-08-25T15:00:09Z" user="nmaruichi" uid="317331" lat="34.0442185" lon="132.1846959"/>
 <node id="1336530587" visible="true" version="4" changeset="122964857" timestamp="2022-06-28T16:20:55Z" user="AYAGE" uid="521665" lat="34.0453772" lon="132.1875006"/>
 <node id="1336530820" visible="true" version="2" changeset="123960139" timestamp="2022-07-23T02:14:53Z" user="AYAGE" uid="521665" lat="34.0392452" lon="132.1819980"/>
 <node id="1336531134" visible="true" version="2" changeset="123960139" timestamp="2022-07-23T02:14:53Z" user="AYAGE" uid="521665" lat="34.0378172" lon="132.1775527"/>
 <node id="1336531169" visible="true" version="5" changeset="122964857" timestamp="2022-06-28T16:20:55Z" user="AYAGE" uid="521665" lat="34.0445131" lon="132.1856686">
  <tag k="highway" v="traffic_signals"/>
  <tag k="name" v="中村"/>
  <tag k="name:ja" v="中村"/>
  <tag k="source:name" v="survey"/>
  <tag k="survey:date" v="2018-09-06"/>
 </node>
 <node id="1336531356" visible="true" version="4" changeset="122964857" timestamp="2022-06-28T16:20:55Z" user="AYAGE" uid="521665" lat="34.0462392" lon="132.1887719"/>
 <node id="1336531368" visible="true" version="4" changeset="124021253" timestamp="2022-07-24T19:04:01Z" user="AYAGE" uid="521665" lat="34.0328401" lon="132.1627235"/>
 <node id="1336531449" visible="true" version="4" changeset="124021253" timestamp="2022-07-24T19:04:01Z" user="AYAGE" uid="521665" lat="34.0331768" lon="132.1634653"/>
 <node id="1336531618" visible="true" version="1" changeset="8529683" timestamp="2011-06-24T07:44:46Z" user="yamasan" uid="32308" lat="34.0394010" lon="132.1826980"/>
 <node id="1336532014" visible="true" version="3" changeset="124021253" timestamp="2022-07-24T19:04:01Z" user="AYAGE" uid="521665" lat="34.0327143" lon="132.1625869"/>
 <node id="1336532093" visible="true" version="4" changeset="124021253" timestamp="2022-07-24T19:04:01Z" user="AYAGE" uid="521665" lat="34.0336760" lon="132.1654013"/>
 <node id="1336532119" visible="true" version="2" changeset="123960139" timestamp="2022-07-23T02:14:53Z" user="AYAGE" uid="521665" lat="34.0395550" lon="132.1829739"/>
 <node id="1336532244" visible="true" version="2" changeset="124014248" timestamp="2022-07-24T15:27:05Z" user="AYAGE" uid="521665" lat="34.0390188" lon="132.1810872"/>
 <node id="1336532278" visible="true" version="2" changeset="124014248" timestamp="2022-07-24T15:27:05Z" user="AYAGE" uid="521665" lat="34.0373819" lon="132.1786248"/>
 <node id="1336532532" visible="true" version="2" changeset="124014248" timestamp="2022-07-24T15:27:05Z" user="AYAGE" uid="521665" lat="34.0387517" lon="132.1818245"/>
 <node id="1336537106" visible="true" version="2" changeset="123960139" timestamp="2022-07-23T02:14:53Z" user="AYAGE" uid="521665" lat="34.0383168" lon="132.1778088"/>
 <node id="1336537323" visible="true" version="3" changeset="124021253" timestamp="2022-07-24T19:04:01Z" user="AYAGE" uid="521665" lat="34.0344723" lon="132.1698628"/>
 <node id="1336537757" visible="true" version="2" changeset="124021253" timestamp="2022-07-24T19:04:01Z" user="AYAGE" uid="521665" lat="34.0396900" lon="132.1787014">
  <tag k="crossing" v="uncontrolled"/>
  <tag k="highway" v="crossing"/>
 </node>
 <node id="1336538002" visible="true" version="2" changeset="124030618" timestamp="2022-07-25T04:14:57Z" user="AYAGE" uid="521665" lat="34.0386373" lon="132.1766258"/>
 <node id="1336538233" visible="true" version="2" changeset="124014248" timestamp="2022-07-24T15:27:05Z" user="AYAGE" uid="521665" lat="34.0389951" lon="132.1797820"/>
 <node id="1336538478" visible="true" version="3" changeset="124021253" timestamp="2022-07-24T19:04:01Z" user="AYAGE" uid="521665" lat="34.0372104" lon="132.1760147"/>
 <node id="1336538578" visible="true" version="2" changeset="124021253" timestamp="2022-07-24T19:04:01Z" user="AYAGE" uid="521665" lat="34.0370730" lon="132.1770502"/>
 <node id="1336538637" visible="true" version="2" changeset="123960139" timestamp="2022-07-23T02:14:53Z" user="AYAGE" uid="521665" lat="34.0394313" lon="132.1805360"/>
 <node id="1336538704" visible="true" version="4" changeset="124021253" timestamp="2022-07-24T19:04:01Z" user="AYAGE" uid="521665" lat="34.0340110" lon="132.1668773"/>
 <node id="1336538752" visible="true" version="2" changeset="123960139" timestamp="2022-07-23T02:14:53Z" user="AYAGE" uid="521665" lat="34.0390291" lon="132.1786894"/>
 <node id="1336538965" visible="true" version="3" changeset="124021253" timestamp="2022-07-24T19:04:01Z" user="AYAGE" uid="521665" lat="34.0341543" lon="132.1678833"/>
 <node id="1336539012" visible="true" version="2" changeset="33573708" timestamp="2015-08-25T15:00:16Z" user="nmaruichi" uid="317331" lat="34.0354610" lon="132.1727029"/>
 <node id="1336539161" visible="true" version="4" changeset="122964857" timestamp="2022-06-28T16:20:55Z" user="AYAGE" uid="521665" lat="34.0447364" lon="132.1864657"/>
 <node id="1336539375" visible="true" version="3" changeset="124021253" timestamp="2022-07-24T19:04:01Z" user="AYAGE" uid="521665" lat="34.0345853" lon="132.1703536"/>
 <node id="1336539669" visible="true" version="1" changeset="8529683" timestamp="2011-06-24T07:48:01Z" user="yamasan" uid="32308" lat="34.0391960" lon="132.1777030"/>
 <node id="1336539682" visible="true" version="4" changeset="123960139" timestamp="2022-07-23T02:14:53Z" user="AYAGE" uid="521665" lat="34.0439852" lon="132.1842473"/>
 <node id="1336539846" visible="true" version="5" changeset="122964857" timestamp="2022-06-28T16:20:55Z" user="AYAGE" uid="521665" lat="34.0448425" lon="132.1866624"/>
 <node id="1336539951" visible="true" version="2" changeset="124014248" timestamp="2022-07-24T15:27:05Z" user="AYAGE" uid="521665" lat="34.0389691" lon="132.1796622"/>
 <node id="1336540018" visible="true" version="2" changeset="123960139" timestamp="2022-07-23T02:14:53Z" user="AYAGE" uid="521665" lat="34.0392891" lon="132.1794725"/>
 <node id="1336540169" visible="true" version="2" changeset="33573708" timestamp="2015-08-25T15:00:17Z" user="nmaruichi" uid="317331" lat="34.0374918" lon="132.1762908"/>
 <node id="1336540208" visible="true" version="3" changeset="124021253" timestamp="2022-07-24T19:04:01Z" user="AYAGE" uid="521665" lat="34.0340680" lon="132.1672614"/>
 <node id="1336540520" visible="true" version="4" changeset="122964857" timestamp="2022-06-28T16:20:55Z" user="AYAGE" uid="521665" lat="34.0458308" lon="132.1881870"/>
 <node id="1336540664" visible="true" version="2" changeset="123960139" timestamp="2022-07-23T02:14:53Z" user="AYAGE" uid="521665" lat="34.0394471" lon="132.1811253"/>
 <node id="1336540811" visible="true" version="2" changeset="123960139" timestamp="2022-07-23T02:14:53Z" user="AYAGE" uid="521665" lat="34.0394235" lon="132.1813909"/>
 <node id="1336541064" visible="true" version="4" changeset="124021253" timestamp="2022-07-24T19:04:01Z" user="AYAGE" uid="521665" lat="34.0331093" lon="132.1632137"/>
 <node id="1336541266" visible="true" version="2" changeset="33573708" timestamp="2015-08-25T15:00:16Z" user="nmaruichi" uid="317331" lat="34.0368073" lon="132.1755046"/>
 <node id="1336541372" visible="true" version="1" changeset="8529683" timestamp="2011-06-24T07:48:29Z" user="yamasan" uid="32308" lat="34.0407890" lon="132.1836820"/>
 <node id="1336541458" visible="true" version="2" changeset="123960139" timestamp="2022-07-23T02:14:53Z" user="AYAGE" uid="521665" lat="34.0392327" lon="132.1818786"/>
 <node id="1336541709" visible="true" version="3" changeset="124021253" timestamp="2022-07-24T19:04:01Z" user="AYAGE" uid="521665" lat="34.0399426" lon="132.1794079"/>
 <node id="1336542638" visible="true" version="2" changeset="124014248" timestamp="2022-07-24T15:27:05Z" user="AYAGE" uid="521665" lat="34.0390706" lon="132.1803518"/>
 <node id="1336543898" visible="true" version="2" changeset="124021253" timestamp="2022-07-24T19:04:01Z" user="AYAGE" uid="521665" lat="34.0365128" lon="132.1767306"/>
 <node id="1336544968" visible="true" version="2" changeset="124014248" timestamp="2022-07-24T15:27:05Z" user="AYAGE" uid="521665" lat="34.0378746" lon="132.1781658"/>
 <node id="1336545312" visible="true" version="3" changeset="58043400" timestamp="2018-04-12T18:08:31Z" user="nmaruichi" uid="317331" lat="34.0333986" lon="132.1643131"/>
 <node id="1336545612" visible="true" version="2" changeset="124021253" timestamp="2022-07-24T19:04:01Z" user="AYAGE" uid="521665" lat="34.0385831" lon="132.1772117"/>
 <node id="1336547810" visible="true" version="3" changeset="58043400" timestamp="2018-04-12T18:08:31Z" user="nmaruichi" uid="317331" lat="34.0445855" lon="132.1860065"/>
 <node id="1336547884" visible="true" version="1" changeset="8529683" timestamp="2011-06-24T07:50:28Z" user="yamasan" uid="32308" lat="34.0394760" lon="132.1780840"/>
 <node id="1336548398" visible="true" version="2" changeset="123960139" timestamp="2022-07-23T02:14:53Z" user="AYAGE" uid="521665" lat="34.0378836" lon="132.1781380"/>
 <node id="1336548662" visible="true" version="2" changeset="123960139" timestamp="2022-07-23T02:14:53Z" user="AYAGE" uid="521665" lat="34.0388873" lon="132.1783436"/>
 <node id="1336548893" visible="true" version="1" changeset="8529683" timestamp="2011-06-24T07:50:43Z" user="yamasan" uid="32308" lat="34.0393130" lon="132.1824160"/>
 <node id="1336548913" visible="true" version="2" changeset="123960139" timestamp="2022-07-23T02:14:53Z" user="AYAGE" uid="521665" lat="34.0393801" lon="132.1799195"/>
 <node id="1336548938" visible="true" version="4" changeset="122964857" timestamp="2022-06-28T16:20:55Z" user="AYAGE" uid="521665" lat="34.0460406" lon="132.1885097"/>
 <node id="1336548995" visible="true" version="2" changeset="124021253" timestamp="2022-07-24T19:04:01Z" user="AYAGE" uid="521665" lat="34.0373515" lon="132.1772692"/>
 <node id="1336549280" visible="true" version="2" changeset="33573708" timestamp="2015-08-25T15:00:16Z" user="nmaruichi" uid="317331" lat="34.0366341" lon="132.1751695"/>
 <node id="1336549599" visible="true" version="2" changeset="33573708" timestamp="2015-08-25T15:00:17Z" user="nmaruichi" uid="317331" lat="34.0353839" lon="132.1725393"/>
 <node id="1336549615" visible="true" version="2" changeset="33573708" timestamp="2015-08-25T15:00:16Z" user="nmaruichi" uid="317331" lat="34.0363414" lon="132.1745565"/>
 <node id="1336549723" visible="true" version="2" changeset="124014248" timestamp="2022-07-24T15:27:05Z" user="AYAGE" uid="521665" lat="34.0373169" lon="132.1797070"/>
 <node id="1336549851" visible="true" version="2" changeset="123960139" timestamp="2022-07-23T02:14:53Z" user="AYAGE" uid="521665" lat="34.0392654" lon="132.1822106"/>
 <node id="1336549887" visible="true" version="4" changeset="124021253" timestamp="2022-07-24T19:04:01Z" user="AYAGE" uid="521665" lat="34.0329303" lon="132.1628412"/>
 <node id="1336549929" visible="true" version="2" changeset="124014248" timestamp="2022-07-24T15:27:05Z" user="AYAGE" uid="521665" lat="34.0386043" lon="132.1787480"/>
 <node id="1336549982" visible="true" version="2" changeset="124014248" timestamp="2022-07-24T15:27:05Z" user="AYAGE" uid="521665" lat="34.0390433" lon="132.1800748"/>
 <node id="1336550552" visible="true" version="3" changeset="124021253" timestamp="2022-07-24T19:04:01Z" user="AYAGE" uid="521665" lat="34.0346731" lon="132.1706677"/>
 <node id="1336550607" visible="true" version="3" changeset="124021253" timestamp="2022-07-24T19:04:01Z" user="AYAGE" uid="521665" lat="34.0370668" lon="132.1758566"/>
 <node id="1336550868" visible="true" version="2" changeset="33573708" timestamp="2015-08-25T15:00:16Z" user="nmaruichi" uid="317331" lat="34.0406392" lon="132.1802467"/>
 <node id="1336551040" visible="true" version="2" changeset="123960139" timestamp="2022-07-23T02:14:53Z" user="AYAGE" uid="521665" lat="34.0416632" lon="132.1813721"/>
 <node id="1336551112" visible="true" version="2" changeset="124014248" timestamp="2022-07-24T15:27:05Z" user="AYAGE" uid="521665" lat="34.0390545" lon="132.1808885"/>
 <node id="1919934138" visible="true" version="3" changeset="123960139" timestamp="2022-07-23T02:14:53Z" user="AYAGE" uid="521665" lat="34.0420572" lon="132.1818119">
  <tag k="crossing_ref" v="zebra"/>
  <tag k="highway" v="crossing"/>
 </node>
 <node id="2999448234" visible="true" version="2" changeset="123960139" timestamp="2022-07-23T02:14:53Z" user="AYAGE" uid="521665" lat="34.0394053" lon="132.1811938"/>
 <node id="2999448433" visible="true" version="2" changeset="123960139" timestamp="2022-07-23T02:14:53Z" user="AYAGE" uid="521665" lat="34.0391937" lon="132.1811382"/>
 <node id="3001470833" visible="true" version="2" changeset="123960139" timestamp="2022-07-23T02:14:53Z" user="AYAGE" uid="521665" lat="34.0393759" lon="132.1804510"/>
 <node id="3001470834" visible="true" version="2" changeset="124014248" timestamp="2022-07-24T15:27:05Z" user="AYAGE" uid="521665" lat="34.0348988" lon="132.1763612"/>
 <node id="3001470835" visible="true" version="2" changeset="124014248" timestamp="2022-07-24T15:27:05Z" user="AYAGE" uid="521665" lat="34.0343555" lon="132.1744749"/>
 <node id="3001470836" visible="true" version="2" changeset="124014248" timestamp="2022-07-24T15:27:05Z" user="AYAGE" uid="521665" lat="34.0342761" lon="132.1755454"/>
 <node id="3001470933" visible="true" version="2" changeset="123960139" timestamp="2022-07-23T02:14:53Z" user="AYAGE" uid="521665" lat="34.0392395" lon="132.1795151"/>
 <node id="3001470934" visible="true" version="3" changeset="124014248" timestamp="2022-07-24T15:27:05Z" user="AYAGE" uid="521665" lat="34.0368128" lon="132.1773612"/>
 <node id="3001471033" visible="true" version="2" changeset="123960139" timestamp="2022-07-23T02:14:53Z" user="AYAGE" uid="521665" lat="34.0391463" lon="132.1792036"/>
 <node id="3001471034" visible="true" version="3" changeset="124014248" timestamp="2022-07-24T15:27:05Z" user="AYAGE" uid="521665" lat="34.0353002" lon="132.1767725"/>
 <node id="3001471133" visible="true" version="2" changeset="123960139" timestamp="2022-07-23T02:14:53Z" user="AYAGE" uid="521665" lat="34.0389301" lon="132.1788003"/>
 <node id="3001471134" visible="true" version="2" changeset="124014248" timestamp="2022-07-24T15:27:05Z" user="AYAGE" uid="521665" lat="34.0347630" lon="132.1765436"/>
 <node id="3001471135" visible="true" version="2" changeset="123960139" timestamp="2022-07-23T02:14:53Z" user="AYAGE" uid="521665" lat="34.0391359" lon="132.1796724"/>
 <node id="3001471333" visible="true" version="2" changeset="123960139" timestamp="2022-07-23T02:14:53Z" user="AYAGE" uid="521665" lat="34.0387047" lon="132.1782907"/>
 <node id="3001471433" visible="true" version="2" changeset="123960139" timestamp="2022-07-23T02:14:53Z" user="AYAGE" uid="521665" lat="34.0384478" lon="132.1780619"/>
 <node id="3001471434" visible="true" version="3" changeset="124014248" timestamp="2022-07-24T15:27:05Z" user="AYAGE" uid="521665" lat="34.0361589" lon="132.1771068"/>
 <node id="3001471435" visible="true" version="3" changeset="124014248" timestamp="2022-07-24T15:27:05Z" user="AYAGE" uid="521665" lat="34.0386097" lon="132.1784225"/>
 <node id="3001471533" visible="true" version="3" changeset="124014248" timestamp="2022-07-24T15:27:05Z" user="AYAGE" uid="521665" lat="34.0380922" lon="132.1778588"/>
 <node id="3001471633" visible="true" version="3" changeset="124014248" timestamp="2022-07-24T15:27:05Z" user="AYAGE" uid="521665" lat="34.0374194" lon="132.1776604"/>
 <node id="3001471733" visible="true" version="3" changeset="124014248" timestamp="2022-07-24T15:27:05Z" user="AYAGE" uid="521665" lat="34.0357415" lon="132.1770166"/>
 <node id="3001471734" visible="true" version="2" changeset="123960139" timestamp="2022-07-23T02:14:53Z" user="AYAGE" uid="521665" lat="34.0388198" lon="132.1789437"/>
 <node id="3001471933" visible="true" version="1" changeset="24586503" timestamp="2014-08-07T00:15:19Z" user="ひろときょうたまなかなおや" uid="2000955" lat="34.0346493" lon="132.1760647"/>
 <node id="3001471934" visible="true" version="2" changeset="124014248" timestamp="2022-07-24T15:27:05Z" user="AYAGE" uid="521665" lat="34.0343739" lon="132.1750380"/>
 <node id="3001471935" visible="true" version="2" changeset="124014248" timestamp="2022-07-24T15:27:05Z" user="AYAGE" uid="521665" lat="34.0344668" lon="132.1761654"/>
 <node id="3001472033" visible="true" version="2" changeset="124014248" timestamp="2022-07-24T15:27:05Z" user="AYAGE" uid="521665" lat="34.0344888" lon="132.1758008"/>
 <node id="3001472034" visible="true" version="1" changeset="24586503" timestamp="2014-08-07T00:15:25Z" user="ひろときょうたまなかなおや" uid="2000955" lat="34.0361011" lon="132.1773646"/>
 <node id="3001472035" visible="true" version="1" changeset="24586503" timestamp="2014-08-07T00:15:26Z" user="ひろときょうたまなかなおや" uid="2000955" lat="34.0376384" lon="132.1779473"/>
 <node id="3001472036" visible="true" version="2" changeset="123960139" timestamp="2022-07-23T02:14:53Z" user="AYAGE" uid="521665" lat="34.0391864" lon="132.1800655"/>
 <node id="3001472233" visible="true" version="3" changeset="124014248" timestamp="2022-07-24T15:27:05Z" user="AYAGE" uid="521665" lat="34.0345984" lon="132.1739332"/>
 <node id="3001472333" visible="true" version="3" changeset="124014248" timestamp="2022-07-24T15:27:05Z" user="AYAGE" uid="521665" lat="34.0342016" lon="132.1739442"/>
 <node id="3001472334" visible="true" version="2" changeset="124014248" timestamp="2022-07-24T15:27:05Z" user="AYAGE" uid="521665" lat="34.0342072" lon="132.1745416"/>
 <node id="3001472533" visible="true" version="2" changeset="124014248" timestamp="2022-07-24T15:27:05Z" user="AYAGE" uid="521665" lat="34.0349476" lon="132.1767471"/>
 <node id="3001472534" visible="true" version="2" changeset="124014248" timestamp="2022-07-24T15:27:05Z" user="AYAGE" uid="521665" lat="34.0353423" lon="132.1770652"/>
 <node id="3001472535" visible="true" version="2" changeset="123960139" timestamp="2022-07-23T02:14:53Z" user="AYAGE" uid="521665" lat="34.0381635" lon="132.1781662"/>
 <node id="3713762915" visible="true" version="1" changeset="33573708" timestamp="2015-08-25T15:00:08Z" user="nmaruichi" uid="317331" lat="34.0444129" lon="132.1852180"/>
 <node id="3713762916" visible="true" version="1" changeset="33573708" timestamp="2015-08-25T15:00:08Z" user="nmaruichi" uid="317331" lat="34.0443500" lon="132.1850165"/>
 <node id="3713762919" visible="true" version="1" changeset="33573708" timestamp="2015-08-25T15:00:09Z" user="nmaruichi" uid="317331" lat="34.0444650" lon="132.1854428"/>
 <node id="3713763029" visible="true" version="2" changeset="123960139" timestamp="2022-07-23T02:14:53Z" user="AYAGE" uid="521665" lat="34.0436207" lon="132.1836447"/>
 <node id="9853674899" visible="true" version="2" changeset="123960139" timestamp="2022-07-23T02:14:53Z" user="AYAGE" uid="521665" lat="34.0438464" lon="132.1839983"/>
 <node id="9905150876" visible="true" version="1" changeset="123960139" timestamp="2022-07-23T02:14:53Z" user="AYAGE" uid="521665" lat="34.0433604" lon="132.1832916"/>
 <node id="9905150877" visible="true" version="2" changeset="124014248" timestamp="2022-07-24T15:27:05Z" user="AYAGE" uid="521665" lat="34.0372388" lon="132.1775798"/>
 <node id="9905150878" visible="true" version="2" changeset="124014248" timestamp="2022-07-24T15:27:05Z" user="AYAGE" uid="521665" lat="34.0378778" lon="132.1777917"/>
 <node id="9905150879" visible="true" version="1" changeset="123960139" timestamp="2022-07-23T02:14:53Z" user="AYAGE" uid="521665" lat="34.0394186" lon="132.1802567"/>
 <node id="9905150880" visible="true" version="1" changeset="123960139" timestamp="2022-07-23T02:14:53Z" user="AYAGE" uid="521665" lat="34.0385863" lon="132.1779627"/>
 <node id="9905150881" visible="true" version="1" changeset="123960139" timestamp="2022-07-23T02:14:53Z" user="AYAGE" uid="521665" lat="34.0390280" lon="132.1790168"/>
 <node id="9905150882" visible="true" version="1" changeset="123960139" timestamp="2022-07-23T02:14:53Z" user="AYAGE" uid="521665" lat="34.0388346" lon="132.1785072"/>
 <node id="9905150883" visible="true" version="2" changeset="124014248" timestamp="2022-07-24T15:27:05Z" user="AYAGE" uid="521665" lat="34.0383768" lon="132.1782772"/>
 <node id="9905150884" visible="true" version="2" changeset="124014248" timestamp="2022-07-24T15:27:05Z" user="AYAGE" uid="521665" lat="34.0387302" lon="132.1785910"/>
 <node id="9905150885" visible="true" version="1" changeset="123960139" timestamp="2022-07-23T02:14:53Z" user="AYAGE" uid="521665" lat="34.0387702" lon="132.1785508"/>
 <node id="9905150886" visible="true" version="1" changeset="123960139" timestamp="2022-07-23T02:14:53Z" user="AYAGE" uid="521665" lat="34.0387646" lon="132.1787801"/>
 <node id="9905150887" visible="true" version="1" changeset="123960139" timestamp="2022-07-23T02:14:53Z" user="AYAGE" uid="521665" lat="34.0389536" lon="132.1791717"/>
 <node id="9905150888" visible="true" version="1" changeset="123960139" timestamp="2022-07-23T02:14:53Z" user="AYAGE" uid="521665" lat="34.0390480" lon="132.1793179"/>
 <node id="9905150889" visible="true" version="1" changeset="123960139" timestamp="2022-07-23T02:14:53Z" user="AYAGE" uid="521665" lat="34.0391969" lon="132.1804284"/>
 <node id="9905150890" visible="true" version="1" changeset="123960139" timestamp="2022-07-23T02:14:53Z" user="AYAGE" uid="521665" lat="34.0391880" lon="132.1807744"/>
 <node id="9905150893" visible="true" version="1" changeset="123960139" timestamp="2022-07-23T02:14:53Z" user="AYAGE" uid="521665" lat="34.0393381" lon="132.1799657"/>
 <node id="9905150896" visible="true" version="1" changeset="123960139" timestamp="2022-07-23T02:14:53Z" user="AYAGE" uid="521665" lat="34.0393864" lon="132.1814872"/>
 <node id="9905150897" visible="true" version="1" changeset="123960139" timestamp="2022-07-23T02:14:53Z" user="AYAGE" uid="521665" lat="34.0393003" lon="132.1816628"/>
 <node id="9905203963" visible="true" version="1" changeset="123960139" timestamp="2022-07-23T02:14:53Z" user="AYAGE" uid="521665" lat="34.0387513" lon="132.1757452"/>
 <node id="9905203964" visible="true" version="1" changeset="123960139" timestamp="2022-07-23T02:14:53Z" user="AYAGE" uid="521665" lat="34.0387213" lon="132.1757546"/>
 <node id="9905203965" visible="true" version="1" changeset="123960139" timestamp="2022-07-23T02:14:53Z" user="AYAGE" uid="521665" lat="34.0386402" lon="132.1756983"/>
 <node id="9905203966" visible="true" version="1" changeset="123960139" timestamp="2022-07-23T02:14:53Z" user="AYAGE" uid="521665" lat="34.0385168" lon="132.1756366"/>
 <node id="9905203967" visible="true" version="1" changeset="123960139" timestamp="2022-07-23T02:14:53Z" user="AYAGE" uid="521665" lat="34.0384746" lon="132.1756366"/>
 <node id="9905203968" visible="true" version="1" changeset="123960139" timestamp="2022-07-23T02:14:53Z" user="AYAGE" uid="521665" lat="34.0384679" lon="132.1757238"/>
 <node id="9905203969" visible="true" version="1" changeset="123960139" timestamp="2022-07-23T02:14:53Z" user="AYAGE" uid="521665" lat="34.0384512" lon="132.1757506"/>
 <node id="9905203970" visible="true" version="1" changeset="123960139" timestamp="2022-07-23T02:14:53Z" user="AYAGE" uid="521665" lat="34.0383568" lon="132.1757036"/>
 <node id="9905203971" visible="true" version="1" changeset="123960139" timestamp="2022-07-23T02:14:53Z" user="AYAGE" uid="521665" lat="34.0382979" lon="132.1757103"/>
 <node id="9905203972" visible="true" version="1" changeset="123960139" timestamp="2022-07-23T02:14:53Z" user="AYAGE" uid="521665" lat="34.0382668" lon="132.1757720"/>
 <node id="9905203973" visible="true" version="1" changeset="123960139" timestamp="2022-07-23T02:14:53Z" user="AYAGE" uid="521665" lat="34.0383301" lon="132.1758834"/>
 <node id="9905203974" visible="true" version="1" changeset="123960139" timestamp="2022-07-23T02:14:53Z" user="AYAGE" uid="521665" lat="34.0384590" lon="132.1760161"/>
 <node id="9905203975" visible="true" version="1" changeset="123960139" timestamp="2022-07-23T02:14:53Z" user="AYAGE" uid="521665" lat="34.0385590" lon="132.1761355"/>
 <node id="9905203976" visible="true" version="1" changeset="123960139" timestamp="2022-07-23T02:14:53Z" user="AYAGE" uid="521665" lat="34.0386024" lon="132.1762200"/>
 <node id="9905203977" visible="true" version="1" changeset="123960139" timestamp="2022-07-23T02:14:53Z" user="AYAGE" uid="521665" lat="34.0386291" lon="132.1764024"/>
 <node id="9905203978" visible="true" version="1" changeset="123960139" timestamp="2022-07-23T02:14:53Z" user="AYAGE" uid="521665" lat="34.0387113" lon="132.1763554"/>
 <node id="9905203979" visible="true" version="1" changeset="123960139" timestamp="2022-07-23T02:14:53Z" user="AYAGE" uid="521665" lat="34.0388480" lon="132.1764627"/>
 <node id="9905203980" visible="true" version="1" changeset="123960139" timestamp="2022-07-23T02:14:53Z" user="AYAGE" uid="521665" lat="34.0388924" lon="132.1766008"/>
 <node id="9905203981" visible="true" version="1" changeset="123960139" timestamp="2022-07-23T02:14:53Z" user="AYAGE" uid="521665" lat="34.0388880" lon="132.1767296"/>
 <node id="9905203982" visible="true" version="1" changeset="123960139" timestamp="2022-07-23T02:14:53Z" user="AYAGE" uid="521665" lat="34.0389880" lon="132.1768731"/>
 <node id="9905203983" visible="true" version="1" changeset="123960139" timestamp="2022-07-23T02:14:53Z" user="AYAGE" uid="521665" lat="34.0390047" lon="132.1771158"/>
 <node id="9905203984" visible="true" version="1" changeset="123960139" timestamp="2022-07-23T02:14:53Z" user="AYAGE" uid="521665" lat="34.0389580" lon="132.1772888"/>
 <node id="9905203985" visible="true" version="1" changeset="123960139" timestamp="2022-07-23T02:14:53Z" user="AYAGE" uid="521665" lat="34.0389069" lon="132.1773639"/>
 <node id="9905203986" visible="true" version="1" changeset="123960139" timestamp="2022-07-23T02:14:53Z" user="AYAGE" uid="521665" lat="34.0389602" lon="132.1774283"/>
 <node id="9905203987" visible="true" version="1" changeset="123960139" timestamp="2022-07-23T02:14:53Z" user="AYAGE" uid="521665" lat="34.0391636" lon="132.1775812"/>
 <node id="9905203988" visible="true" version="1" changeset="123960139" timestamp="2022-07-23T02:14:53Z" user="AYAGE" uid="521665" lat="34.0392581" lon="132.1776134"/>
 <node id="9905203989" visible="true" version="1" changeset="123960139" timestamp="2022-07-23T02:14:53Z" user="AYAGE" uid="521665" lat="34.0393203" lon="132.1777461"/>
 <node id="9905203990" visible="true" version="1" changeset="123960139" timestamp="2022-07-23T02:14:53Z" user="AYAGE" uid="521665" lat="34.0393536" lon="132.1777569"/>
 <node id="9905203991" visible="true" version="1" changeset="123960139" timestamp="2022-07-23T02:14:53Z" user="AYAGE" uid="521665" lat="34.0393881" lon="132.1776804"/>
 <node id="9905203992" visible="true" version="1" changeset="123960139" timestamp="2022-07-23T02:14:53Z" user="AYAGE" uid="521665" lat="34.0393770" lon="132.1775892"/>
 <node id="9905203993" visible="true" version="1" changeset="123960139" timestamp="2022-07-23T02:14:53Z" user="AYAGE" uid="521665" lat="34.0393925" lon="132.1774618"/>
 <node id="9905203994" visible="true" version="1" changeset="123960139" timestamp="2022-07-23T02:14:53Z" user="AYAGE" uid="521665" lat="34.0393914" lon="132.1773814"/>
 <node id="9905203995" visible="true" version="1" changeset="123960139" timestamp="2022-07-23T02:14:53Z" user="AYAGE" uid="521665" lat="34.0392581" lon="132.1772204"/>
 <node id="9905203996" visible="true" version="1" changeset="123960139" timestamp="2022-07-23T02:14:53Z" user="AYAGE" uid="521665" lat="34.0391692" lon="132.1771386"/>
 <node id="9905203997" visible="true" version="1" changeset="123960139" timestamp="2022-07-23T02:14:53Z" user="AYAGE" uid="521665" lat="34.0392003" lon="132.1770260"/>
 <node id="9905203998" visible="true" version="1" changeset="123960139" timestamp="2022-07-23T02:14:53Z" user="AYAGE" uid="521665" lat="34.0393014" lon="132.1770246"/>
 <node id="9905203999" visible="true" version="1" changeset="123960139" timestamp="2022-07-23T02:14:53Z" user="AYAGE" uid="521665" lat="34.0393970" lon="132.1770783"/>
 <node id="9905204000" visible="true" version="1" changeset="123960139" timestamp="2022-07-23T02:14:53Z" user="AYAGE" uid="521665" lat="34.0394503" lon="132.1770823"/>
 <node id="9905204001" visible="true" version="1" changeset="123960139" timestamp="2022-07-23T02:14:53Z" user="AYAGE" uid="521665" lat="34.0395181" lon="132.1770126"/>
 <node id="9905204002" visible="true" version="1" changeset="123960139" timestamp="2022-07-23T02:14:53Z" user="AYAGE" uid="521665" lat="34.0395981" lon="132.1771225"/>
 <node id="9905204003" visible="true" version="1" changeset="123960139" timestamp="2022-07-23T02:14:53Z" user="AYAGE" uid="521665" lat="34.0396103" lon="132.1772110"/>
 <node id="9905204004" visible="true" version="1" changeset="123960139" timestamp="2022-07-23T02:14:53Z" user="AYAGE" uid="521665" lat="34.0395403" lon="132.1773465"/>
 <node id="9905204005" visible="true" version="1" changeset="123960139" timestamp="2022-07-23T02:14:53Z" user="AYAGE" uid="521665" lat="34.0394514" lon="132.1775369"/>
 <node id="9905204006" visible="true" version="1" changeset="123960139" timestamp="2022-07-23T02:14:53Z" user="AYAGE" uid="521665" lat="34.0394336" lon="132.1776469"/>
 <node id="9905204007" visible="true" version="1" changeset="123960139" timestamp="2022-07-23T02:14:53Z" user="AYAGE" uid="521665" lat="34.0394681" lon="132.1777971"/>
 <node id="9905204008" visible="true" version="1" changeset="123960139" timestamp="2022-07-23T02:14:53Z" user="AYAGE" uid="521665" lat="34.0395448" lon="132.1778628"/>
 <node id="9905204009" visible="true" version="1" changeset="123960139" timestamp="2022-07-23T02:14:53Z" user="AYAGE" uid="521665" lat="34.0395970" lon="132.1779808"/>
 <node id="9905204010" visible="true" version="1" changeset="123960139" timestamp="2022-07-23T02:14:53Z" user="AYAGE" uid="521665" lat="34.0397215" lon="132.1780345"/>
 <node id="9905204011" visible="true" version="1" changeset="123960139" timestamp="2022-07-23T02:14:53Z" user="AYAGE" uid="521665" lat="34.0398748" lon="132.1780613"/>
 <node id="9905204012" visible="true" version="1" changeset="123960139" timestamp="2022-07-23T02:14:53Z" user="AYAGE" uid="521665" lat="34.0400760" lon="132.1780989"/>
 <node id="9905204013" visible="true" version="1" changeset="123960139" timestamp="2022-07-23T02:14:53Z" user="AYAGE" uid="521665" lat="34.0401227" lon="132.1781968"/>
 <node id="9905204014" visible="true" version="1" changeset="123960139" timestamp="2022-07-23T02:14:53Z" user="AYAGE" uid="521665" lat="34.0401716" lon="132.1781901"/>
 <node id="9905204015" visible="true" version="1" changeset="123960139" timestamp="2022-07-23T02:14:53Z" user="AYAGE" uid="521665" lat="34.0402227" lon="132.1781015"/>
 <node id="9905204016" visible="true" version="1" changeset="123960139" timestamp="2022-07-23T02:14:53Z" user="AYAGE" uid="521665" lat="34.0403683" lon="132.1779433"/>
 <node id="9905204017" visible="true" version="1" changeset="123960139" timestamp="2022-07-23T02:14:53Z" user="AYAGE" uid="521665" lat="34.0405005" lon="132.1778990"/>
 <node id="9905204018" visible="true" version="1" changeset="123960139" timestamp="2022-07-23T02:14:53Z" user="AYAGE" uid="521665" lat="34.0406227" lon="132.1779031"/>
 <node id="9905204019" visible="true" version="1" changeset="123960139" timestamp="2022-07-23T02:14:53Z" user="AYAGE" uid="521665" lat="34.0407094" lon="132.1776831"/>
 <node id="9905204020" visible="true" version="1" changeset="123960139" timestamp="2022-07-23T02:14:53Z" user="AYAGE" uid="521665" lat="34.0406861" lon="132.1775933"/>
 <node id="9905204021" visible="true" version="1" changeset="123960139" timestamp="2022-07-23T02:14:53Z" user="AYAGE" uid="521665" lat="34.0406038" lon="132.1775785"/>
 <node id="9905204022" visible="true" version="1" changeset="123960139" timestamp="2022-07-23T02:14:53Z" user="AYAGE" uid="521665" lat="34.0404994" lon="132.1777153"/>
 <node id="9905204023" visible="true" version="1" changeset="123960139" timestamp="2022-07-23T02:14:53Z" user="AYAGE" uid="521665" lat="34.0403749" lon="132.1777810"/>
 <node id="9905204024" visible="true" version="1" changeset="123960139" timestamp="2022-07-23T02:14:53Z" user="AYAGE" uid="521665" lat="34.0402416" lon="132.1778105"/>
 <node id="9905204025" visible="true" version="1" changeset="123960139" timestamp="2022-07-23T02:14:53Z" user="AYAGE" uid="521665" lat="34.0401327" lon="132.1777917"/>
 <node id="9905204026" visible="true" version="1" changeset="123960139" timestamp="2022-07-23T02:14:53Z" user="AYAGE" uid="521665" lat="34.0400671" lon="132.1777099"/>
 <node id="9905204027" visible="true" version="1" changeset="123960139" timestamp="2022-07-23T02:14:53Z" user="AYAGE" uid="521665" lat="34.0400160" lon="132.1774256"/>
 <node id="9905204028" visible="true" version="1" changeset="123960139" timestamp="2022-07-23T02:14:53Z" user="AYAGE" uid="521665" lat="34.0401627" lon="132.1772285"/>
 <node id="9905204029" visible="true" version="1" changeset="123960139" timestamp="2022-07-23T02:14:53Z" user="AYAGE" uid="521665" lat="34.0403594" lon="132.1770515"/>
 <node id="9905204030" visible="true" version="1" changeset="123960139" timestamp="2022-07-23T02:14:53Z" user="AYAGE" uid="521665" lat="34.0405205" lon="132.1770850"/>
 <node id="9905204031" visible="true" version="1" changeset="123960139" timestamp="2022-07-23T02:14:53Z" user="AYAGE" uid="521665" lat="34.0406505" lon="132.1772084"/>
 <node id="9905204032" visible="true" version="1" changeset="123960139" timestamp="2022-07-23T02:14:53Z" user="AYAGE" uid="521665" lat="34.0407828" lon="132.1772915"/>
 <node id="9905204033" visible="true" version="1" changeset="123960139" timestamp="2022-07-23T02:14:53Z" user="AYAGE" uid="521665" lat="34.0408528" lon="132.1772875"/>
 <node id="9905204034" visible="true" version="1" changeset="123960139" timestamp="2022-07-23T02:14:53Z" user="AYAGE" uid="521665" lat="34.0409372" lon="132.1771815"/>
 <node id="9905204035" visible="true" version="1" changeset="123960139" timestamp="2022-07-23T02:14:53Z" user="AYAGE" uid="521665" lat="34.0410350" lon="132.1771185"/>
 <node id="9905204036" visible="true" version="1" changeset="123960139" timestamp="2022-07-23T02:14:53Z" user="AYAGE" uid="521665" lat="34.0411428" lon="132.1770689"/>
 <node id="9907783870" visible="true" version="1" changeset="124014248" timestamp="2022-07-24T15:27:05Z" user="AYAGE" uid="521665" lat="34.0373121" lon="132.1787627"/>
 <node id="9907783880" visible="true" version="1" changeset="124014248" timestamp="2022-07-24T15:27:05Z" user="AYAGE" uid="521665" lat="34.0385413" lon="132.1795513"/>
 <node id="9907783881" visible="true" version="1" changeset="124014248" timestamp="2022-07-24T15:27:05Z" user="AYAGE" uid="521665" lat="34.0383223" lon="132.1796022"/>
 <node id="9907783882" visible="true" version="1" changeset="124014248" timestamp="2022-07-24T15:27:05Z" user="AYAGE" uid="521665" lat="34.0376989" lon="132.1796934"/>
 <node id="9907783883" visible="true" version="1" changeset="124014248" timestamp="2022-07-24T15:27:05Z" user="AYAGE" uid="521665" lat="34.0375344" lon="132.1797082"/>
 <node id="9907783884" visible="true" version="1" changeset="124014248" timestamp="2022-07-24T15:27:05Z" user="AYAGE" uid="521665" lat="34.0379022" lon="132.1796425"/>
 <node id="9907783885" visible="true" version="1" changeset="124014248" timestamp="2022-07-24T15:27:05Z" user="AYAGE" uid="521665" lat="34.0379867" lon="132.1796291"/>
 <node id="9907783895" visible="true" version="1" changeset="124014248" timestamp="2022-07-24T15:27:05Z" user="AYAGE" uid="521665" lat="34.0385024" lon="132.1783362"/>
 <node id="9907783896" visible="true" version="1" changeset="124014248" timestamp="2022-07-24T15:27:05Z" user="AYAGE" uid="521665" lat="34.0383246" lon="132.1779808"/>
 <node id="9907783897" visible="true" version="1" changeset="124014248" timestamp="2022-07-24T15:27:05Z" user="AYAGE" uid="521665" lat="34.0369598" lon="132.1774162"/>
 <node id="9907783898" visible="true" version="1" changeset="124014248" timestamp="2022-07-24T15:27:05Z" user="AYAGE" uid="521665" lat="34.0360163" lon="132.1770622"/>
 <node id="9907783899" visible="true" version="1" changeset="124014248" timestamp="2022-07-24T15:27:05Z" user="AYAGE" uid="521665" lat="34.0354917" lon="132.1769187"/>
 <node id="9907783900" visible="true" version="1" changeset="124014248" timestamp="2022-07-24T15:27:05Z" user="AYAGE" uid="521665" lat="34.0351061" lon="132.1765767"/>
 <node id="9907783901" visible="true" version="1" changeset="124014248" timestamp="2022-07-24T15:27:05Z" user="AYAGE" uid="521665" lat="34.0346049" lon="132.1762589"/>
 <node id="9907783902" visible="true" version="1" changeset="124014248" timestamp="2022-07-24T15:27:05Z" user="AYAGE" uid="521665" lat="34.0346749" lon="132.1763581"/>
 <node id="9907783903" visible="true" version="1" changeset="124014248" timestamp="2022-07-24T15:27:05Z" user="AYAGE" uid="521665" lat="34.0351606" lon="132.1769536"/>
 <node id="9907783905" visible="true" version="1" changeset="124014248" timestamp="2022-07-24T15:27:05Z" user="AYAGE" uid="521665" lat="34.0376489" lon="132.1780385"/>
 <node id="9907783906" visible="true" version="1" changeset="124014248" timestamp="2022-07-24T15:27:05Z" user="AYAGE" uid="521665" lat="34.0376433" lon="132.1782303"/>
 <node id="9907783907" visible="true" version="1" changeset="124014248" timestamp="2022-07-24T15:27:05Z" user="AYAGE" uid="521665" lat="34.0384951" lon="132.1785944"/>
 <node id="9907783908" visible="true" version="1" changeset="124014248" timestamp="2022-07-24T15:27:05Z" user="AYAGE" uid="521665" lat="34.0389708" lon="132.1812652"/>
 <node id="9907783909" visible="true" version="1" changeset="124014248" timestamp="2022-07-24T15:27:05Z" user="AYAGE" uid="521665" lat="34.0388730" lon="132.1815307"/>
 <node id="9907783932" visible="true" version="1" changeset="124014248" timestamp="2022-07-24T15:27:05Z" user="AYAGE" uid="521665" lat="34.0341964" lon="132.1741218"/>
 <node id="9907783933" visible="true" version="1" changeset="124014248" timestamp="2022-07-24T15:27:05Z" user="AYAGE" uid="521665" lat="34.0342431" lon="132.1741366"/>
 <node id="9907783934" visible="true" version="1" changeset="124014248" timestamp="2022-07-24T15:27:05Z" user="AYAGE" uid="521665" lat="34.0342414" lon="132.1742257"/>
 <node id="9907783935" visible="true" version="1" changeset="124014248" timestamp="2022-07-24T15:27:05Z" user="AYAGE" uid="521665" lat="34.0342370" lon="132.1750961"/>
 <node id="9907783936" visible="true" version="1" changeset="124014248" timestamp="2022-07-24T15:27:05Z" user="AYAGE" uid="521665" lat="34.0343393" lon="132.1758136"/>
 <node id="9907783937" visible="true" version="1" changeset="124014248" timestamp="2022-07-24T15:27:05Z" user="AYAGE" uid="521665" lat="34.0342464" lon="132.1739548"/>
 <node id="9907783938" visible="true" version="1" changeset="124014248" timestamp="2022-07-24T15:27:05Z" user="AYAGE" uid="521665" lat="34.0342859" lon="132.1739515"/>
 <node id="9907783939" visible="true" version="1" changeset="124014248" timestamp="2022-07-24T15:27:05Z" user="AYAGE" uid="521665" lat="34.0345982" lon="132.1740185"/>
 <node id="9907783941" visible="true" version="1" changeset="124014248" timestamp="2022-07-24T15:27:05Z" user="AYAGE" uid="521665" lat="34.0344948" lon="132.1740286"/>
 <node id="9907783942" visible="true" version="1" changeset="124014248" timestamp="2022-07-24T15:27:05Z" user="AYAGE" uid="521665" lat="34.0344459" lon="132.1740970"/>
 <node id="9907783943" visible="true" version="1" changeset="124014248" timestamp="2022-07-24T15:27:05Z" user="AYAGE" uid="521665" lat="34.0343826" lon="132.1742807"/>
 <node id="9907783944" visible="true" version="1" changeset="124014248" timestamp="2022-07-24T15:27:05Z" user="AYAGE" uid="521665" lat="34.0344459" lon="132.1754609"/>
 <node id="9908108486" visible="true" version="1" changeset="124021253" timestamp="2022-07-24T19:04:01Z" user="AYAGE" uid="521665" lat="34.0369504" lon="132.1769730"/>
 <node id="9908108487" visible="true" version="1" changeset="124021253" timestamp="2022-07-24T19:04:01Z" user="AYAGE" uid="521665" lat="34.0378400" lon="132.1775047"/>
 <node id="9908108488" visible="true" version="1" changeset="124021253" timestamp="2022-07-24T19:04:01Z" user="AYAGE" uid="521665" lat="34.0378728" lon="132.1774484"/>
 <node id="9908108489" visible="true" version="1" changeset="124021253" timestamp="2022-07-24T19:04:01Z" user="AYAGE" uid="521665" lat="34.0379134" lon="132.1773706"/>
 <node id="9908108490" visible="true" version="1" changeset="124021253" timestamp="2022-07-24T19:04:01Z" user="AYAGE" uid="521665" lat="34.0379161" lon="132.1773116"/>
 <node id="9908108491" visible="true" version="1" changeset="124021253" timestamp="2022-07-24T19:04:01Z" user="AYAGE" uid="521665" lat="34.0379006" lon="132.1772573"/>
 <node id="9908108492" visible="true" version="1" changeset="124021253" timestamp="2022-07-24T19:04:01Z" user="AYAGE" uid="521665" lat="34.0377717" lon="132.1771178"/>
 <node id="9908108493" visible="true" version="1" changeset="124021253" timestamp="2022-07-24T19:04:01Z" user="AYAGE" uid="521665" lat="34.0377067" lon="132.1770863"/>
 <node id="9908108494" visible="true" version="1" changeset="124021253" timestamp="2022-07-24T19:04:01Z" user="AYAGE" uid="521665" lat="34.0376655" lon="132.1770810"/>
 <node id="9908108495" visible="true" version="1" changeset="124021253" timestamp="2022-07-24T19:04:01Z" user="AYAGE" uid="521665" lat="34.0374649" lon="132.1770883"/>
 <node id="9908108496" visible="true" version="1" changeset="124021253" timestamp="2022-07-24T19:04:01Z" user="AYAGE" uid="521665" lat="34.0374138" lon="132.1770843"/>
 <node id="9908108497" visible="true" version="1" changeset="124021253" timestamp="2022-07-24T19:04:01Z" user="AYAGE" uid="521665" lat="34.0373627" lon="132.1770649"/>
 <node id="9908108498" visible="true" version="1" changeset="124021253" timestamp="2022-07-24T19:04:01Z" user="AYAGE" uid="521665" lat="34.0373049" lon="132.1770166"/>
 <node id="9908108499" visible="true" version="1" changeset="124021253" timestamp="2022-07-24T19:04:01Z" user="AYAGE" uid="521665" lat="34.0371165" lon="132.1767598"/>
 <node id="9908108500" visible="true" version="1" changeset="124021253" timestamp="2022-07-24T19:04:01Z" user="AYAGE" uid="521665" lat="34.0370510" lon="132.1766860"/>
 <node id="9908108501" visible="true" version="1" changeset="124021253" timestamp="2022-07-24T19:04:01Z" user="AYAGE" uid="521665" lat="34.0370415" lon="132.1766592"/>
 <node id="9908108502" visible="true" version="1" changeset="124021253" timestamp="2022-07-24T19:04:01Z" user="AYAGE" uid="521665" lat="34.0370404" lon="132.1765982"/>
 <node id="9908108503" visible="true" version="1" changeset="124021253" timestamp="2022-07-24T19:04:01Z" user="AYAGE" uid="521665" lat="34.0370537" lon="132.1764889"/>
 <node id="9908108504" visible="true" version="1" changeset="124021253" timestamp="2022-07-24T19:04:01Z" user="AYAGE" uid="521665" lat="34.0370665" lon="132.1764111"/>
 <node id="9908108505" visible="true" version="1" changeset="124021253" timestamp="2022-07-24T19:04:01Z" user="AYAGE" uid="521665" lat="34.0370776" lon="132.1763125"/>
 <node id="9908108506" visible="true" version="1" changeset="124021253" timestamp="2022-07-24T19:04:01Z" user="AYAGE" uid="521665" lat="34.0370815" lon="132.1762481"/>
 <node id="9908108507" visible="true" version="1" changeset="124021253" timestamp="2022-07-24T19:04:01Z" user="AYAGE" uid="521665" lat="34.0371076" lon="132.1761683"/>
 <node id="9908108508" visible="true" version="1" changeset="124021253" timestamp="2022-07-24T19:04:01Z" user="AYAGE" uid="521665" lat="34.0371671" lon="132.1760523"/>
 <node id="9908108509" visible="true" version="1" changeset="124021253" timestamp="2022-07-24T19:04:01Z" user="AYAGE" uid="521665" lat="34.0386307" lon="132.1770360"/>
 <node id="9908108510" visible="true" version="1" changeset="124021253" timestamp="2022-07-24T19:04:01Z" user="AYAGE" uid="521665" lat="34.0386179" lon="132.1771272"/>
 <node id="9908108545" visible="true" version="1" changeset="124021253" timestamp="2022-07-24T19:04:01Z" user="AYAGE" uid="521665" lat="34.0403066" lon="132.1789961"/>
 <node id="9908108546" visible="true" version="1" changeset="124021253" timestamp="2022-07-24T19:04:01Z" user="AYAGE" uid="521665" lat="34.0402866" lon="132.1789873"/>
 <node id="9908108547" visible="true" version="1" changeset="124021253" timestamp="2022-07-24T19:04:01Z" user="AYAGE" uid="521665" lat="34.0401966" lon="132.1789364"/>
 <node id="9908108548" visible="true" version="1" changeset="124021253" timestamp="2022-07-24T19:04:01Z" user="AYAGE" uid="521665" lat="34.0400615" lon="132.1789015"/>
 <node id="9908108549" visible="true" version="1" changeset="124021253" timestamp="2022-07-24T19:04:01Z" user="AYAGE" uid="521665" lat="34.0400338" lon="132.1789002"/>
 <node id="9908108550" visible="true" version="1" changeset="124021253" timestamp="2022-07-24T19:04:01Z" user="AYAGE" uid="521665" lat="34.0398715" lon="132.1790034"/>
 <node id="9908108551" visible="true" version="1" changeset="124021253" timestamp="2022-07-24T19:04:01Z" user="AYAGE" uid="521665" lat="34.0393244" lon="132.1796132"/>
 <node id="9908108552" visible="true" version="1" changeset="124021253" timestamp="2022-07-24T19:04:01Z" user="AYAGE" uid="521665" lat="34.0393520" lon="132.1795848"/>
 <node id="9908108553" visible="true" version="1" changeset="124021253" timestamp="2022-07-24T19:04:01Z" user="AYAGE" uid="521665" lat="34.0393542" lon="132.1795439"/>
 <node id="9908108554" visible="true" version="1" changeset="124021253" timestamp="2022-07-24T19:04:01Z" user="AYAGE" uid="521665" lat="34.0393459" lon="132.1794862"/>
 <node id="9908108555" visible="true" version="1" changeset="124021253" timestamp="2022-07-24T19:04:01Z" user="AYAGE" uid="521665" lat="34.0393231" lon="132.1793642"/>
 <node id="9908108556" visible="true" version="1" changeset="124021253" timestamp="2022-07-24T19:04:01Z" user="AYAGE" uid="521665" lat="34.0393258" lon="132.1792898"/>
 <node id="9908108557" visible="true" version="1" changeset="124021253" timestamp="2022-07-24T19:04:01Z" user="AYAGE" uid="521665" lat="34.0393386" lon="132.1792435"/>
 <node id="9908108558" visible="true" version="1" changeset="124021253" timestamp="2022-07-24T19:04:01Z" user="AYAGE" uid="521665" lat="34.0393514" lon="132.1792247"/>
 <node id="9908108559" visible="true" version="1" changeset="124021253" timestamp="2022-07-24T19:04:01Z" user="AYAGE" uid="521665" lat="34.0394053" lon="132.1791805"/>
 <node id="9908108560" visible="true" version="1" changeset="124021253" timestamp="2022-07-24T19:04:01Z" user="AYAGE" uid="521665" lat="34.0395842" lon="132.1790772"/>
 <node id="9908108561" visible="true" version="1" changeset="124021253" timestamp="2022-07-24T19:04:01Z" user="AYAGE" uid="521665" lat="34.0395970" lon="132.1790437"/>
 <node id="9908108562" visible="true" version="1" changeset="124021253" timestamp="2022-07-24T19:04:01Z" user="AYAGE" uid="521665" lat="34.0396026" lon="132.1788398"/>
 <node id="9908108563" visible="true" version="1" changeset="124021253" timestamp="2022-07-24T19:04:01Z" user="AYAGE" uid="521665" lat="34.0396109" lon="132.1787761"/>
 <node id="9908108564" visible="true" version="1" changeset="124021253" timestamp="2022-07-24T19:04:01Z" user="AYAGE" uid="521665" lat="34.0396470" lon="132.1787272"/>
 <node id="9908108565" visible="true" version="1" changeset="124021253" timestamp="2022-07-24T19:04:01Z" user="AYAGE" uid="521665" lat="34.0398809" lon="132.1792797"/>
 <node id="9908263194" visible="true" version="1" changeset="124023779" timestamp="2022-07-24T20:32:21Z" user="AYAGE" uid="521665" lat="34.0339562" lon="132.1666025"/>
 <node id="9908667770" visible="true" version="1" changeset="124030618" timestamp="2022-07-25T04:14:57Z" user="AYAGE" uid="521665" lat="34.0385707" lon="132.1765827"/>
 <node id="9908667771" visible="true" version="1" changeset="124030618" timestamp="2022-07-25T04:14:57Z" user="AYAGE" uid="521665" lat="34.0381351" lon="132.1763051"/>
 <node id="9908667772" visible="true" version="1" changeset="124030618" timestamp="2022-07-25T04:14:57Z" user="AYAGE" uid="521665" lat="34.0382529" lon="132.1764506"/>
 <node id="9908667773" visible="true" version="1" changeset="124030618" timestamp="2022-07-25T04:14:57Z" user="AYAGE" uid="521665" lat="34.0382929" lon="132.1765338"/>
 <node id="9908667774" visible="true" version="1" changeset="124030618" timestamp="2022-07-25T04:14:57Z" user="AYAGE" uid="521665" lat="34.0382929" lon="132.1766116"/>
 <node id="9908667775" visible="true" version="1" changeset="124030618" timestamp="2022-07-25T04:14:57Z" user="AYAGE" uid="521665" lat="34.0382379" lon="132.1767443"/>
 <node id="9908667776" visible="true" version="1" changeset="124030618" timestamp="2022-07-25T04:14:57Z" user="AYAGE" uid="521665" lat="34.0382362" lon="132.1767799"/>
 <node id="9908667777" visible="true" version="1" changeset="124030618" timestamp="2022-07-25T04:14:57Z" user="AYAGE" uid="521665" lat="34.0382529" lon="132.1768101"/>
 <node id="9908667778" visible="true" version="1" changeset="124030618" timestamp="2022-07-25T04:14:57Z" user="AYAGE" uid="521665" lat="34.0383073" lon="132.1769093"/>
 <node id="9908667779" visible="true" version="1" changeset="124030618" timestamp="2022-07-25T04:14:57Z" user="AYAGE" uid="521665" lat="34.0383157" lon="132.1769475"/>
 <node id="9910074231" visible="true" version="1" changeset="124061956" timestamp="2022-07-25T17:15:33Z" user="AYAGE" uid="521665" lat="34.0412012" lon="132.1770806"/>
 <way id="60307944" visible="true" version="4" changeset="153270390" timestamp="2024-06-28T00:30:31Z" user="taketaketake" uid="4757277">
  <nd ref="749890468"/>
  <nd ref="749236731"/>
  <nd ref="749704418"/>
  <nd ref="749024728"/>
  <nd ref="749797297"/>
  <nd ref="749106341"/>
  <nd ref="748926284"/>
  <nd ref="749307447"/>
  <nd ref="749784905"/>
  <nd ref="749084024"/>
  <nd ref="749542612"/>
  <nd ref="749624337"/>
  <nd ref="748967525"/>
  <nd ref="749357157"/>
  <nd ref="749809059"/>
  <nd ref="749136028"/>
  <nd ref="749587931"/>
  <nd ref="748941514"/>
  <nd ref="749327169"/>
  <nd ref="9905150885"/>
  <nd ref="749428915"/>
  <nd ref="749862564"/>
  <nd ref="749209124"/>
  <nd ref="749671679"/>
  <nd ref="748993200"/>
  <nd ref="749396677"/>
  <nd ref="749827819"/>
  <nd ref="749172085"/>
  <nd ref="749280884"/>
  <nd ref="749760226"/>
  <nd ref="749064934"/>
  <nd ref="749471469"/>
  <nd ref="749556474"/>
  <tag k="name" v="由宇川"/>
  <tag k="name:ja" v="由宇川"/>
  <tag k="note" v="National-Land Numerical Information (River) 2006, MLIT Japan"/>
  <tag k="note:ja" v="国土数値情報(河川データ)平成18年国土交通省"/>
  <tag k="source" v="KSJ2"/>
  <tag k="source_ref" v="http://nlftp.mlit.go.jp/ksj/jpgis/datalist/KsjTmplt-W05.html"/>
  <tag k="waterway" v="river"/>
 </way>
 <way id="118901782" visible="true" version="3" changeset="124021253" timestamp="2022-07-24T19:04:01Z" user="AYAGE" uid="521665">
  <nd ref="1336523570"/>
  <nd ref="1336531134"/>
  <nd ref="1336548995"/>
  <nd ref="1336521329"/>
  <nd ref="1336538578"/>
  <nd ref="9908108486"/>
  <nd ref="1336524162"/>
  <nd ref="1336543898"/>
  <nd ref="1336529904"/>
  <nd ref="1336523064"/>
  <tag k="highway" v="unclassified"/>
  <tag k="source" v="YahooJapan/ALPSMAP"/>
 </way>
 <way id="118901891" visible="true" version="4" changeset="171161423" timestamp="2025-08-29T02:47:27Z" user="taketaketake" uid="4757277">
  <nd ref="1336521885"/>
  <nd ref="1336532014"/>
  <nd ref="1336531368"/>
  <nd ref="1336549887"/>
  <nd ref="1336521932"/>
  <nd ref="1336541064"/>
  <nd ref="1336531449"/>
  <nd ref="1336545312"/>
  <nd ref="1336532093"/>
  <nd ref="1336526675"/>
  <nd ref="9908263194"/>
  <nd ref="1336538704"/>
  <nd ref="1336540208"/>
  <nd ref="1336538965"/>
  <nd ref="1336528627"/>
  <nd ref="1336529710"/>
  <nd ref="1336537323"/>
  <nd ref="1336539375"/>
  <nd ref="1336550552"/>
  <nd ref="1336528726"/>
  <nd ref="1336528608"/>
  <nd ref="1336520363"/>
  <nd ref="1336528731"/>
  <nd ref="1336549599"/>
  <nd ref="1336539012"/>
  <nd ref="1336527631"/>
  <nd ref="1336526537"/>
  <nd ref="1336549615"/>
  <nd ref="1336522462"/>
  <nd ref="1336549280"/>
  <nd ref="1336541266"/>
  <nd ref="1336526822"/>
  <nd ref="1336550607"/>
  <nd ref="1336538478"/>
  <nd ref="1336540169"/>
  <nd ref="1336522535"/>
  <nd ref="1336526628"/>
  <nd ref="1336545612"/>
  <nd ref="1336520293"/>
  <nd ref="1336539669"/>
  <nd ref="1336523694"/>
  <nd ref="1336547884"/>
  <nd ref="1336529127"/>
  <nd ref="1336537757"/>
  <nd ref="1336524005"/>
  <nd ref="9908108565"/>
  <nd ref="1336541709"/>
  <nd ref="1336520669"/>
  <nd ref="1336527046"/>
  <nd ref="1336550868"/>
  <nd ref="1336528166"/>
  <nd ref="1336551040"/>
  <nd ref="1919934138"/>
  <nd ref="1336524838"/>
  <nd ref="1336524408"/>
  <nd ref="1336521669"/>
  <nd ref="9905150876"/>
  <nd ref="3713763029"/>
  <nd ref="9853674899"/>
  <nd ref="1336539682"/>
  <nd ref="1336530441"/>
  <nd ref="3713762916"/>
  <nd ref="3713762915"/>
  <nd ref="3713762919"/>
  <nd ref="1336531169"/>
  <nd ref="1336524672"/>
  <nd ref="1336547810"/>
  <nd ref="1336521313"/>
  <nd ref="1336539161"/>
  <nd ref="1336539846"/>
  <nd ref="1336526687"/>
  <nd ref="1336530587"/>
  <nd ref="1336522252"/>
  <nd ref="1336540520"/>
  <nd ref="1336548938"/>
  <nd ref="1336531356"/>
  <tag k="highway" v="secondary"/>
  <tag k="lanes" v="2"/>
  <tag k="maxspeed" v="50"/>
  <tag k="name" v="柳井由宇線"/>
  <tag k="name:en" v="Yanai Yu Line"/>
  <tag k="name:ja" v="柳井由宇線"/>
  <tag k="name:ja-Hira" v="やないゆうせん"/>
  <tag k="name:ja_rm" v="Yanai Yuu-sen"/>
  <tag k="ref" v="149"/>
  <tag k="source" v="YahooJapan/ALPSMAP"/>
  <tag k="surface" v="asphalt"/>
  <tag k="wikidata" v="Q11467151"/>
  <tag k="wikipedia" v="ja:山口県道149号柳井由宇線"/>
 </way>
 <way id="118901938" visible="true" version="2" changeset="124014248" timestamp="2022-07-24T15:27:05Z" user="AYAGE" uid="521665">
  <nd ref="1336523622"/>
  <nd ref="1336527268"/>
  <nd ref="1336528778"/>
  <nd ref="1336549929"/>
  <nd ref="9907783907"/>
  <nd ref="1336522148"/>
  <nd ref="1336522655"/>
  <nd ref="1336544968"/>
  <tag k="highway" v="unclassified"/>
  <tag k="source" v="YahooJapan/ALPSMAP"/>
 </way>
 <way id="118901956" visible="true" version="3" changeset="124021253" timestamp="2022-07-24T19:04:01Z" user="AYAGE" uid="521665">
  <nd ref="1336521211"/>
  <nd ref="1336522510"/>
  <nd ref="1336521086"/>
  <nd ref="1336541372"/>
  <nd ref="1336528937"/>
  <nd ref="1336528541"/>
  <nd ref="1336522796"/>
  <nd ref="1336522954"/>
  <nd ref="1336532119"/>
  <nd ref="1336526757"/>
  <nd ref="1336531618"/>
  <nd ref="1336548893"/>
  <nd ref="1336549851"/>
  <nd ref="1336530820"/>
  <nd ref="1336541458"/>
  <nd ref="1336526743"/>
  <nd ref="9905150897"/>
  <nd ref="9905150896"/>
  <nd ref="1336540811"/>
  <nd ref="1336529345"/>
  <nd ref="1336540664"/>
  <nd ref="1336538637"/>
  <nd ref="9905150879"/>
  <nd ref="1336548913"/>
  <nd ref="1336524272"/>
  <nd ref="9908108551"/>
  <nd ref="1336540018"/>
  <nd ref="1336521529"/>
  <nd ref="1336538752"/>
  <nd ref="1336548662"/>
  <nd ref="1336523858"/>
  <nd ref="1336524247"/>
  <nd ref="9905150880"/>
  <nd ref="1336523752"/>
  <nd ref="1336537106"/>
  <nd ref="1336528955"/>
  <nd ref="1336523570"/>
  <tag k="highway" v="unclassified"/>
  <tag k="source" v="YahooJapan/ALPSMAP"/>
 </way>
 <way id="118901978" visible="true" version="1" changeset="8529683" timestamp="2011-06-24T07:52:15Z" user="yamasan" uid="32308">
  <nd ref="1336548398"/>
  <nd ref="1336544968"/>
  <tag k="highway" v="residential"/>
  <tag k="source" v="YahooJapan/ALPSMAP"/>
  <tag k="yh:STRUCTURE" v="地上"/>
  <tag k="yh:TOTYUMONO" v="供用中"/>
  <tag k="yh:TYPE" v="その他一般道"/>
  <tag k="yh:WIDTH" v="1.5m〜3.0m"/>
  <tag k="yh:WIDTH_RANK" v="4"/>
 </way>
 <way id="118902096" visible="true" version="2" changeset="40654862" timestamp="2016-07-11T15:56:24Z" user="calfarome" uid="2511706">
  <nd ref="1336528427"/>
  <nd ref="1336548398"/>
  <tag k="bridge" v="yes"/>
  <tag k="highway" v="residential"/>
  <tag k="layer" v="1"/>
  <tag k="source" v="YahooJapan/ALPSMAP"/>
 </way>
 <way id="118902119" visible="true" version="2" changeset="124014248" timestamp="2022-07-24T15:27:05Z" user="AYAGE" uid="521665">
  <nd ref="1336528570"/>
  <nd ref="1336532532"/>
  <nd ref="9907783909"/>
  <nd ref="9907783908"/>
  <nd ref="1336532244"/>
  <nd ref="1336551112"/>
  <nd ref="1336527935"/>
  <nd ref="1336542638"/>
  <nd ref="1336549982"/>
  <nd ref="1336538233"/>
  <nd ref="1336539951"/>
  <nd ref="1336523622"/>
  <tag k="highway" v="unclassified"/>
  <tag k="source" v="YahooJapan/ALPSMAP"/>
 </way>
 <way id="118902596" visible="true" version="2" changeset="124014248" timestamp="2022-07-24T15:27:05Z" user="AYAGE" uid="521665">
  <nd ref="1336521434"/>
  <nd ref="1336527996"/>
  <nd ref="9907783870"/>
  <nd ref="1336532278"/>
  <nd ref="9907783906"/>
  <nd ref="1336530167"/>
  <tag k="highway" v="residential"/>
  <tag k="source" v="YahooJapan/ALPSMAP"/>
 </way>
 <way id="118902649" visible="true" version="1" changeset="8529683" timestamp="2011-06-24T07:55:03Z" user="yamasan" uid="32308">
  <nd ref="1336523570"/>
  <nd ref="1336528427"/>
  <tag k="highway" v="residential"/>
  <tag k="source" v="YahooJapan/ALPSMAP"/>
  <tag k="yh:STRUCTURE" v="地上"/>
  <tag k="yh:TOTYUMONO" v="供用中"/>
  <tag k="yh:TYPE" v="その他一般道"/>
  <tag k="yh:WIDTH" v="1.5m〜3.0m"/>
  <tag k="yh:WIDTH_RANK" v="4"/>
 </way>
 <way id="118902914" visible="true" version="1" changeset="8529683" timestamp="2011-06-24T07:56:06Z" user="yamasan" uid="32308">
  <nd ref="1336544968"/>
  <nd ref="1336530167"/>
  <tag k="highway" v="unclassified"/>
  <tag k="source" v="YahooJapan/ALPSMAP"/>
  <tag k="yh:STRUCTURE" v="地上"/>
  <tag k="yh:TOTYUMONO" v="供用中"/>
  <tag k="yh:TYPE" v="その他一般道"/>
  <tag k="yh:WIDTH" v="3.0m〜5.5m"/>
  <tag k="yh:WIDTH_RANK" v="3"/>
 </way>
 <way id="118903110" visible="true" version="2" changeset="124014248" timestamp="2022-07-24T15:27:05Z" user="AYAGE" uid="521665">
  <nd ref="1336549723"/>
  <nd ref="9907783883"/>
  <nd ref="9907783882"/>
  <nd ref="9907783884"/>
  <nd ref="9907783885"/>
  <nd ref="9907783881"/>
  <nd ref="9907783880"/>
  <nd ref="1336523622"/>
  <tag k="highway" v="residential"/>
  <tag k="source" v="YahooJapan/ALPSMAP"/>
 </way>
 <way id="118903181" visible="true" version="2" changeset="124014248" timestamp="2022-07-24T15:27:05Z" user="AYAGE" uid="521665">
  <nd ref="1336530167"/>
  <nd ref="9907783905"/>
  <nd ref="1336526640"/>
  <nd ref="1336522121"/>
  <tag k="highway" v="unclassified"/>
  <tag k="source" v="YahooJapan/ALPSMAP"/>
 </way>
 <way id="296360314" visible="true" version="4" changeset="124014248" timestamp="2022-07-24T15:27:05Z" user="AYAGE" uid="521665">
  <nd ref="2999448433"/>
  <nd ref="2999448234"/>
  <nd ref="3001470833"/>
  <nd ref="9905150893"/>
  <nd ref="3001470933"/>
  <nd ref="3001471033"/>
  <nd ref="9905150881"/>
  <nd ref="3001471133"/>
  <nd ref="9905150882"/>
  <nd ref="3001471333"/>
  <nd ref="3001471433"/>
  <nd ref="9907783896"/>
  <nd ref="3001471533"/>
  <nd ref="9905150878"/>
  <nd ref="3001471633"/>
  <nd ref="9905150877"/>
  <nd ref="9907783897"/>
  <nd ref="3001470934"/>
  <nd ref="3001471434"/>
  <nd ref="9907783898"/>
  <nd ref="3001471733"/>
  <nd ref="9907783899"/>
  <nd ref="3001471034"/>
  <nd ref="9907783900"/>
  <nd ref="3001470834"/>
  <nd ref="3001471933"/>
  <nd ref="3001472033"/>
  <nd ref="9907783944"/>
  <nd ref="3001471934"/>
  <nd ref="3001470835"/>
  <nd ref="9907783943"/>
  <nd ref="9907783942"/>
  <nd ref="9907783941"/>
  <nd ref="9907783939"/>
  <nd ref="3001472233"/>
  <nd ref="9907783938"/>
  <nd ref="9907783937"/>
  <nd ref="3001472333"/>
  <nd ref="9907783932"/>
  <nd ref="9907783933"/>
  <nd ref="9907783934"/>
  <nd ref="3001472334"/>
  <nd ref="9907783935"/>
  <nd ref="3001470836"/>
  <nd ref="9907783936"/>
  <nd ref="3001471935"/>
  <nd ref="9907783901"/>
  <nd ref="9907783902"/>
  <nd ref="3001471134"/>
  <nd ref="3001472533"/>
  <nd ref="9907783903"/>
  <nd ref="3001472534"/>
  <nd ref="3001472034"/>
  <nd ref="3001472035"/>
  <nd ref="3001472535"/>
  <nd ref="9905150883"/>
  <nd ref="9907783895"/>
  <nd ref="3001471435"/>
  <nd ref="9905150884"/>
  <nd ref="9905150886"/>
  <nd ref="3001471734"/>
  <nd ref="9905150887"/>
  <nd ref="9905150888"/>
  <nd ref="3001471135"/>
  <nd ref="3001472036"/>
  <nd ref="9905150889"/>
  <nd ref="9905150890"/>
  <nd ref="2999448433"/>
  <tag k="natural" v="water"/>
  <tag k="source" v="bing"/>
  <tag k="water" v="river"/>
 </way>
 <way id="1080994772" visible="true" version="1" changeset="124021253" timestamp="2022-07-24T19:04:01Z" user="AYAGE" uid="521665">
  <nd ref="1336538478"/>
  <nd ref="9908108508"/>
  <nd ref="9908108507"/>
  <nd ref="9908108506"/>
  <nd ref="9908108505"/>
  <nd ref="9908108504"/>
  <nd ref="9908108503"/>
  <nd ref="9908108502"/>
  <nd ref="9908108501"/>
  <nd ref="9908108500"/>
  <nd ref="9908108499"/>
  <nd ref="9908108498"/>
  <nd ref="9908108497"/>
  <nd ref="9908108496"/>
  <nd ref="9908108495"/>
  <nd ref="9908108494"/>
  <nd ref="9908108493"/>
  <nd ref="9908108492"/>
  <nd ref="9908108491"/>
  <nd ref="9908108490"/>
  <nd ref="9908108489"/>
  <nd ref="9908108488"/>
  <nd ref="9908108487"/>
  <nd ref="1336531134"/>
  <tag k="highway" v="residential"/>
 </way>
 <way id="1080994775" visible="true" version="1" changeset="124021253" timestamp="2022-07-24T19:04:01Z" user="AYAGE" uid="521665">
  <nd ref="1336524005"/>
  <nd ref="9908108550"/>
  <nd ref="9908108549"/>
  <nd ref="9908108548"/>
  <nd ref="9908108547"/>
  <nd ref="9908108546"/>
  <nd ref="9908108545"/>
  <tag k="highway" v="residential"/>
 </way>
 <way id="1080994777" visible="true" version="1" changeset="124021253" timestamp="2022-07-24T19:04:01Z" user="AYAGE" uid="521665">
  <nd ref="1336537757"/>
  <nd ref="9908108564"/>
  <nd ref="9908108563"/>
  <nd ref="9908108562"/>
  <nd ref="9908108561"/>
  <nd ref="9908108560"/>
  <nd ref="9908108559"/>
  <nd ref="9908108558"/>
  <nd ref="9908108557"/>
  <nd ref="9908108556"/>
  <nd ref="9908108555"/>
  <nd ref="9908108554"/>
  <nd ref="9908108553"/>
  <nd ref="9908108552"/>
  <nd ref="9908108551"/>
  <tag k="highway" v="residential"/>
 </way>
 <way id="1081049224" visible="true" version="1" changeset="124030618" timestamp="2022-07-25T04:14:57Z" user="AYAGE" uid="521665">
  <nd ref="9908667770"/>
  <nd ref="1336538002"/>
  <nd ref="1336523056"/>
  <nd ref="1336520405"/>
  <nd ref="9908108509"/>
  <nd ref="9908108510"/>
  <nd ref="1336545612"/>
  <tag k="highway" v="residential"/>
 </way>
 <way id="1081049225" visible="true" version="1" changeset="124030618" timestamp="2022-07-25T04:14:57Z" user="AYAGE" uid="521665">
  <nd ref="1336526628"/>
  <nd ref="9908667779"/>
  <nd ref="9908667778"/>
  <nd ref="9908667777"/>
  <nd ref="9908667776"/>
  <nd ref="9908667775"/>
  <nd ref="9908667774"/>
  <nd ref="9908667773"/>
  <nd ref="9908667772"/>
  <nd ref="9908667771"/>
  <tag k="highway" v="residential"/>
 </way>
 <way id="1081216042" visible="true" version="1" changeset="124061956" timestamp="2022-07-25T17:15:33Z" user="AYAGE" uid="521665">
  <nd ref="9905203963"/>
  <nd ref="9905203964"/>
  <nd ref="9905203965"/>
  <nd ref="9905203966"/>
  <nd ref="9905203967"/>
  <nd ref="9905203968"/>
  <nd ref="9905203969"/>
  <nd ref="9905203970"/>
  <nd ref="9905203971"/>
  <nd ref="9905203972"/>
  <nd ref="9905203973"/>
  <nd ref="9905203974"/>
  <nd ref="9905203975"/>
  <nd ref="9905203976"/>
  <nd ref="9905203977"/>
  <nd ref="9905203978"/>
  <nd ref="9905203979"/>
  <nd ref="9905203980"/>
  <nd ref="9905203981"/>
  <nd ref="9905203982"/>
  <nd ref="9905203983"/>
  <nd ref="9905203984"/>
  <nd ref="9905203985"/>
  <nd ref="9905203986"/>
  <nd ref="9905203987"/>
  <nd ref="9905203988"/>
  <nd ref="9905203989"/>
  <nd ref="9905203990"/>
  <nd ref="9905203991"/>
  <nd ref="9905203992"/>
  <nd ref="9905203993"/>
  <nd ref="9905203994"/>
  <nd ref="9905203995"/>
  <nd ref="9905203996"/>
  <nd ref="9905203997"/>
  <nd ref="9905203998"/>
  <nd ref="9905203999"/>
  <nd ref="9905204000"/>
  <nd ref="9905204001"/>
  <nd ref="9905204002"/>
  <nd ref="9905204003"/>
  <nd ref="9905204004"/>
  <nd ref="9905204005"/>
  <nd ref="9905204006"/>
  <nd ref="9905204007"/>
  <nd ref="9905204008"/>
  <nd ref="9905204009"/>
  <nd ref="9905204010"/>
  <nd ref="9905204011"/>
  <nd ref="9905204012"/>
  <nd ref="9905204013"/>
  <nd ref="9905204014"/>
  <nd ref="9905204015"/>
  <nd ref="9905204016"/>
  <nd ref="9905204017"/>
  <nd ref="9905204018"/>
  <nd ref="9905204019"/>
  <nd ref="9905204020"/>
  <nd ref="9905204021"/>
  <nd ref="9905204022"/>
  <nd ref="9905204023"/>
  <nd ref="9905204024"/>
  <nd ref="9905204025"/>
  <nd ref="9905204026"/>
  <nd ref="9905204027"/>
  <nd ref="9905204028"/>
  <nd ref="9905204029"/>
  <nd ref="9905204030"/>
  <nd ref="9905204031"/>
  <nd ref="9905204032"/>
  <nd ref="9905204033"/>
  <nd ref="9905204034"/>
  <nd ref="9905204035"/>
  <nd ref="9905204036"/>
  <nd ref="9910074231"/>
 </way>
 <relation id="14386219" visible="true" version="2" changeset="124566205" timestamp="2022-08-06T14:59:27Z" user="AYAGE" uid="521665">
  <member type="way" ref="1081216043" role="inner"/>
  <member type="way" ref="1084255971" role="inner"/>
  <member type="way" ref="1081216042" role="outer"/>
  <member type="way" ref="1081216041" role="outer"/>
  <member type="way" ref="1081216044" role="outer"/>
  <member type="way" ref="1081049226" role="outer"/>
  <tag k="natural" v="wood"/>
  <tag k="type" v="multipolygon"/>
 </relation>
 <relation id="19537258" visible="true" version="1" changeset="171161423" timestamp="2025-08-29T02:47:27Z" user="taketaketake" uid="4757277">
  <member type="way" ref="113402073" role=""/>
  <member type="way" ref="1085388524" role=""/>
  <member type="way" ref="113402147" role=""/>
  <member type="way" ref="1085249777" role=""/>
  <member type="way" ref="113402069" role=""/>
  <member type="way" ref="1315844693" role=""/>
  <member type="way" ref="1315844694" role=""/>
  <member type="way" ref="113402377" role=""/>
  <member type="way" ref="113402144" role=""/>
  <member type="way" ref="113402085" role=""/>
  <member type="way" ref="1425712171" role=""/>
  <member type="way" ref="113561800" role=""/>
  <member type="way" ref="113561731" role=""/>
  <member type="way" ref="113563215" role=""/>
  <member type="way" ref="113561762" role=""/>
  <member type="way" ref="113561657" role=""/>
  <member type="way" ref="118902132" role=""/>
  <member type="way" ref="118902167" role=""/>
  <member type="way" ref="118902427" role=""/>
  <member type="way" ref="118901891" role=""/>
  <member type="way" ref="118902068" role=""/>
  <member type="way" ref="118901963" role=""/>
  <member type="way" ref="1425712172" role=""/>
  <member type="way" ref="1425712173" role=""/>
  <tag k="from" v="山口県柳井市柳井"/>
  <tag k="name" v="山口県道149号　柳井由宇線"/>
  <tag k="name:en" v="Yamaguchi Prefectural Route 149 Yanai Yu Line"/>
  <tag k="name:ja" v="山口県道149号　柳井由宇線"/>
  <tag k="name:ja-Hira" v="やまぐちけんどう149ごう やないゆうせん"/>
  <tag k="name:ja_rm" v="Yamaguchikendō 149-gō Yanai Yuu-sen"/>
  <tag k="network" v="JP:prefectural"/>
  <tag k="ref" v="149"/>
  <tag k="route" v="road"/>
  <tag k="to" v="山口県岩国市由宇町北1丁目"/>
  <tag k="type" v="route"/>
  <tag k="wikidata" v="Q11467151"/>
  <tag k="wikipedia" v="ja:山口県道149号柳井由宇線"/>
 </relation>
</osm>
