<?xml version="1.0" encoding="UTF-8"?>
<osm version="0.6" generator="openstreetmap-cgimap 2.1.0 (2942771 spike-08.openstreetmap.org)" copyright="OpenStreetMap and contributors" attribution="http://www.openstreetmap.org/copyright" license="http://opendatacommons.org/licenses/odbl/1-0/">
 <bounds minlat="34.4721770" minlon="131.4460620" maxlat="34.4745770" maxlon="131.4490620"/>
 <node id="266032366" visible="true" version="5" changeset="68083664" timestamp="2019-03-13T01:31:40Z" user="AYAGE" uid="521665" lat="34.4744631" lon="131.4495980">
  <tag k="railway" v="level_crossing"/>
 </node>
 <node id="928264800" visible="true" version="3" changeset="68083664" timestamp="2019-03-13T01:31:41Z" user="AYAGE" uid="521665" lat="34.4851669" lon="131.4611555"/>
 <node id="928264801" visible="true" version="2" changeset="68083664" timestamp="2019-03-13T01:31:41Z" user="AYAGE" uid="521665" lat="34.4847914" lon="131.4603709"/>
 <node id="928264802" visible="true" version="2" changeset="68083664" timestamp="2019-03-13T01:31:41Z" user="AYAGE" uid="521665" lat="34.4842288" lon="131.4596587"/>
 <node id="928264803" visible="true" version="2" changeset="68083664" timestamp="2019-03-13T01:31:41Z" user="AYAGE" uid="521665" lat="34.4834225" lon="131.4589525"/>
 <node id="928264804" visible="true" version="2" changeset="68083664" timestamp="2019-03-13T01:31:41Z" user="AYAGE" uid="521665" lat="34.4823977" lon="131.4577830"/>
 <node id="928264805" visible="true" version="2" changeset="68083664" timestamp="2019-03-13T01:31:41Z" user="AYAGE" uid="521665" lat="34.4801028" lon="131.4548343"/>
 <node id="928264807" visible="true" version="3" changeset="68083664" timestamp="2019-03-13T01:31:41Z" user="AYAGE" uid="521665" lat="34.4766040" lon="131.4495671"/>
 <node id="928264811" visible="true" version="3" changeset="68083664" timestamp="2019-03-13T01:31:41Z" user="AYAGE" uid="521665" lat="34.4713828" lon="131.4462635"/>
 <node id="1285444837" visible="true" version="2" changeset="68083664" timestamp="2019-03-13T01:31:42Z" user="AYAGE" uid="521665" lat="34.4900707" lon="131.4633079"/>
 <node id="1285446899" visible="true" version="2" changeset="68083664" timestamp="2019-03-13T01:31:43Z" user="AYAGE" uid="521665" lat="34.4863109" lon="131.4624804"/>
 <node id="1285452159" visible="true" version="2" changeset="68083664" timestamp="2019-03-13T01:31:44Z" user="AYAGE" uid="521665" lat="34.4884597" lon="131.4631483"/>
 <node id="1285454068" visible="true" version="2" changeset="68083664" timestamp="2019-03-13T01:31:45Z" user="AYAGE" uid="521665" lat="34.4878868" lon="131.4630665"/>
 <node id="1285454677" visible="true" version="2" changeset="68083664" timestamp="2019-03-13T01:31:45Z" user="AYAGE" uid="521665" lat="34.4859238" lon="131.4621533"/>
 <node id="1285455726" visible="true" version="2" changeset="68083664" timestamp="2019-03-13T01:31:45Z" user="AYAGE" uid="521665" lat="34.4897639" lon="131.4632460"/>
 <node id="1285458560" visible="true" version="2" changeset="68083664" timestamp="2019-03-13T01:31:46Z" user="AYAGE" uid="521665" lat="34.4903278" lon="131.4633962"/>
 <node id="1285460394" visible="true" version="2" changeset="68083664" timestamp="2019-03-13T01:31:47Z" user="AYAGE" uid="521665" lat="34.4869817" lon="131.4628234"/>
 <node id="1285460775" visible="true" version="2" changeset="68083664" timestamp="2019-03-13T01:31:47Z" user="AYAGE" uid="521665" lat="34.4855786" lon="131.4617749"/>
 <node id="1285461530" visible="true" version="2" changeset="68083664" timestamp="2019-03-13T01:31:47Z" user="AYAGE" uid="521665" lat="34.4866173" lon="131.4626679"/>
 <node id="1285462924" visible="true" version="2" changeset="68083664" timestamp="2019-03-13T01:31:47Z" user="AYAGE" uid="521665" lat="34.4874049" lon="131.4629606"/>
 <node id="1291494881" visible="true" version="3" changeset="68083664" timestamp="2019-03-13T01:31:48Z" user="AYAGE" uid="521665" lat="34.4734483" lon="131.4456919"/>
 <node id="1291494900" visible="true" version="3" changeset="68083664" timestamp="2019-03-13T01:31:48Z" user="AYAGE" uid="521665" lat="34.4721219" lon="131.4468293"/>
 <node id="1291494919" visible="true" version="2" changeset="68083664" timestamp="2019-03-13T01:31:48Z" user="AYAGE" uid="521665" lat="34.4741055" lon="131.4492100"/>
 <node id="1291494937" visible="true" version="2" changeset="55025144" timestamp="2017-12-30T02:19:33Z" user="55 tonmaru (55tonma)" uid="5644451" lat="34.4768366" lon="131.4499678"/>
 <node id="1291495015" visible="true" version="2" changeset="55089846" timestamp="2018-01-02T01:33:50Z" user="55 tonmaru (55tonma)" uid="5644451" lat="34.4741141" lon="131.4474128"/>
 <node id="1291495034" visible="true" version="2" changeset="68083664" timestamp="2019-03-13T01:31:48Z" user="AYAGE" uid="521665" lat="34.4738673" lon="131.4490532"/>
 <node id="1291495111" visible="true" version="3" changeset="68083664" timestamp="2019-03-13T01:31:48Z" user="AYAGE" uid="521665" lat="34.4772403" lon="131.4516976"/>
 <node id="1291495221" visible="true" version="3" changeset="68083664" timestamp="2019-03-13T01:31:48Z" user="AYAGE" uid="521665" lat="34.4740695" lon="131.4476325"/>
 <node id="1291495238" visible="true" version="3" changeset="68083664" timestamp="2019-03-13T01:31:48Z" user="AYAGE" uid="521665" lat="34.4733434" lon="131.4455317"/>
 <node id="1291495294" visible="true" version="1" changeset="8188926" timestamp="2011-05-19T11:19:14Z" user="yamasan" uid="32308" lat="34.4763690" lon="131.4498670"/>
 <node id="1291495374" visible="true" version="2" changeset="55089846" timestamp="2018-01-02T01:33:50Z" user="55 tonmaru (55tonma)" uid="5644451" lat="34.4740440" lon="131.4474769"/>
 <node id="1291495393" visible="true" version="2" changeset="68083664" timestamp="2019-03-13T01:31:48Z" user="AYAGE" uid="521665" lat="34.4780404" lon="131.4516850"/>
 <node id="1291495412" visible="true" version="4" changeset="68083664" timestamp="2019-03-13T01:31:48Z" user="AYAGE" uid="521665" lat="34.4734859" lon="131.4469735"/>
 <node id="1291495431" visible="true" version="3" changeset="68083664" timestamp="2019-03-13T01:31:48Z" user="AYAGE" uid="521665" lat="34.4709204" lon="131.4458173"/>
 <node id="1291495451" visible="true" version="2" changeset="68083664" timestamp="2019-03-13T01:31:48Z" user="AYAGE" uid="521665" lat="34.4770166" lon="131.4515460"/>
 <node id="1291495526" visible="true" version="2" changeset="55089846" timestamp="2018-01-02T01:33:50Z" user="55 tonmaru (55tonma)" uid="5644451" lat="34.4745895" lon="131.4472048"/>
 <node id="1291495549" visible="true" version="2" changeset="68083664" timestamp="2019-03-13T01:31:48Z" user="AYAGE" uid="521665" lat="34.4741556" lon="131.4475834"/>
 <node id="1291495566" visible="true" version="3" changeset="68083664" timestamp="2019-03-13T01:31:48Z" user="AYAGE" uid="521665" lat="34.4732291" lon="131.4453712"/>
 <node id="1291495587" visible="true" version="3" changeset="68083664" timestamp="2019-03-13T01:31:48Z" user="AYAGE" uid="521665" lat="34.4738270" lon="131.4478827"/>
 <node id="1291495606" visible="true" version="3" changeset="68083664" timestamp="2019-03-13T01:31:48Z" user="AYAGE" uid="521665" lat="34.4715362" lon="131.4464005"/>
 <node id="1291495624" visible="true" version="1" changeset="8188926" timestamp="2011-05-19T11:19:25Z" user="yamasan" uid="32308" lat="34.4761380" lon="131.4497790"/>
 <node id="1291495702" visible="true" version="3" changeset="68083664" timestamp="2019-03-13T01:31:48Z" user="AYAGE" uid="521665" lat="34.4739651" lon="131.4474514"/>
 <node id="1291495739" visible="true" version="4" changeset="68083664" timestamp="2019-03-13T01:31:48Z" user="AYAGE" uid="521665" lat="34.4734770" lon="131.4468267"/>
 <node id="1291495777" visible="true" version="2" changeset="68083664" timestamp="2019-03-13T01:31:48Z" user="AYAGE" uid="521665" lat="34.4759189" lon="131.4507717"/>
 <node id="1291495885" visible="true" version="3" changeset="68083664" timestamp="2019-03-13T01:31:48Z" user="AYAGE" uid="521665" lat="34.4742508" lon="131.4475744"/>
 <node id="1291495911" visible="true" version="3" changeset="68083664" timestamp="2019-03-13T01:31:48Z" user="AYAGE" uid="521665" lat="34.4727188" lon="131.4449518"/>
 <node id="1291495932" visible="true" version="3" changeset="68083664" timestamp="2019-03-13T01:31:49Z" user="AYAGE" uid="521665" lat="34.4736059" lon="131.4481165"/>
 <node id="1291495969" visible="true" version="2" changeset="55025144" timestamp="2017-12-30T02:19:34Z" user="55 tonmaru (55tonma)" uid="5644451" lat="34.4754602" lon="131.4493333"/>
 <node id="1291496042" visible="true" version="4" changeset="165543650" timestamp="2025-04-28T11:00:31Z" user="takana_zuke" uid="5903655" lat="34.4720767" lon="131.4448686"/>
 <node id="1291496084" visible="true" version="2" changeset="68083664" timestamp="2019-03-13T01:31:49Z" user="AYAGE" uid="521665" lat="34.4735875" lon="131.4460700"/>
 <node id="1291496122" visible="true" version="1" changeset="8188926" timestamp="2011-05-19T11:19:42Z" user="yamasan" uid="32308" lat="34.4752820" lon="131.4503760"/>
 <node id="1291496177" visible="true" version="2" changeset="68083664" timestamp="2019-03-13T01:31:49Z" user="AYAGE" uid="521665" lat="34.4780082" lon="131.4516380"/>
 <node id="1291496215" visible="true" version="3" changeset="68083664" timestamp="2019-03-13T01:31:49Z" user="AYAGE" uid="521665" lat="34.4731992" lon="131.4484454"/>
 <node id="1291496259" visible="true" version="2" changeset="55089846" timestamp="2018-01-02T01:33:50Z" user="55 tonmaru (55tonma)" uid="5644451" lat="34.4744200" lon="131.4472176"/>
 <node id="1291496275" visible="true" version="3" changeset="68083664" timestamp="2019-03-13T01:31:49Z" user="AYAGE" uid="521665" lat="34.4726415" lon="131.4449213"/>
 <node id="1291496291" visible="true" version="2" changeset="55025144" timestamp="2017-12-30T02:19:34Z" user="55 tonmaru (55tonma)" uid="5644451" lat="34.4777590" lon="131.4520534"/>
 <node id="1291496334" visible="true" version="2" changeset="55025144" timestamp="2017-12-30T02:19:34Z" user="55 tonmaru (55tonma)" uid="5644451" lat="34.4751428" lon="131.4492137"/>
 <node id="1291496431" visible="true" version="3" changeset="68083664" timestamp="2019-03-13T01:31:49Z" user="AYAGE" uid="521665" lat="34.4769498" lon="131.4500577"/>
 <node id="1291496490" visible="true" version="1" changeset="8188926" timestamp="2011-05-19T11:19:55Z" user="yamasan" uid="32308" lat="34.4748880" lon="131.4500650"/>
 <node id="1291496585" visible="true" version="2" changeset="55089846" timestamp="2018-01-02T01:33:50Z" user="55 tonmaru (55tonma)" uid="5644451" lat="34.4742983" lon="131.4472081"/>
 <node id="1291496603" visible="true" version="3" changeset="68083664" timestamp="2019-03-13T01:31:49Z" user="AYAGE" uid="521665" lat="34.4725374" lon="131.4449128"/>
 <node id="1291496624" visible="true" version="4" changeset="68083664" timestamp="2019-03-13T01:31:49Z" user="AYAGE" uid="521665" lat="34.4735790" lon="131.4471912"/>
 <node id="1291496662" visible="true" version="2" changeset="55025144" timestamp="2017-12-30T02:19:34Z" user="55 tonmaru (55tonma)" uid="5644451" lat="34.4749018" lon="131.4491568"/>
 <node id="1291496736" visible="true" version="4" changeset="165543650" timestamp="2025-04-28T11:00:31Z" user="takana_zuke" uid="5903655" lat="34.4718870" lon="131.4446461"/>
 <node id="1291496780" visible="true" version="3" changeset="68083664" timestamp="2019-03-13T01:31:49Z" user="AYAGE" uid="521665" lat="34.4738948" lon="131.4478134"/>
 <node id="1291496821" visible="true" version="3" changeset="68083664" timestamp="2019-03-13T01:31:49Z" user="AYAGE" uid="521665" lat="34.4735752" lon="131.4459755"/>
 <node id="1291496955" visible="true" version="2" changeset="68083664" timestamp="2019-03-13T01:31:49Z" user="AYAGE" uid="521665" lat="34.4730455" lon="131.4482553"/>
 <node id="1291496960" visible="true" version="2" changeset="55089846" timestamp="2018-01-02T01:33:50Z" user="55 tonmaru (55tonma)" uid="5644451" lat="34.4742022" lon="131.4472732"/>
 <node id="1291496978" visible="true" version="3" changeset="68083664" timestamp="2019-03-13T01:31:49Z" user="AYAGE" uid="521665" lat="34.4721241" lon="131.4448807"/>
 <node id="1291496997" visible="true" version="4" changeset="68083664" timestamp="2019-03-13T01:31:49Z" user="AYAGE" uid="521665" lat="34.4735258" lon="131.4471057"/>
 <node id="1291497036" visible="true" version="2" changeset="55025144" timestamp="2017-12-30T02:19:34Z" user="55 tonmaru (55tonma)" uid="5644451" lat="34.4744656" lon="131.4491286"/>
 <node id="1291497113" visible="true" version="3" changeset="68083664" timestamp="2019-03-13T01:31:49Z" user="AYAGE" uid="521665" lat="34.4746262" lon="131.4476201"/>
 <node id="1291497137" visible="true" version="2" changeset="68083664" timestamp="2019-03-13T01:31:49Z" user="AYAGE" uid="521665" lat="34.4739629" lon="131.4477583"/>
 <node id="1292525933" visible="true" version="2" changeset="68083664" timestamp="2019-03-13T01:31:51Z" user="AYAGE" uid="521665" lat="34.4725975" lon="131.4491120"/>
 <node id="1292533298" visible="true" version="1" changeset="8194860" timestamp="2011-05-20T03:02:58Z" user="yamasan" uid="32308" lat="34.4730140" lon="131.4486490"/>
 <node id="1292534966" visible="true" version="3" changeset="68083664" timestamp="2019-03-13T01:31:52Z" user="AYAGE" uid="521665" lat="34.4706220" lon="131.4454780"/>
 <node id="1292537962" visible="true" version="3" changeset="68083664" timestamp="2019-03-13T01:31:52Z" user="AYAGE" uid="521665" lat="34.4723928" lon="131.4493528"/>
 <node id="1423660844" visible="true" version="3" changeset="185765406" timestamp="2026-07-15T07:10:23Z" user="gc27" uid="7130304" lat="34.4739670" lon="131.4476460">
  <tag k="addr:block_number" v="1723-4"/>
  <tag k="addr:city" v="萩市"/>
  <tag k="addr:neighbourhood" v="大井"/>
  <tag k="addr:province" v="山口県"/>
  <tag k="amenity" v="police"/>
  <tag k="name" v="萩警察署大井駐在所"/>
  <tag k="note" v="National-Land Numerical Information (Public Facility) 2006, MLIT Japan"/>
  <tag k="note:ja" v="国土数値情報（公共施設データ）平成19年　国土交通省"/>
  <tag k="operator" v="山口県警察"/>
  <tag k="source" v="KSJ2"/>
  <tag k="source_ref" v="http://nlftp.mlit.go.jp/ksj/jpgis/datalist/KsjTmplt-P02-v2_0.html"/>
 </node>
 <node id="1605902992" visible="true" version="2" changeset="55089846" timestamp="2018-01-02T01:33:49Z" user="55 tonmaru (55tonma)" uid="5644451" lat="34.4737940" lon="131.4452316"/>
 <node id="1605902994" visible="true" version="2" changeset="55089846" timestamp="2018-01-02T01:33:49Z" user="55 tonmaru (55tonma)" uid="5644451" lat="34.4740001" lon="131.4456459"/>
 <node id="1605903003" visible="true" version="2" changeset="55089846" timestamp="2018-01-02T01:33:49Z" user="55 tonmaru (55tonma)" uid="5644451" lat="34.4739335" lon="131.4450356"/>
 <node id="1605903005" visible="true" version="2" changeset="55089846" timestamp="2018-01-02T01:33:49Z" user="55 tonmaru (55tonma)" uid="5644451" lat="34.4740665" lon="131.4450920"/>
 <node id="1605903006" visible="true" version="2" changeset="55089846" timestamp="2018-01-02T01:33:49Z" user="55 tonmaru (55tonma)" uid="5644451" lat="34.4742036" lon="131.4450096"/>
 <node id="1605903008" visible="true" version="2" changeset="55089846" timestamp="2018-01-02T01:33:49Z" user="55 tonmaru (55tonma)" uid="5644451" lat="34.4741330" lon="131.4460896"/>
 <node id="1605903009" visible="true" version="2" changeset="55089846" timestamp="2018-01-02T01:33:49Z" user="55 tonmaru (55tonma)" uid="5644451" lat="34.4742039" lon="131.4464933"/>
 <node id="1605903011" visible="true" version="2" changeset="55089846" timestamp="2018-01-02T01:33:49Z" user="55 tonmaru (55tonma)" uid="5644451" lat="34.4745767" lon="131.4463605"/>
 <node id="1605903012" visible="true" version="2" changeset="55089846" timestamp="2018-01-02T01:33:49Z" user="55 tonmaru (55tonma)" uid="5644451" lat="34.4744829" lon="131.4450213"/>
 <node id="1605903014" visible="true" version="2" changeset="55089846" timestamp="2018-01-02T01:33:50Z" user="55 tonmaru (55tonma)" uid="5644451" lat="34.4748127" lon="131.4459278"/>
 <node id="1605903027" visible="true" version="2" changeset="55089846" timestamp="2018-01-02T01:33:49Z" user="55 tonmaru (55tonma)" uid="5644451" lat="34.4749149" lon="131.4452292"/>
 <node id="1605903029" visible="true" version="2" changeset="55089846" timestamp="2018-01-02T01:33:50Z" user="55 tonmaru (55tonma)" uid="5644451" lat="34.4756720" lon="131.4460733"/>
 <node id="1605903031" visible="true" version="2" changeset="55089846" timestamp="2018-01-02T01:33:49Z" user="55 tonmaru (55tonma)" uid="5644451" lat="34.4753546" lon="131.4454434"/>
 <node id="1605903033" visible="true" version="2" changeset="55089846" timestamp="2018-01-02T01:33:49Z" user="55 tonmaru (55tonma)" uid="5644451" lat="34.4762815" lon="131.4459704"/>
 <node id="1605903034" visible="true" version="2" changeset="55089846" timestamp="2018-01-02T01:33:49Z" user="55 tonmaru (55tonma)" uid="5644451" lat="34.4758729" lon="131.4456200"/>
 <node id="1605903035" visible="true" version="2" changeset="55089846" timestamp="2018-01-02T01:33:49Z" user="55 tonmaru (55tonma)" uid="5644451" lat="34.4762245" lon="131.4457917"/>
 <node id="1605903036" visible="true" version="2" changeset="55089846" timestamp="2018-01-02T01:33:49Z" user="55 tonmaru (55tonma)" uid="5644451" lat="34.4761790" lon="131.4457325"/>
 <node id="3220795937" visible="true" version="2" changeset="68083664" timestamp="2019-03-13T01:31:55Z" user="AYAGE" uid="521665" lat="34.4706564" lon="131.4455090"/>
 <node id="3220796169" visible="true" version="2" changeset="68083664" timestamp="2019-03-13T01:31:55Z" user="AYAGE" uid="521665" lat="34.4720783" lon="131.4471624"/>
 <node id="3220796170" visible="true" version="2" changeset="68083664" timestamp="2019-03-13T01:31:55Z" user="AYAGE" uid="521665" lat="34.4722444" lon="131.4473401"/>
 <node id="3220796172" visible="true" version="2" changeset="68083664" timestamp="2019-03-13T01:31:55Z" user="AYAGE" uid="521665" lat="34.4726232" lon="131.4477780"/>
 <node id="3220796173" visible="true" version="2" changeset="68083664" timestamp="2019-03-13T01:31:55Z" user="AYAGE" uid="521665" lat="34.4727579" lon="131.4472114"/>
 <node id="3220796174" visible="true" version="2" changeset="68083664" timestamp="2019-03-13T01:31:55Z" user="AYAGE" uid="521665" lat="34.4729507" lon="131.4451020"/>
 <node id="3220796175" visible="true" version="2" changeset="68083664" timestamp="2019-03-13T01:31:55Z" user="AYAGE" uid="521665" lat="34.4730545" lon="131.4451861"/>
 <node id="3220796176" visible="true" version="2" changeset="68083664" timestamp="2019-03-13T01:31:55Z" user="AYAGE" uid="521665" lat="34.4732607" lon="131.4483766"/>
 <node id="3220796178" visible="true" version="2" changeset="68083664" timestamp="2019-03-13T01:31:55Z" user="AYAGE" uid="521665" lat="34.4732487" lon="131.4474742"/>
 <node id="3220796179" visible="true" version="2" changeset="68083664" timestamp="2019-03-13T01:31:55Z" user="AYAGE" uid="521665" lat="34.4735523" lon="131.4459076"/>
 <node id="3220796180" visible="true" version="3" changeset="68083664" timestamp="2019-03-13T01:31:55Z" user="AYAGE" uid="521665" lat="34.4736720" lon="131.4472654"/>
 <node id="5309682709" visible="true" version="2" changeset="55089846" timestamp="2018-01-02T01:33:50Z" user="55 tonmaru (55tonma)" uid="5644451" lat="34.4742457" lon="131.4474785"/>
 <node id="5309682712" visible="true" version="2" changeset="68083664" timestamp="2019-03-13T01:31:56Z" user="AYAGE" uid="521665" lat="34.4738404" lon="131.4477823">
  <tag k="bicycle" v="yes"/>
  <tag k="button_operated" v="yes"/>
  <tag k="crossing" v="traffic_signals"/>
  <tag k="highway" v="crossing"/>
  <tag k="kerb" v="lowered"/>
  <tag k="supervised" v="no"/>
 </node>
 <node id="5309682727" visible="true" version="2" changeset="68083664" timestamp="2019-03-13T01:31:56Z" user="AYAGE" uid="521665" lat="34.4739919" lon="131.4478673">
  <tag k="highway" v="traffic_signals"/>
 </node>
 <node id="5311363996" visible="true" version="1" changeset="55025144" timestamp="2017-12-30T02:19:30Z" user="55 tonmaru (55tonma)" uid="5644451" lat="34.4735463" lon="131.4480790"/>
 <node id="5311363997" visible="true" version="1" changeset="55025144" timestamp="2017-12-30T02:19:30Z" user="55 tonmaru (55tonma)" uid="5644451" lat="34.4734404" lon="131.4481510"/>
 <node id="5311363998" visible="true" version="1" changeset="55025144" timestamp="2017-12-30T02:19:30Z" user="55 tonmaru (55tonma)" uid="5644451" lat="34.4733922" lon="131.4480465"/>
 <node id="5311363999" visible="true" version="1" changeset="55025144" timestamp="2017-12-30T02:19:30Z" user="55 tonmaru (55tonma)" uid="5644451" lat="34.4734981" lon="131.4479745"/>
 <node id="5311364004" visible="true" version="2" changeset="68083664" timestamp="2019-03-13T01:31:56Z" user="AYAGE" uid="521665" lat="34.4768749" lon="131.4499412"/>
 <node id="5311364009" visible="true" version="1" changeset="55025144" timestamp="2017-12-30T02:19:31Z" user="55 tonmaru (55tonma)" uid="5644451" lat="34.4758952" lon="131.4496424"/>
 <node id="5311364010" visible="true" version="1" changeset="55025144" timestamp="2017-12-30T02:19:31Z" user="55 tonmaru (55tonma)" uid="5644451" lat="34.4745967" lon="131.4486929"/>
 <node id="5311364012" visible="true" version="1" changeset="55025144" timestamp="2017-12-30T02:19:31Z" user="55 tonmaru (55tonma)" uid="5644451" lat="34.4744944" lon="131.4489095"/>
 <node id="5311364013" visible="true" version="1" changeset="55025144" timestamp="2017-12-30T02:19:31Z" user="55 tonmaru (55tonma)" uid="5644451" lat="34.4745132" lon="131.4488143"/>
 <node id="5311364014" visible="true" version="1" changeset="55025144" timestamp="2017-12-30T02:19:31Z" user="55 tonmaru (55tonma)" uid="5644451" lat="34.4746050" lon="131.4486372"/>
 <node id="5311364015" visible="true" version="1" changeset="55025144" timestamp="2017-12-30T02:19:31Z" user="55 tonmaru (55tonma)" uid="5644451" lat="34.4747484" lon="131.4482577"/>
 <node id="5311364017" visible="true" version="2" changeset="68083664" timestamp="2019-03-13T01:31:56Z" user="AYAGE" uid="521665" lat="34.4762892" lon="131.4492434"/>
 <node id="5311364822" visible="true" version="1" changeset="55025144" timestamp="2017-12-30T02:19:31Z" user="55 tonmaru (55tonma)" uid="5644451" lat="34.4760486" lon="131.4490217"/>
 <node id="5311364823" visible="true" version="1" changeset="55025144" timestamp="2017-12-30T02:19:31Z" user="55 tonmaru (55tonma)" uid="5644451" lat="34.4757055" lon="131.4494479"/>
 <node id="5311364825" visible="true" version="2" changeset="68083664" timestamp="2019-03-13T01:31:56Z" user="AYAGE" uid="521665" lat="34.4764527" lon="131.4511535"/>
 <node id="5311364826" visible="true" version="2" changeset="68083664" timestamp="2019-03-13T01:31:56Z" user="AYAGE" uid="521665" lat="34.4773123" lon="131.4506127"/>
 <node id="5315620482" visible="true" version="1" changeset="55089846" timestamp="2018-01-02T01:33:49Z" user="55 tonmaru (55tonma)" uid="5644451" lat="34.4758689" lon="131.4459177"/>
 <node id="6334568690" visible="true" version="1" changeset="68083664" timestamp="2019-03-13T01:31:38Z" user="AYAGE" uid="521665" lat="34.4736884" lon="131.4480606"/>
 <node id="6334568691" visible="true" version="1" changeset="68083664" timestamp="2019-03-13T01:31:38Z" user="AYAGE" uid="521665" lat="34.4735668" lon="131.4488277"/>
 <node id="6334568692" visible="true" version="1" changeset="68083664" timestamp="2019-03-13T01:31:38Z" user="AYAGE" uid="521665" lat="34.4733546" lon="131.4486265"/>
 <node id="6334568718" visible="true" version="1" changeset="68083664" timestamp="2019-03-13T01:31:38Z" user="AYAGE" uid="521665" lat="34.4780952" lon="131.4517699"/>
 <node id="6334568724" visible="true" version="1" changeset="68083664" timestamp="2019-03-13T01:31:38Z" user="AYAGE" uid="521665" lat="34.4719361" lon="131.4466967"/>
 <node id="6334568727" visible="true" version="1" changeset="68083664" timestamp="2019-03-13T01:31:39Z" user="AYAGE" uid="521665" lat="34.4757581" lon="131.4488223"/>
 <node id="6334568728" visible="true" version="1" changeset="68083664" timestamp="2019-03-13T01:31:39Z" user="AYAGE" uid="521665" lat="34.4742965" lon="131.4493708"/>
 <node id="6334568729" visible="true" version="1" changeset="68083664" timestamp="2019-03-13T01:31:39Z" user="AYAGE" uid="521665" lat="34.4745220" lon="131.4497128"/>
 <node id="6334568730" visible="true" version="1" changeset="68083664" timestamp="2019-03-13T01:31:39Z" user="AYAGE" uid="521665" lat="34.4791886" lon="131.4534652"/>
 <node id="6334568731" visible="true" version="1" changeset="68083664" timestamp="2019-03-13T01:31:39Z" user="AYAGE" uid="521665" lat="34.4812603" lon="131.4563566"/>
 <node id="6334568732" visible="true" version="1" changeset="68083664" timestamp="2019-03-13T01:31:39Z" user="AYAGE" uid="521665" lat="34.4829030" lon="131.4584032"/>
 <node id="6334568733" visible="true" version="1" changeset="68083664" timestamp="2019-03-13T01:31:39Z" user="AYAGE" uid="521665" lat="34.4845435" lon="131.4600152"/>
 <node id="12794525999" visible="true" version="1" changeset="165543650" timestamp="2025-04-28T11:00:31Z" user="takana_zuke" uid="5903655" lat="34.4738930" lon="131.4477048"/>
 <node id="12794526000" visible="true" version="1" changeset="165543650" timestamp="2025-04-28T11:00:31Z" user="takana_zuke" uid="5903655" lat="34.4739266" lon="131.4476500"/>
 <node id="12794531401" visible="true" version="1" changeset="165543650" timestamp="2025-04-28T11:00:31Z" user="takana_zuke" uid="5903655" lat="34.4740236" lon="131.4475650"/>
 <node id="12794531402" visible="true" version="1" changeset="165543650" timestamp="2025-04-28T11:00:31Z" user="takana_zuke" uid="5903655" lat="34.4741053" lon="131.4475110"/>
 <node id="12794531403" visible="true" version="1" changeset="165543650" timestamp="2025-04-28T11:00:31Z" user="takana_zuke" uid="5903655" lat="34.4741454" lon="131.4474987"/>
 <node id="12794531404" visible="true" version="1" changeset="165543650" timestamp="2025-04-28T11:00:31Z" user="takana_zuke" uid="5903655" lat="34.4742387" lon="131.4475110"/>
 <node id="12794531405" visible="true" version="1" changeset="165543650" timestamp="2025-04-28T11:00:31Z" user="takana_zuke" uid="5903655" lat="34.4750384" lon="131.4475767"/>
 <node id="12794531406" visible="true" version="1" changeset="165543650" timestamp="2025-04-28T11:00:31Z" user="takana_zuke" uid="5903655" lat="34.4755083" lon="131.4475921"/>
 <node id="12794531407" visible="true" version="1" changeset="165543650" timestamp="2025-04-28T11:00:31Z" user="takana_zuke" uid="5903655" lat="34.4759007" lon="131.4475259"/>
 <node id="12794531408" visible="true" version="1" changeset="165543650" timestamp="2025-04-28T11:00:31Z" user="takana_zuke" uid="5903655" lat="34.4760201" lon="131.4474550"/>
 <node id="12794531409" visible="true" version="1" changeset="165543650" timestamp="2025-04-28T11:00:31Z" user="takana_zuke" uid="5903655" lat="34.4762232" lon="131.4474031"/>
 <node id="12794531412" visible="true" version="1" changeset="165543650" timestamp="2025-04-28T11:00:31Z" user="takana_zuke" uid="5903655" lat="34.4762218" lon="131.4473810"/>
 <node id="12794531413" visible="true" version="1" changeset="165543650" timestamp="2025-04-28T11:00:31Z" user="takana_zuke" uid="5903655" lat="34.4762269" lon="131.4474297"/>
 <node id="12794531414" visible="true" version="1" changeset="165543650" timestamp="2025-04-28T11:00:31Z" user="takana_zuke" uid="5903655" lat="34.4761551" lon="131.4474394"/>
 <node id="12794531415" visible="true" version="1" changeset="165543650" timestamp="2025-04-28T11:00:31Z" user="takana_zuke" uid="5903655" lat="34.4760377" lon="131.4474691"/>
 <node id="12794531416" visible="true" version="1" changeset="165543650" timestamp="2025-04-28T11:00:31Z" user="takana_zuke" uid="5903655" lat="34.4759830" lon="131.4475040"/>
 <node id="12794531417" visible="true" version="1" changeset="165543650" timestamp="2025-04-28T11:00:31Z" user="takana_zuke" uid="5903655" lat="34.4759377" lon="131.4475275"/>
 <node id="12794531418" visible="true" version="1" changeset="165543650" timestamp="2025-04-28T11:00:31Z" user="takana_zuke" uid="5903655" lat="34.4758827" lon="131.4475492"/>
 <node id="12794531419" visible="true" version="1" changeset="165543650" timestamp="2025-04-28T11:00:31Z" user="takana_zuke" uid="5903655" lat="34.4755470" lon="131.4476089"/>
 <node id="12794531420" visible="true" version="1" changeset="165543650" timestamp="2025-04-28T11:00:31Z" user="takana_zuke" uid="5903655" lat="34.4755018" lon="131.4476160"/>
 <node id="12794531421" visible="true" version="1" changeset="165543650" timestamp="2025-04-28T11:00:31Z" user="takana_zuke" uid="5903655" lat="34.4750860" lon="131.4475983"/>
 <node id="12794531422" visible="true" version="1" changeset="165543650" timestamp="2025-04-28T11:00:31Z" user="takana_zuke" uid="5903655" lat="34.4748731" lon="131.4475912"/>
 <node id="12794531423" visible="true" version="1" changeset="165543650" timestamp="2025-04-28T11:00:31Z" user="takana_zuke" uid="5903655" lat="34.4746601" lon="131.4475779"/>
 <node id="12794531424" visible="true" version="1" changeset="165543650" timestamp="2025-04-28T11:00:31Z" user="takana_zuke" uid="5903655" lat="34.4745441" lon="131.4475691"/>
 <node id="12794531425" visible="true" version="1" changeset="165543650" timestamp="2025-04-28T11:00:31Z" user="takana_zuke" uid="5903655" lat="34.4742698" lon="131.4475354"/>
 <node id="12794531426" visible="true" version="1" changeset="165543650" timestamp="2025-04-28T11:00:31Z" user="takana_zuke" uid="5903655" lat="34.4741604" lon="131.4475160"/>
 <node id="12794531427" visible="true" version="1" changeset="165543650" timestamp="2025-04-28T11:00:31Z" user="takana_zuke" uid="5903655" lat="34.4741364" lon="131.4475186"/>
 <node id="12794531428" visible="true" version="1" changeset="165543650" timestamp="2025-04-28T11:00:31Z" user="takana_zuke" uid="5903655" lat="34.4741094" lon="131.4475284"/>
 <node id="12794531429" visible="true" version="1" changeset="165543650" timestamp="2025-04-28T11:00:31Z" user="takana_zuke" uid="5903655" lat="34.4740671" lon="131.4475478"/>
 <node id="12794531430" visible="true" version="1" changeset="165543650" timestamp="2025-04-28T11:00:31Z" user="takana_zuke" uid="5903655" lat="34.4739956" lon="131.4475991"/>
 <node id="12794531431" visible="true" version="1" changeset="165543650" timestamp="2025-04-28T11:00:31Z" user="takana_zuke" uid="5903655" lat="34.4739416" lon="131.4476522"/>
 <node id="12794531432" visible="true" version="1" changeset="165543650" timestamp="2025-04-28T11:00:31Z" user="takana_zuke" uid="5903655" lat="34.4739051" lon="131.4477168"/>
 <node id="12794531433" visible="true" version="1" changeset="165543650" timestamp="2025-04-28T11:00:31Z" user="takana_zuke" uid="5903655" lat="34.4738818" lon="131.4477053"/>
 <node id="12794531434" visible="true" version="1" changeset="165543650" timestamp="2025-04-28T11:00:31Z" user="takana_zuke" uid="5903655" lat="34.4739044" lon="131.4476708"/>
 <node id="12794531435" visible="true" version="1" changeset="165543650" timestamp="2025-04-28T11:00:31Z" user="takana_zuke" uid="5903655" lat="34.4739773" lon="131.4475859"/>
 <node id="12794531436" visible="true" version="1" changeset="165543650" timestamp="2025-04-28T11:00:31Z" user="takana_zuke" uid="5903655" lat="34.4740459" lon="131.4475346"/>
 <node id="12794531437" visible="true" version="1" changeset="165543650" timestamp="2025-04-28T11:00:31Z" user="takana_zuke" uid="5903655" lat="34.4741065" lon="131.4474974"/>
 <node id="12794531438" visible="true" version="1" changeset="165543650" timestamp="2025-04-28T11:00:31Z" user="takana_zuke" uid="5903655" lat="34.4741553" lon="131.4474885"/>
 <node id="12794531439" visible="true" version="1" changeset="165543650" timestamp="2025-04-28T11:00:31Z" user="takana_zuke" uid="5903655" lat="34.4742385" lon="131.4475036"/>
 <node id="12794531440" visible="true" version="1" changeset="165543650" timestamp="2025-04-28T11:00:31Z" user="takana_zuke" uid="5903655" lat="34.4746061" lon="131.4475354"/>
 <node id="12794531441" visible="true" version="1" changeset="165543650" timestamp="2025-04-28T11:00:31Z" user="takana_zuke" uid="5903655" lat="34.4748366" lon="131.4475461"/>
 <node id="12794531442" visible="true" version="1" changeset="165543650" timestamp="2025-04-28T11:00:31Z" user="takana_zuke" uid="5903655" lat="34.4750408" lon="131.4475514"/>
 <node id="12794531443" visible="true" version="1" changeset="165543650" timestamp="2025-04-28T11:00:31Z" user="takana_zuke" uid="5903655" lat="34.4752728" lon="131.4475620"/>
 <node id="12794531444" visible="true" version="1" changeset="165543650" timestamp="2025-04-28T11:00:31Z" user="takana_zuke" uid="5903655" lat="34.4755076" lon="131.4475699"/>
 <node id="12794531445" visible="true" version="1" changeset="165543650" timestamp="2025-04-28T11:00:31Z" user="takana_zuke" uid="5903655" lat="34.4757221" lon="131.4475337"/>
 <node id="12794531446" visible="true" version="1" changeset="165543650" timestamp="2025-04-28T11:00:31Z" user="takana_zuke" uid="5903655" lat="34.4758906" lon="131.4475045"/>
 <node id="12794531447" visible="true" version="1" changeset="165543650" timestamp="2025-04-28T11:00:31Z" user="takana_zuke" uid="5903655" lat="34.4760014" lon="131.4474408"/>
 <node id="12794531448" visible="true" version="1" changeset="165543650" timestamp="2025-04-28T11:00:31Z" user="takana_zuke" uid="5903655" lat="34.4760802" lon="131.4474071"/>
 <node id="12794531520" visible="true" version="1" changeset="165543650" timestamp="2025-04-28T11:00:31Z" user="takana_zuke" uid="5903655" lat="34.4724974" lon="131.4449097"/>
 <node id="12794531529" visible="true" version="1" changeset="165543650" timestamp="2025-04-28T11:00:31Z" user="takana_zuke" uid="5903655" lat="34.4720248" lon="131.4448397"/>
 <node id="12794531530" visible="true" version="1" changeset="165543650" timestamp="2025-04-28T11:00:31Z" user="takana_zuke" uid="5903655" lat="34.4719920" lon="131.4448043"/>
 <node id="13059079557" visible="true" version="1" changeset="170182560" timestamp="2025-08-09T04:12:10Z" user="pseek" uid="21586509" lat="34.4734693" lon="131.4480628">
  <tag k="addr:block_number" v="1740"/>
  <tag k="addr:city" v="萩市"/>
  <tag k="addr:housenumber" v="1"/>
  <tag k="addr:neighbourhood" v="大井"/>
  <tag k="addr:postcode" v="759-3611"/>
  <tag k="addr:province" v="山口県"/>
  <tag k="amenity" v="post_office"/>
  <tag k="name" v="大井郵便局"/>
  <tag k="name:en" v="Oi Post Office"/>
  <tag k="name:es" v="Oficina de Correos de Oi"/>
  <tag k="name:ja" v="大井郵便局"/>
  <tag k="name:ja-Hira" v="おおい ゆうびんきょく"/>
  <tag k="name:pt" v="Correio de Oi"/>
  <tag k="opening_hours" v="Mo-Fr 09:00-17:00"/>
  <tag k="operator" v="日本郵便"/>
  <tag k="operator:en" v="Japan Post"/>
  <tag k="operator:ja" v="日本郵便"/>
  <tag k="operator:short" v="郵便局"/>
  <tag k="operator:short:en" v="JP"/>
  <tag k="operator:short:ja" v="郵便局"/>
  <tag k="operator:wikidata" v="Q11509260"/>
  <tag k="phone" v="+81-838-28-0150"/>
 </node>
 <way id="113331671" visible="true" version="11" changeset="169938386" timestamp="2025-08-04T07:42:46Z" user="taketaketake" uid="4757277">
  <nd ref="1285458560"/>
  <nd ref="1285444837"/>
  <nd ref="1285455726"/>
  <nd ref="1285452159"/>
  <nd ref="1285454068"/>
  <nd ref="1285462924"/>
  <nd ref="1285460394"/>
  <nd ref="1285461530"/>
  <nd ref="1285446899"/>
  <nd ref="1285454677"/>
  <nd ref="1285460775"/>
  <nd ref="928264800"/>
  <nd ref="928264801"/>
  <nd ref="6334568733"/>
  <nd ref="928264802"/>
  <nd ref="928264803"/>
  <nd ref="6334568732"/>
  <nd ref="928264804"/>
  <nd ref="6334568731"/>
  <nd ref="928264805"/>
  <nd ref="6334568730"/>
  <nd ref="6334568718"/>
  <nd ref="1291495393"/>
  <nd ref="1291496177"/>
  <nd ref="5311364826"/>
  <nd ref="1291496431"/>
  <nd ref="5311364004"/>
  <nd ref="928264807"/>
  <nd ref="5311364017"/>
  <nd ref="5311364822"/>
  <nd ref="6334568727"/>
  <nd ref="5311364015"/>
  <nd ref="5309682727"/>
  <nd ref="1291496780"/>
  <nd ref="5309682712"/>
  <nd ref="3220796178"/>
  <nd ref="3220796173"/>
  <nd ref="1291494900"/>
  <nd ref="6334568724"/>
  <nd ref="1291495606"/>
  <nd ref="928264811"/>
  <nd ref="1291495431"/>
  <nd ref="3220795937"/>
  <nd ref="1292534966"/>
  <tag k="alt_name" v="北浦街道"/>
  <tag k="alt_name:en" v="Kitaura Highway"/>
  <tag k="highway" v="trunk"/>
  <tag k="lanes" v="2"/>
  <tag k="name" v="国道191号"/>
  <tag k="name:en" v="National Highway Route 191"/>
  <tag k="name:ja" v="国道191号"/>
  <tag k="ref" v="191"/>
  <tag k="source" v="GSImaps/std;YahooJapan/ALPSMAP"/>
  <tag k="surface" v="asphalt"/>
 </way>
 <way id="113955941" visible="true" version="4" changeset="68083664" timestamp="2019-03-13T01:32:01Z" user="AYAGE" uid="521665">
  <nd ref="1291495034"/>
  <nd ref="1291494919"/>
  <nd ref="6334568728"/>
  <nd ref="266032366"/>
  <nd ref="6334568729"/>
  <nd ref="1291496490"/>
  <nd ref="1291496122"/>
  <nd ref="1291495777"/>
  <nd ref="5311364825"/>
  <nd ref="1291495451"/>
  <nd ref="1291495111"/>
  <nd ref="1291496291"/>
  <tag k="highway" v="residential"/>
  <tag k="source" v="YahooJapan/ALPSMAP"/>
 </way>
 <way id="113955972" visible="true" version="2" changeset="55025144" timestamp="2017-12-30T02:19:35Z" user="55 tonmaru (55tonma)" uid="5644451">
  <nd ref="1291495034"/>
  <nd ref="1291497036"/>
  <nd ref="1291496662"/>
  <nd ref="1291496334"/>
  <nd ref="1291495969"/>
  <nd ref="5311364823"/>
  <nd ref="5311364009"/>
  <nd ref="1291495624"/>
  <nd ref="1291495294"/>
  <nd ref="1291494937"/>
  <nd ref="5311364004"/>
  <tag k="highway" v="residential"/>
  <tag k="source" v="YahooJapan/ALPSMAP"/>
 </way>
 <way id="113956003" visible="true" version="3" changeset="68083664" timestamp="2019-03-13T01:32:02Z" user="AYAGE" uid="521665">
  <nd ref="1291496215"/>
  <nd ref="6334568692"/>
  <nd ref="6334568691"/>
  <nd ref="1291495034"/>
  <tag k="highway" v="residential"/>
  <tag k="source" v="YahooJapan/ALPSMAP"/>
 </way>
 <way id="113956021" visible="true" version="4" changeset="165543650" timestamp="2025-04-28T11:00:31Z" user="takana_zuke" uid="5903655">
  <nd ref="1291496736"/>
  <nd ref="12794531530"/>
  <nd ref="12794531529"/>
  <nd ref="1291496042"/>
  <nd ref="1291496978"/>
  <nd ref="12794531520"/>
  <nd ref="1291496603"/>
  <nd ref="1291496275"/>
  <nd ref="1291495911"/>
  <nd ref="3220796174"/>
  <nd ref="3220796175"/>
  <nd ref="1291495566"/>
  <nd ref="1291495238"/>
  <nd ref="1291494881"/>
  <nd ref="3220796179"/>
  <nd ref="1291496821"/>
  <nd ref="1291496084"/>
  <nd ref="1291495739"/>
  <nd ref="1291495412"/>
  <nd ref="1291496997"/>
  <nd ref="1291496624"/>
  <nd ref="3220796180"/>
  <nd ref="1291495702"/>
  <nd ref="1291495374"/>
  <nd ref="1291495015"/>
  <nd ref="1291496960"/>
  <nd ref="1291496585"/>
  <nd ref="1291496259"/>
  <nd ref="1291495526"/>
  <tag k="highway" v="unclassified"/>
  <tag k="source" v="YahooJapan/ALPSMAP"/>
 </way>
 <way id="113956038" visible="true" version="3" changeset="68083664" timestamp="2019-03-13T01:32:02Z" user="AYAGE" uid="521665">
  <nd ref="1291496215"/>
  <nd ref="3220796176"/>
  <nd ref="1291495932"/>
  <nd ref="6334568690"/>
  <nd ref="1291495587"/>
  <nd ref="1291496780"/>
  <tag k="highway" v="unclassified"/>
  <tag k="source" v="YahooJapan/ALPSMAP"/>
 </way>
 <way id="113956052" visible="true" version="1" changeset="8188926" timestamp="2011-05-19T11:20:52Z" user="yamasan" uid="32308">
  <nd ref="1291497113"/>
  <nd ref="1291495885"/>
  <nd ref="1291495549"/>
  <nd ref="1291495221"/>
  <nd ref="1291497137"/>
  <nd ref="1291496780"/>
  <tag k="highway" v="unclassified"/>
  <tag k="source" v="YahooJapan/ALPSMAP"/>
  <tag k="yh:STRUCTURE" v="地上"/>
  <tag k="yh:TOTYUMONO" v="供用中"/>
  <tag k="yh:TYPE" v="その他一般道"/>
  <tag k="yh:WIDTH" v="3.0m〜5.5m"/>
  <tag k="yh:WIDTH_RANK" v="3"/>
 </way>
 <way id="113956054" visible="true" version="3" changeset="68083664" timestamp="2019-03-13T01:32:02Z" user="AYAGE" uid="521665">
  <nd ref="3220796169"/>
  <nd ref="3220796170"/>
  <nd ref="3220796172"/>
  <nd ref="1291496955"/>
  <nd ref="1291496215"/>
  <tag k="highway" v="residential"/>
  <tag k="source" v="YahooJapan/ALPSMAP"/>
 </way>
 <way id="114055650" visible="true" version="4" changeset="68083664" timestamp="2019-03-13T01:32:03Z" user="AYAGE" uid="521665">
  <nd ref="1291496215"/>
  <nd ref="1292533298"/>
  <nd ref="1292525933"/>
  <nd ref="1292537962"/>
  <tag k="highway" v="residential"/>
  <tag k="source" v="YahooJapan/ALPSMAP"/>
 </way>
 <way id="147379192" visible="true" version="2" changeset="55089846" timestamp="2018-01-02T01:33:51Z" user="55 tonmaru (55tonma)" uid="5644451">
  <nd ref="1605902992"/>
  <nd ref="1605902994"/>
  <nd ref="1605903008"/>
  <nd ref="1605903009"/>
  <nd ref="1605903011"/>
  <nd ref="1605903014"/>
  <nd ref="1605903029"/>
  <nd ref="5315620482"/>
  <nd ref="1605903033"/>
  <nd ref="1605903035"/>
  <nd ref="1605903036"/>
  <nd ref="1605903034"/>
  <nd ref="1605903031"/>
  <nd ref="1605903027"/>
  <nd ref="1605903012"/>
  <nd ref="1605903006"/>
  <nd ref="1605903005"/>
  <nd ref="1605903003"/>
  <nd ref="1605902992"/>
  <tag k="natural" v="wood"/>
  <tag k="note" v="A13-06_35.xml"/>
  <tag k="source" v="MLIT, Japan"/>
  <tag k="source:ja" v="国土数値情報（森林地域データ）平成18年　国土交通省"/>
  <tag k="source_ref" v="http://nlftp.mlit.go.jp/ksj/jpgis/datalist/KsjTmplt-A13.html"/>
 </way>
 <way id="549673378" visible="true" version="1" changeset="55000329" timestamp="2017-12-29T05:04:44Z" user="55 tonmaru (55tonma)" uid="5644451">
  <nd ref="1291495885"/>
  <nd ref="5309682709"/>
  <nd ref="1291495015"/>
  <tag k="highway" v="service"/>
  <tag k="service" v="alley"/>
 </way>
 <way id="549835278" visible="true" version="2" changeset="170182560" timestamp="2025-08-09T04:12:10Z" user="pseek" uid="21586509">
  <nd ref="5311363999"/>
  <nd ref="5311363998"/>
  <nd ref="5311363997"/>
  <nd ref="5311363996"/>
  <nd ref="5311363999"/>
  <tag k="building" v="yes"/>
 </way>
 <way id="549835280" visible="true" version="2" changeset="75488935" timestamp="2019-10-10T04:00:30Z" user="yumean1119" uid="8161404">
  <nd ref="5311364015"/>
  <nd ref="5311364014"/>
  <nd ref="5311364010"/>
  <nd ref="5311364013"/>
  <nd ref="5311364012"/>
  <nd ref="1291497036"/>
  <tag k="highway" v="track"/>
  <tag k="tracktype" v="grade1"/>
 </way>
 <way id="1381965868" visible="true" version="1" changeset="165543650" timestamp="2025-04-28T11:00:31Z" user="takana_zuke" uid="5903655">
  <nd ref="12794525999"/>
  <nd ref="12794526000"/>
  <nd ref="12794531401"/>
  <nd ref="12794531402"/>
  <nd ref="12794531403"/>
  <nd ref="12794531404"/>
  <nd ref="12794531405"/>
  <nd ref="12794531406"/>
  <nd ref="12794531407"/>
  <nd ref="12794531408"/>
  <nd ref="12794531409"/>
  <tag k="waterway" v="stream"/>
 </way>
 <way id="1381965871" visible="true" version="1" changeset="165543650" timestamp="2025-04-28T11:00:31Z" user="takana_zuke" uid="5903655">
  <nd ref="12794531412"/>
  <nd ref="12794531413"/>
  <nd ref="12794531414"/>
  <nd ref="12794531415"/>
  <nd ref="12794531416"/>
  <nd ref="12794531417"/>
  <nd ref="12794531418"/>
  <nd ref="12794531419"/>
  <nd ref="12794531420"/>
  <nd ref="12794531421"/>
  <nd ref="12794531422"/>
  <nd ref="12794531423"/>
  <nd ref="12794531424"/>
  <nd ref="12794531425"/>
  <nd ref="12794531426"/>
  <nd ref="12794531427"/>
  <nd ref="12794531428"/>
  <nd ref="12794531429"/>
  <nd ref="12794531430"/>
  <nd ref="12794531431"/>
  <nd ref="12794531432"/>
  <nd ref="12794531433"/>
  <nd ref="12794531434"/>
  <nd ref="12794531435"/>
  <nd ref="12794531436"/>
  <nd ref="12794531437"/>
  <nd ref="12794531438"/>
  <nd ref="12794531439"/>
  <nd ref="12794531440"/>
  <nd ref="12794531441"/>
  <nd ref="12794531442"/>
  <nd ref="12794531443"/>
  <nd ref="12794531444"/>
  <nd ref="12794531445"/>
  <nd ref="12794531446"/>
  <nd ref="12794531447"/>
  <nd ref="12794531448"/>
  <nd ref="12794531412"/>
 </way>
 <relation id="3904021" visible="true" version="188" changeset="188404440" timestamp="2026-09-02T07:43:01Z" user="taketaketake" uid="4757277">
  <member type="way" ref="274255515" role=""/>
  <member type="way" ref="363572406" role=""/>
  <member type="way" ref="31048958" role="forward"/>
  <member type="way" ref="363572408" role="forward"/>
  <member type="way" ref="431504700" role="forward"/>
  <member type="way" ref="338070578" role="forward"/>
  <member type="way" ref="1450138283" role="forward"/>
  <member type="way" ref="338070581" role="forward"/>
  <member type="way" ref="338070571" role="forward"/>
  <member type="way" ref="338070575" role="forward"/>
  <member type="way" ref="338070760" role="forward"/>
  <member type="way" ref="338070761" role="forward"/>
  <member type="way" ref="338087542" role="forward"/>
  <member type="way" ref="338087540" role="forward"/>
  <member type="way" ref="338070564" role="forward"/>
  <member type="way" ref="338070584" role="forward"/>
  <member type="way" ref="338070567" role="forward"/>
  <member type="way" ref="338070579" role="forward"/>
  <member type="way" ref="338070569" role="forward"/>
  <member type="way" ref="431504698" role="forward"/>
  <member type="way" ref="338070566" role="forward"/>
  <member type="way" ref="337961541" role="forward"/>
  <member type="way" ref="337961539" role="forward"/>
  <member type="way" ref="338087541" role="forward"/>
  <member type="way" ref="338087543" role="forward"/>
  <member type="way" ref="338070576" role="forward"/>
  <member type="way" ref="338070565" role="forward"/>
  <member type="way" ref="338070583" role="forward"/>
  <member type="way" ref="338070570" role="forward"/>
  <member type="way" ref="338070580" role="forward"/>
  <member type="way" ref="338070568" role="forward"/>
  <member type="way" ref="337961540" role="forward"/>
  <member type="way" ref="363572407" role="forward"/>
  <member type="way" ref="338070574" role="forward"/>
  <member type="way" ref="431504701" role="forward"/>
  <member type="way" ref="338070577" role="forward"/>
  <member type="way" ref="1450138282" role="forward"/>
  <member type="way" ref="338070582" role="forward"/>
  <member type="way" ref="338070572" role="forward"/>
  <member type="way" ref="338070762" role="forward"/>
  <member type="way" ref="338070759" role="forward"/>
  <member type="way" ref="431504699" role=""/>
  <member type="way" ref="323458082" role=""/>
  <member type="way" ref="431504695" role=""/>
  <member type="way" ref="708154973" role=""/>
  <member type="way" ref="323458083" role=""/>
  <member type="way" ref="1199351216" role=""/>
  <member type="way" ref="1199351215" role=""/>
  <member type="way" ref="323827463" role=""/>
  <member type="way" ref="323827462" role=""/>
  <member type="way" ref="319931178" role=""/>
  <member type="way" ref="120772763" role=""/>
  <member type="way" ref="708161121" role=""/>
  <member type="way" ref="120772765" role=""/>
  <member type="way" ref="431504703" role=""/>
  <member type="way" ref="120772768" role=""/>
  <member type="way" ref="827511918" role=""/>
  <member type="way" ref="120772766" role=""/>
  <member type="way" ref="1429900495" role=""/>
  <member type="way" ref="1429900494" role=""/>
  <member type="way" ref="1429900493" role=""/>
  <member type="way" ref="1429900492" role=""/>
  <member type="way" ref="1199325410" role=""/>
  <member type="way" ref="1199325409" role=""/>
  <member type="way" ref="549998525" role=""/>
  <member type="way" ref="1534877080" role=""/>
  <member type="way" ref="549998524" role=""/>
  <member type="way" ref="432597496" role=""/>
  <member type="way" ref="432597495" role=""/>
  <member type="way" ref="550345967" role=""/>
  <member type="way" ref="550345966" role=""/>
  <member type="way" ref="325036736" role=""/>
  <member type="way" ref="325036733" role=""/>
  <member type="way" ref="550345965" role=""/>
  <member type="way" ref="550345964" role=""/>
  <member type="way" ref="550345960" role=""/>
  <member type="way" ref="550345959" role=""/>
  <member type="way" ref="550345963" role=""/>
  <member type="way" ref="550345962" role=""/>
  <member type="way" ref="708177597" role=""/>
  <member type="way" ref="708177596" role=""/>
  <member type="way" ref="1198221354" role=""/>
  <member type="way" ref="325036767" role=""/>
  <member type="way" ref="325036770" role=""/>
  <member type="way" ref="325036759" role=""/>
  <member type="way" ref="325036762" role=""/>
  <member type="way" ref="79538469" role=""/>
  <member type="way" ref="42477370" role=""/>
  <member type="way" ref="120624083" role=""/>
  <member type="way" ref="325036801" role=""/>
  <member type="way" ref="325036809" role=""/>
  <member type="way" ref="323665936" role=""/>
  <member type="way" ref="323665935" role=""/>
  <member type="way" ref="120624055" role=""/>
  <member type="way" ref="120624093" role=""/>
  <member type="way" ref="120624064" role=""/>
  <member type="way" ref="120624071" role=""/>
  <member type="way" ref="1429889802" role=""/>
  <member type="way" ref="120624065" role=""/>
  <member type="way" ref="1429889803" role=""/>
  <member type="way" ref="120624068" role=""/>
  <member type="way" ref="120624062" role=""/>
  <member type="way" ref="112931727" role=""/>
  <member type="way" ref="112931799" role=""/>
  <member type="way" ref="112932331" role=""/>
  <member type="way" ref="112932041" role=""/>
  <member type="way" ref="112932325" role=""/>
  <member type="way" ref="112931778" role=""/>
  <member type="way" ref="112935744" role=""/>
  <member type="way" ref="667161802" role=""/>
  <member type="way" ref="112935667" role=""/>
  <member type="way" ref="667222402" role=""/>
  <member type="way" ref="112935420" role=""/>
  <member type="way" ref="758000983" role=""/>
  <member type="way" ref="112936494" role=""/>
  <member type="way" ref="112935561" role=""/>
  <member type="way" ref="1430115598" role=""/>
  <member type="way" ref="1430115599" role=""/>
  <member type="way" ref="112856478" role=""/>
  <member type="way" ref="1534877081" role=""/>
  <member type="way" ref="672503449" role=""/>
  <member type="way" ref="672503445" role=""/>
  <member type="way" ref="112858001" role=""/>
  <member type="way" ref="112857026" role=""/>
  <member type="way" ref="112856455" role=""/>
  <member type="way" ref="112856484" role=""/>
  <member type="way" ref="112857662" role=""/>
  <member type="way" ref="708192770" role=""/>
  <member type="way" ref="708192771" role=""/>
  <member type="way" ref="112855806" role=""/>
  <member type="way" ref="708196539" role="forward"/>
  <member type="way" ref="112856029" role=""/>
  <member type="way" ref="112830205" role=""/>
  <member type="way" ref="112830458" role=""/>
  <member type="way" ref="112830440" role=""/>
  <member type="way" ref="112830157" role=""/>
  <member type="way" ref="1429886190" role=""/>
  <member type="way" ref="1429886191" role=""/>
  <member type="way" ref="112830209" role=""/>
  <member type="way" ref="112829467" role=""/>
  <member type="way" ref="678301647" role=""/>
  <member type="way" ref="1159795422" role=""/>
  <member type="way" ref="112829776" role=""/>
  <member type="way" ref="112830589" role=""/>
  <member type="way" ref="112810887" role=""/>
  <member type="way" ref="112811447" role=""/>
  <member type="way" ref="112810488" role=""/>
  <member type="way" ref="112811112" role=""/>
  <member type="way" ref="112810790" role=""/>
  <member type="way" ref="112811121" role=""/>
  <member type="way" ref="112810586" role=""/>
  <member type="way" ref="114056888" role=""/>
  <member type="way" ref="114056593" role=""/>
  <member type="way" ref="114057563" role=""/>
  <member type="way" ref="114056227" role=""/>
  <member type="way" ref="114055664" role=""/>
  <member type="way" ref="114057526" role=""/>
  <member type="way" ref="114058411" role=""/>
  <member type="way" ref="114058390" role=""/>
  <member type="way" ref="316339799" role="forward"/>
  <member type="way" ref="604148053" role="forward"/>
  <member type="way" ref="402834034" role="forward"/>
  <member type="way" ref="316339800" role="forward"/>
  <member type="way" ref="316339798" role="forward"/>
  <member type="way" ref="1229239526" role="forward"/>
  <member type="way" ref="114056083" role="forward"/>
  <member type="way" ref="402834033" role="forward"/>
  <member type="way" ref="1036709677" role="forward"/>
  <member type="way" ref="79534148" role=""/>
  <member type="way" ref="316339802" role=""/>
  <member type="way" ref="316339803" role=""/>
  <member type="way" ref="316339801" role=""/>
  <member type="way" ref="708226274" role=""/>
  <member type="way" ref="315956710" role=""/>
  <member type="way" ref="114057536" role=""/>
  <member type="way" ref="113331671" role=""/>
  <member type="way" ref="113331531" role=""/>
  <member type="way" ref="113331023" role=""/>
  <member type="way" ref="113330377" role=""/>
  <member type="way" ref="806255960" role=""/>
  <member type="way" ref="806255961" role=""/>
  <member type="way" ref="113331859" role=""/>
  <member type="way" ref="113332173" role=""/>
  <member type="way" ref="675072576" role=""/>
  <member type="way" ref="675072577" role=""/>
  <member type="way" ref="708338672" role=""/>
  <member type="way" ref="708338673" role=""/>
  <member type="way" ref="113330332" role=""/>
  <member type="way" ref="113331355" role=""/>
  <member type="way" ref="113331699" role=""/>
  <member type="way" ref="113331980" role=""/>
  <member type="way" ref="113332053" role=""/>
  <member type="way" ref="572935441" role=""/>
  <member type="way" ref="572935440" role=""/>
  <member type="way" ref="572935439" role=""/>
  <member type="way" ref="572935442" role=""/>
  <member type="way" ref="113330694" role=""/>
  <member type="way" ref="113331564" role=""/>
  <member type="way" ref="113331641" role=""/>
  <member type="way" ref="708341071" role=""/>
  <member type="way" ref="708341070" role=""/>
  <member type="way" ref="113330511" role=""/>
  <member type="way" ref="113330823" role=""/>
  <member type="way" ref="113331456" role=""/>
  <member type="way" ref="113330341" role=""/>
  <member type="way" ref="113964034" role=""/>
  <member type="way" ref="113964376" role=""/>
  <member type="way" ref="113964374" role=""/>
  <member type="way" ref="673750185" role=""/>
  <member type="way" ref="673750186" role=""/>
  <member type="way" ref="421309537" role=""/>
  <member type="way" ref="113964403" role=""/>
  <member type="way" ref="671232513" role=""/>
  <member type="way" ref="114531799" role=""/>
  <member type="way" ref="425406240" role=""/>
  <member type="way" ref="708358688" role=""/>
  <member type="way" ref="708358687" role=""/>
  <member type="way" ref="633686555" role=""/>
  <member type="way" ref="633686552" role=""/>
  <member type="way" ref="114531808" role=""/>
  <member type="way" ref="1412100106" role=""/>
  <member type="way" ref="1412100105" role=""/>
  <member type="way" ref="114531993" role=""/>
  <member type="way" ref="114532439" role=""/>
  <member type="way" ref="114532030" role=""/>
  <member type="way" ref="669103942" role=""/>
  <member type="way" ref="669103943" role=""/>
  <member type="way" ref="668578121" role=""/>
  <member type="way" ref="668578115" role=""/>
  <member type="way" ref="668578116" role=""/>
  <member type="way" ref="668578122" role=""/>
  <member type="way" ref="69205261" role=""/>
  <member type="way" ref="69205262" role=""/>
  <member type="way" ref="114617331" role=""/>
  <member type="way" ref="1534877082" role=""/>
  <member type="way" ref="1417075516" role=""/>
  <member type="way" ref="678301646" role=""/>
  <member type="way" ref="114617985" role=""/>
  <member type="way" ref="114617754" role=""/>
  <member type="way" ref="114618158" role=""/>
  <member type="way" ref="114618012" role=""/>
  <member type="way" ref="114617548" role=""/>
  <member type="way" ref="114616176" role=""/>
  <member type="way" ref="1408950635" role=""/>
  <member type="way" ref="114617514" role=""/>
  <member type="way" ref="114616568" role=""/>
  <member type="way" ref="114616887" role=""/>
  <member type="way" ref="114617123" role=""/>
  <member type="way" ref="114370902" role=""/>
  <member type="way" ref="114370564" role=""/>
  <member type="way" ref="114370814" role=""/>
  <member type="way" ref="114370367" role=""/>
  <member type="way" ref="114370606" role=""/>
  <member type="way" ref="114370874" role=""/>
  <member type="way" ref="114370713" role=""/>
  <member type="way" ref="114370647" role=""/>
  <member type="way" ref="114370413" role=""/>
  <member type="way" ref="114370779" role=""/>
  <member type="way" ref="114370749" role=""/>
  <member type="way" ref="114370448" role=""/>
  <member type="way" ref="114370392" role=""/>
  <member type="way" ref="114370719" role=""/>
  <member type="way" ref="114370683" role=""/>
  <member type="way" ref="114370829" role=""/>
  <member type="way" ref="114370414" role=""/>
  <member type="way" ref="114370744" role=""/>
  <member type="way" ref="114370478" role=""/>
  <member type="way" ref="114370384" role=""/>
  <member type="way" ref="1408950636" role=""/>
  <member type="way" ref="114370745" role=""/>
  <member type="way" ref="114370428" role=""/>
  <member type="way" ref="114370678" role=""/>
  <member type="way" ref="700608246" role=""/>
  <member type="way" ref="700608247" role=""/>
  <member type="way" ref="114370705" role=""/>
  <member type="way" ref="114370515" role=""/>
  <member type="way" ref="114370892" role=""/>
  <member type="way" ref="114370488" role=""/>
  <member type="way" ref="114370679" role=""/>
  <member type="way" ref="114370781" role=""/>
  <member type="way" ref="114370556" role=""/>
  <member type="way" ref="114370875" role=""/>
  <member type="way" ref="114370368" role=""/>
  <member type="way" ref="114370840" role=""/>
  <member type="way" ref="114370732" role=""/>
  <member type="way" ref="114356589" role=""/>
  <member type="way" ref="114358214" role=""/>
  <member type="way" ref="114358139" role=""/>
  <member type="way" ref="114358140" role=""/>
  <member type="way" ref="114357968" role=""/>
  <member type="way" ref="114356728" role=""/>
  <member type="way" ref="114356733" role=""/>
  <member type="way" ref="114357039" role=""/>
  <member type="way" ref="114357826" role=""/>
  <member type="way" ref="114356313" role=""/>
  <member type="way" ref="114356607" role=""/>
  <member type="way" ref="114357775" role=""/>
  <member type="way" ref="114357950" role=""/>
  <member type="way" ref="114357774" role=""/>
  <member type="way" ref="114358013" role=""/>
  <member type="way" ref="114356795" role=""/>
  <member type="way" ref="114356726" role=""/>
  <member type="way" ref="114356986" role=""/>
  <member type="way" ref="114356520" role=""/>
  <member type="way" ref="114357000" role=""/>
  <member type="way" ref="678301645" role=""/>
  <member type="way" ref="114358096" role=""/>
  <member type="way" ref="114356815" role=""/>
  <member type="way" ref="114356470" role=""/>
  <member type="way" ref="114356651" role=""/>
  <member type="way" ref="114358088" role=""/>
  <member type="way" ref="114356695" role=""/>
  <member type="way" ref="708412689" role=""/>
  <member type="way" ref="708412690" role=""/>
  <member type="way" ref="114356805" role=""/>
  <member type="way" ref="114356823" role=""/>
  <member type="way" ref="114356730" role=""/>
  <member type="way" ref="1416908531" role=""/>
  <member type="way" ref="1384569620" role=""/>
  <member type="way" ref="1384569619" role=""/>
  <member type="way" ref="114357021" role=""/>
  <member type="way" ref="114358001" role=""/>
  <member type="way" ref="114356317" role=""/>
  <member type="way" ref="114358081" role=""/>
  <member type="way" ref="114356674" role=""/>
  <member type="way" ref="114356707" role=""/>
  <member type="way" ref="114356920" role=""/>
  <member type="way" ref="114358220" role=""/>
  <member type="way" ref="114357870" role=""/>
  <member type="way" ref="1416908532" role=""/>
  <member type="way" ref="114358080" role=""/>
  <member type="way" ref="114356743" role=""/>
  <member type="way" ref="98068978" role=""/>
  <member type="way" ref="98068976" role=""/>
  <member type="way" ref="98068971" role=""/>
  <member type="way" ref="98068966" role=""/>
  <member type="way" ref="98068964" role=""/>
  <member type="way" ref="98068962" role=""/>
  <member type="way" ref="98068955" role=""/>
  <member type="way" ref="345046969" role=""/>
  <member type="way" ref="345046980" role=""/>
  <member type="way" ref="98068958" role=""/>
  <member type="way" ref="98068951" role=""/>
  <member type="way" ref="1185222040" role=""/>
  <member type="way" ref="98068953" role=""/>
  <member type="way" ref="98068948" role=""/>
  <member type="way" ref="345047001" role=""/>
  <member type="way" ref="345046998" role=""/>
  <member type="way" ref="345046997" role=""/>
  <member type="way" ref="345047000" role=""/>
  <member type="way" ref="345046999" role=""/>
  <member type="way" ref="98068965" role=""/>
  <member type="way" ref="98068961" role=""/>
  <member type="way" ref="98068957" role=""/>
  <member type="way" ref="98068950" role=""/>
  <member type="way" ref="98068972" role=""/>
  <member type="way" ref="98068968" role=""/>
  <member type="way" ref="345047007" role=""/>
  <member type="way" ref="98068970" role=""/>
  <member type="way" ref="98068967" role=""/>
  <member type="way" ref="294612320" role=""/>
  <member type="way" ref="678301644" role=""/>
  <member type="way" ref="294612319" role=""/>
  <member type="way" ref="295437252" role=""/>
  <member type="way" ref="295437251" role=""/>
  <member type="way" ref="678301643" role=""/>
  <member type="way" ref="97926823" role=""/>
  <member type="way" ref="97926855" role=""/>
  <member type="way" ref="54781328" role=""/>
  <member type="way" ref="54781327" role=""/>
  <member type="way" ref="54781326" role=""/>
  <member type="way" ref="97926825" role="forward"/>
  <member type="way" ref="97926851" role="forward"/>
  <member type="way" ref="97926858" role=""/>
  <member type="way" ref="1154672508" role=""/>
  <member type="way" ref="293858855" role=""/>
  <member type="way" ref="97926835" role=""/>
  <member type="way" ref="1381848183" role=""/>
  <member type="way" ref="97926826" role=""/>
  <member type="way" ref="1381848184" role=""/>
  <member type="way" ref="97926820" role=""/>
  <member type="way" ref="1154672509" role=""/>
  <member type="way" ref="293858854" role=""/>
  <member type="way" ref="293858853" role=""/>
  <member type="way" ref="34901949" role=""/>
  <member type="way" ref="34901947" role=""/>
  <member type="way" ref="294612318" role=""/>
  <member type="way" ref="34901945" role=""/>
  <member type="way" ref="1381848187" role=""/>
  <member type="way" ref="34901943" role=""/>
  <member type="way" ref="1154672511" role=""/>
  <member type="way" ref="34901944" role=""/>
  <member type="way" ref="34901981" role=""/>
  <member type="way" ref="1381848188" role=""/>
  <member type="way" ref="34901980" role=""/>
  <member type="way" ref="413055612" role=""/>
  <member type="way" ref="293858868" role=""/>
  <member type="way" ref="34901941" role=""/>
  <member type="way" ref="34901942" role=""/>
  <member type="way" ref="293858867" role=""/>
  <member type="way" ref="286903368" role=""/>
  <member type="way" ref="286903367" role=""/>
  <member type="way" ref="1018461813" role=""/>
  <member type="way" ref="34901939" role=""/>
  <member type="way" ref="34901940" role=""/>
  <member type="way" ref="708486391" role=""/>
  <member type="way" ref="708486390" role=""/>
  <member type="way" ref="34901937" role=""/>
  <member type="way" ref="1154672512" role=""/>
  <member type="way" ref="34901938" role=""/>
  <member type="way" ref="1154672507" role=""/>
  <member type="way" ref="1040520441" role=""/>
  <member type="way" ref="151321068" role=""/>
  <member type="way" ref="754570440" role=""/>
  <member type="way" ref="151321067" role=""/>
  <member type="way" ref="151321070" role=""/>
  <member type="way" ref="150613802" role=""/>
  <member type="way" ref="1040520444" role=""/>
  <member type="way" ref="150613803" role=""/>
  <member type="way" ref="1040520445" role=""/>
  <member type="way" ref="150613804" role=""/>
  <member type="way" ref="110858554" role=""/>
  <member type="way" ref="1123261906" role=""/>
  <member type="way" ref="26724535" role="forward"/>
  <member type="way" ref="26724539" role="forward"/>
  <member type="way" ref="26724543" role="forward"/>
  <member type="way" ref="23630342" role="forward"/>
  <member type="way" ref="26724489" role="forward"/>
  <member type="way" ref="110858375" role="forward"/>
  <member type="way" ref="669546704" role=""/>
  <member type="way" ref="1123261898" role=""/>
  <member type="way" ref="1119498195" role=""/>
  <member type="way" ref="1119498196" role=""/>
  <member type="way" ref="1123261894" role=""/>
  <member type="way" ref="1119498198" role=""/>
  <member type="way" ref="32004531" role=""/>
  <member type="way" ref="1121626864" role=""/>
  <member type="way" ref="149509000" role=""/>
  <member type="way" ref="149509002" role=""/>
  <member type="way" ref="598474917" role=""/>
  <member type="way" ref="598474916" role=""/>
  <member type="way" ref="176115268" role=""/>
  <member type="way" ref="598474915" role=""/>
  <member type="way" ref="149509001" role=""/>
  <member type="way" ref="1092501424" role=""/>
  <member type="way" ref="1092501423" role=""/>
  <member type="way" ref="149508999" role=""/>
  <member type="way" ref="1092501425" role=""/>
  <member type="way" ref="1034995451" role=""/>
  <member type="way" ref="598474918" role=""/>
  <member type="way" ref="904084241" role="forward"/>
  <member type="way" ref="23784083" role="forward"/>
  <member type="way" ref="678964718" role="forward"/>
  <member type="way" ref="23784074" role="forward"/>
  <member type="way" ref="152439504" role="forward"/>
  <member type="way" ref="152439487" role="forward"/>
  <member type="way" ref="1119498200" role="forward"/>
  <member type="way" ref="1119498202" role="forward"/>
  <member type="way" ref="111561835" role="forward"/>
  <member type="way" ref="111562216" role="forward"/>
  <member type="way" ref="1121585086" role="forward"/>
  <member type="way" ref="1121585085" role="forward"/>
  <member type="way" ref="149704374" role="forward"/>
  <member type="way" ref="182830795" role="forward"/>
  <member type="way" ref="149704367" role="forward"/>
  <member type="way" ref="149704373" role="forward"/>
  <member type="way" ref="149702965" role="forward"/>
  <member type="way" ref="149702955" role="forward"/>
  <member type="way" ref="149702950" role="forward"/>
  <member type="way" ref="149702952" role="forward"/>
  <member type="way" ref="149702963" role="forward"/>
  <member type="way" ref="678301641" role="forward"/>
  <member type="way" ref="149699062" role="forward"/>
  <member type="way" ref="1472247729" role="forward"/>
  <member type="way" ref="27946178" role="forward"/>
  <member type="way" ref="1034160714" role="forward"/>
  <member type="way" ref="27946171" role="forward"/>
  <member type="way" ref="1034160715" role="forward"/>
  <member type="way" ref="170088481" role="forward"/>
  <member type="way" ref="123546146" role="forward"/>
  <member type="way" ref="23620254" role="forward"/>
  <member type="way" ref="94846286" role="forward"/>
  <member type="way" ref="94846279" role="forward"/>
  <member type="way" ref="23630824" role="forward"/>
  <member type="way" ref="166811617" role="forward"/>
  <member type="way" ref="588937347" role="forward"/>
  <member type="way" ref="24298245" role="forward"/>
  <member type="way" ref="1124066504" role="forward"/>
  <member type="way" ref="24298255" role="forward"/>
  <member type="way" ref="351196941" role="forward"/>
  <member type="way" ref="351196954" role="forward"/>
  <member type="way" ref="23594757" role="forward"/>
  <member type="way" ref="1124063190" role="forward"/>
  <member type="way" ref="1124063189" role="forward"/>
  <member type="way" ref="166675563" role="forward"/>
  <member type="way" ref="1163769777" role="forward"/>
  <member type="way" ref="1003637864" role="forward"/>
  <member type="way" ref="24818479" role="forward"/>
  <member type="way" ref="1124074303" role="forward"/>
  <member type="way" ref="168121033" role="forward"/>
  <member type="way" ref="1147786810" role="forward"/>
  <member type="way" ref="168121035" role="forward"/>
  <member type="way" ref="1134427527" role="forward"/>
  <member type="way" ref="1134427517" role="forward"/>
  <member type="way" ref="1124056193" role="forward"/>
  <member type="way" ref="1124066509" role="forward"/>
  <member type="way" ref="1111242538" role="forward"/>
  <member type="way" ref="905650145" role="forward"/>
  <member type="way" ref="23784070" role="forward"/>
  <member type="way" ref="24340577" role="forward"/>
  <member type="way" ref="678964719" role="forward"/>
  <member type="way" ref="152439522" role="forward"/>
  <member type="way" ref="152439528" role="forward"/>
  <member type="way" ref="111562051" role="forward"/>
  <member type="way" ref="1119498204" role="forward"/>
  <member type="way" ref="1119498207" role="forward"/>
  <member type="way" ref="111561803" role="forward"/>
  <member type="way" ref="23784077" role="forward"/>
  <member type="way" ref="1121585073" role="forward"/>
  <member type="way" ref="182830617" role="forward"/>
  <member type="way" ref="149704375" role="forward"/>
  <member type="way" ref="149704366" role="forward"/>
  <member type="way" ref="149702948" role="forward"/>
  <member type="way" ref="149702966" role="forward"/>
  <member type="way" ref="149702951" role="forward"/>
  <member type="way" ref="149702949" role="forward"/>
  <member type="way" ref="149702957" role="forward"/>
  <member type="way" ref="149699060" role="forward"/>
  <member type="way" ref="678301642" role="forward"/>
  <member type="way" ref="27946177" role="forward"/>
  <member type="way" ref="575596266" role="forward"/>
  <member type="way" ref="27946173" role="forward"/>
  <member type="way" ref="170088449" role="forward"/>
  <member type="way" ref="1034160721" role="forward"/>
  <member type="way" ref="1154672519" role="forward"/>
  <member type="way" ref="1034160719" role="forward"/>
  <member type="way" ref="123546127" role="forward"/>
  <member type="way" ref="123546114" role="forward"/>
  <member type="way" ref="94846259" role="forward"/>
  <member type="way" ref="94846260" role="forward"/>
  <member type="way" ref="23630817" role="forward"/>
  <member type="way" ref="166811579" role="forward"/>
  <member type="way" ref="1156204130" role="forward"/>
  <member type="way" ref="588937346" role="forward"/>
  <member type="way" ref="24298249" role="forward"/>
  <member type="way" ref="24298258" role="forward"/>
  <member type="way" ref="166675492" role="forward"/>
  <member type="way" ref="28490047" role="forward"/>
  <member type="way" ref="1124063204" role="forward"/>
  <member type="way" ref="1034995449" role="forward"/>
  <member type="way" ref="222962764" role="forward"/>
  <member type="way" ref="168121087" role="forward"/>
  <member type="way" ref="1124074298" role="forward"/>
  <member type="way" ref="168121082" role="forward"/>
  <member type="way" ref="1161267133" role="forward"/>
  <member type="way" ref="1124056199" role="forward"/>
  <member type="way" ref="1134427522" role="forward"/>
  <member type="way" ref="168121083" role="forward"/>
  <member type="way" ref="1134427523" role="forward"/>
  <member type="way" ref="23949990" role="forward"/>
  <member type="way" ref="1261404722" role="forward"/>
  <tag k="colour" v="red"/>
  <tag k="from" v="山口県下関市"/>
  <tag k="name" v="国道191号"/>
  <tag k="name:en" v="National Highway Route 191"/>
  <tag k="name:ja" v="国道191号"/>
  <tag k="name:ja-Hira" v="こくどうひゃくきゅうじゅういちごう"/>
  <tag k="name:ja-Latn" v="Kokudo 191 Gou"/>
  <tag k="network" v="JP:national"/>
  <tag k="official_name" v="一般国道191号"/>
  <tag k="ref" v="191"/>
  <tag k="route" v="road"/>
  <tag k="to" v="広島県広島市中区"/>
  <tag k="type" v="route"/>
  <tag k="wikidata" v="Q6156899"/>
  <tag k="wikipedia" v="ja:国道191号"/>
 </relation>
 <relation id="8857556" visible="true" version="166" changeset="185171745" timestamp="2026-07-06T02:54:07Z" user="okadatsuneo_import" uid="12352917">
  <member type="relation" ref="32989" role=""/>
  <member type="relation" ref="2064722" role=""/>
  <member type="relation" ref="2061678" role=""/>
  <member type="relation" ref="416684" role=""/>
  <member type="relation" ref="33009" role=""/>
  <member type="relation" ref="1521225" role=""/>
  <member type="relation" ref="2069116" role=""/>
  <member type="relation" ref="8589620" role=""/>
  <member type="relation" ref="2076294" role=""/>
  <member type="relation" ref="2082723" role=""/>
  <member type="relation" ref="12579" role=""/>
  <member type="relation" ref="2097432" role=""/>
  <member type="relation" ref="2098597" role=""/>
  <member type="relation" ref="2098903" role=""/>
  <member type="relation" ref="2107249" role=""/>
  <member type="relation" ref="18187" role=""/>
  <member type="relation" ref="2150021" role=""/>
  <member type="relation" ref="964698" role=""/>
  <member type="relation" ref="964699" role=""/>
  <member type="relation" ref="21087" role=""/>
  <member type="relation" ref="905615" role=""/>
  <member type="relation" ref="2191283" role=""/>
  <member type="relation" ref="8549439" role=""/>
  <member type="relation" ref="2281186" role=""/>
  <member type="relation" ref="1247317" role=""/>
  <member type="relation" ref="2283740" role=""/>
  <member type="relation" ref="2578411" role=""/>
  <member type="relation" ref="12592" role=""/>
  <member type="relation" ref="2773842" role=""/>
  <member type="relation" ref="59477" role=""/>
  <member type="relation" ref="1957766" role=""/>
  <member type="relation" ref="12585" role=""/>
  <member type="relation" ref="149017" role=""/>
  <member type="relation" ref="2829210" role=""/>
  <member type="relation" ref="2829437" role=""/>
  <member type="relation" ref="130867" role=""/>
  <member type="relation" ref="33017" role=""/>
  <member type="relation" ref="2863336" role=""/>
  <member type="relation" ref="2864639" role=""/>
  <member type="relation" ref="2865301" role=""/>
  <member type="relation" ref="31351" role=""/>
  <member type="relation" ref="2877152" role=""/>
  <member type="relation" ref="2878993" role=""/>
  <member type="relation" ref="2885462" role=""/>
  <member type="relation" ref="2887904" role=""/>
  <member type="relation" ref="443923" role=""/>
  <member type="relation" ref="2938281" role=""/>
  <member type="relation" ref="2938900" role=""/>
  <member type="relation" ref="2939533" role=""/>
  <member type="relation" ref="2954632" role=""/>
  <member type="relation" ref="6903690" role=""/>
  <member type="relation" ref="2957016" role=""/>
  <member type="relation" ref="2957132" role=""/>
  <member type="relation" ref="2957976" role=""/>
  <member type="relation" ref="12583" role=""/>
  <member type="relation" ref="12584" role=""/>
  <member type="relation" ref="2971983" role=""/>
  <member type="relation" ref="2972065" role=""/>
  <member type="relation" ref="2974952" role=""/>
  <member type="relation" ref="2975092" role=""/>
  <member type="relation" ref="2988615" role=""/>
  <member type="relation" ref="3066227" role=""/>
  <member type="relation" ref="2937948" role=""/>
  <member type="relation" ref="3066928" role=""/>
  <member type="relation" ref="3069619" role=""/>
  <member type="relation" ref="3118577" role=""/>
  <member type="relation" ref="3118835" role=""/>
  <member type="relation" ref="3128401" role=""/>
  <member type="relation" ref="3128448" role=""/>
  <member type="relation" ref="3129175" role=""/>
  <member type="relation" ref="3132634" role=""/>
  <member type="relation" ref="965403" role=""/>
  <member type="relation" ref="3189380" role=""/>
  <member type="relation" ref="3217184" role=""/>
  <member type="relation" ref="3217302" role=""/>
  <member type="relation" ref="3218039" role=""/>
  <member type="relation" ref="3248776" role=""/>
  <member type="relation" ref="3262076" role=""/>
  <member type="relation" ref="6604490" role=""/>
  <member type="relation" ref="9002996" role=""/>
  <member type="relation" ref="9066606" role=""/>
  <member type="relation" ref="9066742" role=""/>
  <member type="relation" ref="9069158" role=""/>
  <member type="relation" ref="3846566" role=""/>
  <member type="relation" ref="3767038" role=""/>
  <member type="relation" ref="3773599" role=""/>
  <member type="relation" ref="2665187" role=""/>
  <member type="relation" ref="3770942" role=""/>
  <member type="relation" ref="31118" role=""/>
  <member type="relation" ref="3639261" role=""/>
  <member type="relation" ref="8822215" role=""/>
  <member type="relation" ref="3908565" role=""/>
  <member type="relation" ref="3908696" role=""/>
  <member type="relation" ref="8842101" role=""/>
  <member type="relation" ref="8980964" role=""/>
  <member type="relation" ref="965538" role=""/>
  <member type="relation" ref="6518912" role=""/>
  <member type="relation" ref="2124106" role=""/>
  <member type="relation" ref="965533" role=""/>
  <member type="relation" ref="7438376" role=""/>
  <member type="relation" ref="3846790" role=""/>
  <member type="relation" ref="2104795" role=""/>
  <member type="relation" ref="3862939" role=""/>
  <member type="relation" ref="3770972" role=""/>
  <member type="relation" ref="8843661" role=""/>
  <member type="relation" ref="8475141" role=""/>
  <member type="relation" ref="53798" role=""/>
  <member type="relation" ref="3527405" role=""/>
  <member type="relation" ref="3786290" role=""/>
  <member type="relation" ref="8438979" role=""/>
  <member type="relation" ref="8519028" role=""/>
  <member type="relation" ref="8546711" role=""/>
  <member type="relation" ref="31352" role=""/>
  <member type="relation" ref="8634030" role=""/>
  <member type="relation" ref="8643289" role=""/>
  <member type="relation" ref="8730413" role=""/>
  <member type="relation" ref="8602705" role=""/>
  <member type="relation" ref="8376126" role=""/>
  <member type="relation" ref="3771120" role=""/>
  <member type="relation" ref="8360680" role=""/>
  <member type="relation" ref="8798843" role=""/>
  <member type="relation" ref="8253434" role=""/>
  <member type="relation" ref="8338767" role=""/>
  <member type="relation" ref="7790754" role=""/>
  <member type="relation" ref="8810155" role=""/>
  <member type="relation" ref="9316269" role=""/>
  <member type="relation" ref="3786705" role=""/>
  <member type="relation" ref="8814743" role=""/>
  <member type="relation" ref="3767143" role=""/>
  <member type="relation" ref="9349690" role=""/>
  <member type="relation" ref="8812592" role=""/>
  <member type="relation" ref="3767309" role=""/>
  <member type="relation" ref="8385407" role=""/>
  <member type="relation" ref="8385532" role=""/>
  <member type="relation" ref="7757831" role=""/>
  <member type="relation" ref="7756814" role=""/>
  <member type="relation" ref="8386008" role=""/>
  <member type="relation" ref="3500263" role=""/>
  <member type="relation" ref="9385077" role=""/>
  <member type="relation" ref="1282122" role=""/>
  <member type="relation" ref="4544619" role=""/>
  <member type="relation" ref="4165287" role=""/>
  <member type="relation" ref="3717459" role=""/>
  <member type="relation" ref="3771004" role=""/>
  <member type="relation" ref="9400756" role=""/>
  <member type="relation" ref="3904021" role=""/>
  <member type="relation" ref="12586" role=""/>
  <member type="relation" ref="12893" role=""/>
  <member type="relation" ref="149016" role=""/>
  <member type="relation" ref="12582" role=""/>
  <member type="relation" ref="9444474" role=""/>
  <member type="relation" ref="65441" role=""/>
  <member type="relation" ref="9483543" role=""/>
  <member type="relation" ref="9483646" role=""/>
  <member type="relation" ref="9491583" role=""/>
  <member type="relation" ref="7106297" role=""/>
  <member type="relation" ref="9361964" role=""/>
  <member type="relation" ref="9361958" role=""/>
  <member type="relation" ref="9364398" role=""/>
  <member type="relation" ref="9361965" role=""/>
  <member type="relation" ref="9364395" role=""/>
  <member type="relation" ref="9364399" role=""/>
  <member type="relation" ref="9361957" role=""/>
  <member type="relation" ref="9364404" role=""/>
  <member type="relation" ref="9592451" role=""/>
  <member type="relation" ref="9578522" role=""/>
  <member type="relation" ref="9608067" role=""/>
  <member type="relation" ref="6966370" role=""/>
  <member type="relation" ref="9659817" role=""/>
  <member type="relation" ref="9627337" role=""/>
  <member type="relation" ref="9633190" role=""/>
  <member type="relation" ref="9702108" role=""/>
  <member type="relation" ref="9651112" role=""/>
  <member type="relation" ref="9712245" role=""/>
  <member type="relation" ref="9669415" role=""/>
  <member type="relation" ref="3787044" role=""/>
  <member type="relation" ref="9680900" role=""/>
  <member type="relation" ref="9684360" role=""/>
  <member type="relation" ref="33010" role=""/>
  <member type="relation" ref="6585224" role=""/>
  <member type="relation" ref="6595831" role=""/>
  <member type="relation" ref="6584912" role=""/>
  <member type="relation" ref="6596139" role=""/>
  <member type="relation" ref="6612480" role=""/>
  <member type="relation" ref="6596367" role=""/>
  <member type="relation" ref="6601904" role=""/>
  <member type="relation" ref="6624769" role=""/>
  <member type="relation" ref="6626645" role=""/>
  <member type="relation" ref="2883869" role=""/>
  <member type="relation" ref="6621211" role=""/>
  <member type="relation" ref="6612481" role=""/>
  <member type="relation" ref="6641475" role=""/>
  <member type="relation" ref="6632428" role=""/>
  <member type="relation" ref="6639503" role=""/>
  <member type="relation" ref="6641549" role=""/>
  <member type="relation" ref="6645422" role=""/>
  <member type="relation" ref="5431055" role=""/>
  <member type="relation" ref="30840" role=""/>
  <member type="relation" ref="8466396" role=""/>
  <member type="relation" ref="8472959" role=""/>
  <member type="relation" ref="8903572" role=""/>
  <member type="relation" ref="9864624" role=""/>
  <member type="relation" ref="9365397" role=""/>
  <member type="relation" ref="6647077" role=""/>
  <member type="relation" ref="8197220" role=""/>
  <member type="relation" ref="1020657" role=""/>
  <member type="relation" ref="3639021" role=""/>
  <member type="relation" ref="1192346" role=""/>
  <member type="relation" ref="3521034" role=""/>
  <member type="relation" ref="8319600" role=""/>
  <member type="relation" ref="8421608" role=""/>
  <member type="relation" ref="8255454" role=""/>
  <member type="relation" ref="8171702" role=""/>
  <member type="relation" ref="9882017" role=""/>
  <member type="relation" ref="9361997" role=""/>
  <member type="relation" ref="9361995" role=""/>
  <member type="relation" ref="9621534" role=""/>
  <member type="relation" ref="9577579" role=""/>
  <member type="relation" ref="9662836" role=""/>
  <member type="relation" ref="9637071" role=""/>
  <member type="relation" ref="9706190" role=""/>
  <member type="relation" ref="9678094" role=""/>
  <member type="relation" ref="34190" role=""/>
  <member type="relation" ref="6651341" role=""/>
  <member type="relation" ref="6632429" role=""/>
  <member type="relation" ref="6651380" role=""/>
  <member type="relation" ref="6607033" role=""/>
  <member type="relation" ref="33018" role=""/>
  <member type="relation" ref="6594495" role=""/>
  <member type="relation" ref="3842394" role=""/>
  <member type="relation" ref="7346573" role=""/>
  <member type="relation" ref="6594518" role=""/>
  <member type="relation" ref="9230437" role=""/>
  <member type="relation" ref="6583464" role=""/>
  <member type="relation" ref="9220015" role=""/>
  <member type="relation" ref="947961" role=""/>
  <member type="relation" ref="6743360" role=""/>
  <member type="relation" ref="9389808" role=""/>
  <member type="relation" ref="9387618" role=""/>
  <member type="relation" ref="9095602" role=""/>
  <member type="relation" ref="6334848" role=""/>
  <member type="relation" ref="6519669" role=""/>
  <member type="relation" ref="6608790" role=""/>
  <member type="relation" ref="7920696" role=""/>
  <member type="relation" ref="6646894" role=""/>
  <member type="relation" ref="49515" role=""/>
  <member type="relation" ref="9842733" role=""/>
  <member type="relation" ref="9885666" role=""/>
  <member type="relation" ref="10259311" role=""/>
  <member type="relation" ref="10481824" role=""/>
  <member type="relation" ref="53796" role=""/>
  <member type="relation" ref="8839514" role=""/>
  <member type="relation" ref="3518585" role=""/>
  <member type="relation" ref="8512559" role=""/>
  <member type="relation" ref="8547309" role=""/>
  <member type="relation" ref="8901184" role=""/>
  <member type="relation" ref="8606655" role=""/>
  <member type="relation" ref="8330838" role=""/>
  <member type="relation" ref="6097291" role=""/>
  <member type="relation" ref="3947962" role=""/>
  <member type="relation" ref="6114814" role=""/>
  <member type="relation" ref="8770279" role=""/>
  <member type="relation" ref="7803946" role=""/>
  <member type="relation" ref="10015101" role=""/>
  <member type="relation" ref="8780413" role=""/>
  <member type="relation" ref="9226628" role=""/>
  <member type="relation" ref="1113900" role=""/>
  <member type="relation" ref="9878286" role=""/>
  <member type="relation" ref="9842064" role=""/>
  <member type="relation" ref="12886" role=""/>
  <member type="relation" ref="31661" role=""/>
  <member type="relation" ref="1061405" role=""/>
  <member type="relation" ref="9732500" role=""/>
  <member type="relation" ref="9566443" role=""/>
  <member type="relation" ref="9364401" role=""/>
  <member type="relation" ref="2360722" role=""/>
  <member type="relation" ref="9600043" role=""/>
  <member type="relation" ref="9655888" role=""/>
  <member type="relation" ref="9644147" role=""/>
  <member type="relation" ref="9674712" role=""/>
  <member type="relation" ref="10535240" role=""/>
  <member type="relation" ref="10997961" role=""/>
  <member type="relation" ref="3771097" role=""/>
  <member type="relation" ref="3771098" role=""/>
  <member type="relation" ref="6634560" role=""/>
  <member type="relation" ref="6649220" role=""/>
  <member type="relation" ref="6651324" role=""/>
  <member type="relation" ref="13970524" role=""/>
  <member type="relation" ref="6626646" role=""/>
  <member type="relation" ref="6604372" role=""/>
  <member type="relation" ref="33014" role=""/>
  <member type="relation" ref="195249" role=""/>
  <member type="relation" ref="7259555" role=""/>
  <member type="relation" ref="5385850" role=""/>
  <member type="relation" ref="7462562" role=""/>
  <member type="relation" ref="572350" role=""/>
  <member type="relation" ref="6649827" role=""/>
  <member type="relation" ref="9145802" role=""/>
  <member type="relation" ref="9167558" role=""/>
  <member type="relation" ref="9246031" role=""/>
  <member type="relation" ref="9384961" role=""/>
  <member type="relation" ref="6603804" role=""/>
  <member type="relation" ref="8660479" role=""/>
  <member type="relation" ref="8705812" role=""/>
  <member type="relation" ref="6357795" role=""/>
  <member type="relation" ref="2888579" role=""/>
  <member type="relation" ref="3644591" role=""/>
  <member type="relation" ref="13766033" role=""/>
  <member type="relation" ref="5347303" role=""/>
  <member type="relation" ref="3836968" role=""/>
  <member type="relation" ref="8250033" role=""/>
  <member type="relation" ref="8630931" role=""/>
  <member type="relation" ref="6518158" role=""/>
  <member type="relation" ref="3518586" role=""/>
  <member type="relation" ref="8507094" role=""/>
  <member type="relation" ref="8624536" role=""/>
  <member type="relation" ref="8330502" role=""/>
  <member type="relation" ref="8468445" role=""/>
  <member type="relation" ref="8736759" role=""/>
  <member type="relation" ref="8344320" role=""/>
  <member type="relation" ref="8346167" role=""/>
  <member type="relation" ref="8547781" role=""/>
  <member type="relation" ref="8778351" role=""/>
  <member type="relation" ref="8819316" role=""/>
  <member type="relation" ref="8428316" role=""/>
  <member type="relation" ref="10036652" role=""/>
  <member type="relation" ref="7521547" role=""/>
  <member type="relation" ref="9889643" role=""/>
  <member type="relation" ref="36203" role=""/>
  <member type="relation" ref="9727705" role=""/>
  <member type="relation" ref="9760336" role=""/>
  <member type="relation" ref="1061406" role=""/>
  <member type="relation" ref="9734691" role=""/>
  <member type="relation" ref="9364397" role=""/>
  <member type="relation" ref="9525476" role=""/>
  <member type="relation" ref="9365392" role=""/>
  <member type="relation" ref="9364403" role=""/>
  <member type="relation" ref="9581384" role=""/>
  <member type="relation" ref="9615824" role=""/>
  <member type="relation" ref="9648379" role=""/>
  <member type="relation" ref="9365391" role=""/>
  <member type="relation" ref="9849119" role=""/>
  <member type="relation" ref="6645423" role=""/>
  <member type="relation" ref="6653406" role=""/>
  <member type="relation" ref="6596106" role=""/>
  <member type="relation" ref="9301437" role=""/>
  <member type="relation" ref="9231531" role=""/>
  <member type="relation" ref="446121" role=""/>
  <member type="relation" ref="7901019" role=""/>
  <member type="relation" ref="6012803" role=""/>
  <member type="relation" ref="6594184" role=""/>
  <member type="relation" ref="5425459" role=""/>
  <member type="relation" ref="6491957" role=""/>
  <member type="relation" ref="8907070" role=""/>
  <member type="relation" ref="1017048" role=""/>
  <member type="relation" ref="8705506" role=""/>
  <member type="relation" ref="6518913" role=""/>
  <member type="relation" ref="4085924" role=""/>
  <member type="relation" ref="7021581" role=""/>
  <member type="relation" ref="7418329" role=""/>
  <member type="relation" ref="33003" role=""/>
  <member type="relation" ref="9889615" role=""/>
  <member type="relation" ref="8855535" role=""/>
  <member type="relation" ref="2162634" role=""/>
  <member type="relation" ref="3908697" role=""/>
  <member type="relation" ref="8824623" role=""/>
  <member type="relation" ref="8648367" role=""/>
  <member type="relation" ref="8616846" role=""/>
  <member type="relation" ref="8549720" role=""/>
  <member type="relation" ref="3524706" role=""/>
  <member type="relation" ref="8456817" role=""/>
  <member type="relation" ref="3527404" role=""/>
  <member type="relation" ref="8319621" role=""/>
  <member type="relation" ref="8346063" role=""/>
  <member type="relation" ref="8820384" role=""/>
  <member type="relation" ref="8788010" role=""/>
  <member type="relation" ref="3791425" role=""/>
  <member type="relation" ref="9999040" role=""/>
  <member type="relation" ref="9977958" role=""/>
  <member type="relation" ref="8821725" role=""/>
  <member type="relation" ref="9225568" role=""/>
  <member type="relation" ref="2789281" role=""/>
  <member type="relation" ref="1181630" role=""/>
  <member type="relation" ref="9869305" role=""/>
  <member type="relation" ref="572119" role=""/>
  <member type="relation" ref="9846585" role=""/>
  <member type="relation" ref="12873" role=""/>
  <member type="relation" ref="12591" role=""/>
  <member type="relation" ref="9743152" role=""/>
  <member type="relation" ref="9740226" role=""/>
  <member type="relation" ref="9604654" role=""/>
  <member type="relation" ref="9668498" role=""/>
  <member type="relation" ref="9663861" role=""/>
  <member type="relation" ref="9717721" role=""/>
  <member type="relation" ref="13766030" role=""/>
  <member type="relation" ref="6601928" role=""/>
  <member type="relation" ref="6605962" role=""/>
  <member type="relation" ref="6601896" role=""/>
  <member type="relation" ref="3317036" role=""/>
  <member type="relation" ref="416686" role=""/>
  <member type="relation" ref="446122" role=""/>
  <member type="relation" ref="9156540" role=""/>
  <member type="relation" ref="9383269" role=""/>
  <member type="relation" ref="7240653" role=""/>
  <member type="relation" ref="8725735" role=""/>
  <member type="relation" ref="5450521" role=""/>
  <member type="relation" ref="9028205" role=""/>
  <member type="relation" ref="11621854" role=""/>
  <member type="relation" ref="37650" role=""/>
  <member type="relation" ref="2695918" role=""/>
  <member type="relation" ref="8838236" role=""/>
  <member type="relation" ref="3948024" role=""/>
  <member type="relation" ref="3796161" role=""/>
  <member type="relation" ref="3796341" role=""/>
  <member type="relation" ref="3519913" role=""/>
  <member type="relation" ref="2168363" role=""/>
  <member type="relation" ref="7492744" role=""/>
  <member type="relation" ref="8596419" role=""/>
  <member type="relation" ref="7417266" role=""/>
  <member type="relation" ref="7722594" role=""/>
  <member type="relation" ref="10040102" role=""/>
  <member type="relation" ref="8784852" role=""/>
  <member type="relation" ref="3786630" role=""/>
  <member type="relation" ref="8372093" role=""/>
  <member type="relation" ref="7331065" role=""/>
  <member type="relation" ref="9994456" role=""/>
  <member type="relation" ref="9473486" role=""/>
  <member type="relation" ref="9918288" role=""/>
  <member type="relation" ref="5525014" role=""/>
  <member type="relation" ref="4544688" role=""/>
  <member type="relation" ref="9893745" role=""/>
  <member type="relation" ref="4452065" role=""/>
  <member type="relation" ref="9874325" role=""/>
  <member type="relation" ref="36085" role=""/>
  <member type="relation" ref="31622" role=""/>
  <member type="relation" ref="1597628" role=""/>
  <member type="relation" ref="9500290" role=""/>
  <member type="relation" ref="9584945" role=""/>
  <member type="relation" ref="9361963" role=""/>
  <member type="relation" ref="9364396" role=""/>
  <member type="relation" ref="9365393" role=""/>
  <member type="relation" ref="9586987" role=""/>
  <member type="relation" ref="9593068" role=""/>
  <member type="relation" ref="9623424" role=""/>
  <member type="relation" ref="9852047" role=""/>
  <member type="relation" ref="9671641" role=""/>
  <member type="relation" ref="10548190" role=""/>
  <member type="relation" ref="8063894" role=""/>
  <member type="relation" ref="10387581" role=""/>
  <member type="relation" ref="12079873" role=""/>
  <member type="relation" ref="9570519" role=""/>
  <tag k="name" v="日本の一般国道"/>
  <tag k="name:af" v="Nasionale snelweë van Japan"/>
  <tag k="name:en" v="National Highway of Japan"/>
  <tag k="name:es" v="Ruta nacional de Japón"/>
  <tag k="name:fr" v="Routes nationales du Japon"/>
  <tag k="name:ja" v="日本の一般国道"/>
  <tag k="name:ja-Hira" v="にっぽん の いっぱん こくどう"/>
  <tag k="name:ja-Latn" v="Nihon no ippan kokudō"/>
  <tag k="name:ko" v="일본의 일반 국도"/>
  <tag k="name:ru" v="Японские национальные дороги"/>
  <tag k="name:zh-Hans" v="日本一般国道"/>
  <tag k="name:zh-Hant" v="日本一般國道"/>
  <tag k="network" v="JP:national"/>
  <tag k="route_master" v="road"/>
  <tag k="type" v="route_master"/>
  <tag k="wikidata" v="Q926383"/>
  <tag k="wikimedia_commons" v="Category:National highways of Japan"/>
  <tag k="wikipedia" v="ja:一般国道"/>
 </relation>
 <relation id="9418093" visible="true" version="4" changeset="137822976" timestamp="2023-06-27T08:02:06Z" user="taketaketake" uid="4757277">
  <member type="relation" ref="3904021" role=""/>
  <member type="relation" ref="9418091" role=""/>
  <member type="relation" ref="9418090" role=""/>
  <member type="relation" ref="9418089" role=""/>
  <member type="relation" ref="9418088" role=""/>
  <member type="relation" ref="9418087" role=""/>
  <member type="relation" ref="9935000" role=""/>
  <member type="relation" ref="9418086" role=""/>
  <member type="relation" ref="9426897" role=""/>
  <member type="relation" ref="9418085" role=""/>
  <tag k="name" v="国道191号"/>
  <tag k="name:en" v="National Highway Route 191"/>
  <tag k="network" v="JP:national"/>
  <tag k="ref" v="191"/>
  <tag k="route_master" v="road"/>
  <tag k="type" v="route_master"/>
 </relation>
 <relation id="19052499" visible="true" version="1" changeset="165543650" timestamp="2025-04-28T11:00:31Z" user="takana_zuke" uid="5903655">
  <member type="way" ref="1381965871" role="outer"/>
  <tag k="natural" v="water"/>
  <tag k="type" v="multipolygon"/>
  <tag k="water" v="river"/>
 </relation>
</osm>
