<?xml version="1.0" encoding="UTF-8"?>
<osm version="0.6" generator="openstreetmap-cgimap 2.1.0 (2942779 spike-08.openstreetmap.org)" copyright="OpenStreetMap and contributors" attribution="http://www.openstreetmap.org/copyright" license="http://opendatacommons.org/licenses/odbl/1-0/">
 <bounds minlat="33.9462690" minlon="132.2078500" maxlat="33.9486690" maxlon="132.2108500"/>
 <node id="281861034" visible="true" version="6" changeset="169752352" timestamp="2025-07-31T06:39:16Z" user="taketaketake" uid="4757277" lat="33.9535922" lon="132.1859179">
  <tag k="highway" v="traffic_signals"/>
 </node>
 <node id="366495607" visible="true" version="9" changeset="98893401" timestamp="2021-02-08T08:37:22Z" user="taketaketake" uid="4757277" lat="33.9538960" lon="132.1863269"/>
 <node id="366495608" visible="true" version="10" changeset="98893401" timestamp="2021-02-08T08:37:22Z" user="taketaketake" uid="4757277" lat="33.9544199" lon="132.1874701"/>
 <node id="366495609" visible="true" version="10" changeset="98893401" timestamp="2021-02-08T08:37:22Z" user="taketaketake" uid="4757277" lat="33.9545377" lon="132.1879814"/>
 <node id="366495611" visible="true" version="10" changeset="98893401" timestamp="2021-02-08T08:37:22Z" user="taketaketake" uid="4757277" lat="33.9545605" lon="132.1915053"/>
 <node id="366496049" visible="true" version="9" changeset="98893401" timestamp="2021-02-08T08:37:22Z" user="taketaketake" uid="4757277" lat="33.9545478" lon="132.1917308"/>
 <node id="366496050" visible="true" version="9" changeset="170651351" timestamp="2025-08-19T06:40:12Z" user="taketaketake" uid="4757277" lat="33.9544475" lon="132.1921814"/>
 <node id="366496051" visible="true" version="8" changeset="29650526" timestamp="2015-03-22T07:57:17Z" user="yamasan" uid="32308" lat="33.9543167" lon="132.1924536"/>
 <node id="366496052" visible="true" version="8" changeset="29650526" timestamp="2015-03-22T07:57:17Z" user="yamasan" uid="32308" lat="33.9535688" lon="132.1936696"/>
 <node id="366496053" visible="true" version="8" changeset="29650526" timestamp="2015-03-22T07:57:17Z" user="yamasan" uid="32308" lat="33.9533212" lon="132.1940689"/>
 <node id="366496054" visible="true" version="8" changeset="29650526" timestamp="2015-03-22T07:57:17Z" user="yamasan" uid="32308" lat="33.9527136" lon="132.1951612"/>
 <node id="366496055" visible="true" version="8" changeset="29650526" timestamp="2015-03-22T07:57:17Z" user="yamasan" uid="32308" lat="33.9522887" lon="132.1957996"/>
 <node id="366496056" visible="true" version="8" changeset="29650526" timestamp="2015-03-22T07:57:17Z" user="yamasan" uid="32308" lat="33.9519764" lon="132.1961869"/>
 <node id="366496057" visible="true" version="8" changeset="29650526" timestamp="2015-03-22T07:57:17Z" user="yamasan" uid="32308" lat="33.9508766" lon="132.1974913"/>
 <node id="366496058" visible="true" version="8" changeset="29650526" timestamp="2015-03-22T07:57:17Z" user="yamasan" uid="32308" lat="33.9505961" lon="132.1978180"/>
 <node id="366496059" visible="true" version="8" changeset="29650526" timestamp="2015-03-22T07:57:17Z" user="yamasan" uid="32308" lat="33.9503782" lon="132.1980251"/>
 <node id="366496060" visible="true" version="8" changeset="29650526" timestamp="2015-03-22T07:57:17Z" user="yamasan" uid="32308" lat="33.9497755" lon="132.1984317"/>
 <node id="366496061" visible="true" version="8" changeset="29650526" timestamp="2015-03-22T07:57:17Z" user="yamasan" uid="32308" lat="33.9491373" lon="132.1988436"/>
 <node id="366496062" visible="true" version="8" changeset="29650526" timestamp="2015-03-22T07:57:17Z" user="yamasan" uid="32308" lat="33.9488341" lon="132.1990747"/>
 <node id="366496063" visible="true" version="8" changeset="29650526" timestamp="2015-03-22T07:57:17Z" user="yamasan" uid="32308" lat="33.9485707" lon="132.1993604"/>
 <node id="366496064" visible="true" version="8" changeset="29650526" timestamp="2015-03-22T07:57:17Z" user="yamasan" uid="32308" lat="33.9483038" lon="132.1998420"/>
 <node id="366496065" visible="true" version="8" changeset="29650526" timestamp="2015-03-22T07:57:17Z" user="yamasan" uid="32308" lat="33.9481462" lon="132.2003760"/>
 <node id="366496066" visible="true" version="8" changeset="29650526" timestamp="2015-03-22T07:57:18Z" user="yamasan" uid="32308" lat="33.9477003" lon="132.2031808"/>
 <node id="366496067" visible="true" version="7" changeset="6900268" timestamp="2011-01-08T05:55:20Z" user="yamasan" uid="32308" lat="33.9473638" lon="132.2055773"/>
 <node id="366496068" visible="true" version="7" changeset="6900268" timestamp="2011-01-08T05:55:23Z" user="yamasan" uid="32308" lat="33.9472471" lon="132.2063439"/>
 <node id="366496069" visible="true" version="8" changeset="29650526" timestamp="2015-03-22T07:57:18Z" user="yamasan" uid="32308" lat="33.9472543" lon="132.2066936"/>
 <node id="366496070" visible="true" version="9" changeset="155640175" timestamp="2024-08-23T08:47:46Z" user="taketaketake" uid="4757277" lat="33.9473568" lon="132.2088381"/>
 <node id="366496071" visible="true" version="9" changeset="155640175" timestamp="2024-08-23T08:47:46Z" user="taketaketake" uid="4757277" lat="33.9474164" lon="132.2090495"/>
 <node id="366496072" visible="true" version="8" changeset="155640175" timestamp="2024-08-23T08:47:46Z" user="taketaketake" uid="4757277" lat="33.9475930" lon="132.2094780"/>
 <node id="366496073" visible="true" version="9" changeset="170654758" timestamp="2025-08-19T08:04:59Z" user="taketaketake" uid="4757277" lat="33.9483781" lon="132.2111727">
  <tag k="name" v="文珠山入口"/>
 </node>
 <node id="366496074" visible="true" version="7" changeset="155640175" timestamp="2024-08-23T08:47:46Z" user="taketaketake" uid="4757277" lat="33.9486149" lon="132.2117070"/>
 <node id="366496075" visible="true" version="7" changeset="155640175" timestamp="2024-08-23T08:47:46Z" user="taketaketake" uid="4757277" lat="33.9488566" lon="132.2120906"/>
 <node id="366496076" visible="true" version="7" changeset="155640175" timestamp="2024-08-23T08:47:46Z" user="taketaketake" uid="4757277" lat="33.9491893" lon="132.2124165"/>
 <node id="366496077" visible="true" version="7" changeset="155640175" timestamp="2024-08-23T08:47:46Z" user="taketaketake" uid="4757277" lat="33.9496528" lon="132.2126734"/>
 <node id="366496078" visible="true" version="7" changeset="155640175" timestamp="2024-08-23T08:47:46Z" user="taketaketake" uid="4757277" lat="33.9503768" lon="132.2128735"/>
 <node id="366496079" visible="true" version="7" changeset="155640175" timestamp="2024-08-23T08:47:46Z" user="taketaketake" uid="4757277" lat="33.9509785" lon="132.2130730"/>
 <node id="366496080" visible="true" version="7" changeset="155640175" timestamp="2024-08-23T08:47:46Z" user="taketaketake" uid="4757277" lat="33.9513969" lon="132.2131202"/>
 <node id="366496081" visible="true" version="7" changeset="155640175" timestamp="2024-08-23T08:47:46Z" user="taketaketake" uid="4757277" lat="33.9519230" lon="132.2130177"/>
 <node id="366496082" visible="true" version="7" changeset="155640175" timestamp="2024-08-23T08:47:46Z" user="taketaketake" uid="4757277" lat="33.9528210" lon="132.2126766"/>
 <node id="366496083" visible="true" version="7" changeset="155640175" timestamp="2024-08-23T08:47:46Z" user="taketaketake" uid="4757277" lat="33.9536312" lon="132.2123846"/>
 <node id="366496084" visible="true" version="7" changeset="155640175" timestamp="2024-08-23T08:47:46Z" user="taketaketake" uid="4757277" lat="33.9538645" lon="132.2123284"/>
 <node id="366496085" visible="true" version="7" changeset="155640175" timestamp="2024-08-23T08:47:46Z" user="taketaketake" uid="4757277" lat="33.9542237" lon="132.2123071"/>
 <node id="366496086" visible="true" version="7" changeset="155640175" timestamp="2024-08-23T08:47:46Z" user="taketaketake" uid="4757277" lat="33.9548202" lon="132.2125149"/>
 <node id="366496088" visible="true" version="7" changeset="155640175" timestamp="2024-08-23T08:47:46Z" user="taketaketake" uid="4757277" lat="33.9562341" lon="132.2130927"/>
 <node id="366496089" visible="true" version="7" changeset="155640175" timestamp="2024-08-23T08:47:46Z" user="taketaketake" uid="4757277" lat="33.9566018" lon="132.2133726"/>
 <node id="366496090" visible="true" version="7" changeset="155640175" timestamp="2024-08-23T08:47:46Z" user="taketaketake" uid="4757277" lat="33.9569242" lon="132.2140350"/>
 <node id="366496091" visible="true" version="7" changeset="155640175" timestamp="2024-08-23T08:47:46Z" user="taketaketake" uid="4757277" lat="33.9570165" lon="132.2144072"/>
 <node id="366496092" visible="true" version="7" changeset="155640175" timestamp="2024-08-23T08:47:46Z" user="taketaketake" uid="4757277" lat="33.9570347" lon="132.2146841"/>
 <node id="366496093" visible="true" version="6" changeset="865600" timestamp="2009-03-28T11:03:01Z" user="yamasan" uid="32308" lat="33.9570424" lon="132.2162035"/>
 <node id="366496094" visible="true" version="7" changeset="155640175" timestamp="2024-08-23T08:47:46Z" user="taketaketake" uid="4757277" lat="33.9570336" lon="132.2166989"/>
 <node id="366496095" visible="true" version="7" changeset="155640175" timestamp="2024-08-23T08:47:46Z" user="taketaketake" uid="4757277" lat="33.9571456" lon="132.2171398"/>
 <node id="366496096" visible="true" version="7" changeset="155640175" timestamp="2024-08-23T08:47:46Z" user="taketaketake" uid="4757277" lat="33.9574266" lon="132.2176319"/>
 <node id="366496097" visible="true" version="7" changeset="155640175" timestamp="2024-08-23T08:47:46Z" user="taketaketake" uid="4757277" lat="33.9580615" lon="132.2182982"/>
 <node id="366496098" visible="true" version="7" changeset="155640175" timestamp="2024-08-23T08:47:46Z" user="taketaketake" uid="4757277" lat="33.9581666" lon="132.2184689"/>
 <node id="366496099" visible="true" version="7" changeset="155640175" timestamp="2024-08-23T08:47:46Z" user="taketaketake" uid="4757277" lat="33.9583252" lon="132.2188472"/>
 <node id="366496100" visible="true" version="7" changeset="155640175" timestamp="2024-08-23T08:47:46Z" user="taketaketake" uid="4757277" lat="33.9583744" lon="132.2190831"/>
 <node id="366496101" visible="true" version="6" changeset="865600" timestamp="2009-03-28T11:03:02Z" user="yamasan" uid="32308" lat="33.9587439" lon="132.2220485"/>
 <node id="366496102" visible="true" version="7" changeset="169752352" timestamp="2025-07-31T06:39:16Z" user="taketaketake" uid="4757277" lat="33.9588416" lon="132.2231682"/>
 <node id="366496103" visible="true" version="7" changeset="169752352" timestamp="2025-07-31T06:39:16Z" user="taketaketake" uid="4757277" lat="33.9588381" lon="132.2234001"/>
 <node id="366496104" visible="true" version="7" changeset="169752352" timestamp="2025-07-31T06:39:16Z" user="taketaketake" uid="4757277" lat="33.9587684" lon="132.2238083"/>
 <node id="366496105" visible="true" version="7" changeset="169752352" timestamp="2025-07-31T06:39:16Z" user="taketaketake" uid="4757277" lat="33.9581491" lon="132.2255996"/>
 <node id="366496106" visible="true" version="7" changeset="169752352" timestamp="2025-07-31T06:39:16Z" user="taketaketake" uid="4757277" lat="33.9580638" lon="132.2262868"/>
 <node id="366496107" visible="true" version="7" changeset="169752352" timestamp="2025-07-31T06:39:16Z" user="taketaketake" uid="4757277" lat="33.9580745" lon="132.2264651"/>
 <node id="366496108" visible="true" version="7" changeset="169752352" timestamp="2025-07-31T06:39:16Z" user="taketaketake" uid="4757277" lat="33.9582995" lon="132.2285688"/>
 <node id="366496109" visible="true" version="6" changeset="865600" timestamp="2009-03-28T11:03:02Z" user="yamasan" uid="32308" lat="33.9583310" lon="132.2288635"/>
 <node id="366496110" visible="true" version="7" changeset="169752352" timestamp="2025-07-31T06:39:16Z" user="taketaketake" uid="4757277" lat="33.9587131" lon="132.2297023"/>
 <node id="748900669" visible="true" version="1" changeset="4813224" timestamp="2010-05-26T13:39:36Z" user="Tom_G3X" uid="146930" lat="33.9498090" lon="132.2085820"/>
 <node id="748903000" visible="true" version="2" changeset="155640175" timestamp="2024-08-23T08:47:46Z" user="taketaketake" uid="4757277" lat="33.9380464" lon="132.2169459"/>
 <node id="748906591" visible="true" version="1" changeset="4813224" timestamp="2010-05-26T13:41:55Z" user="Tom_G3X" uid="146930" lat="33.9405160" lon="132.2127920"/>
 <node id="748918221" visible="true" version="2" changeset="155640175" timestamp="2024-08-23T08:47:46Z" user="taketaketake" uid="4757277" lat="33.9391852" lon="132.2161937"/>
 <node id="748921929" visible="true" version="2" changeset="155640175" timestamp="2024-08-23T08:47:46Z" user="taketaketake" uid="4757277" lat="33.9418913" lon="132.2110629"/>
 <node id="748922170" visible="true" version="2" changeset="155640175" timestamp="2024-08-23T08:47:46Z" user="taketaketake" uid="4757277" lat="33.9363792" lon="132.2206990"/>
 <node id="748928919" visible="true" version="1" changeset="4813224" timestamp="2010-05-26T13:51:36Z" user="Tom_G3X" uid="146930" lat="33.9444720" lon="132.2107790"/>
 <node id="748929738" visible="true" version="2" changeset="155640175" timestamp="2024-08-23T08:47:46Z" user="taketaketake" uid="4757277" lat="33.9439746" lon="132.2136378"/>
 <node id="748935590" visible="true" version="1" changeset="4813224" timestamp="2010-05-26T13:55:19Z" user="Tom_G3X" uid="146930" lat="33.9408940" lon="132.2116170"/>
 <node id="748935786" visible="true" version="2" changeset="155640175" timestamp="2024-08-23T08:47:46Z" user="taketaketake" uid="4757277" lat="33.9370039" lon="132.2190403"/>
 <node id="748947109" visible="true" version="1" changeset="4813224" timestamp="2010-05-26T14:00:05Z" user="Tom_G3X" uid="146930" lat="33.9426670" lon="132.2113940"/>
 <node id="748958946" visible="true" version="1" changeset="4813224" timestamp="2010-05-26T14:04:08Z" user="Tom_G3X" uid="146930" lat="33.9376050" lon="132.2186330"/>
 <node id="748959409" visible="true" version="2" changeset="155640175" timestamp="2024-08-23T08:47:46Z" user="taketaketake" uid="4757277" lat="33.9363300" lon="132.2197323"/>
 <node id="748964829" visible="true" version="1" changeset="4813224" timestamp="2010-05-26T14:06:29Z" user="Tom_G3X" uid="146930" lat="33.9393730" lon="132.2146640"/>
 <node id="748972419" visible="true" version="1" changeset="4813224" timestamp="2010-05-26T14:09:47Z" user="Tom_G3X" uid="146930" lat="33.9455120" lon="132.2105150"/>
 <node id="748982326" visible="true" version="2" changeset="29650526" timestamp="2015-03-22T07:57:18Z" user="yamasan" uid="32308" lat="33.9478470" lon="132.2095791"/>
 <node id="748984873" visible="true" version="2" changeset="155640175" timestamp="2024-08-23T08:47:46Z" user="taketaketake" uid="4757277" lat="33.9376502" lon="132.2171718"/>
 <node id="748990744" visible="true" version="2" changeset="155640175" timestamp="2024-08-23T08:47:46Z" user="taketaketake" uid="4757277" lat="33.9404256" lon="132.2131065"/>
 <node id="749015038" visible="true" version="2" changeset="155640175" timestamp="2024-08-23T08:47:46Z" user="taketaketake" uid="4757277" lat="33.9463773" lon="132.2103240"/>
 <node id="749020577" visible="true" version="2" changeset="155640175" timestamp="2024-08-23T08:47:46Z" user="taketaketake" uid="4757277" lat="33.9377448" lon="132.2179387"/>
 <node id="749029776" visible="true" version="1" changeset="4813224" timestamp="2010-05-26T14:31:28Z" user="Tom_G3X" uid="146930" lat="33.9400260" lon="132.2136460"/>
 <node id="749056428" visible="true" version="1" changeset="4813224" timestamp="2010-05-26T14:42:35Z" user="Tom_G3X" uid="146930" lat="33.9382970" lon="132.2165820"/>
 <node id="749062924" visible="true" version="1" changeset="4813224" timestamp="2010-05-26T14:46:05Z" user="Tom_G3X" uid="146930" lat="33.9406400" lon="132.2122380"/>
 <node id="749063331" visible="true" version="2" changeset="155640175" timestamp="2024-08-23T08:47:46Z" user="taketaketake" uid="4757277" lat="33.9357280" lon="132.2214351"/>
 <node id="749065708" visible="true" version="2" changeset="155640175" timestamp="2024-08-23T08:47:46Z" user="taketaketake" uid="4757277" lat="33.9437365" lon="132.2141195"/>
 <node id="749073748" visible="true" version="2" changeset="29650526" timestamp="2015-03-22T07:57:18Z" user="yamasan" uid="32308" lat="33.9490052" lon="132.2090286"/>
 <node id="749075125" visible="true" version="2" changeset="155640175" timestamp="2024-08-23T08:47:46Z" user="taketaketake" uid="4757277" lat="33.9393163" lon="132.2156860"/>
 <node id="749078338" visible="true" version="1" changeset="4813826" timestamp="2010-05-26T14:53:40Z" user="Tom_G3X" uid="146930" lat="33.9404540" lon="132.2129210"/>
 <node id="749078584" visible="true" version="1" changeset="4813826" timestamp="2010-05-26T14:53:45Z" user="Tom_G3X" uid="146930" lat="33.9363260" lon="132.2201420"/>
 <node id="749089914" visible="true" version="2" changeset="155640175" timestamp="2024-08-23T08:47:46Z" user="taketaketake" uid="4757277" lat="33.9454563" lon="132.2123919"/>
 <node id="749093412" visible="true" version="2" changeset="155640175" timestamp="2024-08-23T08:47:46Z" user="taketaketake" uid="4757277" lat="33.9390466" lon="132.2163574"/>
 <node id="749098731" visible="true" version="2" changeset="155640175" timestamp="2024-08-23T08:47:46Z" user="taketaketake" uid="4757277" lat="33.9415024" lon="132.2111169"/>
 <node id="749099033" visible="true" version="1" changeset="4813826" timestamp="2010-05-26T15:01:52Z" user="Tom_G3X" uid="146930" lat="33.9361690" lon="132.2210070"/>
 <node id="749110272" visible="true" version="1" changeset="4813826" timestamp="2010-05-26T15:05:47Z" user="Tom_G3X" uid="146930" lat="33.9441320" lon="132.2108330"/>
 <node id="749124440" visible="true" version="1" changeset="4813826" timestamp="2010-05-26T15:10:07Z" user="Tom_G3X" uid="146930" lat="33.9377230" lon="132.2183930"/>
 <node id="749125247" visible="true" version="2" changeset="155640175" timestamp="2024-08-23T08:47:46Z" user="taketaketake" uid="4757277" lat="33.9366829" lon="132.2195549"/>
 <node id="749132842" visible="true" version="1" changeset="4813826" timestamp="2010-05-26T15:12:13Z" user="Tom_G3X" uid="146930" lat="33.9399760" lon="132.2142510"/>
 <node id="749143949" visible="true" version="1" changeset="4813826" timestamp="2010-05-26T15:14:57Z" user="Tom_G3X" uid="146930" lat="33.9459570" lon="132.2105960"/>
 <node id="749161471" visible="true" version="2" changeset="155640175" timestamp="2024-08-23T08:47:46Z" user="taketaketake" uid="4757277" lat="33.9372041" lon="132.2188389"/>
 <node id="749161864" visible="true" version="2" changeset="155640175" timestamp="2024-08-23T08:47:46Z" user="taketaketake" uid="4757277" lat="33.9362789" lon="132.2199765"/>
 <node id="749169039" visible="true" version="2" changeset="155640175" timestamp="2024-08-23T08:47:46Z" user="taketaketake" uid="4757277" lat="33.9392300" lon="132.2149608"/>
 <node id="749179120" visible="true" version="1" changeset="4813826" timestamp="2010-05-26T15:25:09Z" user="Tom_G3X" uid="146930" lat="33.9452070" lon="132.2105220"/>
 <node id="749194124" visible="true" version="1" changeset="4813826" timestamp="2010-05-26T15:29:31Z" user="Tom_G3X" uid="146930" lat="33.9473420" lon="132.2098800"/>
 <node id="749198010" visible="true" version="2" changeset="155640175" timestamp="2024-08-23T08:47:46Z" user="taketaketake" uid="4757277" lat="33.9376116" lon="132.2174191"/>
 <node id="749206207" visible="true" version="2" changeset="155640175" timestamp="2024-08-23T08:47:46Z" user="taketaketake" uid="4757277" lat="33.9402339" lon="132.2133086"/>
 <node id="749233865" visible="true" version="1" changeset="4813826" timestamp="2010-05-26T15:44:08Z" user="Tom_G3X" uid="146930" lat="33.9386010" lon="132.2165080"/>
 <node id="749241166" visible="true" version="1" changeset="4813826" timestamp="2010-05-26T15:47:24Z" user="Tom_G3X" uid="146930" lat="33.9400090" lon="132.2141430"/>
 <node id="749241731" visible="true" version="2" changeset="155640175" timestamp="2024-08-23T08:47:46Z" user="taketaketake" uid="4757277" lat="33.9358237" lon="132.2213428"/>
 <node id="749265756" visible="true" version="1" changeset="4813826" timestamp="2010-05-26T15:57:20Z" user="Tom_G3X" uid="146930" lat="33.9504440" lon="132.2081650"/>
 <node id="749269428" visible="true" version="1" changeset="4813826" timestamp="2010-05-26T15:59:10Z" user="Tom_G3X" uid="146930" lat="33.9380940" lon="132.2168460"/>
 <node id="749278173" visible="true" version="1" changeset="4813826" timestamp="2010-05-26T16:03:14Z" user="Tom_G3X" uid="146930" lat="33.9405670" lon="132.2126370"/>
 <node id="749297366" visible="true" version="2" changeset="155640175" timestamp="2024-08-23T08:47:46Z" user="taketaketake" uid="4757277" lat="33.9392723" lon="132.2160011"/>
 <node id="749302026" visible="true" version="2" changeset="155640175" timestamp="2024-08-23T08:47:46Z" user="taketaketake" uid="4757277" lat="33.9421245" lon="132.2110934"/>
 <node id="749302478" visible="true" version="2" changeset="155640175" timestamp="2024-08-23T08:47:46Z" user="taketaketake" uid="4757277" lat="33.9363833" lon="132.2205762"/>
 <node id="749311154" visible="true" version="1" changeset="4814433" timestamp="2010-05-26T16:15:09Z" user="Tom_G3X" uid="146930" lat="33.9445370" lon="132.2107720"/>
 <node id="749312313" visible="true" version="2" changeset="155640175" timestamp="2024-08-23T08:47:46Z" user="taketaketake" uid="4757277" lat="33.9446311" lon="132.2129963"/>
 <node id="749315261" visible="true" version="1" changeset="4814433" timestamp="2010-05-26T16:16:50Z" user="Tom_G3X" uid="146930" lat="33.9387250" lon="132.2164670"/>
 <node id="749319702" visible="true" version="1" changeset="4814433" timestamp="2010-05-26T16:18:22Z" user="Tom_G3X" uid="146930" lat="33.9412030" lon="132.2113060"/>
 <node id="749320520" visible="true" version="2" changeset="155640175" timestamp="2024-08-23T08:47:46Z" user="taketaketake" uid="4757277" lat="33.9358923" lon="132.2212260"/>
 <node id="749332019" visible="true" version="2" changeset="155640175" timestamp="2024-08-23T08:47:46Z" user="taketaketake" uid="4757277" lat="33.9435495" lon="132.2110882"/>
 <node id="749345744" visible="true" version="1" changeset="4814433" timestamp="2010-05-26T16:26:35Z" user="Tom_G3X" uid="146930" lat="33.9376440" lon="132.2185750"/>
 <node id="749346293" visible="true" version="2" changeset="155640175" timestamp="2024-08-23T08:47:46Z" user="taketaketake" uid="4757277" lat="33.9364398" lon="132.2196561"/>
 <node id="749353794" visible="true" version="1" changeset="4814433" timestamp="2010-05-26T16:28:31Z" user="Tom_G3X" uid="146930" lat="33.9394800" lon="132.2145690"/>
 <node id="749365090" visible="true" version="1" changeset="4814433" timestamp="2010-05-26T16:30:57Z" user="Tom_G3X" uid="146930" lat="33.9456470" lon="132.2105620"/>
 <node id="749385936" visible="true" version="2" changeset="155640175" timestamp="2024-08-23T08:47:46Z" user="taketaketake" uid="4757277" lat="33.9378028" lon="132.2171178"/>
 <node id="749394081" visible="true" version="2" changeset="155640175" timestamp="2024-08-23T08:47:46Z" user="taketaketake" uid="4757277" lat="33.9392293" lon="132.2153163"/>
 <node id="749403520" visible="true" version="1" changeset="4814433" timestamp="2010-05-26T16:41:09Z" user="Tom_G3X" uid="146930" lat="33.9448700" lon="132.2106780"/>
 <node id="749412874" visible="true" version="2" changeset="155640175" timestamp="2024-08-23T08:47:46Z" user="taketaketake" uid="4757277" lat="33.9464928" lon="132.2102327"/>
 <node id="749416237" visible="true" version="2" changeset="155640175" timestamp="2024-08-23T08:47:46Z" user="taketaketake" uid="4757277" lat="33.9377320" lon="132.2177511"/>
 <node id="749424624" visible="true" version="1" changeset="4814433" timestamp="2010-05-26T16:50:16Z" user="Tom_G3X" uid="146930" lat="33.9400430" lon="132.2135560"/>
 <node id="749455812" visible="true" version="1" changeset="4814433" timestamp="2010-05-26T17:00:55Z" user="Tom_G3X" uid="146930" lat="33.9383820" lon="132.2165350"/>
 <node id="749465303" visible="true" version="1" changeset="4814433" timestamp="2010-05-26T17:04:39Z" user="Tom_G3X" uid="146930" lat="33.9406960" lon="132.2120360"/>
 <node id="749503597" visible="true" version="1" changeset="4814433" timestamp="2010-05-26T17:15:24Z" user="Tom_G3X" uid="146930" lat="33.9492530" lon="132.2088980"/>
 <node id="749509144" visible="true" version="2" changeset="155640175" timestamp="2024-08-23T08:47:46Z" user="taketaketake" uid="4757277" lat="33.9379402" lon="132.2170649"/>
 <node id="749523668" visible="true" version="1" changeset="4814433" timestamp="2010-05-26T17:21:21Z" user="Tom_G3X" uid="146930" lat="33.9404880" lon="132.2128570"/>
 <node id="749557035" visible="true" version="2" changeset="155640175" timestamp="2024-08-23T08:47:46Z" user="taketaketake" uid="4757277" lat="33.9416653" lon="132.2110838"/>
 <node id="749557604" visible="true" version="2" changeset="155640175" timestamp="2024-08-23T08:47:46Z" user="taketaketake" uid="4757277" lat="33.9363696" lon="132.2207909"/>
 <node id="749569285" visible="true" version="1" changeset="4815008" timestamp="2010-05-26T17:34:53Z" user="Tom_G3X" uid="146930" lat="33.9443630" lon="132.2107920"/>
 <node id="749570426" visible="true" version="2" changeset="155640175" timestamp="2024-08-23T08:47:46Z" user="taketaketake" uid="4757277" lat="33.9437867" lon="132.2139669"/>
 <node id="749580318" visible="true" version="1" changeset="4815008" timestamp="2010-05-26T17:38:25Z" user="Tom_G3X" uid="146930" lat="33.9377280" lon="132.2183310"/>
 <node id="749580666" visible="true" version="2" changeset="155640175" timestamp="2024-08-23T08:47:46Z" user="taketaketake" uid="4757277" lat="33.9367821" lon="132.2194422"/>
 <node id="749594502" visible="true" version="2" changeset="155640175" timestamp="2024-08-23T08:47:46Z" user="taketaketake" uid="4757277" lat="33.9425014" lon="132.2113748"/>
 <node id="749611542" visible="true" version="1" changeset="4815008" timestamp="2010-05-26T17:46:53Z" user="Tom_G3X" uid="146930" lat="33.9375310" lon="132.2187040"/>
 <node id="749612247" visible="true" version="2" changeset="155640175" timestamp="2024-08-23T08:47:46Z" user="taketaketake" uid="4757277" lat="33.9362898" lon="132.2198247"/>
 <node id="749621198" visible="true" version="1" changeset="4815008" timestamp="2010-05-26T17:49:01Z" user="Tom_G3X" uid="146930" lat="33.9393110" lon="132.2147650"/>
 <node id="749632423" visible="true" version="1" changeset="4815008" timestamp="2010-05-26T17:51:55Z" user="Tom_G3X" uid="146930" lat="33.9453090" lon="132.2105020"/>
 <node id="749648287" visible="true" version="1" changeset="4815008" timestamp="2010-05-26T17:55:53Z" user="Tom_G3X" uid="146930" lat="33.9474150" lon="132.2098400"/>
 <node id="749655498" visible="true" version="2" changeset="155640175" timestamp="2024-08-23T08:47:46Z" user="taketaketake" uid="4757277" lat="33.9375955" lon="132.2172729"/>
 <node id="749665305" visible="true" version="2" changeset="155640175" timestamp="2024-08-23T08:47:46Z" user="taketaketake" uid="4757277" lat="33.9403484" lon="132.2132259"/>
 <node id="749701539" visible="true" version="1" changeset="4815008" timestamp="2010-05-26T18:15:52Z" user="Tom_G3X" uid="146930" lat="33.9377340" lon="132.2180890"/>
 <node id="749710396" visible="true" version="1" changeset="4815008" timestamp="2010-05-26T18:18:58Z" user="Tom_G3X" uid="146930" lat="33.9400090" lon="132.2138120"/>
 <node id="749748254" visible="true" version="1" changeset="4815008" timestamp="2010-05-26T18:32:10Z" user="Tom_G3X" uid="146930" lat="33.9382130" lon="132.2166700"/>
 <node id="749757757" visible="true" version="1" changeset="4815008" timestamp="2010-05-26T18:35:48Z" user="Tom_G3X" uid="146930" lat="33.9406230" lon="132.2123800"/>
 <node id="749774547" visible="true" version="2" changeset="155640175" timestamp="2024-08-23T08:47:46Z" user="taketaketake" uid="4757277" lat="33.9393315" lon="132.2158469"/>
 <node id="749778495" visible="true" version="2" changeset="155640175" timestamp="2024-08-23T08:47:46Z" user="taketaketake" uid="4757277" lat="33.9422831" lon="132.2112005"/>
 <node id="749778830" visible="true" version="2" changeset="155640175" timestamp="2024-08-23T08:47:46Z" user="taketaketake" uid="4757277" lat="33.9363610" lon="132.2204227"/>
 <node id="749787832" visible="true" version="2" changeset="155640175" timestamp="2024-08-23T08:47:46Z" user="taketaketake" uid="4757277" lat="33.9451104" lon="132.2127940"/>
 <node id="749789811" visible="true" version="2" changeset="155640175" timestamp="2024-08-23T08:47:46Z" user="taketaketake" uid="4757277" lat="33.9388886" lon="132.2164209"/>
 <node id="749793758" visible="true" version="1" changeset="4815758" timestamp="2010-05-26T18:58:40Z" user="Tom_G3X" uid="146930" lat="33.9413210" lon="132.2112180"/>
 <node id="749794038" visible="true" version="2" changeset="155640175" timestamp="2024-08-23T08:47:46Z" user="taketaketake" uid="4757277" lat="33.9360331" lon="132.2210744"/>
 <node id="749799412" visible="true" version="1" changeset="4815758" timestamp="2010-05-26T19:01:57Z" user="Tom_G3X" uid="146930" lat="33.9439680" lon="132.2108940"/>
 <node id="749804813" visible="true" version="1" changeset="4815758" timestamp="2010-05-26T19:04:48Z" user="Tom_G3X" uid="146930" lat="33.9376940" lon="132.2184830"/>
 <node id="749807989" visible="true" version="1" changeset="4815758" timestamp="2010-05-26T19:06:35Z" user="Tom_G3X" uid="146930" lat="33.9399190" lon="132.2143190"/>
 <node id="749811604" visible="true" version="1" changeset="4815758" timestamp="2010-05-26T19:09:22Z" user="Tom_G3X" uid="146930" lat="33.9457930" lon="132.2105960"/>
 <node id="749817589" visible="true" version="2" changeset="155640175" timestamp="2024-08-23T08:47:46Z" user="taketaketake" uid="4757277" lat="33.9370821" lon="132.2189198"/>
 <node id="749824405" visible="true" version="2" changeset="155640175" timestamp="2024-08-23T08:47:46Z" user="taketaketake" uid="4757277" lat="33.9392016" lon="132.2150785"/>
 <node id="749837541" visible="true" version="1" changeset="4815758" timestamp="2010-05-26T19:18:32Z" user="Tom_G3X" uid="146930" lat="33.9450840" lon="132.2105900"/>
 <node id="749852329" visible="true" version="2" changeset="155640175" timestamp="2024-08-23T08:47:46Z" user="taketaketake" uid="4757277" lat="33.9376592" lon="132.2175777"/>
 <node id="749860260" visible="true" version="1" changeset="4815758" timestamp="2010-05-26T19:27:58Z" user="Tom_G3X" uid="146930" lat="33.9401050" lon="132.2134000"/>
 <node id="749887011" visible="true" version="1" changeset="4815758" timestamp="2010-05-26T19:37:16Z" user="Tom_G3X" uid="146930" lat="33.9383980" lon="132.2165330"/>
 <node id="749894981" visible="true" version="1" changeset="4815758" timestamp="2010-05-26T19:39:47Z" user="Tom_G3X" uid="146930" lat="33.9407920" lon="132.2117790"/>
 <node id="1285485895" visible="true" version="2" changeset="155640175" timestamp="2024-08-23T08:47:46Z" user="taketaketake" uid="4757277" lat="33.9585490" lon="132.2203935"/>
 <node id="1285486061" visible="true" version="2" changeset="155640175" timestamp="2024-08-23T08:47:46Z" user="taketaketake" uid="4757277" lat="33.9570481" lon="132.2151408"/>
 <node id="1285486096" visible="true" version="2" changeset="169752352" timestamp="2025-07-31T06:39:16Z" user="taketaketake" uid="4757277" lat="33.9587947" lon="132.2298302"/>
 <node id="1285486292" visible="true" version="1" changeset="8147170" timestamp="2011-05-15T00:45:40Z" user="yamasan" uid="32308" lat="33.9588195" lon="132.2227765"/>
 <node id="1285486704" visible="true" version="2" changeset="155640175" timestamp="2024-08-23T08:47:46Z" user="taketaketake" uid="4757277" lat="33.9579535" lon="132.2181548"/>
 <node id="1285486736" visible="true" version="1" changeset="8147170" timestamp="2011-05-15T00:45:57Z" user="yamasan" uid="32308" lat="33.9587754" lon="132.2223166"/>
 <node id="1285487071" visible="true" version="2" changeset="169752352" timestamp="2025-07-31T06:39:16Z" user="taketaketake" uid="4757277" lat="33.9583714" lon="132.2290006"/>
 <node id="1285562500" visible="true" version="2" changeset="155640175" timestamp="2024-08-23T08:47:46Z" user="taketaketake" uid="4757277" lat="33.9506417" lon="132.2129662"/>
 <node id="1285562551" visible="true" version="2" changeset="155640175" timestamp="2024-08-23T08:47:46Z" user="taketaketake" uid="4757277" lat="33.9463956" lon="132.2104580"/>
 <node id="1285562578" visible="true" version="2" changeset="155640175" timestamp="2024-08-23T08:47:46Z" user="taketaketake" uid="4757277" lat="33.9473418" lon="132.2099718"/>
 <node id="1285562594" visible="true" version="2" changeset="29650526" timestamp="2015-03-22T07:57:09Z" user="yamasan" uid="32308" lat="33.9494672" lon="132.2088867"/>
 <node id="1285562646" visible="true" version="1" changeset="8147504" timestamp="2011-05-15T03:32:56Z" user="yamasan" uid="32308" lat="33.9453640" lon="132.2106770"/>
 <node id="1285562724" visible="true" version="3" changeset="155640175" timestamp="2024-08-23T08:47:46Z" user="taketaketake" uid="4757277" lat="33.9477133" lon="132.2097541"/>
 <node id="1285562869" visible="true" version="1" changeset="8147504" timestamp="2011-05-15T03:33:06Z" user="yamasan" uid="32308" lat="33.9461730" lon="132.2111990"/>
 <node id="1285563143" visible="true" version="2" changeset="29650526" timestamp="2015-03-22T07:57:10Z" user="yamasan" uid="32308" lat="33.9477619" lon="132.2028013"/>
 <node id="1285563263" visible="true" version="2" changeset="29650526" timestamp="2015-03-22T07:57:10Z" user="yamasan" uid="32308" lat="33.9482371" lon="132.2094198"/>
 <node id="1285563662" visible="true" version="2" changeset="155640175" timestamp="2024-08-23T08:47:46Z" user="taketaketake" uid="4757277" lat="33.9493986" lon="132.2125459"/>
 <node id="1285563832" visible="true" version="1" changeset="8147504" timestamp="2011-05-15T03:33:41Z" user="yamasan" uid="32308" lat="33.9455810" lon="132.2106920"/>
 <node id="1285563859" visible="true" version="1" changeset="8147504" timestamp="2011-05-15T03:33:42Z" user="yamasan" uid="32308" lat="33.9461370" lon="132.2106700"/>
 <node id="1285564498" visible="true" version="2" changeset="155640175" timestamp="2024-08-23T08:47:46Z" user="taketaketake" uid="4757277" lat="33.9456351" lon="132.2122097"/>
 <node id="1285564592" visible="true" version="1" changeset="8147504" timestamp="2011-05-15T03:34:15Z" user="yamasan" uid="32308" lat="33.9476720" lon="132.2084130"/>
 <node id="1285564915" visible="true" version="2" changeset="29650526" timestamp="2015-03-22T07:57:12Z" user="yamasan" uid="32308" lat="33.9475983" lon="132.2038902"/>
 <node id="1285565128" visible="true" version="2" changeset="29650526" timestamp="2015-03-22T07:57:12Z" user="yamasan" uid="32308" lat="33.9490799" lon="132.2090764"/>
 <node id="1285565178" visible="true" version="2" changeset="155640175" timestamp="2024-08-23T08:47:46Z" user="taketaketake" uid="4757277" lat="33.9467902" lon="132.2101680"/>
 <node id="1285565208" visible="true" version="2" changeset="155640175" timestamp="2024-08-23T08:47:46Z" user="taketaketake" uid="4757277" lat="33.9460326" lon="132.2114753"/>
 <node id="1285565399" visible="true" version="2" changeset="29650526" timestamp="2015-03-22T07:57:12Z" user="yamasan" uid="32308" lat="33.9476580" lon="132.2084276"/>
 <node id="1285565407" visible="true" version="3" changeset="155640175" timestamp="2024-08-23T08:47:46Z" user="taketaketake" uid="4757277" lat="33.9473051" lon="132.2084756"/>
 <node id="1285565503" visible="true" version="2" changeset="29650526" timestamp="2015-03-22T07:57:13Z" user="yamasan" uid="32308" lat="33.9472819" lon="132.2060186"/>
 <node id="1285565612" visible="true" version="2" changeset="29650526" timestamp="2015-03-22T07:57:13Z" user="yamasan" uid="32308" lat="33.9478248" lon="132.2095573"/>
 <node id="1285565660" visible="true" version="1" changeset="8147504" timestamp="2011-05-15T03:35:07Z" user="yamasan" uid="32308" lat="33.9454550" lon="132.2106750"/>
 <node id="1285565688" visible="true" version="2" changeset="29650526" timestamp="2015-03-22T07:57:13Z" user="yamasan" uid="32308" lat="33.9478490" lon="132.2096194"/>
 <node id="1285565718" visible="true" version="2" changeset="155640175" timestamp="2024-08-23T08:47:46Z" user="taketaketake" uid="4757277" lat="33.9490743" lon="132.2123102"/>
 <node id="1285565885" visible="true" version="1" changeset="8147504" timestamp="2011-05-15T03:35:18Z" user="yamasan" uid="32308" lat="33.9452090" lon="132.2085890"/>
 <node id="1285566102" visible="true" version="2" changeset="29650526" timestamp="2015-03-22T07:57:13Z" user="yamasan" uid="32308" lat="33.9513602" lon="132.1969177"/>
 <node id="1285566117" visible="true" version="2" changeset="29650526" timestamp="2015-03-22T07:57:13Z" user="yamasan" uid="32308" lat="33.9480516" lon="132.2095173"/>
 <node id="1285566125" visible="true" version="2" changeset="155640175" timestamp="2024-08-23T08:47:46Z" user="taketaketake" uid="4757277" lat="33.9462857" lon="132.2104684"/>
 <node id="1285566160" visible="true" version="1" changeset="8147504" timestamp="2011-05-15T03:35:32Z" user="yamasan" uid="32308" lat="33.9459520" lon="132.2107210"/>
 <node id="1285566305" visible="true" version="2" changeset="155640175" timestamp="2024-08-23T08:47:46Z" user="taketaketake" uid="4757277" lat="33.9530162" lon="132.2126002"/>
 <node id="1285566672" visible="true" version="2" changeset="155640175" timestamp="2024-08-23T08:47:46Z" user="taketaketake" uid="4757277" lat="33.9465106" lon="132.2103857"/>
 <node id="1285566676" visible="true" version="2" changeset="29650526" timestamp="2015-03-22T07:57:14Z" user="yamasan" uid="32308" lat="33.9487982" lon="132.2073527"/>
 <node id="1285566772" visible="true" version="2" changeset="29650526" timestamp="2015-03-22T07:57:14Z" user="yamasan" uid="32308" lat="33.9484473" lon="132.2075346"/>
 <node id="1285566786" visible="true" version="2" changeset="155640175" timestamp="2024-08-23T08:47:46Z" user="taketaketake" uid="4757277" lat="33.9458603" lon="132.2118466"/>
 <node id="1285566856" visible="true" version="1" changeset="8147504" timestamp="2011-05-15T03:36:08Z" user="yamasan" uid="32308" lat="33.9457840" lon="132.2107200"/>
 <node id="1442304339" visible="true" version="2" changeset="29650526" timestamp="2015-03-22T07:57:16Z" user="yamasan" uid="32308" lat="33.9504320" lon="132.2080901"/>
 <node id="1442304625" visible="true" version="2" changeset="29650526" timestamp="2015-03-22T07:57:16Z" user="yamasan" uid="32308" lat="33.9504983" lon="132.2082331"/>
 <node id="2997087833" visible="true" version="2" changeset="29650526" timestamp="2015-03-22T07:57:17Z" user="yamasan" uid="32308" lat="33.9497077" lon="132.2085122"/>
 <node id="2997087834" visible="true" version="2" changeset="29650526" timestamp="2015-03-22T07:57:17Z" user="yamasan" uid="32308" lat="33.9496812" lon="132.2087223"/>
 <node id="2997087933" visible="true" version="2" changeset="29650526" timestamp="2015-03-22T07:57:17Z" user="yamasan" uid="32308" lat="33.9494571" lon="132.2086416"/>
 <node id="2997087934" visible="true" version="2" changeset="29650526" timestamp="2015-03-22T07:57:17Z" user="yamasan" uid="32308" lat="33.9490696" lon="132.2090517"/>
 <node id="2997088033" visible="true" version="2" changeset="29650526" timestamp="2015-03-22T07:57:17Z" user="yamasan" uid="32308" lat="33.9482089" lon="132.2093564"/>
 <node id="3412231652" visible="true" version="1" changeset="29650526" timestamp="2015-03-22T07:56:38Z" user="yamasan" uid="32308" lat="33.9468895" lon="132.2097005">
  <tag k="power" v="tower"/>
 </node>
 <node id="3412231678" visible="true" version="2" changeset="155640175" timestamp="2024-08-23T08:47:46Z" user="taketaketake" uid="4757277" lat="33.9474942" lon="132.2092592"/>
 <node id="3412231805" visible="true" version="1" changeset="29650526" timestamp="2015-03-22T07:56:39Z" user="yamasan" uid="32308" lat="33.9478565" lon="132.2096371"/>
 <node id="3412231810" visible="true" version="1" changeset="29650526" timestamp="2015-03-22T07:56:39Z" user="yamasan" uid="32308" lat="33.9479724" lon="132.2015715"/>
 <node id="3412231812" visible="true" version="1" changeset="29650526" timestamp="2015-03-22T07:56:39Z" user="yamasan" uid="32308" lat="33.9480992" lon="132.2006137"/>
 <node id="3412231815" visible="true" version="1" changeset="29650526" timestamp="2015-03-22T07:56:39Z" user="yamasan" uid="32308" lat="33.9482245" lon="132.2093727"/>
 <node id="3412231816" visible="true" version="1" changeset="29650526" timestamp="2015-03-22T07:56:39Z" user="yamasan" uid="32308" lat="33.9482299" lon="132.2094009"/>
 <node id="3412231820" visible="true" version="1" changeset="29650526" timestamp="2015-03-22T07:56:39Z" user="yamasan" uid="32308" lat="33.9484194" lon="132.1995859"/>
 <node id="3412231824" visible="true" version="1" changeset="29650526" timestamp="2015-03-22T07:56:39Z" user="yamasan" uid="32308" lat="33.9486289" lon="132.2091812"/>
 <node id="3412231825" visible="true" version="1" changeset="29650526" timestamp="2015-03-22T07:56:39Z" user="yamasan" uid="32308" lat="33.9486583" lon="132.2092243"/>
 <node id="3412231838" visible="true" version="1" changeset="29650526" timestamp="2015-03-22T07:56:40Z" user="yamasan" uid="32308" lat="33.9489625" lon="132.1989687"/>
 <node id="3412231839" visible="true" version="1" changeset="29650526" timestamp="2015-03-22T07:56:40Z" user="yamasan" uid="32308" lat="33.9489967" lon="132.2089940"/>
 <node id="3412232000" visible="true" version="1" changeset="29650526" timestamp="2015-03-22T07:56:41Z" user="yamasan" uid="32308" lat="33.9501044" lon="132.1982248"/>
 <node id="3412232311" visible="true" version="1" changeset="29650526" timestamp="2015-03-22T07:56:44Z" user="yamasan" uid="32308" lat="33.9524715" lon="132.1955313"/>
 <node id="3412232341" visible="true" version="1" changeset="29650526" timestamp="2015-03-22T07:56:45Z" user="yamasan" uid="32308" lat="33.9529398" lon="132.1947777"/>
 <node id="3412232429" visible="true" version="2" changeset="98893401" timestamp="2021-02-08T08:37:22Z" user="taketaketake" uid="4757277" lat="33.9541048" lon="132.1867274"/>
 <node id="3412232433" visible="true" version="2" changeset="98893401" timestamp="2021-02-08T08:37:22Z" user="taketaketake" uid="4757277" lat="33.9542299" lon="132.1870186"/>
 <node id="3412232444" visible="true" version="2" changeset="98893401" timestamp="2021-02-08T08:37:22Z" user="taketaketake" uid="4757277" lat="33.9543393" lon="132.1872817"/>
 <node id="3412232450" visible="true" version="2" changeset="98893401" timestamp="2021-02-08T08:37:22Z" user="taketaketake" uid="4757277" lat="33.9545009" lon="132.1877016"/>
 <node id="3412232453" visible="true" version="2" changeset="98893401" timestamp="2021-02-08T08:37:22Z" user="taketaketake" uid="4757277" lat="33.9545648" lon="132.1909656"/>
 <node id="3412232454" visible="true" version="2" changeset="98893401" timestamp="2021-02-08T08:37:22Z" user="taketaketake" uid="4757277" lat="33.9545442" lon="132.1883423"/>
 <node id="6652792794" visible="true" version="2" changeset="169752352" timestamp="2025-07-31T06:39:16Z" user="taketaketake" uid="4757277" lat="33.9588110" lon="132.2298482"/>
 <node id="6652792795" visible="true" version="2" changeset="155640175" timestamp="2024-08-23T08:47:46Z" user="taketaketake" uid="4757277" lat="33.9477013" lon="132.2097232"/>
 <node id="6652792796" visible="true" version="2" changeset="155640175" timestamp="2024-08-23T08:47:46Z" user="taketaketake" uid="4757277" lat="33.9476642" lon="132.2096446"/>
 <node id="12129790932" visible="true" version="1" changeset="155640175" timestamp="2024-08-23T08:47:46Z" user="taketaketake" uid="4757277" lat="33.9487180" lon="132.2118921"/>
 <node id="12129790933" visible="true" version="1" changeset="155640175" timestamp="2024-08-23T08:47:46Z" user="taketaketake" uid="4757277" lat="33.9505044" lon="132.2129141"/>
 <node id="12129790935" visible="true" version="1" changeset="155640175" timestamp="2024-08-23T08:47:46Z" user="taketaketake" uid="4757277" lat="33.9511788" lon="132.2131062"/>
 <node id="12129790936" visible="true" version="1" changeset="155640175" timestamp="2024-08-23T08:47:46Z" user="taketaketake" uid="4757277" lat="33.9516629" lon="132.2130977"/>
 <node id="12129790940" visible="true" version="1" changeset="155640175" timestamp="2024-08-23T08:47:46Z" user="taketaketake" uid="4757277" lat="33.9540423" lon="132.2123029"/>
 <node id="12129790941" visible="true" version="1" changeset="155640175" timestamp="2024-08-23T08:47:46Z" user="taketaketake" uid="4757277" lat="33.9544393" lon="132.2123545"/>
 <node id="12129790942" visible="true" version="1" changeset="155640175" timestamp="2024-08-23T08:47:46Z" user="taketaketake" uid="4757277" lat="33.9563723" lon="132.2131646"/>
 <node id="12129790943" visible="true" version="1" changeset="155640175" timestamp="2024-08-23T08:47:46Z" user="taketaketake" uid="4757277" lat="33.9567636" lon="132.2136481"/>
 <node id="12129790944" visible="true" version="1" changeset="155640175" timestamp="2024-08-23T08:47:46Z" user="taketaketake" uid="4757277" lat="33.9569816" lon="132.2142167"/>
 <node id="12129790945" visible="true" version="1" changeset="155640175" timestamp="2024-08-23T08:47:46Z" user="taketaketake" uid="4757277" lat="33.9582517" lon="132.2186267"/>
 <node id="12129790951" visible="true" version="1" changeset="155640175" timestamp="2024-08-23T08:47:46Z" user="taketaketake" uid="4757277" lat="33.9570534" lon="132.2155384"/>
 <node id="12129790952" visible="true" version="1" changeset="155640175" timestamp="2024-08-23T08:47:46Z" user="taketaketake" uid="4757277" lat="33.9570693" lon="132.2169211"/>
 <node id="12129790953" visible="true" version="1" changeset="155640175" timestamp="2024-08-23T08:47:46Z" user="taketaketake" uid="4757277" lat="33.9572542" lon="132.2173640"/>
 <node id="12129790954" visible="true" version="1" changeset="155640175" timestamp="2024-08-23T08:47:46Z" user="taketaketake" uid="4757277" lat="33.9573390" lon="132.2175015"/>
 <node id="12129790955" visible="true" version="1" changeset="155640175" timestamp="2024-08-23T08:47:46Z" user="taketaketake" uid="4757277" lat="33.9566863" lon="132.2134972"/>
 <node id="12129790956" visible="true" version="1" changeset="155640175" timestamp="2024-08-23T08:47:46Z" user="taketaketake" uid="4757277" lat="33.9564957" lon="132.2132607"/>
 <node id="12129790957" visible="true" version="1" changeset="155640175" timestamp="2024-08-23T08:47:46Z" user="taketaketake" uid="4757277" lat="33.9517944" lon="132.2130629"/>
 <node id="12129790958" visible="true" version="1" changeset="155640175" timestamp="2024-08-23T08:47:46Z" user="taketaketake" uid="4757277" lat="33.9515299" lon="132.2131125"/>
 <node id="12129790963" visible="true" version="1" changeset="155640175" timestamp="2024-08-23T08:47:46Z" user="taketaketake" uid="4757277" lat="33.9453304" lon="132.2125388"/>
 <node id="12129790964" visible="true" version="1" changeset="155640175" timestamp="2024-08-23T08:47:46Z" user="taketaketake" uid="4757277" lat="33.9458271" lon="132.2118342"/>
 <node id="12129790965" visible="true" version="1" changeset="155640175" timestamp="2024-08-23T08:47:46Z" user="taketaketake" uid="4757277" lat="33.9459249" lon="132.2116217"/>
 <node id="12129790966" visible="true" version="1" changeset="155640175" timestamp="2024-08-23T08:47:46Z" user="taketaketake" uid="4757277" lat="33.9460442" lon="132.2113533"/>
 <node id="12129790967" visible="true" version="1" changeset="155640175" timestamp="2024-08-23T08:47:46Z" user="taketaketake" uid="4757277" lat="33.9462005" lon="132.2110335"/>
 <node id="12129790968" visible="true" version="1" changeset="155640175" timestamp="2024-08-23T08:47:46Z" user="taketaketake" uid="4757277" lat="33.9462777" lon="132.2109842"/>
 <node id="12129790969" visible="true" version="1" changeset="155640175" timestamp="2024-08-23T08:47:46Z" user="taketaketake" uid="4757277" lat="33.9462655" lon="132.2108542"/>
 <node id="12129790970" visible="true" version="1" changeset="155640175" timestamp="2024-08-23T08:47:46Z" user="taketaketake" uid="4757277" lat="33.9471390" lon="132.2100545"/>
 <node id="12129790971" visible="true" version="1" changeset="155640175" timestamp="2024-08-23T08:47:46Z" user="taketaketake" uid="4757277" lat="33.9473208" lon="132.2086638"/>
 <node id="12129790980" visible="true" version="1" changeset="155640175" timestamp="2024-08-23T08:47:46Z" user="taketaketake" uid="4757277" lat="33.9449517" lon="132.2128788"/>
 <node id="12129790981" visible="true" version="1" changeset="155640175" timestamp="2024-08-23T08:47:46Z" user="taketaketake" uid="4757277" lat="33.9438387" lon="132.2138194"/>
 <node id="12129790982" visible="true" version="1" changeset="155640175" timestamp="2024-08-23T08:47:46Z" user="taketaketake" uid="4757277" lat="33.9438138" lon="132.2145790"/>
 <node id="12129790983" visible="true" version="1" changeset="155640175" timestamp="2024-08-23T08:47:46Z" user="taketaketake" uid="4757277" lat="33.9438365" lon="132.2149327"/>
 <node id="12129791000" visible="true" version="1" changeset="155640175" timestamp="2024-08-23T08:47:46Z" user="taketaketake" uid="4757277" lat="33.9438309" lon="132.2150061"/>
 <node id="12130159224" visible="true" version="1" changeset="155640175" timestamp="2024-08-23T08:47:46Z" user="taketaketake" uid="4757277" lat="33.9429803" lon="132.2112507"/>
 <node id="12130159225" visible="true" version="1" changeset="155640175" timestamp="2024-08-23T08:47:46Z" user="taketaketake" uid="4757277" lat="33.9431497" lon="132.2111836"/>
 <node id="12130159235" visible="true" version="1" changeset="155640175" timestamp="2024-08-23T08:47:46Z" user="taketaketake" uid="4757277" lat="33.9362934" lon="132.2209128"/>
 <node id="12830605120" visible="true" version="1" changeset="166158364" timestamp="2025-05-12T15:22:30Z" user="kg_b0mbe" uid="10202355" lat="33.9470653" lon="132.2073571"/>
 <node id="12830605121" visible="true" version="1" changeset="166158364" timestamp="2025-05-12T15:22:30Z" user="kg_b0mbe" uid="10202355" lat="33.9467993" lon="132.2073794"/>
 <node id="12830605122" visible="true" version="1" changeset="166158364" timestamp="2025-05-12T15:22:30Z" user="kg_b0mbe" uid="10202355" lat="33.9468276" lon="132.2078687"/>
 <node id="12830605123" visible="true" version="1" changeset="166158364" timestamp="2025-05-12T15:22:30Z" user="kg_b0mbe" uid="10202355" lat="33.9470535" lon="132.2078497"/>
 <node id="12830605124" visible="true" version="1" changeset="166158364" timestamp="2025-05-12T15:22:30Z" user="kg_b0mbe" uid="10202355" lat="33.9470373" lon="132.2075691"/>
 <node id="12830605125" visible="true" version="1" changeset="166158364" timestamp="2025-05-12T15:22:30Z" user="kg_b0mbe" uid="10202355" lat="33.9470773" lon="132.2075658"/>
 <node id="12830605126" visible="true" version="1" changeset="166158364" timestamp="2025-05-12T15:22:30Z" user="kg_b0mbe" uid="10202355" lat="33.9468493" lon="132.2079143"/>
 <node id="12830605127" visible="true" version="1" changeset="166158364" timestamp="2025-05-12T15:22:30Z" user="kg_b0mbe" uid="10202355" lat="33.9466363" lon="132.2079319"/>
 <node id="12830605128" visible="true" version="1" changeset="166158364" timestamp="2025-05-12T15:22:30Z" user="kg_b0mbe" uid="10202355" lat="33.9466662" lon="132.2084597"/>
 <node id="12830605129" visible="true" version="1" changeset="166158364" timestamp="2025-05-12T15:22:30Z" user="kg_b0mbe" uid="10202355" lat="33.9468794" lon="132.2084421"/>
 <node id="12830605130" visible="true" version="1" changeset="166158364" timestamp="2025-05-12T15:22:30Z" user="kg_b0mbe" uid="10202355" lat="33.9471453" lon="132.2085776"/>
 <node id="12830605131" visible="true" version="1" changeset="166158364" timestamp="2025-05-12T15:22:30Z" user="kg_b0mbe" uid="10202355" lat="33.9467191" lon="132.2086110"/>
 <node id="12830605132" visible="true" version="1" changeset="166158364" timestamp="2025-05-12T15:22:30Z" user="kg_b0mbe" uid="10202355" lat="33.9467305" lon="132.2088234"/>
 <node id="12830605133" visible="true" version="1" changeset="166158364" timestamp="2025-05-12T15:22:30Z" user="kg_b0mbe" uid="10202355" lat="33.9471568" lon="132.2087899"/>
 <node id="13038725847" visible="true" version="1" changeset="169752352" timestamp="2025-07-31T06:39:16Z" user="taketaketake" uid="4757277" lat="33.9584299" lon="132.2291311"/>
 <node id="13038725988" visible="true" version="1" changeset="169752352" timestamp="2025-07-31T06:39:16Z" user="taketaketake" uid="4757277" lat="33.9580685" lon="132.2261199"/>
 <node id="13038725995" visible="true" version="1" changeset="169752352" timestamp="2025-07-31T06:39:16Z" user="taketaketake" uid="4757277" lat="33.9580965" lon="132.2258534"/>
 <node id="13038725996" visible="true" version="1" changeset="169752352" timestamp="2025-07-31T06:39:16Z" user="taketaketake" uid="4757277" lat="33.9588112" lon="132.2236020"/>
 <node id="13038725997" visible="true" version="1" changeset="169752352" timestamp="2025-07-31T06:39:16Z" user="taketaketake" uid="4757277" lat="33.9585877" lon="132.2207217"/>
 <node id="13081268330" visible="true" version="1" changeset="170651351" timestamp="2025-08-19T06:40:12Z" user="taketaketake" uid="4757277" lat="33.9545161" lon="132.1919318"/>
 <way id="25841351" visible="true" version="28" changeset="170651351" timestamp="2025-08-19T06:40:12Z" user="taketaketake" uid="4757277">
  <nd ref="281861034"/>
  <nd ref="366495607"/>
  <nd ref="3412232429"/>
  <nd ref="3412232433"/>
  <nd ref="3412232444"/>
  <nd ref="366495608"/>
  <nd ref="3412232450"/>
  <nd ref="366495609"/>
  <nd ref="3412232454"/>
  <nd ref="3412232453"/>
  <nd ref="366495611"/>
  <nd ref="366496049"/>
  <nd ref="13081268330"/>
  <nd ref="366496050"/>
  <nd ref="366496051"/>
  <nd ref="366496052"/>
  <nd ref="366496053"/>
  <nd ref="3412232341"/>
  <nd ref="366496054"/>
  <nd ref="3412232311"/>
  <nd ref="366496055"/>
  <nd ref="366496056"/>
  <nd ref="1285566102"/>
  <nd ref="366496057"/>
  <nd ref="366496058"/>
  <nd ref="366496059"/>
  <nd ref="3412232000"/>
  <nd ref="366496060"/>
  <nd ref="366496061"/>
  <nd ref="3412231838"/>
  <nd ref="366496062"/>
  <nd ref="366496063"/>
  <nd ref="3412231820"/>
  <nd ref="366496064"/>
  <nd ref="366496065"/>
  <nd ref="3412231812"/>
  <nd ref="3412231810"/>
  <nd ref="1285563143"/>
  <nd ref="366496066"/>
  <nd ref="1285564915"/>
  <nd ref="366496067"/>
  <nd ref="1285565503"/>
  <nd ref="366496068"/>
  <nd ref="366496069"/>
  <nd ref="1285565407"/>
  <nd ref="12129790971"/>
  <nd ref="366496070"/>
  <nd ref="366496071"/>
  <nd ref="3412231678"/>
  <nd ref="366496072"/>
  <nd ref="6652792796"/>
  <tag k="highway" v="trunk"/>
  <tag k="lanes" v="2"/>
  <tag k="name" v="国道437号"/>
  <tag k="name:en" v="National Highway Route 437"/>
  <tag k="name:ja" v="国道437号"/>
  <tag k="ref" v="437"/>
  <tag k="source" v="survey;Bing,2012-05;YahooJapan/ALPSMAP;GSImaps/std"/>
  <tag k="surface" v="asphalt"/>
 </way>
 <way id="60297891" visible="true" version="3" changeset="155640175" timestamp="2024-08-23T08:47:46Z" user="taketaketake" uid="4757277">
  <nd ref="749063331"/>
  <nd ref="749241731"/>
  <nd ref="749320520"/>
  <nd ref="749794038"/>
  <nd ref="749099033"/>
  <nd ref="12130159235"/>
  <nd ref="749557604"/>
  <nd ref="748922170"/>
  <nd ref="749302478"/>
  <nd ref="749778830"/>
  <nd ref="749078584"/>
  <nd ref="749161864"/>
  <nd ref="749612247"/>
  <nd ref="748959409"/>
  <nd ref="749346293"/>
  <nd ref="749125247"/>
  <nd ref="749580666"/>
  <nd ref="748935786"/>
  <nd ref="749817589"/>
  <nd ref="749161471"/>
  <nd ref="749611542"/>
  <nd ref="748958946"/>
  <nd ref="749345744"/>
  <nd ref="749804813"/>
  <nd ref="749124440"/>
  <nd ref="749580318"/>
  <nd ref="749701539"/>
  <nd ref="749020577"/>
  <nd ref="749416237"/>
  <nd ref="749852329"/>
  <nd ref="749198010"/>
  <nd ref="749655498"/>
  <nd ref="748984873"/>
  <nd ref="749385936"/>
  <nd ref="749509144"/>
  <nd ref="748903000"/>
  <nd ref="749269428"/>
  <nd ref="749748254"/>
  <nd ref="749056428"/>
  <nd ref="749455812"/>
  <nd ref="749887011"/>
  <nd ref="749233865"/>
  <nd ref="749315261"/>
  <nd ref="749789811"/>
  <nd ref="749093412"/>
  <nd ref="748918221"/>
  <nd ref="749297366"/>
  <nd ref="749774547"/>
  <nd ref="749075125"/>
  <nd ref="749394081"/>
  <nd ref="749824405"/>
  <nd ref="749169039"/>
  <nd ref="749621198"/>
  <nd ref="748964829"/>
  <nd ref="749353794"/>
  <nd ref="749807989"/>
  <nd ref="749132842"/>
  <nd ref="749241166"/>
  <nd ref="749710396"/>
  <nd ref="749029776"/>
  <nd ref="749424624"/>
  <nd ref="749860260"/>
  <nd ref="749206207"/>
  <nd ref="749665305"/>
  <nd ref="748990744"/>
  <nd ref="749078338"/>
  <nd ref="749523668"/>
  <nd ref="748906591"/>
  <nd ref="749278173"/>
  <nd ref="749757757"/>
  <nd ref="749062924"/>
  <nd ref="749465303"/>
  <nd ref="749894981"/>
  <nd ref="748935590"/>
  <nd ref="749319702"/>
  <nd ref="749793758"/>
  <nd ref="749098731"/>
  <nd ref="749557035"/>
  <nd ref="748921929"/>
  <nd ref="749302026"/>
  <nd ref="749778495"/>
  <nd ref="749594502"/>
  <nd ref="748947109"/>
  <nd ref="12130159224"/>
  <nd ref="12130159225"/>
  <nd ref="749332019"/>
  <nd ref="749799412"/>
  <nd ref="749110272"/>
  <nd ref="749569285"/>
  <nd ref="748928919"/>
  <nd ref="749311154"/>
  <nd ref="749403520"/>
  <nd ref="749837541"/>
  <nd ref="749179120"/>
  <nd ref="749632423"/>
  <nd ref="748972419"/>
  <nd ref="749365090"/>
  <nd ref="749811604"/>
  <nd ref="749143949"/>
  <nd ref="749015038"/>
  <tag k="name" v="三浦川"/>
  <tag k="name:ja" v="三浦川"/>
  <tag k="note" v="National-Land Numerical Information (River) 2006, MLIT Japan"/>
  <tag k="note:ja" v="国土数値情報(河川データ)平成18年国土交通省"/>
  <tag k="source" v="KSJ2"/>
  <tag k="source_ref" v="http://nlftp.mlit.go.jp/ksj/jpgis/datalist/KsjTmplt-W05.html"/>
  <tag k="waterway" v="river"/>
 </way>
 <way id="60299096" visible="true" version="4" changeset="155640175" timestamp="2024-08-23T08:47:46Z" user="taketaketake" uid="4757277">
  <nd ref="749015038"/>
  <nd ref="749412874"/>
  <nd ref="749194124"/>
  <nd ref="749648287"/>
  <nd ref="748982326"/>
  <nd ref="3412231815"/>
  <nd ref="749073748"/>
  <nd ref="749503597"/>
  <nd ref="748900669"/>
  <nd ref="749265756"/>
  <tag k="name" v="三浦川"/>
  <tag k="name:ja" v="三浦川"/>
  <tag k="note" v="National-Land Numerical Information (River) 2006, MLIT Japan"/>
  <tag k="note:ja" v="国土数値情報(河川データ)平成18年国土交通省"/>
  <tag k="source" v="KSJ2"/>
  <tag k="source_ref" v="http://nlftp.mlit.go.jp/ksj/jpgis/datalist/KsjTmplt-W05.html"/>
  <tag k="waterway" v="river"/>
 </way>
 <way id="60302397" visible="true" version="5" changeset="170654758" timestamp="2025-08-19T08:04:59Z" user="taketaketake" uid="4757277">
  <nd ref="12129791000"/>
  <nd ref="12129790983"/>
  <nd ref="12129790982"/>
  <nd ref="749065708"/>
  <nd ref="749570426"/>
  <nd ref="12129790981"/>
  <nd ref="748929738"/>
  <nd ref="749312313"/>
  <nd ref="12129790980"/>
  <nd ref="749787832"/>
  <nd ref="12129790963"/>
  <nd ref="749089914"/>
  <nd ref="12129790964"/>
  <nd ref="12129790965"/>
  <nd ref="12129790966"/>
  <nd ref="12129790967"/>
  <nd ref="12129790969"/>
  <nd ref="749015038"/>
  <tag k="name" v="吉野川"/>
  <tag k="name:ja" v="吉野川"/>
  <tag k="note" v="National-Land Numerical Information (River) 2006, MLIT Japan"/>
  <tag k="note:ja" v="国土数値情報(河川データ)平成18年国土交通省"/>
  <tag k="source" v="KSJ2"/>
  <tag k="source_ref" v="http://nlftp.mlit.go.jp/ksj/jpgis/datalist/KsjTmplt-W05.html"/>
  <tag k="waterway" v="stream"/>
 </way>
 <way id="113349408" visible="true" version="1" changeset="8147504" timestamp="2011-05-15T03:37:20Z" user="yamasan" uid="32308">
  <nd ref="1285565399"/>
  <nd ref="1285565612"/>
  <tag k="highway" v="residential"/>
  <tag k="source" v="YahooJapan/ALPSMAP"/>
  <tag k="yh:STRUCTURE" v="地上"/>
  <tag k="yh:TOTYUMONO" v="供用中"/>
  <tag k="yh:TYPE" v="その他一般道"/>
  <tag k="yh:WIDTH" v="1.5m〜3.0m"/>
  <tag k="yh:WIDTH_RANK" v="4"/>
 </way>
 <way id="113349616" visible="true" version="1" changeset="8147504" timestamp="2011-05-15T03:37:49Z" user="yamasan" uid="32308">
  <nd ref="1285566676"/>
  <nd ref="1285566772"/>
  <nd ref="1285564592"/>
  <nd ref="1285565399"/>
  <tag k="highway" v="residential"/>
  <tag k="source" v="YahooJapan/ALPSMAP"/>
  <tag k="yh:STRUCTURE" v="地上"/>
  <tag k="yh:TOTYUMONO" v="供用中"/>
  <tag k="yh:TYPE" v="その他一般道"/>
  <tag k="yh:WIDTH" v="1.5m〜3.0m"/>
  <tag k="yh:WIDTH_RANK" v="4"/>
 </way>
 <way id="113349625" visible="true" version="2" changeset="155640175" timestamp="2024-08-23T08:47:46Z" user="taketaketake" uid="4757277">
  <nd ref="1285562551"/>
  <nd ref="12129790968"/>
  <nd ref="1285562869"/>
  <nd ref="1285565208"/>
  <nd ref="1285566786"/>
  <nd ref="1285564498"/>
  <tag k="highway" v="unclassified"/>
  <tag k="source" v="YahooJapan/ALPSMAP"/>
 </way>
 <way id="113349679" visible="true" version="2" changeset="155640175" timestamp="2024-08-23T08:47:46Z" user="taketaketake" uid="4757277">
  <nd ref="1285562551"/>
  <nd ref="1285566672"/>
  <nd ref="1285565178"/>
  <nd ref="12129790970"/>
  <nd ref="1285562578"/>
  <tag k="highway" v="unclassified"/>
  <tag k="source" v="YahooJapan/ALPSMAP"/>
 </way>
 <way id="113349686" visible="true" version="2" changeset="29650526" timestamp="2015-03-22T07:57:05Z" user="yamasan" uid="32308">
  <nd ref="1285562724"/>
  <nd ref="3412231805"/>
  <nd ref="1285566117"/>
  <nd ref="1285563263"/>
  <nd ref="1285565128"/>
  <nd ref="1285562594"/>
  <tag k="highway" v="unclassified"/>
  <tag k="source" v="YahooJapan/ALPSMAP"/>
  <tag k="yh:WIDTH" v="3.0m〜5.5m"/>
 </way>
 <way id="113349691" visible="true" version="1" changeset="8147504" timestamp="2011-05-15T03:38:03Z" user="yamasan" uid="32308">
  <nd ref="1285565885"/>
  <nd ref="1285565407"/>
  <tag k="highway" v="path"/>
  <tag k="source" v="YahooJapan/ALPSMAP"/>
  <tag k="yh:STRUCTURE" v="地上"/>
  <tag k="yh:TOTYUMONO" v="供用中"/>
  <tag k="yh:TYPE" v="その他一般道"/>
  <tag k="yh:WIDTH" v="1.5m未満"/>
  <tag k="yh:WIDTH_RANK" v="5"/>
 </way>
 <way id="113349702" visible="true" version="1" changeset="8147504" timestamp="2011-05-15T03:38:06Z" user="yamasan" uid="32308">
  <nd ref="1285562551"/>
  <nd ref="1285566125"/>
  <nd ref="1285563859"/>
  <nd ref="1285566160"/>
  <nd ref="1285566856"/>
  <nd ref="1285563832"/>
  <nd ref="1285565660"/>
  <nd ref="1285562646"/>
  <tag k="highway" v="unclassified"/>
  <tag k="source" v="YahooJapan/ALPSMAP"/>
  <tag k="yh:STRUCTURE" v="地上"/>
  <tag k="yh:TOTYUMONO" v="供用中"/>
  <tag k="yh:TYPE" v="その他一般道"/>
  <tag k="yh:WIDTH" v="3.0m〜5.5m"/>
  <tag k="yh:WIDTH_RANK" v="3"/>
 </way>
 <way id="113349750" visible="true" version="2" changeset="29650526" timestamp="2015-03-22T07:57:04Z" user="yamasan" uid="32308">
  <nd ref="1285565612"/>
  <nd ref="1285565688"/>
  <tag k="bridge" v="yes"/>
  <tag k="highway" v="residential"/>
  <tag k="layer" v="1"/>
  <tag k="source" v="YahooJapan/ALPSMAP"/>
  <tag k="yh:WIDTH" v="1.5m〜3.0m"/>
 </way>
 <way id="113349850" visible="true" version="1" changeset="8147504" timestamp="2011-05-15T03:38:46Z" user="yamasan" uid="32308">
  <nd ref="1285565407"/>
  <nd ref="1285565399"/>
  <tag k="highway" v="residential"/>
  <tag k="source" v="YahooJapan/ALPSMAP"/>
  <tag k="yh:STRUCTURE" v="地上"/>
  <tag k="yh:TOTYUMONO" v="供用中"/>
  <tag k="yh:TYPE" v="その他一般道"/>
  <tag k="yh:WIDTH" v="1.5m〜3.0m"/>
  <tag k="yh:WIDTH_RANK" v="4"/>
 </way>
 <way id="113349856" visible="true" version="1" changeset="8147504" timestamp="2011-05-15T03:38:47Z" user="yamasan" uid="32308">
  <nd ref="1285562578"/>
  <nd ref="1285562724"/>
  <tag k="highway" v="unclassified"/>
  <tag k="source" v="YahooJapan/ALPSMAP"/>
  <tag k="yh:STRUCTURE" v="地上"/>
  <tag k="yh:TOTYUMONO" v="供用中"/>
  <tag k="yh:TYPE" v="その他一般道"/>
  <tag k="yh:WIDTH" v="3.0m〜5.5m"/>
  <tag k="yh:WIDTH_RANK" v="3"/>
 </way>
 <way id="295946684" visible="true" version="3" changeset="113200607" timestamp="2021-10-31T16:35:27Z" user="ZeLonewolf" uid="219297">
  <nd ref="1442304625"/>
  <nd ref="1442304339"/>
  <nd ref="2997087833"/>
  <nd ref="2997087933"/>
  <nd ref="3412231839"/>
  <nd ref="3412231824"/>
  <nd ref="2997088033"/>
  <nd ref="748982326"/>
  <nd ref="3412231816"/>
  <nd ref="3412231825"/>
  <nd ref="2997087934"/>
  <nd ref="2997087834"/>
  <nd ref="1442304625"/>
  <tag k="natural" v="water"/>
  <tag k="source" v="bing"/>
  <tag k="water" v="river"/>
 </way>
 <way id="334132619" visible="true" version="1" changeset="29650526" timestamp="2015-03-22T07:56:54Z" user="yamasan" uid="32308">
  <nd ref="1285565688"/>
  <nd ref="3412231805"/>
  <tag k="highway" v="residential"/>
 </way>
 <way id="708006170" visible="true" version="4" changeset="169752352" timestamp="2025-07-31T06:39:16Z" user="taketaketake" uid="4757277">
  <nd ref="6652792795"/>
  <nd ref="1285562724"/>
  <nd ref="366496073"/>
  <nd ref="366496074"/>
  <nd ref="12129790932"/>
  <nd ref="366496075"/>
  <nd ref="1285565718"/>
  <nd ref="366496076"/>
  <nd ref="1285563662"/>
  <nd ref="366496077"/>
  <nd ref="366496078"/>
  <nd ref="12129790933"/>
  <nd ref="1285562500"/>
  <nd ref="366496079"/>
  <nd ref="12129790935"/>
  <nd ref="366496080"/>
  <nd ref="12129790958"/>
  <nd ref="12129790936"/>
  <nd ref="12129790957"/>
  <nd ref="366496081"/>
  <nd ref="366496082"/>
  <nd ref="1285566305"/>
  <nd ref="366496083"/>
  <nd ref="366496084"/>
  <nd ref="12129790940"/>
  <nd ref="366496085"/>
  <nd ref="12129790941"/>
  <nd ref="366496086"/>
  <nd ref="366496088"/>
  <nd ref="12129790942"/>
  <nd ref="12129790956"/>
  <nd ref="366496089"/>
  <nd ref="12129790955"/>
  <nd ref="12129790943"/>
  <nd ref="366496090"/>
  <nd ref="12129790944"/>
  <nd ref="366496091"/>
  <nd ref="366496092"/>
  <nd ref="1285486061"/>
  <nd ref="12129790951"/>
  <nd ref="366496093"/>
  <nd ref="366496094"/>
  <nd ref="12129790952"/>
  <nd ref="366496095"/>
  <nd ref="12129790953"/>
  <nd ref="12129790954"/>
  <nd ref="366496096"/>
  <nd ref="1285486704"/>
  <nd ref="366496097"/>
  <nd ref="366496098"/>
  <nd ref="12129790945"/>
  <nd ref="366496099"/>
  <nd ref="366496100"/>
  <nd ref="1285485895"/>
  <nd ref="13038725997"/>
  <nd ref="366496101"/>
  <nd ref="1285486736"/>
  <nd ref="1285486292"/>
  <nd ref="366496102"/>
  <nd ref="366496103"/>
  <nd ref="13038725996"/>
  <nd ref="366496104"/>
  <nd ref="366496105"/>
  <nd ref="13038725995"/>
  <nd ref="13038725988"/>
  <nd ref="366496106"/>
  <nd ref="366496107"/>
  <nd ref="366496108"/>
  <nd ref="366496109"/>
  <nd ref="1285487071"/>
  <nd ref="13038725847"/>
  <nd ref="366496110"/>
  <nd ref="1285486096"/>
  <nd ref="6652792794"/>
  <tag k="highway" v="trunk"/>
  <tag k="lanes" v="2"/>
  <tag k="name" v="国道437号"/>
  <tag k="name:en" v="National Highway Route 437"/>
  <tag k="name:ja" v="国道437号"/>
  <tag k="ref" v="437"/>
  <tag k="source" v="survey;Bing,2012-05;YahooJapan/ALPSMAP;GSImaps/std"/>
  <tag k="surface" v="asphalt"/>
 </way>
 <way id="708006171" visible="true" version="3" changeset="169752352" timestamp="2025-07-31T06:39:16Z" user="taketaketake" uid="4757277">
  <nd ref="6652792796"/>
  <nd ref="6652792795"/>
  <tag k="bridge" v="yes"/>
  <tag k="highway" v="trunk"/>
  <tag k="lanes" v="2"/>
  <tag k="layer" v="1"/>
  <tag k="name" v="国道437号"/>
  <tag k="name:en" v="National Highway Route 437"/>
  <tag k="name:ja" v="国道437号"/>
  <tag k="ref" v="437"/>
  <tag k="source" v="survey;Bing,2012-05;YahooJapan/ALPSMAP;GSImaps/std"/>
  <tag k="surface" v="asphalt"/>
 </way>
 <way id="1385818871" visible="true" version="1" changeset="166158364" timestamp="2025-05-12T15:22:30Z" user="kg_b0mbe" uid="10202355">
  <nd ref="12830605120"/>
  <nd ref="12830605121"/>
  <nd ref="12830605122"/>
  <nd ref="12830605123"/>
  <nd ref="12830605124"/>
  <nd ref="12830605125"/>
  <nd ref="12830605120"/>
  <tag k="building" v="yes"/>
  <tag k="name" v="ウォンツ 周防大島店"/>
  <tag k="shop" v="chemist"/>
 </way>
 <way id="1385818872" visible="true" version="1" changeset="166158364" timestamp="2025-05-12T15:22:30Z" user="kg_b0mbe" uid="10202355">
  <nd ref="12830605126"/>
  <nd ref="12830605127"/>
  <nd ref="12830605128"/>
  <nd ref="12830605129"/>
  <nd ref="12830605126"/>
  <tag k="building" v="yes"/>
  <tag k="name" v="コメリハード＆グリーン山口大島店"/>
  <tag k="shop" v="doityourself"/>
 </way>
 <way id="1385818873" visible="true" version="1" changeset="166158364" timestamp="2025-05-12T15:22:30Z" user="kg_b0mbe" uid="10202355">
  <nd ref="12830605130"/>
  <nd ref="12830605131"/>
  <nd ref="12830605132"/>
  <nd ref="12830605133"/>
  <nd ref="12830605130"/>
  <tag k="leisure" v="sports_centre"/>
  <tag k="name" v="周防大島町Ｂ＆Ｇ海洋センター 温水プール"/>
  <tag k="sport" v="swimming"/>
 </way>
 <relation id="8857556" visible="true" version="166" changeset="185171745" timestamp="2026-07-06T02:54:07Z" user="okadatsuneo_import" uid="12352917">
  <member type="relation" ref="32989" role=""/>
  <member type="relation" ref="2064722" role=""/>
  <member type="relation" ref="2061678" role=""/>
  <member type="relation" ref="416684" role=""/>
  <member type="relation" ref="33009" role=""/>
  <member type="relation" ref="1521225" role=""/>
  <member type="relation" ref="2069116" role=""/>
  <member type="relation" ref="8589620" role=""/>
  <member type="relation" ref="2076294" role=""/>
  <member type="relation" ref="2082723" role=""/>
  <member type="relation" ref="12579" role=""/>
  <member type="relation" ref="2097432" role=""/>
  <member type="relation" ref="2098597" role=""/>
  <member type="relation" ref="2098903" role=""/>
  <member type="relation" ref="2107249" role=""/>
  <member type="relation" ref="18187" role=""/>
  <member type="relation" ref="2150021" role=""/>
  <member type="relation" ref="964698" role=""/>
  <member type="relation" ref="964699" role=""/>
  <member type="relation" ref="21087" role=""/>
  <member type="relation" ref="905615" role=""/>
  <member type="relation" ref="2191283" role=""/>
  <member type="relation" ref="8549439" role=""/>
  <member type="relation" ref="2281186" role=""/>
  <member type="relation" ref="1247317" role=""/>
  <member type="relation" ref="2283740" role=""/>
  <member type="relation" ref="2578411" role=""/>
  <member type="relation" ref="12592" role=""/>
  <member type="relation" ref="2773842" role=""/>
  <member type="relation" ref="59477" role=""/>
  <member type="relation" ref="1957766" role=""/>
  <member type="relation" ref="12585" role=""/>
  <member type="relation" ref="149017" role=""/>
  <member type="relation" ref="2829210" role=""/>
  <member type="relation" ref="2829437" role=""/>
  <member type="relation" ref="130867" role=""/>
  <member type="relation" ref="33017" role=""/>
  <member type="relation" ref="2863336" role=""/>
  <member type="relation" ref="2864639" role=""/>
  <member type="relation" ref="2865301" role=""/>
  <member type="relation" ref="31351" role=""/>
  <member type="relation" ref="2877152" role=""/>
  <member type="relation" ref="2878993" role=""/>
  <member type="relation" ref="2885462" role=""/>
  <member type="relation" ref="2887904" role=""/>
  <member type="relation" ref="443923" role=""/>
  <member type="relation" ref="2938281" role=""/>
  <member type="relation" ref="2938900" role=""/>
  <member type="relation" ref="2939533" role=""/>
  <member type="relation" ref="2954632" role=""/>
  <member type="relation" ref="6903690" role=""/>
  <member type="relation" ref="2957016" role=""/>
  <member type="relation" ref="2957132" role=""/>
  <member type="relation" ref="2957976" role=""/>
  <member type="relation" ref="12583" role=""/>
  <member type="relation" ref="12584" role=""/>
  <member type="relation" ref="2971983" role=""/>
  <member type="relation" ref="2972065" role=""/>
  <member type="relation" ref="2974952" role=""/>
  <member type="relation" ref="2975092" role=""/>
  <member type="relation" ref="2988615" role=""/>
  <member type="relation" ref="3066227" role=""/>
  <member type="relation" ref="2937948" role=""/>
  <member type="relation" ref="3066928" role=""/>
  <member type="relation" ref="3069619" role=""/>
  <member type="relation" ref="3118577" role=""/>
  <member type="relation" ref="3118835" role=""/>
  <member type="relation" ref="3128401" role=""/>
  <member type="relation" ref="3128448" role=""/>
  <member type="relation" ref="3129175" role=""/>
  <member type="relation" ref="3132634" role=""/>
  <member type="relation" ref="965403" role=""/>
  <member type="relation" ref="3189380" role=""/>
  <member type="relation" ref="3217184" role=""/>
  <member type="relation" ref="3217302" role=""/>
  <member type="relation" ref="3218039" role=""/>
  <member type="relation" ref="3248776" role=""/>
  <member type="relation" ref="3262076" role=""/>
  <member type="relation" ref="6604490" role=""/>
  <member type="relation" ref="9002996" role=""/>
  <member type="relation" ref="9066606" role=""/>
  <member type="relation" ref="9066742" role=""/>
  <member type="relation" ref="9069158" role=""/>
  <member type="relation" ref="3846566" role=""/>
  <member type="relation" ref="3767038" role=""/>
  <member type="relation" ref="3773599" role=""/>
  <member type="relation" ref="2665187" role=""/>
  <member type="relation" ref="3770942" role=""/>
  <member type="relation" ref="31118" role=""/>
  <member type="relation" ref="3639261" role=""/>
  <member type="relation" ref="8822215" role=""/>
  <member type="relation" ref="3908565" role=""/>
  <member type="relation" ref="3908696" role=""/>
  <member type="relation" ref="8842101" role=""/>
  <member type="relation" ref="8980964" role=""/>
  <member type="relation" ref="965538" role=""/>
  <member type="relation" ref="6518912" role=""/>
  <member type="relation" ref="2124106" role=""/>
  <member type="relation" ref="965533" role=""/>
  <member type="relation" ref="7438376" role=""/>
  <member type="relation" ref="3846790" role=""/>
  <member type="relation" ref="2104795" role=""/>
  <member type="relation" ref="3862939" role=""/>
  <member type="relation" ref="3770972" role=""/>
  <member type="relation" ref="8843661" role=""/>
  <member type="relation" ref="8475141" role=""/>
  <member type="relation" ref="53798" role=""/>
  <member type="relation" ref="3527405" role=""/>
  <member type="relation" ref="3786290" role=""/>
  <member type="relation" ref="8438979" role=""/>
  <member type="relation" ref="8519028" role=""/>
  <member type="relation" ref="8546711" role=""/>
  <member type="relation" ref="31352" role=""/>
  <member type="relation" ref="8634030" role=""/>
  <member type="relation" ref="8643289" role=""/>
  <member type="relation" ref="8730413" role=""/>
  <member type="relation" ref="8602705" role=""/>
  <member type="relation" ref="8376126" role=""/>
  <member type="relation" ref="3771120" role=""/>
  <member type="relation" ref="8360680" role=""/>
  <member type="relation" ref="8798843" role=""/>
  <member type="relation" ref="8253434" role=""/>
  <member type="relation" ref="8338767" role=""/>
  <member type="relation" ref="7790754" role=""/>
  <member type="relation" ref="8810155" role=""/>
  <member type="relation" ref="9316269" role=""/>
  <member type="relation" ref="3786705" role=""/>
  <member type="relation" ref="8814743" role=""/>
  <member type="relation" ref="3767143" role=""/>
  <member type="relation" ref="9349690" role=""/>
  <member type="relation" ref="8812592" role=""/>
  <member type="relation" ref="3767309" role=""/>
  <member type="relation" ref="8385407" role=""/>
  <member type="relation" ref="8385532" role=""/>
  <member type="relation" ref="7757831" role=""/>
  <member type="relation" ref="7756814" role=""/>
  <member type="relation" ref="8386008" role=""/>
  <member type="relation" ref="3500263" role=""/>
  <member type="relation" ref="9385077" role=""/>
  <member type="relation" ref="1282122" role=""/>
  <member type="relation" ref="4544619" role=""/>
  <member type="relation" ref="4165287" role=""/>
  <member type="relation" ref="3717459" role=""/>
  <member type="relation" ref="3771004" role=""/>
  <member type="relation" ref="9400756" role=""/>
  <member type="relation" ref="3904021" role=""/>
  <member type="relation" ref="12586" role=""/>
  <member type="relation" ref="12893" role=""/>
  <member type="relation" ref="149016" role=""/>
  <member type="relation" ref="12582" role=""/>
  <member type="relation" ref="9444474" role=""/>
  <member type="relation" ref="65441" role=""/>
  <member type="relation" ref="9483543" role=""/>
  <member type="relation" ref="9483646" role=""/>
  <member type="relation" ref="9491583" role=""/>
  <member type="relation" ref="7106297" role=""/>
  <member type="relation" ref="9361964" role=""/>
  <member type="relation" ref="9361958" role=""/>
  <member type="relation" ref="9364398" role=""/>
  <member type="relation" ref="9361965" role=""/>
  <member type="relation" ref="9364395" role=""/>
  <member type="relation" ref="9364399" role=""/>
  <member type="relation" ref="9361957" role=""/>
  <member type="relation" ref="9364404" role=""/>
  <member type="relation" ref="9592451" role=""/>
  <member type="relation" ref="9578522" role=""/>
  <member type="relation" ref="9608067" role=""/>
  <member type="relation" ref="6966370" role=""/>
  <member type="relation" ref="9659817" role=""/>
  <member type="relation" ref="9627337" role=""/>
  <member type="relation" ref="9633190" role=""/>
  <member type="relation" ref="9702108" role=""/>
  <member type="relation" ref="9651112" role=""/>
  <member type="relation" ref="9712245" role=""/>
  <member type="relation" ref="9669415" role=""/>
  <member type="relation" ref="3787044" role=""/>
  <member type="relation" ref="9680900" role=""/>
  <member type="relation" ref="9684360" role=""/>
  <member type="relation" ref="33010" role=""/>
  <member type="relation" ref="6585224" role=""/>
  <member type="relation" ref="6595831" role=""/>
  <member type="relation" ref="6584912" role=""/>
  <member type="relation" ref="6596139" role=""/>
  <member type="relation" ref="6612480" role=""/>
  <member type="relation" ref="6596367" role=""/>
  <member type="relation" ref="6601904" role=""/>
  <member type="relation" ref="6624769" role=""/>
  <member type="relation" ref="6626645" role=""/>
  <member type="relation" ref="2883869" role=""/>
  <member type="relation" ref="6621211" role=""/>
  <member type="relation" ref="6612481" role=""/>
  <member type="relation" ref="6641475" role=""/>
  <member type="relation" ref="6632428" role=""/>
  <member type="relation" ref="6639503" role=""/>
  <member type="relation" ref="6641549" role=""/>
  <member type="relation" ref="6645422" role=""/>
  <member type="relation" ref="5431055" role=""/>
  <member type="relation" ref="30840" role=""/>
  <member type="relation" ref="8466396" role=""/>
  <member type="relation" ref="8472959" role=""/>
  <member type="relation" ref="8903572" role=""/>
  <member type="relation" ref="9864624" role=""/>
  <member type="relation" ref="9365397" role=""/>
  <member type="relation" ref="6647077" role=""/>
  <member type="relation" ref="8197220" role=""/>
  <member type="relation" ref="1020657" role=""/>
  <member type="relation" ref="3639021" role=""/>
  <member type="relation" ref="1192346" role=""/>
  <member type="relation" ref="3521034" role=""/>
  <member type="relation" ref="8319600" role=""/>
  <member type="relation" ref="8421608" role=""/>
  <member type="relation" ref="8255454" role=""/>
  <member type="relation" ref="8171702" role=""/>
  <member type="relation" ref="9882017" role=""/>
  <member type="relation" ref="9361997" role=""/>
  <member type="relation" ref="9361995" role=""/>
  <member type="relation" ref="9621534" role=""/>
  <member type="relation" ref="9577579" role=""/>
  <member type="relation" ref="9662836" role=""/>
  <member type="relation" ref="9637071" role=""/>
  <member type="relation" ref="9706190" role=""/>
  <member type="relation" ref="9678094" role=""/>
  <member type="relation" ref="34190" role=""/>
  <member type="relation" ref="6651341" role=""/>
  <member type="relation" ref="6632429" role=""/>
  <member type="relation" ref="6651380" role=""/>
  <member type="relation" ref="6607033" role=""/>
  <member type="relation" ref="33018" role=""/>
  <member type="relation" ref="6594495" role=""/>
  <member type="relation" ref="3842394" role=""/>
  <member type="relation" ref="7346573" role=""/>
  <member type="relation" ref="6594518" role=""/>
  <member type="relation" ref="9230437" role=""/>
  <member type="relation" ref="6583464" role=""/>
  <member type="relation" ref="9220015" role=""/>
  <member type="relation" ref="947961" role=""/>
  <member type="relation" ref="6743360" role=""/>
  <member type="relation" ref="9389808" role=""/>
  <member type="relation" ref="9387618" role=""/>
  <member type="relation" ref="9095602" role=""/>
  <member type="relation" ref="6334848" role=""/>
  <member type="relation" ref="6519669" role=""/>
  <member type="relation" ref="6608790" role=""/>
  <member type="relation" ref="7920696" role=""/>
  <member type="relation" ref="6646894" role=""/>
  <member type="relation" ref="49515" role=""/>
  <member type="relation" ref="9842733" role=""/>
  <member type="relation" ref="9885666" role=""/>
  <member type="relation" ref="10259311" role=""/>
  <member type="relation" ref="10481824" role=""/>
  <member type="relation" ref="53796" role=""/>
  <member type="relation" ref="8839514" role=""/>
  <member type="relation" ref="3518585" role=""/>
  <member type="relation" ref="8512559" role=""/>
  <member type="relation" ref="8547309" role=""/>
  <member type="relation" ref="8901184" role=""/>
  <member type="relation" ref="8606655" role=""/>
  <member type="relation" ref="8330838" role=""/>
  <member type="relation" ref="6097291" role=""/>
  <member type="relation" ref="3947962" role=""/>
  <member type="relation" ref="6114814" role=""/>
  <member type="relation" ref="8770279" role=""/>
  <member type="relation" ref="7803946" role=""/>
  <member type="relation" ref="10015101" role=""/>
  <member type="relation" ref="8780413" role=""/>
  <member type="relation" ref="9226628" role=""/>
  <member type="relation" ref="1113900" role=""/>
  <member type="relation" ref="9878286" role=""/>
  <member type="relation" ref="9842064" role=""/>
  <member type="relation" ref="12886" role=""/>
  <member type="relation" ref="31661" role=""/>
  <member type="relation" ref="1061405" role=""/>
  <member type="relation" ref="9732500" role=""/>
  <member type="relation" ref="9566443" role=""/>
  <member type="relation" ref="9364401" role=""/>
  <member type="relation" ref="2360722" role=""/>
  <member type="relation" ref="9600043" role=""/>
  <member type="relation" ref="9655888" role=""/>
  <member type="relation" ref="9644147" role=""/>
  <member type="relation" ref="9674712" role=""/>
  <member type="relation" ref="10535240" role=""/>
  <member type="relation" ref="10997961" role=""/>
  <member type="relation" ref="3771097" role=""/>
  <member type="relation" ref="3771098" role=""/>
  <member type="relation" ref="6634560" role=""/>
  <member type="relation" ref="6649220" role=""/>
  <member type="relation" ref="6651324" role=""/>
  <member type="relation" ref="13970524" role=""/>
  <member type="relation" ref="6626646" role=""/>
  <member type="relation" ref="6604372" role=""/>
  <member type="relation" ref="33014" role=""/>
  <member type="relation" ref="195249" role=""/>
  <member type="relation" ref="7259555" role=""/>
  <member type="relation" ref="5385850" role=""/>
  <member type="relation" ref="7462562" role=""/>
  <member type="relation" ref="572350" role=""/>
  <member type="relation" ref="6649827" role=""/>
  <member type="relation" ref="9145802" role=""/>
  <member type="relation" ref="9167558" role=""/>
  <member type="relation" ref="9246031" role=""/>
  <member type="relation" ref="9384961" role=""/>
  <member type="relation" ref="6603804" role=""/>
  <member type="relation" ref="8660479" role=""/>
  <member type="relation" ref="8705812" role=""/>
  <member type="relation" ref="6357795" role=""/>
  <member type="relation" ref="2888579" role=""/>
  <member type="relation" ref="3644591" role=""/>
  <member type="relation" ref="13766033" role=""/>
  <member type="relation" ref="5347303" role=""/>
  <member type="relation" ref="3836968" role=""/>
  <member type="relation" ref="8250033" role=""/>
  <member type="relation" ref="8630931" role=""/>
  <member type="relation" ref="6518158" role=""/>
  <member type="relation" ref="3518586" role=""/>
  <member type="relation" ref="8507094" role=""/>
  <member type="relation" ref="8624536" role=""/>
  <member type="relation" ref="8330502" role=""/>
  <member type="relation" ref="8468445" role=""/>
  <member type="relation" ref="8736759" role=""/>
  <member type="relation" ref="8344320" role=""/>
  <member type="relation" ref="8346167" role=""/>
  <member type="relation" ref="8547781" role=""/>
  <member type="relation" ref="8778351" role=""/>
  <member type="relation" ref="8819316" role=""/>
  <member type="relation" ref="8428316" role=""/>
  <member type="relation" ref="10036652" role=""/>
  <member type="relation" ref="7521547" role=""/>
  <member type="relation" ref="9889643" role=""/>
  <member type="relation" ref="36203" role=""/>
  <member type="relation" ref="9727705" role=""/>
  <member type="relation" ref="9760336" role=""/>
  <member type="relation" ref="1061406" role=""/>
  <member type="relation" ref="9734691" role=""/>
  <member type="relation" ref="9364397" role=""/>
  <member type="relation" ref="9525476" role=""/>
  <member type="relation" ref="9365392" role=""/>
  <member type="relation" ref="9364403" role=""/>
  <member type="relation" ref="9581384" role=""/>
  <member type="relation" ref="9615824" role=""/>
  <member type="relation" ref="9648379" role=""/>
  <member type="relation" ref="9365391" role=""/>
  <member type="relation" ref="9849119" role=""/>
  <member type="relation" ref="6645423" role=""/>
  <member type="relation" ref="6653406" role=""/>
  <member type="relation" ref="6596106" role=""/>
  <member type="relation" ref="9301437" role=""/>
  <member type="relation" ref="9231531" role=""/>
  <member type="relation" ref="446121" role=""/>
  <member type="relation" ref="7901019" role=""/>
  <member type="relation" ref="6012803" role=""/>
  <member type="relation" ref="6594184" role=""/>
  <member type="relation" ref="5425459" role=""/>
  <member type="relation" ref="6491957" role=""/>
  <member type="relation" ref="8907070" role=""/>
  <member type="relation" ref="1017048" role=""/>
  <member type="relation" ref="8705506" role=""/>
  <member type="relation" ref="6518913" role=""/>
  <member type="relation" ref="4085924" role=""/>
  <member type="relation" ref="7021581" role=""/>
  <member type="relation" ref="7418329" role=""/>
  <member type="relation" ref="33003" role=""/>
  <member type="relation" ref="9889615" role=""/>
  <member type="relation" ref="8855535" role=""/>
  <member type="relation" ref="2162634" role=""/>
  <member type="relation" ref="3908697" role=""/>
  <member type="relation" ref="8824623" role=""/>
  <member type="relation" ref="8648367" role=""/>
  <member type="relation" ref="8616846" role=""/>
  <member type="relation" ref="8549720" role=""/>
  <member type="relation" ref="3524706" role=""/>
  <member type="relation" ref="8456817" role=""/>
  <member type="relation" ref="3527404" role=""/>
  <member type="relation" ref="8319621" role=""/>
  <member type="relation" ref="8346063" role=""/>
  <member type="relation" ref="8820384" role=""/>
  <member type="relation" ref="8788010" role=""/>
  <member type="relation" ref="3791425" role=""/>
  <member type="relation" ref="9999040" role=""/>
  <member type="relation" ref="9977958" role=""/>
  <member type="relation" ref="8821725" role=""/>
  <member type="relation" ref="9225568" role=""/>
  <member type="relation" ref="2789281" role=""/>
  <member type="relation" ref="1181630" role=""/>
  <member type="relation" ref="9869305" role=""/>
  <member type="relation" ref="572119" role=""/>
  <member type="relation" ref="9846585" role=""/>
  <member type="relation" ref="12873" role=""/>
  <member type="relation" ref="12591" role=""/>
  <member type="relation" ref="9743152" role=""/>
  <member type="relation" ref="9740226" role=""/>
  <member type="relation" ref="9604654" role=""/>
  <member type="relation" ref="9668498" role=""/>
  <member type="relation" ref="9663861" role=""/>
  <member type="relation" ref="9717721" role=""/>
  <member type="relation" ref="13766030" role=""/>
  <member type="relation" ref="6601928" role=""/>
  <member type="relation" ref="6605962" role=""/>
  <member type="relation" ref="6601896" role=""/>
  <member type="relation" ref="3317036" role=""/>
  <member type="relation" ref="416686" role=""/>
  <member type="relation" ref="446122" role=""/>
  <member type="relation" ref="9156540" role=""/>
  <member type="relation" ref="9383269" role=""/>
  <member type="relation" ref="7240653" role=""/>
  <member type="relation" ref="8725735" role=""/>
  <member type="relation" ref="5450521" role=""/>
  <member type="relation" ref="9028205" role=""/>
  <member type="relation" ref="11621854" role=""/>
  <member type="relation" ref="37650" role=""/>
  <member type="relation" ref="2695918" role=""/>
  <member type="relation" ref="8838236" role=""/>
  <member type="relation" ref="3948024" role=""/>
  <member type="relation" ref="3796161" role=""/>
  <member type="relation" ref="3796341" role=""/>
  <member type="relation" ref="3519913" role=""/>
  <member type="relation" ref="2168363" role=""/>
  <member type="relation" ref="7492744" role=""/>
  <member type="relation" ref="8596419" role=""/>
  <member type="relation" ref="7417266" role=""/>
  <member type="relation" ref="7722594" role=""/>
  <member type="relation" ref="10040102" role=""/>
  <member type="relation" ref="8784852" role=""/>
  <member type="relation" ref="3786630" role=""/>
  <member type="relation" ref="8372093" role=""/>
  <member type="relation" ref="7331065" role=""/>
  <member type="relation" ref="9994456" role=""/>
  <member type="relation" ref="9473486" role=""/>
  <member type="relation" ref="9918288" role=""/>
  <member type="relation" ref="5525014" role=""/>
  <member type="relation" ref="4544688" role=""/>
  <member type="relation" ref="9893745" role=""/>
  <member type="relation" ref="4452065" role=""/>
  <member type="relation" ref="9874325" role=""/>
  <member type="relation" ref="36085" role=""/>
  <member type="relation" ref="31622" role=""/>
  <member type="relation" ref="1597628" role=""/>
  <member type="relation" ref="9500290" role=""/>
  <member type="relation" ref="9584945" role=""/>
  <member type="relation" ref="9361963" role=""/>
  <member type="relation" ref="9364396" role=""/>
  <member type="relation" ref="9365393" role=""/>
  <member type="relation" ref="9586987" role=""/>
  <member type="relation" ref="9593068" role=""/>
  <member type="relation" ref="9623424" role=""/>
  <member type="relation" ref="9852047" role=""/>
  <member type="relation" ref="9671641" role=""/>
  <member type="relation" ref="10548190" role=""/>
  <member type="relation" ref="8063894" role=""/>
  <member type="relation" ref="10387581" role=""/>
  <member type="relation" ref="12079873" role=""/>
  <member type="relation" ref="9570519" role=""/>
  <tag k="name" v="日本の一般国道"/>
  <tag k="name:af" v="Nasionale snelweë van Japan"/>
  <tag k="name:en" v="National Highway of Japan"/>
  <tag k="name:es" v="Ruta nacional de Japón"/>
  <tag k="name:fr" v="Routes nationales du Japon"/>
  <tag k="name:ja" v="日本の一般国道"/>
  <tag k="name:ja-Hira" v="にっぽん の いっぱん こくどう"/>
  <tag k="name:ja-Latn" v="Nihon no ippan kokudō"/>
  <tag k="name:ko" v="일본의 일반 국도"/>
  <tag k="name:ru" v="Японские национальные дороги"/>
  <tag k="name:zh-Hans" v="日本一般国道"/>
  <tag k="name:zh-Hant" v="日本一般國道"/>
  <tag k="network" v="JP:national"/>
  <tag k="route_master" v="road"/>
  <tag k="type" v="route_master"/>
  <tag k="wikidata" v="Q926383"/>
  <tag k="wikimedia_commons" v="Category:National highways of Japan"/>
  <tag k="wikipedia" v="ja:一般国道"/>
 </relation>
 <relation id="9846585" visible="true" version="21" changeset="188759250" timestamp="2026-09-09T08:07:01Z" user="taketaketake" uid="4757277">
  <member type="way" ref="1424728131" role=""/>
  <member type="way" ref="118896806" role=""/>
  <member type="way" ref="118896620" role=""/>
  <member type="way" ref="118896608" role=""/>
  <member type="way" ref="118897296" role=""/>
  <member type="way" ref="1423494066" role=""/>
  <member type="way" ref="32590018" role=""/>
  <member type="way" ref="708019204" role=""/>
  <member type="way" ref="1057669148" role=""/>
  <member type="way" ref="1057669147" role=""/>
  <member type="way" ref="361561620" role=""/>
  <member type="way" ref="361561621" role=""/>
  <member type="way" ref="708016997" role=""/>
  <member type="way" ref="1423494065" role=""/>
  <member type="way" ref="708016996" role=""/>
  <member type="way" ref="708016995" role=""/>
  <member type="way" ref="708015015" role=""/>
  <member type="way" ref="708015014" role=""/>
  <member type="way" ref="367513069" role=""/>
  <member type="way" ref="367513070" role=""/>
  <member type="way" ref="708015013" role=""/>
  <member type="way" ref="1084151064" role=""/>
  <member type="way" ref="1084151063" role=""/>
  <member type="way" ref="708015012" role=""/>
  <member type="way" ref="233104147" role=""/>
  <member type="way" ref="233104136" role=""/>
  <member type="way" ref="233104128" role=""/>
  <member type="way" ref="233104125" role=""/>
  <member type="way" ref="118902260" role=""/>
  <member type="way" ref="118902956" role=""/>
  <member type="way" ref="118902177" role=""/>
  <member type="way" ref="118902506" role=""/>
  <member type="way" ref="233104130" role=""/>
  <member type="way" ref="233104126" role=""/>
  <member type="way" ref="233104135" role=""/>
  <member type="way" ref="233104143" role=""/>
  <member type="way" ref="233104134" role=""/>
  <member type="way" ref="233104146" role=""/>
  <member type="way" ref="233104131" role=""/>
  <member type="way" ref="233104145" role=""/>
  <member type="way" ref="1082125717" role=""/>
  <member type="way" ref="1082125716" role=""/>
  <member type="way" ref="1082125715" role=""/>
  <member type="way" ref="1082125714" role=""/>
  <member type="way" ref="93836270" role=""/>
  <member type="way" ref="93836271" role=""/>
  <member type="way" ref="708007641" role=""/>
  <member type="way" ref="233104137" role=""/>
  <member type="way" ref="25841350" role=""/>
  <member type="way" ref="93836269" role=""/>
  <member type="way" ref="303550019" role=""/>
  <member type="way" ref="1181543095" role=""/>
  <member type="way" ref="25841351" role=""/>
  <member type="way" ref="708006171" role=""/>
  <member type="way" ref="708006170" role=""/>
  <member type="way" ref="708006169" role=""/>
  <member type="way" ref="708006168" role=""/>
  <member type="way" ref="708006167" role=""/>
  <member type="way" ref="708006166" role=""/>
  <member type="way" ref="708006165" role=""/>
  <member type="way" ref="708006164" role=""/>
  <member type="way" ref="708000456" role=""/>
  <member type="way" ref="708000455" role=""/>
  <member type="way" ref="708027651" role=""/>
  <member type="way" ref="708027652" role=""/>
  <member type="way" ref="708000454" role=""/>
  <member type="way" ref="708000453" role=""/>
  <member type="way" ref="723370819" role=""/>
  <member type="way" ref="112939580" role=""/>
  <member type="way" ref="112939991" role=""/>
  <member type="way" ref="112939490" role=""/>
  <member type="way" ref="112939478" role=""/>
  <member type="way" ref="112939498" role=""/>
  <member type="way" ref="310257988" role=""/>
  <member type="way" ref="310257989" role=""/>
  <member type="way" ref="204738144" role=""/>
  <member type="way" ref="204738143" role=""/>
  <member type="way" ref="314627869" role=""/>
  <member type="way" ref="216697481" role=""/>
  <member type="way" ref="205423967" role=""/>
  <member type="way" ref="216697485" role=""/>
  <member type="way" ref="216697484" role=""/>
  <member type="way" ref="216697483" role=""/>
  <member type="way" ref="205423968" role=""/>
  <member type="way" ref="313293332" role=""/>
  <member type="way" ref="313293333" role=""/>
  <member type="way" ref="152436630" role=""/>
  <member type="way" ref="152436629" role=""/>
  <member type="way" ref="216697482" role=""/>
  <member type="way" ref="636996189" role=""/>
  <member type="way" ref="208255860" role=""/>
  <member type="way" ref="802333818" role=""/>
  <tag k="colour" v="red"/>
  <tag k="from" v="愛媛県松山市"/>
  <tag k="name" v="国道437号"/>
  <tag k="name:en" v="National Highway Route 437"/>
  <tag k="name:ja" v="国道437号"/>
  <tag k="name:ja-Hira" v="こくどうよんひゃくさんじゅうななごう"/>
  <tag k="name:ja-Latn" v="Kokudou 437 Gou"/>
  <tag k="network" v="JP:national"/>
  <tag k="ref" v="437"/>
  <tag k="route" v="road"/>
  <tag k="to" v="山口県岩国市"/>
  <tag k="type" v="route"/>
  <tag k="wikidata" v="Q5482618"/>
  <tag k="wikipedia" v="ja:国道437号"/>
 </relation>
</osm>
