<?xml version="1.0" encoding="UTF-8"?>
<osm version="0.6" generator="openstreetmap-cgimap 2.1.0 (2942765 spike-08.openstreetmap.org)" copyright="OpenStreetMap and contributors" attribution="http://www.openstreetmap.org/copyright" license="http://opendatacommons.org/licenses/odbl/1-0/">
 <bounds minlat="33.9404250" minlon="132.0686590" maxlat="33.9428250" maxlon="132.0716590"/>
 <node id="3951224360" visible="true" version="1" changeset="36628712" timestamp="2016-01-17T07:40:57Z" user="show1017" uid="3244669" lat="33.9415908" lon="132.0697877">
  <tag k="name" v="イオンタウン平生"/>
  <tag k="shop" v="department_store"/>
 </node>
 <node id="3951224361" visible="true" version="2" changeset="77604966" timestamp="2019-11-27T04:22:10Z" user="mklyr" uid="614924" lat="33.9412123" lon="132.0700707"/>
 <node id="3951224362" visible="true" version="2" changeset="77604966" timestamp="2019-11-27T04:22:10Z" user="mklyr" uid="614924" lat="33.9418972" lon="132.0707260"/>
 <node id="3951224363" visible="true" version="2" changeset="77604966" timestamp="2019-11-27T04:22:10Z" user="mklyr" uid="614924" lat="33.9417452" lon="132.0708438"/>
 <node id="3951224364" visible="true" version="2" changeset="77604966" timestamp="2019-11-27T04:22:10Z" user="mklyr" uid="614924" lat="33.9414838" lon="132.0709844"/>
 <node id="3951224365" visible="true" version="2" changeset="77604966" timestamp="2019-11-27T04:22:10Z" user="mklyr" uid="614924" lat="33.9410621" lon="132.0703735"/>
 <node id="3951224366" visible="true" version="2" changeset="77604966" timestamp="2019-11-27T04:22:10Z" user="mklyr" uid="614924" lat="33.9412826" lon="132.0702025"/>
 <node id="3951224368" visible="true" version="2" changeset="77604966" timestamp="2019-11-27T04:22:10Z" user="mklyr" uid="614924" lat="33.9409985" lon="132.0701875"/>
 <node id="3951224369" visible="true" version="1" changeset="36628727" timestamp="2016-01-17T07:43:46Z" user="show1017" uid="3244669" lat="33.9412003" lon="132.0692999"/>
 <node id="3951224370" visible="true" version="2" changeset="77604966" timestamp="2019-11-27T04:22:10Z" user="mklyr" uid="614924" lat="33.9423920" lon="132.0698293"/>
 <node id="3951224371" visible="true" version="2" changeset="77604966" timestamp="2019-11-27T04:22:10Z" user="mklyr" uid="614924" lat="33.9423231" lon="132.0697120"/>
 <node id="3951224372" visible="true" version="2" changeset="77604966" timestamp="2019-11-27T04:22:10Z" user="mklyr" uid="614924" lat="33.9421792" lon="132.0698348"/>
 <node id="3951224373" visible="true" version="2" changeset="77604966" timestamp="2019-11-27T04:22:10Z" user="mklyr" uid="614924" lat="33.9422481" lon="132.0699522"/>
 <node id="3951224374" visible="true" version="2" changeset="77604966" timestamp="2019-11-27T04:22:10Z" user="mklyr" uid="614924" lat="33.9424047" lon="132.0698524"/>
 <node id="3951224465" visible="true" version="2" changeset="77604966" timestamp="2019-11-27T04:22:10Z" user="mklyr" uid="614924" lat="33.9414494" lon="132.0698869"/>
 <node id="3951224466" visible="true" version="2" changeset="77604966" timestamp="2019-11-27T04:22:10Z" user="mklyr" uid="614924" lat="33.9414371" lon="132.0698377"/>
 <node id="3951224467" visible="true" version="2" changeset="77604966" timestamp="2019-11-27T04:22:10Z" user="mklyr" uid="614924" lat="33.9407477" lon="132.0697306"/>
 <node id="3951224468" visible="true" version="2" changeset="77604966" timestamp="2019-11-27T04:22:10Z" user="mklyr" uid="614924" lat="33.9406443" lon="132.0698131"/>
 <node id="3951224470" visible="true" version="2" changeset="77604966" timestamp="2019-11-27T04:22:10Z" user="mklyr" uid="614924" lat="33.9422964" lon="132.0699396"/>
 <node id="3951224471" visible="true" version="2" changeset="77604966" timestamp="2019-11-27T04:22:10Z" user="mklyr" uid="614924" lat="33.9424096" lon="132.0701439"/>
 <node id="3951224472" visible="true" version="2" changeset="77604966" timestamp="2019-11-27T04:22:10Z" user="mklyr" uid="614924" lat="33.9425179" lon="132.0700567"/>
 <node id="3951227864" visible="true" version="2" changeset="106870543" timestamp="2021-06-24T04:57:32Z" user="taketaketake" uid="4757277" lat="33.9412616" lon="132.0712471"/>
 <node id="3951227865" visible="true" version="1" changeset="36628703" timestamp="2016-01-17T07:39:56Z" user="show1017" uid="3244669" lat="33.9409588" lon="132.0707836"/>
 <node id="3951227866" visible="true" version="1" changeset="36628703" timestamp="2016-01-17T07:39:57Z" user="show1017" uid="3244669" lat="33.9410915" lon="132.0707003"/>
 <node id="3951227867" visible="true" version="1" changeset="36628703" timestamp="2016-01-17T07:39:57Z" user="show1017" uid="3244669" lat="33.9402676" lon="132.0693353"/>
 <node id="3951227868" visible="true" version="1" changeset="36628703" timestamp="2016-01-17T07:39:58Z" user="show1017" uid="3244669" lat="33.9406788" lon="132.0690753"/>
 <node id="3951227869" visible="true" version="1" changeset="36628703" timestamp="2016-01-17T07:39:58Z" user="show1017" uid="3244669" lat="33.9416787" lon="132.0685936"/>
 <node id="3951227870" visible="true" version="2" changeset="106870543" timestamp="2021-06-24T04:57:32Z" user="taketaketake" uid="4757277" lat="33.9426454" lon="132.0699991"/>
 <node id="3951251457" visible="true" version="2" changeset="77604966" timestamp="2019-11-27T04:22:10Z" user="mklyr" uid="614924" lat="33.9417218" lon="132.0708000"/>
 <node id="3951251757" visible="true" version="2" changeset="77604966" timestamp="2019-11-27T04:22:10Z" user="mklyr" uid="614924" lat="33.9404161" lon="132.0693973"/>
 <node id="3951251758" visible="true" version="2" changeset="77604966" timestamp="2019-11-27T04:22:10Z" user="mklyr" uid="614924" lat="33.9409581" lon="132.0689650"/>
 <node id="3951251759" visible="true" version="1" changeset="36628727" timestamp="2016-01-17T07:43:46Z" user="show1017" uid="3244669" lat="33.9417097" lon="132.0688919"/>
 <node id="3951251760" visible="true" version="1" changeset="36628727" timestamp="2016-01-17T07:43:46Z" user="show1017" uid="3244669" lat="33.9416161" lon="132.0687223"/>
 <node id="3951255357" visible="true" version="1" changeset="36628727" timestamp="2016-01-17T07:43:45Z" user="show1017" uid="3244669" lat="33.9410231" lon="132.0689783"/>
 <node id="3951255557" visible="true" version="1" changeset="36628727" timestamp="2016-01-17T07:43:47Z" user="show1017" uid="3244669" lat="33.9411215" lon="132.0689060"/>
 <node id="7012992625" visible="true" version="1" changeset="77604966" timestamp="2019-11-27T04:22:10Z" user="mklyr" uid="614924" lat="33.9413994" lon="132.0708262"/>
 <node id="7012992626" visible="true" version="1" changeset="77604966" timestamp="2019-11-27T04:22:10Z" user="mklyr" uid="614924" lat="33.9413317" lon="132.0708787"/>
 <node id="8861874283" visible="true" version="1" changeset="106870543" timestamp="2021-06-24T04:57:32Z" user="taketaketake" uid="4757277" lat="33.9426344" lon="132.0701605"/>
 <way id="391860368" visible="true" version="2" changeset="106870543" timestamp="2021-06-24T04:57:32Z" user="taketaketake" uid="4757277">
  <nd ref="3951227864"/>
  <nd ref="3951227865"/>
  <nd ref="3951227866"/>
  <nd ref="3951227867"/>
  <nd ref="3951227868"/>
  <nd ref="3951227869"/>
  <nd ref="3951227870"/>
  <nd ref="8861874283"/>
  <nd ref="3951227864"/>
  <tag k="amenity" v="parking"/>
 </way>
 <way id="391860485" visible="true" version="3" changeset="116189435" timestamp="2022-01-15T17:02:55Z" user="yasunari" uid="171028">
  <nd ref="3951224361"/>
  <nd ref="3951224465"/>
  <nd ref="3951224362"/>
  <nd ref="3951224363"/>
  <nd ref="3951251457"/>
  <nd ref="3951224364"/>
  <nd ref="7012992625"/>
  <nd ref="7012992626"/>
  <nd ref="3951224365"/>
  <nd ref="3951224366"/>
  <nd ref="3951224361"/>
  <tag k="building" v="retail"/>
  <tag k="name" v="マックスバリュ"/>
  <tag k="shop" v="supermarket"/>
 </way>
 <way id="391860486" visible="true" version="3" changeset="116189435" timestamp="2022-01-15T17:02:55Z" user="yasunari" uid="171028">
  <nd ref="3951251757"/>
  <nd ref="3951251758"/>
  <nd ref="3951224466"/>
  <nd ref="3951224368"/>
  <nd ref="3951224467"/>
  <nd ref="3951224468"/>
  <nd ref="3951251757"/>
  <tag k="building" v="retail"/>
  <tag k="name" v="ナフコ"/>
  <tag k="shop" v="doityourself"/>
 </way>
 <way id="391860523" visible="true" version="1" changeset="36628727" timestamp="2016-01-17T07:43:47Z" user="show1017" uid="3244669">
  <nd ref="3951255357"/>
  <nd ref="3951224369"/>
  <nd ref="3951251759"/>
  <nd ref="3951251760"/>
  <nd ref="3951255557"/>
  <nd ref="3951255357"/>
  <tag k="building" v="yes"/>
 </way>
 <way id="391860856" visible="true" version="1" changeset="36628731" timestamp="2016-01-17T07:44:25Z" user="show1017" uid="3244669">
  <nd ref="3951224370"/>
  <nd ref="3951224371"/>
  <nd ref="3951224372"/>
  <nd ref="3951224373"/>
  <nd ref="3951224370"/>
  <tag k="building" v="yes"/>
 </way>
 <way id="391860866" visible="true" version="1" changeset="36628731" timestamp="2016-01-17T07:44:26Z" user="show1017" uid="3244669">
  <nd ref="3951224374"/>
  <nd ref="3951224470"/>
  <nd ref="3951224471"/>
  <nd ref="3951224472"/>
  <nd ref="3951224374"/>
  <tag k="building" v="yes"/>
 </way>
</osm>
