<?xml version="1.0" encoding="UTF-8"?>
<osm version="0.6" generator="openstreetmap-cgimap 2.1.0 (2942766 spike-08.openstreetmap.org)" copyright="OpenStreetMap and contributors" attribution="http://www.openstreetmap.org/copyright" license="http://opendatacommons.org/licenses/odbl/1-0/">
 <bounds minlat="34.1280708" minlon="132.1981227" maxlat="34.1307969" maxlon="132.2013088"/>
 <node id="366527458" visible="true" version="7" changeset="132590670" timestamp="2023-02-15T16:36:42Z" user="AYAGE" uid="521665" lat="34.1304548" lon="132.2001517"/>
 <node id="366527459" visible="true" version="7" changeset="132590670" timestamp="2023-02-15T16:36:42Z" user="AYAGE" uid="521665" lat="34.1301043" lon="132.1998507"/>
 <node id="366527460" visible="true" version="8" changeset="132590670" timestamp="2023-02-15T16:36:42Z" user="AYAGE" uid="521665" lat="34.1296973" lon="132.1997370">
  <tag k="crossing" v="traffic_signals"/>
  <tag k="highway" v="crossing"/>
  <tag k="source" v="survey"/>
  <tag k="survey:date" v="2018-09-06"/>
 </node>
 <node id="366527461" visible="true" version="7" changeset="132567542" timestamp="2023-02-15T07:17:45Z" user="AYAGE" uid="521665" lat="34.1281024" lon="132.1994482"/>
 <node id="748917882" visible="true" version="1" changeset="4813224" timestamp="2010-05-26T13:46:11Z" user="Tom_G3X" uid="146930" lat="34.1298480" lon="132.2012970"/>
 <node id="748923058" visible="true" version="2" changeset="132633879" timestamp="2023-02-16T15:06:21Z" user="AYAGE" uid="521665" lat="34.1351061" lon="132.1983115"/>
 <node id="749010631" visible="true" version="2" changeset="132567542" timestamp="2023-02-15T07:17:45Z" user="AYAGE" uid="521665" lat="34.1294358" lon="132.1993993"/>
 <node id="749019840" visible="true" version="1" changeset="4813224" timestamp="2010-05-26T14:28:00Z" user="Tom_G3X" uid="146930" lat="34.1327380" lon="132.2004840"/>
 <node id="749074957" visible="true" version="1" changeset="4813826" timestamp="2010-05-26T14:52:19Z" user="Tom_G3X" uid="146930" lat="34.1291830" lon="132.2013960"/>
 <node id="749093183" visible="true" version="1" changeset="4813826" timestamp="2010-05-26T14:59:17Z" user="Tom_G3X" uid="146930" lat="34.1313700" lon="132.2008670"/>
 <node id="749233437" visible="true" version="2" changeset="132633879" timestamp="2023-02-16T15:06:21Z" user="AYAGE" uid="521665" lat="34.1336101" lon="132.2000574"/>
 <node id="749297017" visible="true" version="1" changeset="4814433" timestamp="2010-05-26T16:10:23Z" user="Tom_G3X" uid="146930" lat="34.1295490" lon="132.2013710"/>
 <node id="749409954" visible="true" version="2" changeset="132567542" timestamp="2023-02-15T07:17:45Z" user="AYAGE" uid="521665" lat="34.1293732" lon="132.1999679"/>
 <node id="749455346" visible="true" version="1" changeset="4814433" timestamp="2010-05-26T17:00:44Z" user="Tom_G3X" uid="146930" lat="34.1348310" lon="132.1988190"/>
 <node id="749551664" visible="true" version="1" changeset="4815008" timestamp="2010-05-26T17:29:27Z" user="Tom_G3X" uid="146930" lat="34.1310140" lon="132.2009930"/>
 <node id="749691993" visible="true" version="2" changeset="132590670" timestamp="2023-02-15T16:36:42Z" user="AYAGE" uid="521665" lat="34.1295261" lon="132.1988400"/>
 <node id="749701110" visible="true" version="2" changeset="132633879" timestamp="2023-02-16T15:06:21Z" user="AYAGE" uid="521665" lat="34.1333077" lon="132.2002925"/>
 <node id="749774338" visible="true" version="1" changeset="4815008" timestamp="2010-05-26T18:46:37Z" user="Tom_G3X" uid="146930" lat="34.1293550" lon="132.2013920"/>
 <node id="749879169" visible="true" version="2" changeset="132590670" timestamp="2023-02-15T16:36:42Z" user="AYAGE" uid="521665" lat="34.1295368" lon="132.1987780"/>
 <node id="749886431" visible="true" version="2" changeset="132633879" timestamp="2023-02-16T15:06:21Z" user="AYAGE" uid="521665" lat="34.1341047" lon="132.1995245"/>
 <node id="1337993035" visible="true" version="3" changeset="132683671" timestamp="2023-02-17T15:52:51Z" user="AYAGE" uid="521665" lat="34.1304133" lon="132.1985251"/>
 <node id="1337993100" visible="true" version="3" changeset="132567542" timestamp="2023-02-15T07:17:45Z" user="AYAGE" uid="521665" lat="34.1295774" lon="132.2012511"/>
 <node id="1337993155" visible="true" version="2" changeset="132660656" timestamp="2023-02-17T07:03:40Z" user="AYAGE" uid="521665" lat="34.1321230" lon="132.1989853"/>
 <node id="1337993183" visible="true" version="3" changeset="132683671" timestamp="2023-02-17T15:52:51Z" user="AYAGE" uid="521665" lat="34.1311142" lon="132.1982960"/>
 <node id="1337993228" visible="true" version="3" changeset="132660656" timestamp="2023-02-17T07:03:40Z" user="AYAGE" uid="521665" lat="34.1312674" lon="132.2010551"/>
 <node id="1337993249" visible="true" version="3" changeset="132567542" timestamp="2023-02-15T07:17:45Z" user="AYAGE" uid="521665" lat="34.1277243" lon="132.1990882"/>
 <node id="1337993506" visible="true" version="3" changeset="132590670" timestamp="2023-02-15T16:36:42Z" user="AYAGE" uid="521665" lat="34.1297956" lon="132.1997530">
  <tag k="highway" v="traffic_signals"/>
  <tag k="noname" v="yes"/>
  <tag k="source" v="survey"/>
  <tag k="survey:date" v="2018-09-06"/>
 </node>
 <node id="1337993553" visible="true" version="3" changeset="132683671" timestamp="2023-02-17T15:52:51Z" user="AYAGE" uid="521665" lat="34.1307772" lon="132.1984040"/>
 <node id="1337993567" visible="true" version="3" changeset="132683671" timestamp="2023-02-17T15:52:51Z" user="AYAGE" uid="521665" lat="34.1303453" lon="132.1989041"/>
 <node id="1337993633" visible="true" version="2" changeset="62393092" timestamp="2018-09-08T04:12:04Z" user="nmaruichi" uid="317331" lat="34.1310740" lon="132.2008347"/>
 <node id="1337993995" visible="true" version="3" changeset="132683671" timestamp="2023-02-17T15:52:51Z" user="AYAGE" uid="521665" lat="34.1313956" lon="132.1985756"/>
 <node id="1337994057" visible="true" version="2" changeset="132660656" timestamp="2023-02-17T07:03:40Z" user="AYAGE" uid="521665" lat="34.1297478" lon="132.2014829"/>
 <node id="1337994114" visible="true" version="3" changeset="132683671" timestamp="2023-02-17T15:52:51Z" user="AYAGE" uid="521665" lat="34.1304667" lon="132.1984973"/>
 <node id="1337994154" visible="true" version="2" changeset="132567542" timestamp="2023-02-15T07:17:45Z" user="AYAGE" uid="521665" lat="34.1295597" lon="132.2014851"/>
 <node id="1337994159" visible="true" version="3" changeset="132590670" timestamp="2023-02-15T16:36:42Z" user="AYAGE" uid="521665" lat="34.1293428" lon="132.1996753"/>
 <node id="1337994183" visible="true" version="3" changeset="132590670" timestamp="2023-02-15T16:36:42Z" user="AYAGE" uid="521665" lat="34.1284927" lon="132.1985341"/>
 <node id="1337994266" visible="true" version="3" changeset="132590670" timestamp="2023-02-15T16:36:42Z" user="AYAGE" uid="521665" lat="34.1297806" lon="132.1979816"/>
 <node id="1337994353" visible="true" version="3" changeset="132590670" timestamp="2023-02-15T16:36:42Z" user="AYAGE" uid="521665" lat="34.1295325" lon="132.1980466"/>
 <node id="1337994618" visible="true" version="3" changeset="132683671" timestamp="2023-02-17T15:52:51Z" user="AYAGE" uid="521665" lat="34.1303241" lon="132.1987029"/>
 <node id="1337994812" visible="true" version="6" changeset="175985176" timestamp="2025-12-16T02:17:30Z" user="市川ゆり子" uid="388809" lat="34.1275797" lon="132.1993620">
  <tag k="highway" v="traffic_signals"/>
  <tag k="name" v="南岩国3丁目"/>
  <tag k="name:en" v="Minamiiwakuni 3-chome"/>
  <tag k="name:ja" v="南岩国3丁目"/>
  <tag k="name:ja-Hira" v="みなみいわくに3ちょうめ"/>
  <tag k="name:ja_rm" v="Minamiiwakuni 3-chome"/>
  <tag k="source" v="survey"/>
  <tag k="survey:date" v="2018-09-06"/>
 </node>
 <node id="1337994849" visible="true" version="3" changeset="132683671" timestamp="2023-02-17T15:52:51Z" user="AYAGE" uid="521665" lat="34.1303726" lon="132.1985598"/>
 <node id="1337995030" visible="true" version="2" changeset="132567542" timestamp="2023-02-15T07:17:45Z" user="AYAGE" uid="521665" lat="34.1295420" lon="132.2015459"/>
 <node id="1337995117" visible="true" version="3" changeset="132683671" timestamp="2023-02-17T15:52:51Z" user="AYAGE" uid="521665" lat="34.1308348" lon="132.1990956"/>
 <node id="1337995138" visible="true" version="3" changeset="132683671" timestamp="2023-02-17T15:52:51Z" user="AYAGE" uid="521665" lat="34.1303740" lon="132.1991988"/>
 <node id="1337995399" visible="true" version="2" changeset="132660656" timestamp="2023-02-17T07:03:40Z" user="AYAGE" uid="521665" lat="34.1306508" lon="132.2003516"/>
 <node id="1337995666" visible="true" version="2" changeset="132660656" timestamp="2023-02-17T07:03:40Z" user="AYAGE" uid="521665" lat="34.1319687" lon="132.1994691"/>
 <node id="1337995691" visible="true" version="3" changeset="132683671" timestamp="2023-02-17T15:52:51Z" user="AYAGE" uid="521665" lat="34.1308077" lon="132.1987591"/>
 <node id="1337995754" visible="true" version="2" changeset="132660656" timestamp="2023-02-17T07:03:40Z" user="AYAGE" uid="521665" lat="34.1305469" lon="132.2012569"/>
 <node id="1337995863" visible="true" version="2" changeset="132660656" timestamp="2023-02-17T07:03:40Z" user="AYAGE" uid="521665" lat="34.1312232" lon="132.1996994"/>
 <node id="1337995964" visible="true" version="3" changeset="132590670" timestamp="2023-02-15T16:36:42Z" user="AYAGE" uid="521665" lat="34.1295639" lon="132.1980395"/>
 <node id="1337996073" visible="true" version="3" changeset="132590670" timestamp="2023-02-15T16:36:42Z" user="AYAGE" uid="521665" lat="34.1291299" lon="132.1981581"/>
 <node id="1337996758" visible="true" version="3" changeset="132683671" timestamp="2023-02-17T15:52:51Z" user="AYAGE" uid="521665" lat="34.1303408" lon="132.1986243"/>
 <node id="1337996889" visible="true" version="3" changeset="132590670" timestamp="2023-02-15T16:36:42Z" user="AYAGE" uid="521665" lat="34.1286982" lon="132.1983902"/>
 <node id="1423654423" visible="true" version="2" changeset="170134820" timestamp="2025-08-08T04:24:07Z" user="pseek" uid="21586509" lat="34.1290740" lon="132.1993970">
  <tag k="addr:block_number" v="14"/>
  <tag k="addr:city" v="岩国市"/>
  <tag k="addr:housenumber" v="3"/>
  <tag k="addr:neighbourhood" v="南岩国町3丁目"/>
  <tag k="addr:postcode" v="740-0034"/>
  <tag k="addr:province" v="山口県"/>
  <tag k="amenity" v="post_office"/>
  <tag k="name" v="南岩国三郵便局"/>
  <tag k="name:en" v="Minamiiwakuni3 Post Office"/>
  <tag k="name:es" v="Oficina de Correos de Minamiiwakuni3"/>
  <tag k="name:ja" v="南岩国三郵便局"/>
  <tag k="name:ja-Hira" v="みなみいわくにさん ゆうびんきょく"/>
  <tag k="name:pt" v="Correio de Minamiiwakuni3"/>
  <tag k="note" v="National-Land Numerical Information (Public Facility) 2006, MLIT Japan"/>
  <tag k="note:ja" v="国土数値情報（公共施設データ）平成19年　国土交通省"/>
  <tag k="opening_hours" v="Mo-Fr 09:00-17:00"/>
  <tag k="operator" v="日本郵便"/>
  <tag k="operator:en" v="Japan Post"/>
  <tag k="operator:ja" v="日本郵便"/>
  <tag k="operator:short" v="郵便局"/>
  <tag k="operator:short:en" v="JP"/>
  <tag k="operator:short:ja" v="郵便局"/>
  <tag k="operator:wikidata" v="Q11509260"/>
  <tag k="phone" v="+81-827-31-1652"/>
  <tag k="source" v="KSJ2"/>
  <tag k="source_ref" v="http://nlftp.mlit.go.jp/ksj/jpgis/datalist/KsjTmplt-P02-v2_0.html"/>
 </node>
 <node id="1423656186" visible="true" version="2" changeset="52946485" timestamp="2017-10-15T06:10:16Z" user="kanpon" uid="6798031" lat="34.1292488" lon="132.1998575">
  <tag k="amenity" v="police"/>
  <tag k="name" v="岩国警察署南交番"/>
  <tag k="note" v="National-Land Numerical Information (Public Facility) 2006, MLIT Japan"/>
  <tag k="note:ja" v="国土数値情報（公共施設データ）平成19年　国土交通省"/>
  <tag k="source" v="KSJ2"/>
  <tag k="source_ref" v="http://nlftp.mlit.go.jp/ksj/jpgis/datalist/KsjTmplt-P02-v2_0.html"/>
 </node>
 <node id="2873938003" visible="true" version="2" changeset="132590670" timestamp="2023-02-15T16:36:42Z" user="AYAGE" uid="521665" lat="34.1296068" lon="132.1980613"/>
 <node id="2873938108" visible="true" version="2" changeset="132567542" timestamp="2023-02-15T07:17:45Z" user="AYAGE" uid="521665" lat="34.1285018" lon="132.2016283"/>
 <node id="2873938109" visible="true" version="2" changeset="132567542" timestamp="2023-02-15T07:17:45Z" user="AYAGE" uid="521665" lat="34.1293789" lon="132.2003242"/>
 <node id="2873938110" visible="true" version="2" changeset="132567542" timestamp="2023-02-15T07:17:45Z" user="AYAGE" uid="521665" lat="34.1297459" lon="132.2012450"/>
 <node id="2873938111" visible="true" version="2" changeset="132567542" timestamp="2023-02-15T07:17:45Z" user="AYAGE" uid="521665" lat="34.1307582" lon="132.2009613"/>
 <node id="2873938605" visible="true" version="2" changeset="132567542" timestamp="2023-02-15T07:17:45Z" user="AYAGE" uid="521665" lat="34.1293627" lon="132.1997604"/>
 <node id="2873938606" visible="true" version="2" changeset="132590670" timestamp="2023-02-15T16:36:42Z" user="AYAGE" uid="521665" lat="34.1294977" lon="132.1988460"/>
 <node id="2873938702" visible="true" version="2" changeset="132567542" timestamp="2023-02-15T07:17:45Z" user="AYAGE" uid="521665" lat="34.1290830" lon="132.2015218"/>
 <node id="2873941403" visible="true" version="2" changeset="132567542" timestamp="2023-02-15T07:17:45Z" user="AYAGE" uid="521665" lat="34.1284778" lon="132.2013683"/>
 <node id="2873941602" visible="true" version="2" changeset="132567542" timestamp="2023-02-15T07:17:45Z" user="AYAGE" uid="521665" lat="34.1313948" lon="132.2009693"/>
 <node id="2873941702" visible="true" version="2" changeset="132567542" timestamp="2023-02-15T07:17:45Z" user="AYAGE" uid="521665" lat="34.1289382" lon="132.2013043"/>
 <node id="2873941703" visible="true" version="2" changeset="132567542" timestamp="2023-02-15T07:17:45Z" user="AYAGE" uid="521665" lat="34.1295442" lon="132.2009979"/>
 <node id="2873941704" visible="true" version="2" changeset="132567542" timestamp="2023-02-15T07:17:45Z" user="AYAGE" uid="521665" lat="34.1304930" lon="132.2012254"/>
 <node id="2873942101" visible="true" version="2" changeset="132590670" timestamp="2023-02-15T16:36:42Z" user="AYAGE" uid="521665" lat="34.1295773" lon="132.1983794"/>
 <node id="2873942102" visible="true" version="2" changeset="132567542" timestamp="2023-02-15T07:17:45Z" user="AYAGE" uid="521665" lat="34.1295004" lon="132.2012777"/>
 <node id="2873942201" visible="true" version="1" changeset="22478445" timestamp="2014-05-22T04:24:09Z" user="ひろときょうたまなかなおや" uid="2000955" lat="34.1313485" lon="132.2007994"/>
 <node id="4315817582" visible="true" version="2" changeset="62393092" timestamp="2018-09-08T04:12:04Z" user="nmaruichi" uid="317331" lat="34.1310998" lon="132.2008626"/>
 <node id="5892053458" visible="true" version="2" changeset="132567542" timestamp="2023-02-15T07:17:45Z" user="AYAGE" uid="521665" lat="34.1276151" lon="132.1992322">
  <tag k="crossing" v="traffic_signals"/>
  <tag k="highway" v="crossing"/>
  <tag k="source" v="survey"/>
  <tag k="survey:date" v="2018-09-06"/>
 </node>
 <node id="5892053459" visible="true" version="2" changeset="132567542" timestamp="2023-02-15T07:17:45Z" user="AYAGE" uid="521665" lat="34.1276935" lon="132.1993826">
  <tag k="crossing" v="traffic_signals"/>
  <tag k="highway" v="crossing"/>
  <tag k="source" v="survey"/>
  <tag k="survey:date" v="2018-09-06"/>
 </node>
 <node id="5892053460" visible="true" version="2" changeset="132590670" timestamp="2023-02-15T16:36:42Z" user="AYAGE" uid="521665" lat="34.1294364" lon="132.1989982"/>
 <node id="5892053461" visible="true" version="2" changeset="132590670" timestamp="2023-02-15T16:36:42Z" user="AYAGE" uid="521665" lat="34.1293949" lon="132.1991839"/>
 <node id="5892053462" visible="true" version="2" changeset="132590670" timestamp="2023-02-15T16:36:42Z" user="AYAGE" uid="521665" lat="34.1295037" lon="132.1985648"/>
 <node id="5892053463" visible="true" version="2" changeset="132590670" timestamp="2023-02-15T16:36:42Z" user="AYAGE" uid="521665" lat="34.1298450" lon="132.1988273"/>
 <node id="5892053466" visible="true" version="2" changeset="132590670" timestamp="2023-02-15T16:36:42Z" user="AYAGE" uid="521665" lat="34.1299872" lon="132.1998031"/>
 <node id="5892053467" visible="true" version="2" changeset="132590670" timestamp="2023-02-15T16:36:42Z" user="AYAGE" uid="521665" lat="34.1301982" lon="132.1999114"/>
 <node id="5892053468" visible="true" version="2" changeset="132590670" timestamp="2023-02-15T16:36:42Z" user="AYAGE" uid="521665" lat="34.1303040" lon="132.1999940"/>
 <node id="5892053469" visible="true" version="2" changeset="132590670" timestamp="2023-02-15T16:36:42Z" user="AYAGE" uid="521665" lat="34.1297604" lon="132.1998509">
  <tag k="crossing" v="traffic_signals"/>
  <tag k="highway" v="crossing"/>
  <tag k="source" v="survey"/>
  <tag k="survey:date" v="2018-09-06"/>
 </node>
 <node id="5892053470" visible="true" version="2" changeset="132590670" timestamp="2023-02-15T16:36:42Z" user="AYAGE" uid="521665" lat="34.1298094" lon="132.1997054">
  <tag k="crossing" v="traffic_signals"/>
  <tag k="highway" v="crossing"/>
  <tag k="source" v="survey"/>
  <tag k="survey:date" v="2018-09-06"/>
 </node>
 <node id="5892053471" visible="true" version="2" changeset="132590670" timestamp="2023-02-15T16:36:42Z" user="AYAGE" uid="521665" lat="34.1298500" lon="132.1997642">
  <tag k="crossing" v="traffic_signals"/>
  <tag k="highway" v="crossing"/>
  <tag k="source" v="survey"/>
  <tag k="survey:date" v="2018-09-06"/>
 </node>
 <node id="6662832319" visible="true" version="2" changeset="132590670" timestamp="2023-02-15T16:36:42Z" user="AYAGE" uid="521665" lat="34.1293595" lon="132.1996786"/>
 <node id="6662832320" visible="true" version="2" changeset="132590670" timestamp="2023-02-15T16:36:42Z" user="AYAGE" uid="521665" lat="34.1294551" lon="132.1996955"/>
 <node id="10660666729" visible="true" version="1" changeset="132567542" timestamp="2023-02-15T07:17:45Z" user="AYAGE" uid="521665" lat="34.1296273" lon="132.2012658"/>
 <node id="10660666730" visible="true" version="1" changeset="132567542" timestamp="2023-02-15T07:17:45Z" user="AYAGE" uid="521665" lat="34.1293376" lon="132.2009540"/>
 <node id="10660666732" visible="true" version="2" changeset="132590670" timestamp="2023-02-15T16:36:42Z" user="AYAGE" uid="521665" lat="34.1293237" lon="132.2009231"/>
 <node id="10660666733" visible="true" version="1" changeset="132567542" timestamp="2023-02-15T07:17:45Z" user="AYAGE" uid="521665" lat="34.1294336" lon="132.1997785"/>
 <node id="10660666734" visible="true" version="2" changeset="132590670" timestamp="2023-02-15T16:36:42Z" user="AYAGE" uid="521665" lat="34.1294580" lon="132.1994157"/>
 <node id="10660666735" visible="true" version="1" changeset="132567542" timestamp="2023-02-15T07:17:45Z" user="AYAGE" uid="521665" lat="34.1297583" lon="132.2014274"/>
 <node id="10660666736" visible="true" version="1" changeset="132567542" timestamp="2023-02-15T07:17:45Z" user="AYAGE" uid="521665" lat="34.1295007" lon="132.2014783"/>
 <node id="10660666739" visible="true" version="1" changeset="132567542" timestamp="2023-02-15T07:17:45Z" user="AYAGE" uid="521665" lat="34.1290578" lon="132.2012765"/>
 <node id="10660666740" visible="true" version="1" changeset="132567542" timestamp="2023-02-15T07:17:45Z" user="AYAGE" uid="521665" lat="34.1291239" lon="132.2012182"/>
 <node id="10660666741" visible="true" version="1" changeset="132567542" timestamp="2023-02-15T07:17:45Z" user="AYAGE" uid="521665" lat="34.1291744" lon="132.2011223"/>
 <node id="10660666742" visible="true" version="1" changeset="132567542" timestamp="2023-02-15T07:17:45Z" user="AYAGE" uid="521665" lat="34.1292071" lon="132.2009761"/>
 <node id="10660666743" visible="true" version="1" changeset="132567542" timestamp="2023-02-15T07:17:45Z" user="AYAGE" uid="521665" lat="34.1292543" lon="132.2007072"/>
 <node id="10660683046" visible="true" version="1" changeset="132567542" timestamp="2023-02-15T07:17:45Z" user="AYAGE" uid="521665" lat="34.1276585" lon="132.1991502"/>
 <node id="10665108566" visible="true" version="1" changeset="132590670" timestamp="2023-02-15T16:36:42Z" user="AYAGE" uid="521665" lat="34.1285545" lon="132.1984908"/>
 <node id="10665108567" visible="true" version="1" changeset="132590670" timestamp="2023-02-15T16:36:42Z" user="AYAGE" uid="521665" lat="34.1285677" lon="132.1985245"/>
 <node id="10665108568" visible="true" version="1" changeset="132590670" timestamp="2023-02-15T16:36:42Z" user="AYAGE" uid="521665" lat="34.1288408" lon="132.1995418"/>
 <node id="10665108569" visible="true" version="1" changeset="132590670" timestamp="2023-02-15T16:36:42Z" user="AYAGE" uid="521665" lat="34.1288433" lon="132.1995839"/>
 <node id="10665112213" visible="true" version="1" changeset="132590670" timestamp="2023-02-15T16:36:42Z" user="AYAGE" uid="521665" lat="34.1296301" lon="132.1982329"/>
 <node id="10665112214" visible="true" version="1" changeset="132590670" timestamp="2023-02-15T16:36:42Z" user="AYAGE" uid="521665" lat="34.1296284" lon="132.1983026"/>
 <node id="10665112215" visible="true" version="1" changeset="132590670" timestamp="2023-02-15T16:36:42Z" user="AYAGE" uid="521665" lat="34.1294697" lon="132.1996980"/>
 <node id="10665112216" visible="true" version="1" changeset="132590670" timestamp="2023-02-15T16:36:42Z" user="AYAGE" uid="521665" lat="34.1294791" lon="132.1995378"/>
 <node id="10665112217" visible="true" version="1" changeset="132590670" timestamp="2023-02-15T16:36:42Z" user="AYAGE" uid="521665" lat="34.1294930" lon="132.1993875"/>
 <node id="10665112218" visible="true" version="1" changeset="132590670" timestamp="2023-02-15T16:36:42Z" user="AYAGE" uid="521665" lat="34.1295363" lon="132.1991327"/>
 <node id="10665112219" visible="true" version="1" changeset="132590670" timestamp="2023-02-15T16:36:42Z" user="AYAGE" uid="521665" lat="34.1295751" lon="132.1988256"/>
 <node id="10665112220" visible="true" version="1" changeset="132590670" timestamp="2023-02-15T16:36:42Z" user="AYAGE" uid="521665" lat="34.1296190" lon="132.1983998"/>
 <node id="10665112221" visible="true" version="1" changeset="132590670" timestamp="2023-02-15T16:36:42Z" user="AYAGE" uid="521665" lat="34.1296051" lon="132.1983562"/>
 <node id="10665112222" visible="true" version="1" changeset="132590670" timestamp="2023-02-15T16:36:42Z" user="AYAGE" uid="521665" lat="34.1295884" lon="132.1983388"/>
 <node id="10665112223" visible="true" version="1" changeset="132590670" timestamp="2023-02-15T16:36:42Z" user="AYAGE" uid="521665" lat="34.1295474" lon="132.1983341"/>
 <node id="10665112224" visible="true" version="1" changeset="132590670" timestamp="2023-02-15T16:36:42Z" user="AYAGE" uid="521665" lat="34.1298393" lon="132.1991106"/>
 <node id="10665112225" visible="true" version="1" changeset="132590670" timestamp="2023-02-15T16:36:42Z" user="AYAGE" uid="521665" lat="34.1298282" lon="132.1983415"/>
 <node id="10665112226" visible="true" version="1" changeset="132590670" timestamp="2023-02-15T16:36:42Z" user="AYAGE" uid="521665" lat="34.1298082" lon="132.1980827"/>
 <node id="10665112227" visible="true" version="1" changeset="132590670" timestamp="2023-02-15T16:36:42Z" user="AYAGE" uid="521665" lat="34.1297466" lon="132.1980558"/>
 <node id="10665112228" visible="true" version="1" changeset="132590670" timestamp="2023-02-15T16:36:42Z" user="AYAGE" uid="521665" lat="34.1297255" lon="132.1981081"/>
 <node id="10665112229" visible="true" version="1" changeset="132590670" timestamp="2023-02-15T16:36:42Z" user="AYAGE" uid="521665" lat="34.1297000" lon="132.1981430"/>
 <node id="10665112230" visible="true" version="1" changeset="132590670" timestamp="2023-02-15T16:36:42Z" user="AYAGE" uid="521665" lat="34.1296340" lon="132.1982013"/>
 <node id="10665112231" visible="true" version="1" changeset="132590670" timestamp="2023-02-15T16:36:42Z" user="AYAGE" uid="521665" lat="34.1295743" lon="132.1982543"/>
 <node id="10665112232" visible="true" version="1" changeset="132590670" timestamp="2023-02-15T16:36:42Z" user="AYAGE" uid="521665" lat="34.1295327" lon="132.1983150"/>
 <node id="10665112233" visible="true" version="1" changeset="132590670" timestamp="2023-02-15T16:36:42Z" user="AYAGE" uid="521665" lat="34.1295296" lon="132.1982409"/>
 <node id="10665112234" visible="true" version="1" changeset="132590670" timestamp="2023-02-15T16:36:42Z" user="AYAGE" uid="521665" lat="34.1295154" lon="132.1983572"/>
 <node id="10665112235" visible="true" version="1" changeset="132590670" timestamp="2023-02-15T16:36:42Z" user="AYAGE" uid="521665" lat="34.1295080" lon="132.1984112"/>
 <node id="10665112236" visible="true" version="1" changeset="132590670" timestamp="2023-02-15T16:36:42Z" user="AYAGE" uid="521665" lat="34.1293692" lon="132.1993534"/>
 <node id="10665112237" visible="true" version="1" changeset="132590670" timestamp="2023-02-15T16:36:42Z" user="AYAGE" uid="521665" lat="34.1294752" lon="132.1988310"/>
 <node id="10665112238" visible="true" version="1" changeset="132590670" timestamp="2023-02-15T16:36:42Z" user="AYAGE" uid="521665" lat="34.1294930" lon="132.1986962"/>
 <node id="10665112239" visible="true" version="1" changeset="132590670" timestamp="2023-02-15T16:36:42Z" user="AYAGE" uid="521665" lat="34.1295490" lon="132.1982862"/>
 <node id="10665112355" visible="true" version="1" changeset="132590670" timestamp="2023-02-15T16:36:42Z" user="AYAGE" uid="521665" lat="34.1295918" lon="132.1981604"/>
 <node id="10665112356" visible="true" version="1" changeset="132590670" timestamp="2023-02-15T16:36:42Z" user="AYAGE" uid="521665" lat="34.1296001" lon="132.1983884"/>
 <node id="10665112357" visible="true" version="1" changeset="132590670" timestamp="2023-02-15T16:36:42Z" user="AYAGE" uid="521665" lat="34.1295357" lon="132.1983757"/>
 <node id="10665112358" visible="true" version="1" changeset="132590670" timestamp="2023-02-15T16:36:42Z" user="AYAGE" uid="521665" lat="34.1295374" lon="132.1984883"/>
 <node id="10665112359" visible="true" version="1" changeset="132590670" timestamp="2023-02-15T16:36:42Z" user="AYAGE" uid="521665" lat="34.1295451" lon="132.1988746"/>
 <node id="10665112360" visible="true" version="1" changeset="132590670" timestamp="2023-02-15T16:36:42Z" user="AYAGE" uid="521665" lat="34.1293908" lon="132.1994211"/>
 <node id="10665112361" visible="true" version="1" changeset="132590670" timestamp="2023-02-15T16:36:42Z" user="AYAGE" uid="521665" lat="34.1294319" lon="132.1991234"/>
 <node id="10665112362" visible="true" version="1" changeset="132590670" timestamp="2023-02-15T16:36:42Z" user="AYAGE" uid="521665" lat="34.1295163" lon="132.1986902"/>
 <node id="10665112364" visible="true" version="1" changeset="132590670" timestamp="2023-02-15T16:36:42Z" user="AYAGE" uid="521665" lat="34.1292843" lon="132.1981068"/>
 <node id="10665112365" visible="true" version="1" changeset="132590670" timestamp="2023-02-15T16:36:42Z" user="AYAGE" uid="521665" lat="34.1288846" lon="132.1982798"/>
 <node id="10665112366" visible="true" version="1" changeset="132590670" timestamp="2023-02-15T16:36:42Z" user="AYAGE" uid="521665" lat="34.1282957" lon="132.1978594"/>
 <node id="10665112367" visible="true" version="1" changeset="132590670" timestamp="2023-02-15T16:36:42Z" user="AYAGE" uid="521665" lat="34.1284672" lon="132.1984836"/>
 <node id="10665112368" visible="true" version="1" changeset="132590670" timestamp="2023-02-15T16:36:42Z" user="AYAGE" uid="521665" lat="34.1282763" lon="132.1978245"/>
 <node id="10670107532" visible="true" version="1" changeset="132633879" timestamp="2023-02-16T15:06:21Z" user="AYAGE" uid="521665" lat="34.1281169" lon="132.1988051"/>
 <node id="10670107533" visible="true" version="1" changeset="132633879" timestamp="2023-02-16T15:06:21Z" user="AYAGE" uid="521665" lat="34.1279243" lon="132.1981095"/>
 <node id="10670107534" visible="true" version="1" changeset="132633879" timestamp="2023-02-16T15:06:21Z" user="AYAGE" uid="521665" lat="34.1279054" lon="132.1980738"/>
 <node id="10670107665" visible="true" version="1" changeset="132633879" timestamp="2023-02-16T15:06:21Z" user="AYAGE" uid="521665" lat="34.1344806" lon="132.1991676"/>
 <node id="10672354324" visible="true" version="1" changeset="132660656" timestamp="2023-02-17T07:03:40Z" user="AYAGE" uid="521665" lat="34.1301296" lon="132.2013811"/>
 <node id="10672354347" visible="true" version="1" changeset="132660656" timestamp="2023-02-17T07:03:40Z" user="AYAGE" uid="521665" lat="34.1320834" lon="132.1990080"/>
 <node id="10672354348" visible="true" version="1" changeset="132660656" timestamp="2023-02-17T07:03:40Z" user="AYAGE" uid="521665" lat="34.1320629" lon="132.1990536"/>
 <node id="10672354349" visible="true" version="1" changeset="132660656" timestamp="2023-02-17T07:03:40Z" user="AYAGE" uid="521665" lat="34.1320601" lon="132.1991026"/>
 <node id="10672354350" visible="true" version="2" changeset="132683671" timestamp="2023-02-17T15:52:51Z" user="AYAGE" uid="521665" lat="34.1320945" lon="132.1992561"/>
 <node id="10672354351" visible="true" version="1" changeset="132660656" timestamp="2023-02-17T07:03:40Z" user="AYAGE" uid="521665" lat="34.1320873" lon="132.1993225"/>
 <node id="10672354352" visible="true" version="1" changeset="132660656" timestamp="2023-02-17T07:03:40Z" user="AYAGE" uid="521665" lat="34.1320390" lon="132.1994177"/>
 <node id="10672354353" visible="true" version="1" changeset="132660656" timestamp="2023-02-17T07:03:40Z" user="AYAGE" uid="521665" lat="34.1320118" lon="132.1994466"/>
 <node id="10672354354" visible="true" version="1" changeset="132660656" timestamp="2023-02-17T07:03:40Z" user="AYAGE" uid="521665" lat="34.1311604" lon="132.1997322"/>
 <node id="10672354355" visible="true" version="1" changeset="132660656" timestamp="2023-02-17T07:03:40Z" user="AYAGE" uid="521665" lat="34.1310649" lon="132.1997899"/>
 <node id="10672354356" visible="true" version="1" changeset="132660656" timestamp="2023-02-17T07:03:40Z" user="AYAGE" uid="521665" lat="34.1309539" lon="132.1999253"/>
 <node id="10672354357" visible="true" version="1" changeset="132660656" timestamp="2023-02-17T07:03:40Z" user="AYAGE" uid="521665" lat="34.1297205" lon="132.2000085"/>
 <node id="10672354358" visible="true" version="1" changeset="132660656" timestamp="2023-02-17T07:03:40Z" user="AYAGE" uid="521665" lat="34.1295923" lon="132.2009815"/>
 <node id="10672354359" visible="true" version="1" changeset="132660656" timestamp="2023-02-17T07:03:40Z" user="AYAGE" uid="521665" lat="34.1296079" lon="132.2008158"/>
 <node id="10672354360" visible="true" version="1" changeset="132660656" timestamp="2023-02-17T07:03:40Z" user="AYAGE" uid="521665" lat="34.1274029" lon="132.2007160"/>
 <node id="10672354361" visible="true" version="1" changeset="132660656" timestamp="2023-02-17T07:03:40Z" user="AYAGE" uid="521665" lat="34.1279042" lon="132.2011414"/>
 <node id="10672354362" visible="true" version="1" changeset="132660656" timestamp="2023-02-17T07:03:40Z" user="AYAGE" uid="521665" lat="34.1273580" lon="132.2012055"/>
 <node id="10672354363" visible="true" version="1" changeset="132660656" timestamp="2023-02-17T07:03:40Z" user="AYAGE" uid="521665" lat="34.1273404" lon="132.2007193"/>
 <node id="10672354364" visible="true" version="1" changeset="132660656" timestamp="2023-02-17T07:03:40Z" user="AYAGE" uid="521665" lat="34.1279055" lon="132.2011766"/>
 <node id="10672354365" visible="true" version="1" changeset="132660656" timestamp="2023-02-17T07:03:40Z" user="AYAGE" uid="521665" lat="34.1280798" lon="132.2011321"/>
 <node id="10672354366" visible="true" version="1" changeset="132660656" timestamp="2023-02-17T07:03:40Z" user="AYAGE" uid="521665" lat="34.1274015" lon="132.2006750"/>
 <node id="10672354367" visible="true" version="1" changeset="132660656" timestamp="2023-02-17T07:03:40Z" user="AYAGE" uid="521665" lat="34.1280620" lon="132.2006401"/>
 <node id="10672354368" visible="true" version="1" changeset="132660656" timestamp="2023-02-17T07:03:40Z" user="AYAGE" uid="521665" lat="34.1284136" lon="132.2004869"/>
 <node id="10672354369" visible="true" version="1" changeset="132660656" timestamp="2023-02-17T07:03:40Z" user="AYAGE" uid="521665" lat="34.1285820" lon="132.2004750"/>
 <node id="10672354370" visible="true" version="1" changeset="132660656" timestamp="2023-02-17T07:03:40Z" user="AYAGE" uid="521665" lat="34.1284392" lon="132.2010140"/>
 <node id="10672354371" visible="true" version="1" changeset="132660656" timestamp="2023-02-17T07:03:40Z" user="AYAGE" uid="521665" lat="34.1286075" lon="132.2010021"/>
 <node id="10672354372" visible="true" version="1" changeset="132660656" timestamp="2023-02-17T07:03:40Z" user="AYAGE" uid="521665" lat="34.1281836" lon="132.2005032"/>
 <node id="10672354373" visible="true" version="1" changeset="132660656" timestamp="2023-02-17T07:03:40Z" user="AYAGE" uid="521665" lat="34.1282092" lon="132.2010302"/>
 <node id="10672354374" visible="true" version="1" changeset="132660656" timestamp="2023-02-17T07:03:40Z" user="AYAGE" uid="521665" lat="34.1283775" lon="132.2010183"/>
 <node id="10672354375" visible="true" version="1" changeset="132660656" timestamp="2023-02-17T07:03:40Z" user="AYAGE" uid="521665" lat="34.1283520" lon="132.2004912"/>
 <node id="10672354376" visible="true" version="1" changeset="132660656" timestamp="2023-02-17T07:03:40Z" user="AYAGE" uid="521665" lat="34.1283563" lon="132.2005805"/>
 <node id="10672354377" visible="true" version="1" changeset="132660656" timestamp="2023-02-17T07:03:40Z" user="AYAGE" uid="521665" lat="34.1283739" lon="132.2009430"/>
 <node id="10672354378" visible="true" version="1" changeset="132660656" timestamp="2023-02-17T07:03:40Z" user="AYAGE" uid="521665" lat="34.1284180" lon="132.2005761"/>
 <node id="10672354379" visible="true" version="1" changeset="132660656" timestamp="2023-02-17T07:03:40Z" user="AYAGE" uid="521665" lat="34.1284355" lon="132.2009386"/>
 <node id="10672354380" visible="true" version="1" changeset="132660656" timestamp="2023-02-17T07:03:40Z" user="AYAGE" uid="521665" lat="34.1281812" lon="132.2004529"/>
 <node id="10672354381" visible="true" version="1" changeset="132660656" timestamp="2023-02-17T07:03:40Z" user="AYAGE" uid="521665" lat="34.1282119" lon="132.2010861"/>
 <node id="10672354382" visible="true" version="1" changeset="132660656" timestamp="2023-02-17T07:03:40Z" user="AYAGE" uid="521665" lat="34.1283802" lon="132.2010742"/>
 <node id="10672354383" visible="true" version="1" changeset="132660656" timestamp="2023-02-17T07:03:40Z" user="AYAGE" uid="521665" lat="34.1283495" lon="132.2004410"/>
 <node id="10672354384" visible="true" version="1" changeset="132660656" timestamp="2023-02-17T07:03:40Z" user="AYAGE" uid="521665" lat="34.1284110" lon="132.2004321"/>
 <node id="10672354385" visible="true" version="1" changeset="132660656" timestamp="2023-02-17T07:03:40Z" user="AYAGE" uid="521665" lat="34.1284417" lon="132.2010653"/>
 <node id="10672354386" visible="true" version="1" changeset="132660656" timestamp="2023-02-17T07:03:40Z" user="AYAGE" uid="521665" lat="34.1286100" lon="132.2010534"/>
 <node id="10672354387" visible="true" version="1" changeset="132660656" timestamp="2023-02-17T07:03:40Z" user="AYAGE" uid="521665" lat="34.1285793" lon="132.2004202"/>
 <node id="10672354388" visible="true" version="1" changeset="132660656" timestamp="2023-02-17T07:03:40Z" user="AYAGE" uid="521665" lat="34.1281242" lon="132.2005074"/>
 <node id="10672354389" visible="true" version="1" changeset="132660656" timestamp="2023-02-17T07:03:40Z" user="AYAGE" uid="521665" lat="34.1281497" lon="132.2010344"/>
 <node id="10672354390" visible="true" version="1" changeset="132660656" timestamp="2023-02-17T07:03:40Z" user="AYAGE" uid="521665" lat="34.1286426" lon="132.2009996"/>
 <node id="10672354391" visible="true" version="1" changeset="132660656" timestamp="2023-02-17T07:03:40Z" user="AYAGE" uid="521665" lat="34.1286171" lon="132.2004725"/>
 <node id="10672354392" visible="true" version="1" changeset="132660656" timestamp="2023-02-17T07:03:40Z" user="AYAGE" uid="521665" lat="34.1286297" lon="132.2003263"/>
 <node id="10672354393" visible="true" version="1" changeset="132660656" timestamp="2023-02-17T07:03:40Z" user="AYAGE" uid="521665" lat="34.1286894" lon="132.2010459"/>
 <node id="10672354394" visible="true" version="1" changeset="132660656" timestamp="2023-02-17T07:03:40Z" user="AYAGE" uid="521665" lat="34.1289780" lon="132.2010109"/>
 <node id="10672354395" visible="true" version="1" changeset="132660656" timestamp="2023-02-17T07:03:40Z" user="AYAGE" uid="521665" lat="34.1289183" lon="132.2002914"/>
 <node id="10672354396" visible="true" version="1" changeset="132660656" timestamp="2023-02-17T07:03:40Z" user="AYAGE" uid="521665" lat="34.1289036" lon="132.1998602"/>
 <node id="10672354397" visible="true" version="1" changeset="132660656" timestamp="2023-02-17T07:03:40Z" user="AYAGE" uid="521665" lat="34.1287782" lon="132.1998746"/>
 <node id="10672354398" visible="true" version="1" changeset="132660656" timestamp="2023-02-17T07:03:40Z" user="AYAGE" uid="521665" lat="34.1287376" lon="132.1999038"/>
 <node id="10672354399" visible="true" version="1" changeset="132660656" timestamp="2023-02-17T07:03:40Z" user="AYAGE" uid="521665" lat="34.1289471" lon="132.2002335"/>
 <node id="10672354400" visible="true" version="1" changeset="132660656" timestamp="2023-02-17T07:03:40Z" user="AYAGE" uid="521665" lat="34.1287884" lon="132.2002518"/>
 <node id="10672354401" visible="true" version="1" changeset="132660656" timestamp="2023-02-17T07:03:40Z" user="AYAGE" uid="521665" lat="34.1287766" lon="132.1998537"/>
 <node id="10672354402" visible="true" version="1" changeset="132660656" timestamp="2023-02-17T07:03:40Z" user="AYAGE" uid="521665" lat="34.1289019" lon="132.1998393"/>
 <node id="10672354403" visible="true" version="1" changeset="132660656" timestamp="2023-02-17T07:03:40Z" user="AYAGE" uid="521665" lat="34.1289486" lon="132.2002529"/>
 <node id="10672354404" visible="true" version="1" changeset="132660656" timestamp="2023-02-17T07:03:40Z" user="AYAGE" uid="521665" lat="34.1287899" lon="132.2002711"/>
 <node id="10672354405" visible="true" version="1" changeset="132660656" timestamp="2023-02-17T07:03:40Z" user="AYAGE" uid="521665" lat="34.1289392" lon="132.1998561"/>
 <node id="10672354406" visible="true" version="1" changeset="132660656" timestamp="2023-02-17T07:03:40Z" user="AYAGE" uid="521665" lat="34.1287357" lon="132.1998795"/>
 <node id="10672354407" visible="true" version="1" changeset="132660656" timestamp="2023-02-17T07:03:40Z" user="AYAGE" uid="521665" lat="34.1289687" lon="132.2002310"/>
 <node id="10672354408" visible="true" version="1" changeset="132660656" timestamp="2023-02-17T07:03:40Z" user="AYAGE" uid="521665" lat="34.1286959" lon="132.2002624"/>
 <node id="10672354409" visible="true" version="1" changeset="132660656" timestamp="2023-02-17T07:03:40Z" user="AYAGE" uid="521665" lat="34.1286683" lon="132.1999118"/>
 <node id="10672354410" visible="true" version="1" changeset="132660656" timestamp="2023-02-17T07:03:40Z" user="AYAGE" uid="521665" lat="34.1281753" lon="132.1998625"/>
 <node id="10672354411" visible="true" version="1" changeset="132660656" timestamp="2023-02-17T07:03:40Z" user="AYAGE" uid="521665" lat="34.1282588" lon="132.1998566"/>
 <node id="10672354412" visible="true" version="1" changeset="132660656" timestamp="2023-02-17T07:03:40Z" user="AYAGE" uid="521665" lat="34.1281722" lon="132.1997991"/>
 <node id="10672354413" visible="true" version="1" changeset="132660656" timestamp="2023-02-17T07:03:40Z" user="AYAGE" uid="521665" lat="34.1282557" lon="132.1997932"/>
 <node id="10672354414" visible="true" version="1" changeset="132660656" timestamp="2023-02-17T07:03:40Z" user="AYAGE" uid="521665" lat="34.1281011" lon="132.1998677"/>
 <node id="10672354415" visible="true" version="1" changeset="132660656" timestamp="2023-02-17T07:03:40Z" user="AYAGE" uid="521665" lat="34.1281278" lon="132.2004176"/>
 <node id="10672354416" visible="true" version="1" changeset="132660656" timestamp="2023-02-17T07:03:40Z" user="AYAGE" uid="521665" lat="34.1283562" lon="132.2004014"/>
 <node id="10672354417" visible="true" version="1" changeset="132660656" timestamp="2023-02-17T07:03:40Z" user="AYAGE" uid="521665" lat="34.1283295" lon="132.1998516"/>
 <node id="10672354430" visible="true" version="1" changeset="132660656" timestamp="2023-02-17T07:03:40Z" user="AYAGE" uid="521665" lat="34.1275574" lon="132.1994667"/>
 <node id="10672354431" visible="true" version="1" changeset="132660656" timestamp="2023-02-17T07:03:40Z" user="AYAGE" uid="521665" lat="34.1275436" lon="132.1996772"/>
 <node id="10672354432" visible="true" version="1" changeset="132660656" timestamp="2023-02-17T07:03:40Z" user="AYAGE" uid="521665" lat="34.1275530" lon="132.1997336"/>
 <node id="10672354433" visible="true" version="1" changeset="132660656" timestamp="2023-02-17T07:03:40Z" user="AYAGE" uid="521665" lat="34.1275741" lon="132.1997657"/>
 <node id="10672354434" visible="true" version="1" changeset="132660656" timestamp="2023-02-17T07:03:40Z" user="AYAGE" uid="521665" lat="34.1276141" lon="132.1997738"/>
 <node id="10672354435" visible="true" version="1" changeset="132660656" timestamp="2023-02-17T07:03:40Z" user="AYAGE" uid="521665" lat="34.1281963" lon="132.1997349"/>
 <node id="10672354436" visible="true" version="1" changeset="132660656" timestamp="2023-02-17T07:03:40Z" user="AYAGE" uid="521665" lat="34.1282274" lon="132.1997108"/>
 <node id="10672354437" visible="true" version="1" changeset="132660656" timestamp="2023-02-17T07:03:40Z" user="AYAGE" uid="521665" lat="34.1282374" lon="132.1996866"/>
 <node id="10672354438" visible="true" version="1" changeset="132660656" timestamp="2023-02-17T07:03:40Z" user="AYAGE" uid="521665" lat="34.1282622" lon="132.1994775"/>
 <node id="10673919409" visible="true" version="1" changeset="132683671" timestamp="2023-02-17T15:52:51Z" user="AYAGE" uid="521665" lat="34.1337169" lon="132.1966115"/>
 <node id="10673919410" visible="true" version="1" changeset="132683671" timestamp="2023-02-17T15:52:51Z" user="AYAGE" uid="521665" lat="34.1336858" lon="132.1966557"/>
 <node id="10673919411" visible="true" version="1" changeset="132683671" timestamp="2023-02-17T15:52:51Z" user="AYAGE" uid="521665" lat="34.1335382" lon="132.1968455"/>
 <node id="10673919412" visible="true" version="1" changeset="132683671" timestamp="2023-02-17T15:52:51Z" user="AYAGE" uid="521665" lat="34.1333117" lon="132.1971600"/>
 <node id="10673919413" visible="true" version="1" changeset="132683671" timestamp="2023-02-17T15:52:51Z" user="AYAGE" uid="521665" lat="34.1332451" lon="132.1972773"/>
 <node id="10673919414" visible="true" version="1" changeset="132683671" timestamp="2023-02-17T15:52:51Z" user="AYAGE" uid="521665" lat="34.1332090" lon="132.1973632"/>
 <node id="10673919415" visible="true" version="1" changeset="132683671" timestamp="2023-02-17T15:52:51Z" user="AYAGE" uid="521665" lat="34.1331003" lon="132.1977118"/>
 <node id="10673919416" visible="true" version="1" changeset="132683671" timestamp="2023-02-17T15:52:51Z" user="AYAGE" uid="521665" lat="34.1329942" lon="132.1981162"/>
 <node id="10673919417" visible="true" version="1" changeset="132683671" timestamp="2023-02-17T15:52:51Z" user="AYAGE" uid="521665" lat="34.1329632" lon="132.1982208"/>
 <node id="10673919418" visible="true" version="1" changeset="132683671" timestamp="2023-02-17T15:52:51Z" user="AYAGE" uid="521665" lat="34.1327911" lon="132.1987090"/>
 <node id="10673919419" visible="true" version="1" changeset="132683671" timestamp="2023-02-17T15:52:51Z" user="AYAGE" uid="521665" lat="34.1327633" lon="132.1988256"/>
 <node id="10673919420" visible="true" version="1" changeset="132683671" timestamp="2023-02-17T15:52:51Z" user="AYAGE" uid="521665" lat="34.1327400" lon="132.1989825"/>
 <node id="10673919421" visible="true" version="1" changeset="132683671" timestamp="2023-02-17T15:52:51Z" user="AYAGE" uid="521665" lat="34.1298094" lon="132.2005563"/>
 <node id="10673919422" visible="true" version="1" changeset="132683671" timestamp="2023-02-17T15:52:51Z" user="AYAGE" uid="521665" lat="34.1295314" lon="132.2010796"/>
 <node id="10673919423" visible="true" version="1" changeset="132683671" timestamp="2023-02-17T15:52:51Z" user="AYAGE" uid="521665" lat="34.1296406" lon="132.2010847"/>
 <node id="10673919424" visible="true" version="1" changeset="132683671" timestamp="2023-02-17T15:52:51Z" user="AYAGE" uid="521665" lat="34.1296589" lon="132.2010794"/>
 <node id="10673919425" visible="true" version="1" changeset="132683671" timestamp="2023-02-17T15:52:51Z" user="AYAGE" uid="521665" lat="34.1298876" lon="132.2010291"/>
 <node id="10673919426" visible="true" version="1" changeset="132683671" timestamp="2023-02-17T15:52:51Z" user="AYAGE" uid="521665" lat="34.1298804" lon="132.2009875"/>
 <node id="10673919427" visible="true" version="1" changeset="132683671" timestamp="2023-02-17T15:52:51Z" user="AYAGE" uid="521665" lat="34.1299459" lon="132.2010103"/>
 <node id="10673919428" visible="true" version="1" changeset="132683671" timestamp="2023-02-17T15:52:51Z" user="AYAGE" uid="521665" lat="34.1309028" lon="132.2007541"/>
 <node id="10673919429" visible="true" version="1" changeset="132683671" timestamp="2023-02-17T15:52:51Z" user="AYAGE" uid="521665" lat="34.1310538" lon="132.2007059"/>
 <node id="10673919430" visible="true" version="1" changeset="132683671" timestamp="2023-02-17T15:52:51Z" user="AYAGE" uid="521665" lat="34.1322771" lon="132.2003826"/>
 <node id="10673919431" visible="true" version="1" changeset="132683671" timestamp="2023-02-17T15:52:51Z" user="AYAGE" uid="521665" lat="34.1324003" lon="132.2003598"/>
 <node id="10673919432" visible="true" version="1" changeset="132683671" timestamp="2023-02-17T15:52:51Z" user="AYAGE" uid="521665" lat="34.1325535" lon="132.2003143"/>
 <node id="10673919433" visible="true" version="1" changeset="132683671" timestamp="2023-02-17T15:52:51Z" user="AYAGE" uid="521665" lat="34.1325868" lon="132.2002619"/>
 <node id="10673919434" visible="true" version="1" changeset="132683671" timestamp="2023-02-17T15:52:51Z" user="AYAGE" uid="521665" lat="34.1326179" lon="132.2000849"/>
 <node id="10673919435" visible="true" version="1" changeset="132683671" timestamp="2023-02-17T15:52:51Z" user="AYAGE" uid="521665" lat="34.1326390" lon="132.1998033"/>
 <node id="10673919449" visible="true" version="1" changeset="132683671" timestamp="2023-02-17T15:52:51Z" user="AYAGE" uid="521665" lat="34.1320959" lon="132.1992883"/>
 <node id="10673919452" visible="true" version="1" changeset="132683671" timestamp="2023-02-17T15:52:51Z" user="AYAGE" uid="521665" lat="34.1307851" lon="132.1984448"/>
 <node id="10673919453" visible="true" version="1" changeset="132683671" timestamp="2023-02-17T15:52:51Z" user="AYAGE" uid="521665" lat="34.1304099" lon="132.1992387"/>
 <node id="13926489518" visible="true" version="1" changeset="183929449" timestamp="2026-06-10T15:14:53Z" user="Byenin" uid="20432726" lat="34.1308708" lon="132.2000422"/>
 <way id="60298813" visible="true" version="3" changeset="132633879" timestamp="2023-02-16T15:06:21Z" user="AYAGE" uid="521665">
  <nd ref="748923058"/>
  <nd ref="749455346"/>
  <nd ref="10670107665"/>
  <nd ref="749886431"/>
  <nd ref="749233437"/>
  <nd ref="749701110"/>
  <nd ref="749019840"/>
  <nd ref="749093183"/>
  <nd ref="749551664"/>
  <nd ref="748917882"/>
  <nd ref="749297017"/>
  <nd ref="749774338"/>
  <nd ref="749074957"/>
  <tag k="name" v="平田川"/>
  <tag k="name:ja" v="平田川"/>
  <tag k="note" v="National-Land Numerical Information (River) 2006, MLIT Japan"/>
  <tag k="note:ja" v="国土数値情報(河川データ)平成18年国土交通省"/>
  <tag k="source" v="KSJ2"/>
  <tag k="source_ref" v="http://nlftp.mlit.go.jp/ksj/jpgis/datalist/KsjTmplt-W05.html"/>
  <tag k="waterway" v="river"/>
 </way>
 <way id="119017877" visible="true" version="2" changeset="132683671" timestamp="2023-02-17T15:52:51Z" user="AYAGE" uid="521665">
  <nd ref="1337993995"/>
  <nd ref="1337995691"/>
  <nd ref="1337993567"/>
  <tag k="highway" v="residential"/>
 </way>
 <way id="119018055" visible="true" version="2" changeset="132683671" timestamp="2023-02-17T15:52:51Z" user="AYAGE" uid="521665">
  <nd ref="1337995117"/>
  <nd ref="10673919453"/>
  <nd ref="1337995138"/>
  <nd ref="1337993567"/>
  <nd ref="1337994618"/>
  <nd ref="1337996758"/>
  <nd ref="1337994849"/>
  <nd ref="1337993035"/>
  <nd ref="1337994114"/>
  <nd ref="1337993553"/>
  <nd ref="1337993183"/>
  <tag k="highway" v="residential"/>
 </way>
 <way id="119018252" visible="true" version="3" changeset="132590670" timestamp="2023-02-15T16:36:42Z" user="AYAGE" uid="521665">
  <nd ref="1337994266"/>
  <nd ref="10665112226"/>
  <nd ref="10665112225"/>
  <nd ref="5892053463"/>
  <nd ref="10665112224"/>
  <nd ref="5892053470"/>
  <nd ref="1337993506"/>
  <tag k="highway" v="unclassified"/>
  <tag k="oneway" v="yes"/>
  <tag k="source" v="YahooJapan/ALPSMAP"/>
 </way>
 <way id="119018256" visible="true" version="4" changeset="183929449" timestamp="2026-06-10T15:14:53Z" user="Byenin" uid="20432726">
  <nd ref="1337993155"/>
  <nd ref="10672354347"/>
  <nd ref="10672354348"/>
  <nd ref="10672354349"/>
  <nd ref="10672354350"/>
  <nd ref="10673919449"/>
  <nd ref="10672354351"/>
  <nd ref="10672354352"/>
  <nd ref="10672354353"/>
  <nd ref="1337995666"/>
  <nd ref="1337995863"/>
  <nd ref="10672354354"/>
  <nd ref="10672354355"/>
  <nd ref="10672354356"/>
  <nd ref="13926489518"/>
  <nd ref="1337995399"/>
  <tag k="highway" v="tertiary"/>
  <tag k="source" v="YahooJapan/ALPSMAP"/>
 </way>
 <way id="119018325" visible="true" version="1" changeset="8539761" timestamp="2011-06-25T08:12:19Z" user="yamasan" uid="32308">
  <nd ref="1337993100"/>
  <nd ref="1337994154"/>
  <tag k="bridge" v="yes"/>
  <tag k="highway" v="unclassified"/>
  <tag k="source" v="YahooJapan/ALPSMAP"/>
  <tag k="yh:STRUCTURE" v="橋"/>
  <tag k="yh:TOTYUMONO" v="供用中"/>
  <tag k="yh:TYPE" v="その他一般道"/>
  <tag k="yh:WIDTH" v="3.0m〜5.5m"/>
  <tag k="yh:WIDTH_RANK" v="3"/>
 </way>
 <way id="119018421" visible="true" version="2" changeset="132660656" timestamp="2023-02-17T07:03:40Z" user="AYAGE" uid="521665">
  <nd ref="1337993228"/>
  <nd ref="1337995754"/>
  <nd ref="10672354324"/>
  <nd ref="1337994057"/>
  <nd ref="1337995030"/>
  <tag k="highway" v="unclassified"/>
  <tag k="source" v="YahooJapan/ALPSMAP"/>
 </way>
 <way id="119018470" visible="true" version="2" changeset="132683671" timestamp="2023-02-17T15:52:51Z" user="AYAGE" uid="521665">
  <nd ref="1337993553"/>
  <nd ref="10673919452"/>
  <nd ref="1337995691"/>
  <nd ref="1337995117"/>
  <tag k="highway" v="residential"/>
 </way>
 <way id="119018588" visible="true" version="3" changeset="132660656" timestamp="2023-02-17T07:03:40Z" user="AYAGE" uid="521665">
  <nd ref="1337993506"/>
  <nd ref="5892053469"/>
  <nd ref="10672354357"/>
  <nd ref="10672354359"/>
  <nd ref="10672354358"/>
  <nd ref="1337993100"/>
  <tag k="highway" v="unclassified"/>
  <tag k="source" v="YahooJapan/ALPSMAP"/>
 </way>
 <way id="119018652" visible="true" version="3" changeset="132590670" timestamp="2023-02-15T16:36:42Z" user="AYAGE" uid="521665">
  <nd ref="1337994159"/>
  <nd ref="10665112236"/>
  <nd ref="5892053461"/>
  <nd ref="5892053460"/>
  <nd ref="10665112237"/>
  <nd ref="10665112238"/>
  <nd ref="5892053462"/>
  <nd ref="10665112235"/>
  <nd ref="10665112234"/>
  <nd ref="10665112223"/>
  <nd ref="10665112222"/>
  <nd ref="10665112221"/>
  <nd ref="10665112220"/>
  <tag k="highway" v="unclassified"/>
  <tag k="oneway" v="yes"/>
 </way>
 <way id="283542476" visible="true" version="3" changeset="132590670" timestamp="2023-02-15T16:36:42Z" user="AYAGE" uid="521665">
  <nd ref="2873942101"/>
  <nd ref="749879169"/>
  <nd ref="749691993"/>
  <nd ref="749010631"/>
  <nd ref="749409954"/>
  <nd ref="749074957"/>
  <tag k="name" v="片山川"/>
  <tag k="name:ja" v="片山川"/>
  <tag k="note" v="National-Land Numerical Information (River) 2006, MLIT Japan"/>
  <tag k="note:ja" v="国土数値情報(河川データ)平成18年国土交通省"/>
  <tag k="source" v="KSJ2"/>
  <tag k="source_ref" v="http://nlftp.mlit.go.jp/ksj/jpgis/datalist/KsjTmplt-W05.html"/>
  <tag k="waterway" v="river"/>
 </way>
 <way id="283542654" visible="true" version="5" changeset="132683671" timestamp="2023-02-17T15:52:51Z" user="AYAGE" uid="521665">
  <nd ref="2873938108"/>
  <nd ref="2873941403"/>
  <nd ref="2873941702"/>
  <nd ref="10660666739"/>
  <nd ref="10660666740"/>
  <nd ref="10660666741"/>
  <nd ref="10660666742"/>
  <nd ref="10660666743"/>
  <nd ref="2873938605"/>
  <nd ref="10665112360"/>
  <nd ref="10665112361"/>
  <nd ref="2873938606"/>
  <nd ref="10665112362"/>
  <nd ref="10665112358"/>
  <nd ref="10665112357"/>
  <nd ref="2873942101"/>
  <nd ref="10665112356"/>
  <nd ref="10665112359"/>
  <nd ref="10660666734"/>
  <nd ref="10660666733"/>
  <nd ref="2873938109"/>
  <nd ref="10660666732"/>
  <nd ref="10660666730"/>
  <nd ref="2873941703"/>
  <nd ref="10673919422"/>
  <nd ref="2873942102"/>
  <nd ref="10660666729"/>
  <nd ref="2873938110"/>
  <nd ref="2873938111"/>
  <nd ref="2873942201"/>
  <nd ref="2873941602"/>
  <nd ref="2873941704"/>
  <nd ref="10660666735"/>
  <nd ref="10660666736"/>
  <nd ref="2873938702"/>
  <nd ref="2873938108"/>
  <tag k="natural" v="water"/>
  <tag k="source" v="Bing,2005-06"/>
  <tag k="water" v="river"/>
 </way>
 <way id="308677204" visible="true" version="3" changeset="132633879" timestamp="2023-02-16T15:06:21Z" user="AYAGE" uid="521665">
  <nd ref="1337995964"/>
  <nd ref="1337994353"/>
  <nd ref="10665112364"/>
  <nd ref="1337996073"/>
  <nd ref="10665112365"/>
  <nd ref="1337996889"/>
  <nd ref="10665108566"/>
  <nd ref="1337994183"/>
  <nd ref="10670107532"/>
  <nd ref="1337993249"/>
  <nd ref="10660683046"/>
  <nd ref="5892053458"/>
  <nd ref="1337994812"/>
  <tag k="highway" v="tertiary"/>
  <tag k="maxspeed" v="40"/>
  <tag k="name" v="岩国市道南岩国町160号線"/>
  <tag k="source" v="YahooJapan/ALPSMAP"/>
 </way>
 <way id="432578109" visible="true" version="8" changeset="187783173" timestamp="2026-08-21T09:00:50Z" user="taketaketake" uid="4757277">
  <nd ref="4315817582"/>
  <nd ref="1337993633"/>
  <nd ref="1337995399"/>
  <nd ref="366527458"/>
  <nd ref="5892053468"/>
  <nd ref="5892053467"/>
  <nd ref="366527459"/>
  <nd ref="5892053466"/>
  <nd ref="5892053471"/>
  <nd ref="1337993506"/>
  <nd ref="366527460"/>
  <nd ref="10665112215"/>
  <nd ref="6662832320"/>
  <tag k="highway" v="trunk"/>
  <tag k="lanes" v="2"/>
  <tag k="maxspeed" v="50"/>
  <tag k="name" v="国道188号"/>
  <tag k="name:en" v="National Highway Route 188"/>
  <tag k="name:ja" v="国道188号"/>
  <tag k="ref" v="188"/>
  <tag k="source" v="GSImaps/std"/>
  <tag k="surface" v="asphalt"/>
 </way>
 <way id="709045685" visible="true" version="6" changeset="187783173" timestamp="2026-08-21T09:00:50Z" user="taketaketake" uid="4757277">
  <nd ref="6662832319"/>
  <nd ref="1337994159"/>
  <nd ref="10665108569"/>
  <nd ref="10672354438"/>
  <nd ref="366527461"/>
  <nd ref="5892053459"/>
  <nd ref="1337994812"/>
  <tag k="highway" v="trunk"/>
  <tag k="lanes" v="2"/>
  <tag k="maxspeed" v="50"/>
  <tag k="name" v="国道188号"/>
  <tag k="name:en" v="National Highway Route 188"/>
  <tag k="name:ja" v="国道188号"/>
  <tag k="ref" v="188"/>
  <tag k="source" v="GSImaps/std"/>
  <tag k="surface" v="asphalt"/>
 </way>
 <way id="709045686" visible="true" version="4" changeset="187783173" timestamp="2026-08-21T09:00:50Z" user="taketaketake" uid="4757277">
  <nd ref="6662832320"/>
  <nd ref="6662832319"/>
  <tag k="bridge" v="yes"/>
  <tag k="highway" v="trunk"/>
  <tag k="lanes" v="2"/>
  <tag k="layer" v="1"/>
  <tag k="maxspeed" v="50"/>
  <tag k="name" v="国道188号"/>
  <tag k="name:en" v="National Highway Route 188"/>
  <tag k="name:ja" v="国道188号"/>
  <tag k="ref" v="188"/>
  <tag k="source" v="GSImaps/std"/>
  <tag k="surface" v="asphalt"/>
 </way>
 <way id="1146022683" visible="true" version="1" changeset="132590670" timestamp="2023-02-15T16:36:42Z" user="AYAGE" uid="521665">
  <nd ref="10665108569"/>
  <nd ref="10665108568"/>
  <nd ref="10665108567"/>
  <nd ref="10665108566"/>
  <tag k="highway" v="residential"/>
 </way>
 <way id="1146022690" visible="true" version="1" changeset="132590670" timestamp="2023-02-15T16:36:42Z" user="AYAGE" uid="521665">
  <nd ref="10665112355"/>
  <nd ref="2873942101"/>
  <tag k="layer" v="-1"/>
  <tag k="name" v="片山川"/>
  <tag k="name:ja" v="片山川"/>
  <tag k="note" v="National-Land Numerical Information (River) 2006, MLIT Japan"/>
  <tag k="note:ja" v="国土数値情報(河川データ)平成18年国土交通省"/>
  <tag k="source" v="KSJ2"/>
  <tag k="source_ref" v="http://nlftp.mlit.go.jp/ksj/jpgis/datalist/KsjTmplt-W05.html"/>
  <tag k="tunnel" v="culvert"/>
  <tag k="waterway" v="river"/>
 </way>
 <way id="1146022691" visible="true" version="2" changeset="153269809" timestamp="2024-06-27T23:45:30Z" user="taketaketake" uid="4757277">
  <nd ref="2873938003"/>
  <nd ref="10665112355"/>
  <tag k="name" v="片山川"/>
  <tag k="name:ja" v="片山川"/>
  <tag k="note" v="National-Land Numerical Information (River) 2006, MLIT Japan"/>
  <tag k="note:ja" v="国土数値情報(河川データ)平成18年国土交通省"/>
  <tag k="source" v="KSJ2"/>
  <tag k="source_ref" v="http://nlftp.mlit.go.jp/ksj/jpgis/datalist/KsjTmplt-W05.html"/>
  <tag k="waterway" v="river"/>
 </way>
 <way id="1146022692" visible="true" version="1" changeset="132590670" timestamp="2023-02-15T16:36:42Z" user="AYAGE" uid="521665">
  <nd ref="10665112230"/>
  <nd ref="10665112213"/>
  <nd ref="10665112214"/>
  <nd ref="10665112220"/>
  <nd ref="10665112219"/>
  <nd ref="10665112218"/>
  <nd ref="10665112217"/>
  <nd ref="10665112216"/>
  <nd ref="10665112215"/>
  <tag k="highway" v="unclassified"/>
  <tag k="oneway" v="yes"/>
 </way>
 <way id="1146022693" visible="true" version="1" changeset="132590670" timestamp="2023-02-15T16:36:42Z" user="AYAGE" uid="521665">
  <nd ref="10665112234"/>
  <nd ref="10665112232"/>
  <nd ref="10665112239"/>
  <nd ref="10665112231"/>
  <nd ref="10665112230"/>
  <tag k="highway" v="unclassified"/>
  <tag k="oneway" v="yes"/>
 </way>
 <way id="1146022694" visible="true" version="1" changeset="132590670" timestamp="2023-02-15T16:36:42Z" user="AYAGE" uid="521665">
  <nd ref="10665112230"/>
  <nd ref="10665112229"/>
  <nd ref="10665112228"/>
  <nd ref="10665112227"/>
  <nd ref="1337994266"/>
  <tag k="highway" v="unclassified"/>
 </way>
 <way id="1146022695" visible="true" version="1" changeset="132590670" timestamp="2023-02-15T16:36:42Z" user="AYAGE" uid="521665">
  <nd ref="1337994353"/>
  <nd ref="10665112233"/>
  <nd ref="10665112239"/>
  <tag k="highway" v="footway"/>
 </way>
 <way id="1146022715" visible="true" version="1" changeset="132590670" timestamp="2023-02-15T16:36:42Z" user="AYAGE" uid="521665">
  <nd ref="10665112368"/>
  <nd ref="10665112366"/>
  <nd ref="10665112367"/>
  <nd ref="1337994183"/>
  <tag k="highway" v="residential"/>
 </way>
 <way id="1146548886" visible="true" version="1" changeset="132633879" timestamp="2023-02-16T15:06:21Z" user="AYAGE" uid="521665">
  <nd ref="10670107534"/>
  <nd ref="10670107533"/>
  <nd ref="10670107532"/>
  <tag k="highway" v="path"/>
 </way>
 <way id="1146885741" visible="true" version="1" changeset="132660656" timestamp="2023-02-17T07:03:40Z" user="AYAGE" uid="521665">
  <nd ref="10672354360"/>
  <nd ref="10672354366"/>
  <nd ref="10672354367"/>
  <nd ref="10672354365"/>
  <nd ref="10672354361"/>
  <nd ref="10672354364"/>
  <nd ref="10672354362"/>
  <nd ref="10672354363"/>
  <nd ref="10672354360"/>
  <tag k="building" v="yes"/>
 </way>
 <way id="1146885742" visible="true" version="1" changeset="132660656" timestamp="2023-02-17T07:03:40Z" user="AYAGE" uid="521665">
  <nd ref="10672354383"/>
  <nd ref="10672354375"/>
  <nd ref="10672354368"/>
  <nd ref="10672354384"/>
  <nd ref="10672354387"/>
  <nd ref="10672354369"/>
  <nd ref="10672354391"/>
  <nd ref="10672354390"/>
  <nd ref="10672354371"/>
  <nd ref="10672354386"/>
  <nd ref="10672354385"/>
  <nd ref="10672354370"/>
  <nd ref="10672354374"/>
  <nd ref="10672354382"/>
  <nd ref="10672354381"/>
  <nd ref="10672354373"/>
  <nd ref="10672354389"/>
  <nd ref="10672354388"/>
  <nd ref="10672354372"/>
  <nd ref="10672354380"/>
  <nd ref="10672354383"/>
 </way>
 <way id="1146885743" visible="true" version="1" changeset="132660656" timestamp="2023-02-17T07:03:40Z" user="AYAGE" uid="521665">
  <nd ref="10672354379"/>
  <nd ref="10672354377"/>
  <nd ref="10672354376"/>
  <nd ref="10672354378"/>
  <nd ref="10672354379"/>
 </way>
 <way id="1146885744" visible="true" version="1" changeset="132660656" timestamp="2023-02-17T07:03:40Z" user="AYAGE" uid="521665">
  <nd ref="10672354395"/>
  <nd ref="10672354394"/>
  <nd ref="10672354393"/>
  <nd ref="10672354392"/>
  <nd ref="10672354395"/>
  <tag k="building" v="yes"/>
 </way>
 <way id="1146885745" visible="true" version="1" changeset="132660656" timestamp="2023-02-17T07:03:40Z" user="AYAGE" uid="521665">
  <nd ref="10672354407"/>
  <nd ref="10672354399"/>
  <nd ref="10672354403"/>
  <nd ref="10672354404"/>
  <nd ref="10672354400"/>
  <nd ref="10672354408"/>
  <nd ref="10672354409"/>
  <nd ref="10672354398"/>
  <nd ref="10672354406"/>
  <nd ref="10672354397"/>
  <nd ref="10672354401"/>
  <nd ref="10672354402"/>
  <nd ref="10672354396"/>
  <nd ref="10672354405"/>
  <nd ref="10672354407"/>
  <tag k="building" v="yes"/>
 </way>
 <way id="1146885746" visible="true" version="1" changeset="132660656" timestamp="2023-02-17T07:03:40Z" user="AYAGE" uid="521665">
  <nd ref="10672354411"/>
  <nd ref="10672354417"/>
  <nd ref="10672354416"/>
  <nd ref="10672354415"/>
  <nd ref="10672354414"/>
  <nd ref="10672354410"/>
  <nd ref="10672354412"/>
  <nd ref="10672354413"/>
  <nd ref="10672354411"/>
  <tag k="building" v="yes"/>
 </way>
 <way id="1146885748" visible="true" version="1" changeset="132660656" timestamp="2023-02-17T07:03:40Z" user="AYAGE" uid="521665">
  <nd ref="10672354438"/>
  <nd ref="10672354437"/>
  <nd ref="10672354436"/>
  <nd ref="10672354435"/>
  <nd ref="10672354434"/>
  <nd ref="10672354433"/>
  <nd ref="10672354432"/>
  <nd ref="10672354431"/>
  <nd ref="10672354430"/>
  <tag k="highway" v="service"/>
 </way>
 <way id="1147066618" visible="true" version="1" changeset="132683671" timestamp="2023-02-17T15:52:51Z" user="AYAGE" uid="521665">
  <nd ref="10673919421"/>
  <nd ref="10673919426"/>
  <nd ref="10673919424"/>
  <nd ref="10673919423"/>
  <nd ref="10673919422"/>
  <tag k="waterway" v="drain"/>
 </way>
 <way id="1147066619" visible="true" version="2" changeset="132702184" timestamp="2023-02-18T04:29:51Z" user="AYAGE" uid="521665">
  <nd ref="10673919409"/>
  <nd ref="10673919410"/>
  <nd ref="10673919411"/>
  <nd ref="10673919412"/>
  <nd ref="10673919413"/>
  <nd ref="10673919414"/>
  <nd ref="10673919415"/>
  <nd ref="10673919416"/>
  <nd ref="10673919417"/>
  <nd ref="10673919418"/>
  <nd ref="10673919419"/>
  <nd ref="10673919420"/>
  <nd ref="10673919435"/>
  <nd ref="10673919434"/>
  <nd ref="10673919433"/>
  <nd ref="10673919432"/>
  <nd ref="10673919431"/>
  <nd ref="10673919430"/>
  <nd ref="10673919429"/>
  <nd ref="10673919428"/>
  <nd ref="10673919427"/>
  <nd ref="10673919425"/>
  <nd ref="10673919426"/>
  <tag k="waterway" v="drain"/>
 </way>
 <relation id="3717459" visible="true" version="78" changeset="188702646" timestamp="2026-09-08T05:07:38Z" user="taketaketake" uid="4757277">
  <member type="way" ref="25841435" role=""/>
  <member type="way" ref="34577800" role=""/>
  <member type="way" ref="59184201" role="forward"/>
  <member type="way" ref="59184195" role="forward"/>
  <member type="way" ref="59183494" role="forward"/>
  <member type="way" ref="34577941" role="forward"/>
  <member type="way" ref="34577942" role="forward"/>
  <member type="way" ref="285062723" role="forward"/>
  <member type="way" ref="59183132" role=""/>
  <member type="way" ref="284278599" role=""/>
  <member type="way" ref="183569580" role=""/>
  <member type="way" ref="1423483373" role=""/>
  <member type="way" ref="183569582" role=""/>
  <member type="way" ref="1423483372" role=""/>
  <member type="way" ref="432578108" role=""/>
  <member type="way" ref="432578109" role=""/>
  <member type="way" ref="709045686" role=""/>
  <member type="way" ref="709045685" role=""/>
  <member type="way" ref="197733586" role=""/>
  <member type="way" ref="1423479285" role=""/>
  <member type="way" ref="197733588" role=""/>
  <member type="way" ref="197733587" role=""/>
  <member type="way" ref="1423479284" role=""/>
  <member type="way" ref="709044045" role=""/>
  <member type="way" ref="1143990300" role=""/>
  <member type="way" ref="1143990299" role=""/>
  <member type="way" ref="709044044" role=""/>
  <member type="way" ref="1014500238" role=""/>
  <member type="way" ref="1368609434" role=""/>
  <member type="way" ref="1368609435" role=""/>
  <member type="way" ref="1368609436" role=""/>
  <member type="way" ref="1368609437" role=""/>
  <member type="way" ref="204869236" role=""/>
  <member type="way" ref="197733577" role=""/>
  <member type="way" ref="197733579" role=""/>
  <member type="way" ref="197733578" role=""/>
  <member type="way" ref="118901893" role=""/>
  <member type="way" ref="278021416" role=""/>
  <member type="way" ref="278021417" role=""/>
  <member type="way" ref="278208592" role=""/>
  <member type="way" ref="278208593" role=""/>
  <member type="way" ref="278208595" role=""/>
  <member type="way" ref="145660729" role=""/>
  <member type="way" ref="1425488535" role=""/>
  <member type="way" ref="145660726" role=""/>
  <member type="way" ref="145660728" role=""/>
  <member type="way" ref="1425488534" role=""/>
  <member type="way" ref="708822433" role=""/>
  <member type="way" ref="708822432" role=""/>
  <member type="way" ref="278208612" role=""/>
  <member type="way" ref="145660735" role=""/>
  <member type="way" ref="145660736" role=""/>
  <member type="way" ref="145660737" role=""/>
  <member type="way" ref="145660739" role=""/>
  <member type="way" ref="145660740" role=""/>
  <member type="way" ref="197733573" role=""/>
  <member type="way" ref="197733574" role=""/>
  <member type="way" ref="145660824" role=""/>
  <member type="way" ref="145660827" role=""/>
  <member type="way" ref="145660886" role=""/>
  <member type="way" ref="145660889" role=""/>
  <member type="way" ref="233103985" role=""/>
  <member type="way" ref="145660897" role=""/>
  <member type="way" ref="145660898" role=""/>
  <member type="way" ref="708798557" role=""/>
  <member type="way" ref="146003045" role=""/>
  <member type="way" ref="113361482" role="forward"/>
  <member type="way" ref="367266788" role="forward"/>
  <member type="way" ref="113361579" role=""/>
  <member type="way" ref="113361714" role=""/>
  <member type="way" ref="113361499" role=""/>
  <member type="way" ref="113361385" role=""/>
  <member type="way" ref="708786076" role="forward"/>
  <member type="way" ref="339351170" role=""/>
  <member type="way" ref="102233978" role=""/>
  <member type="way" ref="112974869" role=""/>
  <member type="way" ref="112975251" role=""/>
  <member type="way" ref="112974889" role=""/>
  <member type="way" ref="112971025" role=""/>
  <member type="way" ref="112970180" role=""/>
  <member type="way" ref="112971885" role=""/>
  <member type="way" ref="112970057" role=""/>
  <member type="way" ref="112971842" role=""/>
  <member type="way" ref="112970116" role=""/>
  <member type="way" ref="112971211" role=""/>
  <member type="way" ref="112970029" role=""/>
  <member type="way" ref="112996858" role=""/>
  <member type="way" ref="112996896" role=""/>
  <member type="way" ref="112996051" role=""/>
  <member type="way" ref="1102185672" role=""/>
  <member type="way" ref="113098463" role=""/>
  <member type="way" ref="113100169" role=""/>
  <member type="way" ref="113098117" role=""/>
  <member type="way" ref="113100384" role=""/>
  <member type="way" ref="113099461" role=""/>
  <member type="way" ref="113099735" role=""/>
  <member type="way" ref="113100584" role=""/>
  <member type="way" ref="113099723" role=""/>
  <member type="way" ref="113099143" role=""/>
  <member type="way" ref="737541436" role=""/>
  <member type="way" ref="113099289" role=""/>
  <member type="way" ref="1551254026" role=""/>
  <member type="way" ref="113098109" role="forward"/>
  <member type="way" ref="1161943646" role="forward"/>
  <member type="way" ref="353730318" role="forward"/>
  <member type="way" ref="1161943647" role="forward"/>
  <member type="way" ref="353729344" role="forward"/>
  <member type="way" ref="117442260" role=""/>
  <member type="way" ref="117441750" role=""/>
  <member type="way" ref="427668837" role=""/>
  <member type="way" ref="427668838" role=""/>
  <member type="way" ref="427046619" role=""/>
  <member type="way" ref="427046620" role=""/>
  <member type="way" ref="406681117" role=""/>
  <member type="way" ref="406681116" role=""/>
  <member type="way" ref="404122353" role=""/>
  <member type="way" ref="425637958" role="forward"/>
  <member type="way" ref="1432187377" role="forward"/>
  <member type="way" ref="425637957" role="forward"/>
  <member type="way" ref="117442964" role="forward"/>
  <member type="way" ref="117443010" role="forward"/>
  <member type="way" ref="1432187376" role="forward"/>
  <member type="way" ref="1107572758" role="forward"/>
  <member type="way" ref="117443203" role="forward"/>
  <member type="way" ref="119018087" role=""/>
  <member type="way" ref="119018080" role=""/>
  <member type="way" ref="119017647" role=""/>
  <member type="way" ref="119018341" role=""/>
  <member type="way" ref="119018090" role=""/>
  <member type="way" ref="119018029" role=""/>
  <member type="way" ref="119018596" role=""/>
  <member type="way" ref="119018193" role=""/>
  <member type="way" ref="119018734" role=""/>
  <member type="way" ref="119025588" role=""/>
  <member type="way" ref="119024946" role=""/>
  <member type="way" ref="1257569086" role="forward"/>
  <member type="way" ref="117443470" role=""/>
  <member type="way" ref="117442820" role=""/>
  <tag k="colour" v="red"/>
  <tag k="from" v="山口県岩国市"/>
  <tag k="name" v="国道188号"/>
  <tag k="name:en" v="National Highway Route 188"/>
  <tag k="name:ja" v="国道188号"/>
  <tag k="name:ja-Hira" v="こくどうひゃくはちじゅうはちごう"/>
  <tag k="name:ja-Latn" v="Kokudo 188 Gou"/>
  <tag k="network" v="JP:national"/>
  <tag k="official_name" v="一般国道188号"/>
  <tag k="operator" v="中国地方整備局"/>
  <tag k="ref" v="188"/>
  <tag k="route" v="road"/>
  <tag k="to" v="山口県下松市"/>
  <tag k="type" v="route"/>
  <tag k="wikidata" v="Q6156889"/>
  <tag k="wikipedia" v="ja:国道188号"/>
 </relation>
 <relation id="8857556" visible="true" version="166" changeset="185171745" timestamp="2026-07-06T02:54:07Z" user="okadatsuneo_import" uid="12352917">
  <member type="relation" ref="32989" role=""/>
  <member type="relation" ref="2064722" role=""/>
  <member type="relation" ref="2061678" role=""/>
  <member type="relation" ref="416684" role=""/>
  <member type="relation" ref="33009" role=""/>
  <member type="relation" ref="1521225" role=""/>
  <member type="relation" ref="2069116" role=""/>
  <member type="relation" ref="8589620" role=""/>
  <member type="relation" ref="2076294" role=""/>
  <member type="relation" ref="2082723" role=""/>
  <member type="relation" ref="12579" role=""/>
  <member type="relation" ref="2097432" role=""/>
  <member type="relation" ref="2098597" role=""/>
  <member type="relation" ref="2098903" role=""/>
  <member type="relation" ref="2107249" role=""/>
  <member type="relation" ref="18187" role=""/>
  <member type="relation" ref="2150021" role=""/>
  <member type="relation" ref="964698" role=""/>
  <member type="relation" ref="964699" role=""/>
  <member type="relation" ref="21087" role=""/>
  <member type="relation" ref="905615" role=""/>
  <member type="relation" ref="2191283" role=""/>
  <member type="relation" ref="8549439" role=""/>
  <member type="relation" ref="2281186" role=""/>
  <member type="relation" ref="1247317" role=""/>
  <member type="relation" ref="2283740" role=""/>
  <member type="relation" ref="2578411" role=""/>
  <member type="relation" ref="12592" role=""/>
  <member type="relation" ref="2773842" role=""/>
  <member type="relation" ref="59477" role=""/>
  <member type="relation" ref="1957766" role=""/>
  <member type="relation" ref="12585" role=""/>
  <member type="relation" ref="149017" role=""/>
  <member type="relation" ref="2829210" role=""/>
  <member type="relation" ref="2829437" role=""/>
  <member type="relation" ref="130867" role=""/>
  <member type="relation" ref="33017" role=""/>
  <member type="relation" ref="2863336" role=""/>
  <member type="relation" ref="2864639" role=""/>
  <member type="relation" ref="2865301" role=""/>
  <member type="relation" ref="31351" role=""/>
  <member type="relation" ref="2877152" role=""/>
  <member type="relation" ref="2878993" role=""/>
  <member type="relation" ref="2885462" role=""/>
  <member type="relation" ref="2887904" role=""/>
  <member type="relation" ref="443923" role=""/>
  <member type="relation" ref="2938281" role=""/>
  <member type="relation" ref="2938900" role=""/>
  <member type="relation" ref="2939533" role=""/>
  <member type="relation" ref="2954632" role=""/>
  <member type="relation" ref="6903690" role=""/>
  <member type="relation" ref="2957016" role=""/>
  <member type="relation" ref="2957132" role=""/>
  <member type="relation" ref="2957976" role=""/>
  <member type="relation" ref="12583" role=""/>
  <member type="relation" ref="12584" role=""/>
  <member type="relation" ref="2971983" role=""/>
  <member type="relation" ref="2972065" role=""/>
  <member type="relation" ref="2974952" role=""/>
  <member type="relation" ref="2975092" role=""/>
  <member type="relation" ref="2988615" role=""/>
  <member type="relation" ref="3066227" role=""/>
  <member type="relation" ref="2937948" role=""/>
  <member type="relation" ref="3066928" role=""/>
  <member type="relation" ref="3069619" role=""/>
  <member type="relation" ref="3118577" role=""/>
  <member type="relation" ref="3118835" role=""/>
  <member type="relation" ref="3128401" role=""/>
  <member type="relation" ref="3128448" role=""/>
  <member type="relation" ref="3129175" role=""/>
  <member type="relation" ref="3132634" role=""/>
  <member type="relation" ref="965403" role=""/>
  <member type="relation" ref="3189380" role=""/>
  <member type="relation" ref="3217184" role=""/>
  <member type="relation" ref="3217302" role=""/>
  <member type="relation" ref="3218039" role=""/>
  <member type="relation" ref="3248776" role=""/>
  <member type="relation" ref="3262076" role=""/>
  <member type="relation" ref="6604490" role=""/>
  <member type="relation" ref="9002996" role=""/>
  <member type="relation" ref="9066606" role=""/>
  <member type="relation" ref="9066742" role=""/>
  <member type="relation" ref="9069158" role=""/>
  <member type="relation" ref="3846566" role=""/>
  <member type="relation" ref="3767038" role=""/>
  <member type="relation" ref="3773599" role=""/>
  <member type="relation" ref="2665187" role=""/>
  <member type="relation" ref="3770942" role=""/>
  <member type="relation" ref="31118" role=""/>
  <member type="relation" ref="3639261" role=""/>
  <member type="relation" ref="8822215" role=""/>
  <member type="relation" ref="3908565" role=""/>
  <member type="relation" ref="3908696" role=""/>
  <member type="relation" ref="8842101" role=""/>
  <member type="relation" ref="8980964" role=""/>
  <member type="relation" ref="965538" role=""/>
  <member type="relation" ref="6518912" role=""/>
  <member type="relation" ref="2124106" role=""/>
  <member type="relation" ref="965533" role=""/>
  <member type="relation" ref="7438376" role=""/>
  <member type="relation" ref="3846790" role=""/>
  <member type="relation" ref="2104795" role=""/>
  <member type="relation" ref="3862939" role=""/>
  <member type="relation" ref="3770972" role=""/>
  <member type="relation" ref="8843661" role=""/>
  <member type="relation" ref="8475141" role=""/>
  <member type="relation" ref="53798" role=""/>
  <member type="relation" ref="3527405" role=""/>
  <member type="relation" ref="3786290" role=""/>
  <member type="relation" ref="8438979" role=""/>
  <member type="relation" ref="8519028" role=""/>
  <member type="relation" ref="8546711" role=""/>
  <member type="relation" ref="31352" role=""/>
  <member type="relation" ref="8634030" role=""/>
  <member type="relation" ref="8643289" role=""/>
  <member type="relation" ref="8730413" role=""/>
  <member type="relation" ref="8602705" role=""/>
  <member type="relation" ref="8376126" role=""/>
  <member type="relation" ref="3771120" role=""/>
  <member type="relation" ref="8360680" role=""/>
  <member type="relation" ref="8798843" role=""/>
  <member type="relation" ref="8253434" role=""/>
  <member type="relation" ref="8338767" role=""/>
  <member type="relation" ref="7790754" role=""/>
  <member type="relation" ref="8810155" role=""/>
  <member type="relation" ref="9316269" role=""/>
  <member type="relation" ref="3786705" role=""/>
  <member type="relation" ref="8814743" role=""/>
  <member type="relation" ref="3767143" role=""/>
  <member type="relation" ref="9349690" role=""/>
  <member type="relation" ref="8812592" role=""/>
  <member type="relation" ref="3767309" role=""/>
  <member type="relation" ref="8385407" role=""/>
  <member type="relation" ref="8385532" role=""/>
  <member type="relation" ref="7757831" role=""/>
  <member type="relation" ref="7756814" role=""/>
  <member type="relation" ref="8386008" role=""/>
  <member type="relation" ref="3500263" role=""/>
  <member type="relation" ref="9385077" role=""/>
  <member type="relation" ref="1282122" role=""/>
  <member type="relation" ref="4544619" role=""/>
  <member type="relation" ref="4165287" role=""/>
  <member type="relation" ref="3717459" role=""/>
  <member type="relation" ref="3771004" role=""/>
  <member type="relation" ref="9400756" role=""/>
  <member type="relation" ref="3904021" role=""/>
  <member type="relation" ref="12586" role=""/>
  <member type="relation" ref="12893" role=""/>
  <member type="relation" ref="149016" role=""/>
  <member type="relation" ref="12582" role=""/>
  <member type="relation" ref="9444474" role=""/>
  <member type="relation" ref="65441" role=""/>
  <member type="relation" ref="9483543" role=""/>
  <member type="relation" ref="9483646" role=""/>
  <member type="relation" ref="9491583" role=""/>
  <member type="relation" ref="7106297" role=""/>
  <member type="relation" ref="9361964" role=""/>
  <member type="relation" ref="9361958" role=""/>
  <member type="relation" ref="9364398" role=""/>
  <member type="relation" ref="9361965" role=""/>
  <member type="relation" ref="9364395" role=""/>
  <member type="relation" ref="9364399" role=""/>
  <member type="relation" ref="9361957" role=""/>
  <member type="relation" ref="9364404" role=""/>
  <member type="relation" ref="9592451" role=""/>
  <member type="relation" ref="9578522" role=""/>
  <member type="relation" ref="9608067" role=""/>
  <member type="relation" ref="6966370" role=""/>
  <member type="relation" ref="9659817" role=""/>
  <member type="relation" ref="9627337" role=""/>
  <member type="relation" ref="9633190" role=""/>
  <member type="relation" ref="9702108" role=""/>
  <member type="relation" ref="9651112" role=""/>
  <member type="relation" ref="9712245" role=""/>
  <member type="relation" ref="9669415" role=""/>
  <member type="relation" ref="3787044" role=""/>
  <member type="relation" ref="9680900" role=""/>
  <member type="relation" ref="9684360" role=""/>
  <member type="relation" ref="33010" role=""/>
  <member type="relation" ref="6585224" role=""/>
  <member type="relation" ref="6595831" role=""/>
  <member type="relation" ref="6584912" role=""/>
  <member type="relation" ref="6596139" role=""/>
  <member type="relation" ref="6612480" role=""/>
  <member type="relation" ref="6596367" role=""/>
  <member type="relation" ref="6601904" role=""/>
  <member type="relation" ref="6624769" role=""/>
  <member type="relation" ref="6626645" role=""/>
  <member type="relation" ref="2883869" role=""/>
  <member type="relation" ref="6621211" role=""/>
  <member type="relation" ref="6612481" role=""/>
  <member type="relation" ref="6641475" role=""/>
  <member type="relation" ref="6632428" role=""/>
  <member type="relation" ref="6639503" role=""/>
  <member type="relation" ref="6641549" role=""/>
  <member type="relation" ref="6645422" role=""/>
  <member type="relation" ref="5431055" role=""/>
  <member type="relation" ref="30840" role=""/>
  <member type="relation" ref="8466396" role=""/>
  <member type="relation" ref="8472959" role=""/>
  <member type="relation" ref="8903572" role=""/>
  <member type="relation" ref="9864624" role=""/>
  <member type="relation" ref="9365397" role=""/>
  <member type="relation" ref="6647077" role=""/>
  <member type="relation" ref="8197220" role=""/>
  <member type="relation" ref="1020657" role=""/>
  <member type="relation" ref="3639021" role=""/>
  <member type="relation" ref="1192346" role=""/>
  <member type="relation" ref="3521034" role=""/>
  <member type="relation" ref="8319600" role=""/>
  <member type="relation" ref="8421608" role=""/>
  <member type="relation" ref="8255454" role=""/>
  <member type="relation" ref="8171702" role=""/>
  <member type="relation" ref="9882017" role=""/>
  <member type="relation" ref="9361997" role=""/>
  <member type="relation" ref="9361995" role=""/>
  <member type="relation" ref="9621534" role=""/>
  <member type="relation" ref="9577579" role=""/>
  <member type="relation" ref="9662836" role=""/>
  <member type="relation" ref="9637071" role=""/>
  <member type="relation" ref="9706190" role=""/>
  <member type="relation" ref="9678094" role=""/>
  <member type="relation" ref="34190" role=""/>
  <member type="relation" ref="6651341" role=""/>
  <member type="relation" ref="6632429" role=""/>
  <member type="relation" ref="6651380" role=""/>
  <member type="relation" ref="6607033" role=""/>
  <member type="relation" ref="33018" role=""/>
  <member type="relation" ref="6594495" role=""/>
  <member type="relation" ref="3842394" role=""/>
  <member type="relation" ref="7346573" role=""/>
  <member type="relation" ref="6594518" role=""/>
  <member type="relation" ref="9230437" role=""/>
  <member type="relation" ref="6583464" role=""/>
  <member type="relation" ref="9220015" role=""/>
  <member type="relation" ref="947961" role=""/>
  <member type="relation" ref="6743360" role=""/>
  <member type="relation" ref="9389808" role=""/>
  <member type="relation" ref="9387618" role=""/>
  <member type="relation" ref="9095602" role=""/>
  <member type="relation" ref="6334848" role=""/>
  <member type="relation" ref="6519669" role=""/>
  <member type="relation" ref="6608790" role=""/>
  <member type="relation" ref="7920696" role=""/>
  <member type="relation" ref="6646894" role=""/>
  <member type="relation" ref="49515" role=""/>
  <member type="relation" ref="9842733" role=""/>
  <member type="relation" ref="9885666" role=""/>
  <member type="relation" ref="10259311" role=""/>
  <member type="relation" ref="10481824" role=""/>
  <member type="relation" ref="53796" role=""/>
  <member type="relation" ref="8839514" role=""/>
  <member type="relation" ref="3518585" role=""/>
  <member type="relation" ref="8512559" role=""/>
  <member type="relation" ref="8547309" role=""/>
  <member type="relation" ref="8901184" role=""/>
  <member type="relation" ref="8606655" role=""/>
  <member type="relation" ref="8330838" role=""/>
  <member type="relation" ref="6097291" role=""/>
  <member type="relation" ref="3947962" role=""/>
  <member type="relation" ref="6114814" role=""/>
  <member type="relation" ref="8770279" role=""/>
  <member type="relation" ref="7803946" role=""/>
  <member type="relation" ref="10015101" role=""/>
  <member type="relation" ref="8780413" role=""/>
  <member type="relation" ref="9226628" role=""/>
  <member type="relation" ref="1113900" role=""/>
  <member type="relation" ref="9878286" role=""/>
  <member type="relation" ref="9842064" role=""/>
  <member type="relation" ref="12886" role=""/>
  <member type="relation" ref="31661" role=""/>
  <member type="relation" ref="1061405" role=""/>
  <member type="relation" ref="9732500" role=""/>
  <member type="relation" ref="9566443" role=""/>
  <member type="relation" ref="9364401" role=""/>
  <member type="relation" ref="2360722" role=""/>
  <member type="relation" ref="9600043" role=""/>
  <member type="relation" ref="9655888" role=""/>
  <member type="relation" ref="9644147" role=""/>
  <member type="relation" ref="9674712" role=""/>
  <member type="relation" ref="10535240" role=""/>
  <member type="relation" ref="10997961" role=""/>
  <member type="relation" ref="3771097" role=""/>
  <member type="relation" ref="3771098" role=""/>
  <member type="relation" ref="6634560" role=""/>
  <member type="relation" ref="6649220" role=""/>
  <member type="relation" ref="6651324" role=""/>
  <member type="relation" ref="13970524" role=""/>
  <member type="relation" ref="6626646" role=""/>
  <member type="relation" ref="6604372" role=""/>
  <member type="relation" ref="33014" role=""/>
  <member type="relation" ref="195249" role=""/>
  <member type="relation" ref="7259555" role=""/>
  <member type="relation" ref="5385850" role=""/>
  <member type="relation" ref="7462562" role=""/>
  <member type="relation" ref="572350" role=""/>
  <member type="relation" ref="6649827" role=""/>
  <member type="relation" ref="9145802" role=""/>
  <member type="relation" ref="9167558" role=""/>
  <member type="relation" ref="9246031" role=""/>
  <member type="relation" ref="9384961" role=""/>
  <member type="relation" ref="6603804" role=""/>
  <member type="relation" ref="8660479" role=""/>
  <member type="relation" ref="8705812" role=""/>
  <member type="relation" ref="6357795" role=""/>
  <member type="relation" ref="2888579" role=""/>
  <member type="relation" ref="3644591" role=""/>
  <member type="relation" ref="13766033" role=""/>
  <member type="relation" ref="5347303" role=""/>
  <member type="relation" ref="3836968" role=""/>
  <member type="relation" ref="8250033" role=""/>
  <member type="relation" ref="8630931" role=""/>
  <member type="relation" ref="6518158" role=""/>
  <member type="relation" ref="3518586" role=""/>
  <member type="relation" ref="8507094" role=""/>
  <member type="relation" ref="8624536" role=""/>
  <member type="relation" ref="8330502" role=""/>
  <member type="relation" ref="8468445" role=""/>
  <member type="relation" ref="8736759" role=""/>
  <member type="relation" ref="8344320" role=""/>
  <member type="relation" ref="8346167" role=""/>
  <member type="relation" ref="8547781" role=""/>
  <member type="relation" ref="8778351" role=""/>
  <member type="relation" ref="8819316" role=""/>
  <member type="relation" ref="8428316" role=""/>
  <member type="relation" ref="10036652" role=""/>
  <member type="relation" ref="7521547" role=""/>
  <member type="relation" ref="9889643" role=""/>
  <member type="relation" ref="36203" role=""/>
  <member type="relation" ref="9727705" role=""/>
  <member type="relation" ref="9760336" role=""/>
  <member type="relation" ref="1061406" role=""/>
  <member type="relation" ref="9734691" role=""/>
  <member type="relation" ref="9364397" role=""/>
  <member type="relation" ref="9525476" role=""/>
  <member type="relation" ref="9365392" role=""/>
  <member type="relation" ref="9364403" role=""/>
  <member type="relation" ref="9581384" role=""/>
  <member type="relation" ref="9615824" role=""/>
  <member type="relation" ref="9648379" role=""/>
  <member type="relation" ref="9365391" role=""/>
  <member type="relation" ref="9849119" role=""/>
  <member type="relation" ref="6645423" role=""/>
  <member type="relation" ref="6653406" role=""/>
  <member type="relation" ref="6596106" role=""/>
  <member type="relation" ref="9301437" role=""/>
  <member type="relation" ref="9231531" role=""/>
  <member type="relation" ref="446121" role=""/>
  <member type="relation" ref="7901019" role=""/>
  <member type="relation" ref="6012803" role=""/>
  <member type="relation" ref="6594184" role=""/>
  <member type="relation" ref="5425459" role=""/>
  <member type="relation" ref="6491957" role=""/>
  <member type="relation" ref="8907070" role=""/>
  <member type="relation" ref="1017048" role=""/>
  <member type="relation" ref="8705506" role=""/>
  <member type="relation" ref="6518913" role=""/>
  <member type="relation" ref="4085924" role=""/>
  <member type="relation" ref="7021581" role=""/>
  <member type="relation" ref="7418329" role=""/>
  <member type="relation" ref="33003" role=""/>
  <member type="relation" ref="9889615" role=""/>
  <member type="relation" ref="8855535" role=""/>
  <member type="relation" ref="2162634" role=""/>
  <member type="relation" ref="3908697" role=""/>
  <member type="relation" ref="8824623" role=""/>
  <member type="relation" ref="8648367" role=""/>
  <member type="relation" ref="8616846" role=""/>
  <member type="relation" ref="8549720" role=""/>
  <member type="relation" ref="3524706" role=""/>
  <member type="relation" ref="8456817" role=""/>
  <member type="relation" ref="3527404" role=""/>
  <member type="relation" ref="8319621" role=""/>
  <member type="relation" ref="8346063" role=""/>
  <member type="relation" ref="8820384" role=""/>
  <member type="relation" ref="8788010" role=""/>
  <member type="relation" ref="3791425" role=""/>
  <member type="relation" ref="9999040" role=""/>
  <member type="relation" ref="9977958" role=""/>
  <member type="relation" ref="8821725" role=""/>
  <member type="relation" ref="9225568" role=""/>
  <member type="relation" ref="2789281" role=""/>
  <member type="relation" ref="1181630" role=""/>
  <member type="relation" ref="9869305" role=""/>
  <member type="relation" ref="572119" role=""/>
  <member type="relation" ref="9846585" role=""/>
  <member type="relation" ref="12873" role=""/>
  <member type="relation" ref="12591" role=""/>
  <member type="relation" ref="9743152" role=""/>
  <member type="relation" ref="9740226" role=""/>
  <member type="relation" ref="9604654" role=""/>
  <member type="relation" ref="9668498" role=""/>
  <member type="relation" ref="9663861" role=""/>
  <member type="relation" ref="9717721" role=""/>
  <member type="relation" ref="13766030" role=""/>
  <member type="relation" ref="6601928" role=""/>
  <member type="relation" ref="6605962" role=""/>
  <member type="relation" ref="6601896" role=""/>
  <member type="relation" ref="3317036" role=""/>
  <member type="relation" ref="416686" role=""/>
  <member type="relation" ref="446122" role=""/>
  <member type="relation" ref="9156540" role=""/>
  <member type="relation" ref="9383269" role=""/>
  <member type="relation" ref="7240653" role=""/>
  <member type="relation" ref="8725735" role=""/>
  <member type="relation" ref="5450521" role=""/>
  <member type="relation" ref="9028205" role=""/>
  <member type="relation" ref="11621854" role=""/>
  <member type="relation" ref="37650" role=""/>
  <member type="relation" ref="2695918" role=""/>
  <member type="relation" ref="8838236" role=""/>
  <member type="relation" ref="3948024" role=""/>
  <member type="relation" ref="3796161" role=""/>
  <member type="relation" ref="3796341" role=""/>
  <member type="relation" ref="3519913" role=""/>
  <member type="relation" ref="2168363" role=""/>
  <member type="relation" ref="7492744" role=""/>
  <member type="relation" ref="8596419" role=""/>
  <member type="relation" ref="7417266" role=""/>
  <member type="relation" ref="7722594" role=""/>
  <member type="relation" ref="10040102" role=""/>
  <member type="relation" ref="8784852" role=""/>
  <member type="relation" ref="3786630" role=""/>
  <member type="relation" ref="8372093" role=""/>
  <member type="relation" ref="7331065" role=""/>
  <member type="relation" ref="9994456" role=""/>
  <member type="relation" ref="9473486" role=""/>
  <member type="relation" ref="9918288" role=""/>
  <member type="relation" ref="5525014" role=""/>
  <member type="relation" ref="4544688" role=""/>
  <member type="relation" ref="9893745" role=""/>
  <member type="relation" ref="4452065" role=""/>
  <member type="relation" ref="9874325" role=""/>
  <member type="relation" ref="36085" role=""/>
  <member type="relation" ref="31622" role=""/>
  <member type="relation" ref="1597628" role=""/>
  <member type="relation" ref="9500290" role=""/>
  <member type="relation" ref="9584945" role=""/>
  <member type="relation" ref="9361963" role=""/>
  <member type="relation" ref="9364396" role=""/>
  <member type="relation" ref="9365393" role=""/>
  <member type="relation" ref="9586987" role=""/>
  <member type="relation" ref="9593068" role=""/>
  <member type="relation" ref="9623424" role=""/>
  <member type="relation" ref="9852047" role=""/>
  <member type="relation" ref="9671641" role=""/>
  <member type="relation" ref="10548190" role=""/>
  <member type="relation" ref="8063894" role=""/>
  <member type="relation" ref="10387581" role=""/>
  <member type="relation" ref="12079873" role=""/>
  <member type="relation" ref="9570519" role=""/>
  <tag k="name" v="日本の一般国道"/>
  <tag k="name:af" v="Nasionale snelweë van Japan"/>
  <tag k="name:en" v="National Highway of Japan"/>
  <tag k="name:es" v="Ruta nacional de Japón"/>
  <tag k="name:fr" v="Routes nationales du Japon"/>
  <tag k="name:ja" v="日本の一般国道"/>
  <tag k="name:ja-Hira" v="にっぽん の いっぱん こくどう"/>
  <tag k="name:ja-Latn" v="Nihon no ippan kokudō"/>
  <tag k="name:ko" v="일본의 일반 국도"/>
  <tag k="name:ru" v="Японские национальные дороги"/>
  <tag k="name:zh-Hans" v="日本一般国道"/>
  <tag k="name:zh-Hant" v="日本一般國道"/>
  <tag k="network" v="JP:national"/>
  <tag k="route_master" v="road"/>
  <tag k="type" v="route_master"/>
  <tag k="wikidata" v="Q926383"/>
  <tag k="wikimedia_commons" v="Category:National highways of Japan"/>
  <tag k="wikipedia" v="ja:一般国道"/>
 </relation>
 <relation id="9400670" visible="true" version="1" changeset="68196941" timestamp="2019-03-16T07:03:42Z" user="Otenkiya" uid="4702051">
  <member type="relation" ref="3717459" role=""/>
  <member type="relation" ref="9400669" role=""/>
  <member type="relation" ref="9400668" role=""/>
  <member type="relation" ref="9400667" role=""/>
  <member type="relation" ref="9400666" role=""/>
  <tag k="name" v="国道188号"/>
  <tag k="network" v="JP:national"/>
  <tag k="ref" v="188"/>
  <tag k="route_master" v="road"/>
  <tag k="type" v="route_master"/>
 </relation>
 <relation id="15487043" visible="true" version="1" changeset="132660656" timestamp="2023-02-17T07:03:40Z" user="AYAGE" uid="521665">
  <member type="way" ref="1146885743" role="inner"/>
  <member type="way" ref="1146885742" role="outer"/>
  <tag k="building" v="yes"/>
  <tag k="type" v="multipolygon"/>
 </relation>
</osm>
