<?xml version="1.0" encoding="UTF-8"?>
<osm version="0.6" generator="openstreetmap-cgimap 2.1.0 (2942768 spike-08.openstreetmap.org)" copyright="OpenStreetMap and contributors" attribution="http://www.openstreetmap.org/copyright" license="http://opendatacommons.org/licenses/odbl/1-0/">
 <bounds minlat="34.1452839" minlon="132.2109277" maxlat="34.1479471" maxlon="132.2141811"/>
 <node id="1336832742" visible="true" version="6" changeset="132991996" timestamp="2023-02-25T04:01:54Z" user="AYAGE" uid="521665" lat="34.1515278" lon="132.2055843">
  <tag k="highway" v="traffic_signals"/>
  <tag k="name" v="牛野谷3丁目"/>
  <tag k="name:en" v="Ushinoya 3-chome"/>
  <tag k="name:ja" v="牛野谷3丁目"/>
  <tag k="name:ja_rm" v="Ushinoya 3-chome"/>
 </node>
 <node id="1337992839" visible="true" version="3" changeset="133134511" timestamp="2023-02-28T15:47:27Z" user="AYAGE" uid="521665" lat="34.1472826" lon="132.2108803"/>
 <node id="1337992870" visible="true" version="2" changeset="133048492" timestamp="2023-02-26T15:53:59Z" user="AYAGE" uid="521665" lat="34.1490224" lon="132.2141574"/>
 <node id="1337992898" visible="true" version="2" changeset="133071136" timestamp="2023-02-27T05:33:56Z" user="AYAGE" uid="521665" lat="34.1454666" lon="132.2141649"/>
 <node id="1337992940" visible="true" version="2" changeset="133010782" timestamp="2023-02-25T15:43:49Z" user="AYAGE" uid="521665" lat="34.1459100" lon="132.2110227"/>
 <node id="1337993022" visible="true" version="2" changeset="83170390" timestamp="2020-04-07T02:29:42Z" user="Jillybean558" uid="10912192" lat="34.1473263" lon="132.2140330"/>
 <node id="1337993163" visible="true" version="2" changeset="133010782" timestamp="2023-02-25T15:43:49Z" user="AYAGE" uid="521665" lat="34.1460044" lon="132.2099646"/>
 <node id="1337993227" visible="true" version="3" changeset="133134511" timestamp="2023-02-28T15:47:27Z" user="AYAGE" uid="521665" lat="34.1471300" lon="132.2105311"/>
 <node id="1337993248" visible="true" version="3" changeset="133134511" timestamp="2023-02-28T15:47:27Z" user="AYAGE" uid="521665" lat="34.1471352" lon="132.2101260"/>
 <node id="1337993304" visible="true" version="3" changeset="133134511" timestamp="2023-02-28T15:47:27Z" user="AYAGE" uid="521665" lat="34.1471840" lon="132.2107138"/>
 <node id="1337993366" visible="true" version="3" changeset="133071136" timestamp="2023-02-27T05:33:56Z" user="AYAGE" uid="521665" lat="34.1458461" lon="132.2116793"/>
 <node id="1337993375" visible="true" version="2" changeset="83170390" timestamp="2020-04-07T02:29:42Z" user="Jillybean558" uid="10912192" lat="34.1465377" lon="132.2146629"/>
 <node id="1337993416" visible="true" version="2" changeset="133071136" timestamp="2023-02-27T05:33:56Z" user="AYAGE" uid="521665" lat="34.1461882" lon="132.2138017"/>
 <node id="1337993474" visible="true" version="2" changeset="133010782" timestamp="2023-02-25T15:43:49Z" user="AYAGE" uid="521665" lat="34.1459853" lon="132.2101400"/>
 <node id="1337993513" visible="true" version="2" changeset="83170390" timestamp="2020-04-07T02:29:42Z" user="Jillybean558" uid="10912192" lat="34.1473951" lon="132.2138403">
  <tag k="highway" v="crossing"/>
 </node>
 <node id="1337993540" visible="true" version="1" changeset="8539761" timestamp="2011-06-25T08:07:19Z" user="yamasan" uid="32308" lat="34.1466820" lon="132.2131000"/>
 <node id="1337993593" visible="true" version="3" changeset="133134511" timestamp="2023-02-28T15:47:27Z" user="AYAGE" uid="521665" lat="34.1474389" lon="132.2111444"/>
 <node id="1337993631" visible="true" version="2" changeset="133048492" timestamp="2023-02-26T15:53:59Z" user="AYAGE" uid="521665" lat="34.1499534" lon="132.2093566"/>
 <node id="1337993692" visible="true" version="3" changeset="132993721" timestamp="2023-02-25T06:19:48Z" user="AYAGE" uid="521665" lat="34.1481292" lon="132.2125765"/>
 <node id="1337993856" visible="true" version="2" changeset="133071136" timestamp="2023-02-27T05:33:56Z" user="AYAGE" uid="521665" lat="34.1455672" lon="132.2141041"/>
 <node id="1337993887" visible="true" version="2" changeset="133010782" timestamp="2023-02-25T15:43:49Z" user="AYAGE" uid="521665" lat="34.1460005" lon="132.2091854"/>
 <node id="1337993963" visible="true" version="2" changeset="133071136" timestamp="2023-02-27T05:33:56Z" user="AYAGE" uid="521665" lat="34.1460934" lon="132.2139509"/>
 <node id="1337993974" visible="true" version="3" changeset="133010782" timestamp="2023-02-25T15:43:49Z" user="AYAGE" uid="521665" lat="34.1474127" lon="132.2097463"/>
 <node id="1337994008" visible="true" version="4" changeset="133071136" timestamp="2023-02-27T05:33:56Z" user="AYAGE" uid="521665" lat="34.1439620" lon="132.2123345"/>
 <node id="1337994033" visible="true" version="2" changeset="133010782" timestamp="2023-02-25T15:43:49Z" user="AYAGE" uid="521665" lat="34.1459000" lon="132.2108356"/>
 <node id="1337994102" visible="true" version="2" changeset="133010782" timestamp="2023-02-25T15:43:49Z" user="AYAGE" uid="521665" lat="34.1458217" lon="132.2079731"/>
 <node id="1337994264" visible="true" version="2" changeset="133071136" timestamp="2023-02-27T05:33:56Z" user="AYAGE" uid="521665" lat="34.1455487" lon="132.2113143"/>
 <node id="1337994311" visible="true" version="3" changeset="133134511" timestamp="2023-02-28T15:47:27Z" user="AYAGE" uid="521665" lat="34.1471123" lon="132.2102010"/>
 <node id="1337994316" visible="true" version="2" changeset="133010782" timestamp="2023-02-25T15:43:49Z" user="AYAGE" uid="521665" lat="34.1460707" lon="132.2116067"/>
 <node id="1337994386" visible="true" version="3" changeset="133071136" timestamp="2023-02-27T05:33:56Z" user="AYAGE" uid="521665" lat="34.1454333" lon="132.2142600">
  <tag k="highway" v="traffic_signals"/>
  <tag k="name" v="門前3丁目"/>
  <tag k="name:en" v="Monzen 3-chome"/>
  <tag k="name:ja" v="門前3丁目"/>
  <tag k="name:ja_rm" v="Monzen 3-chome"/>
 </node>
 <node id="1337994469" visible="true" version="4" changeset="133071136" timestamp="2023-02-27T05:33:56Z" user="AYAGE" uid="521665" lat="34.1449396" lon="132.2124381"/>
 <node id="1337994513" visible="true" version="2" changeset="133010782" timestamp="2023-02-25T15:43:49Z" user="AYAGE" uid="521665" lat="34.1458970" lon="132.2109178"/>
 <node id="1337994632" visible="true" version="2" changeset="132993721" timestamp="2023-02-25T06:19:48Z" user="AYAGE" uid="521665" lat="34.1476585" lon="132.2125582"/>
 <node id="1337994712" visible="true" version="2" changeset="83170390" timestamp="2020-04-07T02:29:42Z" user="Jillybean558" uid="10912192" lat="34.1464501" lon="132.2132910"/>
 <node id="1337994735" visible="true" version="2" changeset="133010782" timestamp="2023-02-25T15:43:49Z" user="AYAGE" uid="521665" lat="34.1459765" lon="132.2100836"/>
 <node id="1337994758" visible="true" version="2" changeset="133010782" timestamp="2023-02-25T15:43:49Z" user="AYAGE" uid="521665" lat="34.1460114" lon="132.2097057"/>
 <node id="1337994767" visible="true" version="3" changeset="132993721" timestamp="2023-02-25T06:19:48Z" user="AYAGE" uid="521665" lat="34.1477262" lon="132.2125736"/>
 <node id="1337994869" visible="true" version="2" changeset="133010782" timestamp="2023-02-25T15:43:49Z" user="AYAGE" uid="521665" lat="34.1459828" lon="132.2090773"/>
 <node id="1337994875" visible="true" version="2" changeset="133010782" timestamp="2023-02-25T15:43:49Z" user="AYAGE" uid="521665" lat="34.1460862" lon="132.2119541"/>
 <node id="1337994936" visible="true" version="2" changeset="133071136" timestamp="2023-02-27T05:33:56Z" user="AYAGE" uid="521665" lat="34.1461441" lon="132.2139019"/>
 <node id="1337995047" visible="true" version="3" changeset="132993721" timestamp="2023-02-25T06:19:48Z" user="AYAGE" uid="521665" lat="34.1486004" lon="132.2126120"/>
 <node id="1337995070" visible="true" version="3" changeset="133134511" timestamp="2023-02-28T15:47:27Z" user="AYAGE" uid="521665" lat="34.1471090" lon="132.2103256"/>
 <node id="1337995083" visible="true" version="2" changeset="133010782" timestamp="2023-02-25T15:43:49Z" user="AYAGE" uid="521665" lat="34.1473701" lon="132.2097911"/>
 <node id="1337995136" visible="true" version="3" changeset="133134511" timestamp="2023-02-28T15:47:27Z" user="AYAGE" uid="521665" lat="34.1474612" lon="132.2112016"/>
 <node id="1337995184" visible="true" version="2" changeset="133010782" timestamp="2023-02-25T15:43:49Z" user="AYAGE" uid="521665" lat="34.1459680" lon="132.2105210"/>
 <node id="1337995239" visible="true" version="2" changeset="133010782" timestamp="2023-02-25T15:43:49Z" user="AYAGE" uid="521665" lat="34.1460205" lon="132.2093937"/>
 <node id="1337995274" visible="true" version="2" changeset="133010782" timestamp="2023-02-25T15:43:49Z" user="AYAGE" uid="521665" lat="34.1460247" lon="132.2102840"/>
 <node id="1337995338" visible="true" version="2" changeset="133010782" timestamp="2023-02-25T15:43:49Z" user="AYAGE" uid="521665" lat="34.1459449" lon="132.2111694"/>
 <node id="1337995471" visible="true" version="2" changeset="83170390" timestamp="2020-04-07T02:29:42Z" user="Jillybean558" uid="10912192" lat="34.1471255" lon="132.2140429">
  <tag k="highway" v="crossing"/>
 </node>
 <node id="1337995564" visible="true" version="2" changeset="133010782" timestamp="2023-02-25T15:43:49Z" user="AYAGE" uid="521665" lat="34.1464974" lon="132.2121315"/>
 <node id="1337995610" visible="true" version="3" changeset="133134511" timestamp="2023-02-28T15:47:27Z" user="AYAGE" uid="521665" lat="34.1467949" lon="132.2118854"/>
 <node id="1337995623" visible="true" version="3" changeset="133093872" timestamp="2023-02-27T16:04:10Z" user="AYAGE" uid="521665" lat="34.1465734" lon="132.2145762"/>
 <node id="1337995654" visible="true" version="1" changeset="8539761" timestamp="2011-06-25T08:08:29Z" user="yamasan" uid="32308" lat="34.1465290" lon="132.2131940"/>
 <node id="1337995661" visible="true" version="2" changeset="133071136" timestamp="2023-02-27T05:33:56Z" user="AYAGE" uid="521665" lat="34.1459834" lon="132.2140023"/>
 <node id="1337995814" visible="true" version="3" changeset="132993721" timestamp="2023-02-25T06:19:48Z" user="AYAGE" uid="521665" lat="34.1482536" lon="132.2115991"/>
 <node id="1337995840" visible="true" version="2" changeset="133010782" timestamp="2023-02-25T15:43:49Z" user="AYAGE" uid="521665" lat="34.1469971" lon="132.2117059"/>
 <node id="1337995862" visible="true" version="2" changeset="133010782" timestamp="2023-02-25T15:43:49Z" user="AYAGE" uid="521665" lat="34.1459362" lon="132.2089269"/>
 <node id="1337995885" visible="true" version="2" changeset="133010782" timestamp="2023-02-25T15:43:49Z" user="AYAGE" uid="521665" lat="34.1458171" lon="132.2080111"/>
 <node id="1337995904" visible="true" version="3" changeset="133071136" timestamp="2023-02-27T05:33:56Z" user="AYAGE" uid="521665" lat="34.1463825" lon="132.2133782"/>
 <node id="1337995938" visible="true" version="2" changeset="133010782" timestamp="2023-02-25T15:43:49Z" user="AYAGE" uid="521665" lat="34.1457816" lon="132.2085896"/>
 <node id="1337995960" visible="true" version="3" changeset="133134511" timestamp="2023-02-28T15:47:27Z" user="AYAGE" uid="521665" lat="34.1474159" lon="132.2113092"/>
 <node id="1337996124" visible="true" version="2" changeset="133071136" timestamp="2023-02-27T05:33:56Z" user="AYAGE" uid="521665" lat="34.1457224" lon="132.2140490"/>
 <node id="1337996206" visible="true" version="2" changeset="133010782" timestamp="2023-02-25T15:43:49Z" user="AYAGE" uid="521665" lat="34.1458183" lon="132.2086932"/>
 <node id="1337996291" visible="true" version="2" changeset="133010782" timestamp="2023-02-25T15:43:49Z" user="AYAGE" uid="521665" lat="34.1462101" lon="132.2122923"/>
 <node id="1337996579" visible="true" version="5" changeset="133010782" timestamp="2023-02-25T15:43:49Z" user="AYAGE" uid="521665" lat="34.1429988" lon="132.2122425"/>
 <node id="1337996806" visible="true" version="4" changeset="133071136" timestamp="2023-02-27T05:33:56Z" user="AYAGE" uid="521665" lat="34.1461237" lon="132.2125519"/>
 <node id="1337996853" visible="true" version="2" changeset="133010782" timestamp="2023-02-25T15:43:49Z" user="AYAGE" uid="521665" lat="34.1457204" lon="132.2084346"/>
 <node id="1423657043" visible="true" version="3" changeset="152478004" timestamp="2024-06-10T04:35:55Z" user="ceyu" uid="12435954" lat="34.1455440" lon="132.2133390">
  <tag k="amenity" v="school"/>
  <tag k="isced:level" v="1"/>
  <tag k="name" v="市立愛宕小学校"/>
  <tag k="note" v="National-Land Numerical Information (Public Facility) 2006, MLIT Japan"/>
  <tag k="note:ja" v="国土数値情報（公共施設データ）平成19年　国土交通省"/>
  <tag k="source" v="KSJ2"/>
  <tag k="source_ref" v="http://nlftp.mlit.go.jp/ksj/jpgis/datalist/KsjTmplt-P02-v2_0.html"/>
  <tag k="wikidata" v="Q97674590"/>
 </node>
 <node id="2503638477" visible="true" version="1" changeset="18465333" timestamp="2013-10-21T09:19:47Z" user="yoshimap" uid="1776043" lat="34.1454396" lon="132.2118296">
  <tag k="name" v="マックスバリュ南岩国店"/>
  <tag k="shop" v="supermarket"/>
 </node>
 <node id="2826509605" visible="true" version="2" changeset="68196941" timestamp="2019-03-16T07:03:45Z" user="Otenkiya" uid="4702051" lat="34.1515006" lon="132.2058258"/>
 <node id="2826509606" visible="true" version="2" changeset="68196941" timestamp="2019-03-16T07:03:45Z" user="Otenkiya" uid="4702051" lat="34.1514359" lon="132.2062142"/>
 <node id="2826509607" visible="true" version="2" changeset="68196941" timestamp="2019-03-16T07:03:45Z" user="Otenkiya" uid="4702051" lat="34.1513252" lon="132.2066882"/>
 <node id="2826509608" visible="true" version="2" changeset="68196941" timestamp="2019-03-16T07:03:45Z" user="Otenkiya" uid="4702051" lat="34.1512208" lon="132.2070338"/>
 <node id="2826509609" visible="true" version="2" changeset="68196941" timestamp="2019-03-16T07:03:45Z" user="Otenkiya" uid="4702051" lat="34.1511037" lon="132.2073478"/>
 <node id="2826509610" visible="true" version="3" changeset="132993721" timestamp="2023-02-25T06:19:48Z" user="AYAGE" uid="521665" lat="34.1507552" lon="132.2080576"/>
 <node id="2826509611" visible="true" version="2" changeset="132993721" timestamp="2023-02-25T06:19:48Z" user="AYAGE" uid="521665" lat="34.1502850" lon="132.2088377"/>
 <node id="2826509612" visible="true" version="2" changeset="132993721" timestamp="2023-02-25T06:19:48Z" user="AYAGE" uid="521665" lat="34.1496704" lon="132.2097759"/>
 <node id="2826509614" visible="true" version="2" changeset="132993721" timestamp="2023-02-25T06:19:48Z" user="AYAGE" uid="521665" lat="34.1488404" lon="132.2109986"/>
 <node id="2826509615" visible="true" version="2" changeset="132993721" timestamp="2023-02-25T06:19:48Z" user="AYAGE" uid="521665" lat="34.1480442" lon="132.2123532"/>
 <node id="2826509616" visible="true" version="2" changeset="132993721" timestamp="2023-02-25T06:19:48Z" user="AYAGE" uid="521665" lat="34.1479386" lon="132.2125752">
  <tag k="highway" v="traffic_signals"/>
  <tag k="noname" v="yes"/>
 </node>
 <node id="2826509617" visible="true" version="2" changeset="62393092" timestamp="2018-09-08T04:12:05Z" user="nmaruichi" uid="317331" lat="34.1477699" lon="132.2129213"/>
 <node id="2826509618" visible="true" version="2" changeset="62393092" timestamp="2018-09-08T04:12:06Z" user="nmaruichi" uid="317331" lat="34.1470372" lon="132.2148340">
  <tag k="highway" v="traffic_signals"/>
  <tag k="noname" v="yes"/>
  <tag k="source" v="survey"/>
  <tag k="survey:date" v="2018-09-06"/>
 </node>
 <node id="2826509619" visible="true" version="3" changeset="132993721" timestamp="2023-02-25T06:19:48Z" user="AYAGE" uid="521665" lat="34.1476931" lon="132.2124487"/>
 <node id="2826509620" visible="true" version="2" changeset="132993721" timestamp="2023-02-25T06:19:48Z" user="AYAGE" uid="521665" lat="34.1473810" lon="132.2124493"/>
 <node id="2826509621" visible="true" version="2" changeset="132993721" timestamp="2023-02-25T06:19:48Z" user="AYAGE" uid="521665" lat="34.1473395" lon="132.2125638"/>
 <node id="3732695827" visible="true" version="2" changeset="132993721" timestamp="2023-02-25T06:19:48Z" user="AYAGE" uid="521665" lat="34.1479245" lon="132.2122798"/>
 <node id="3732695828" visible="true" version="2" changeset="132993721" timestamp="2023-02-25T06:19:48Z" user="AYAGE" uid="521665" lat="34.1479721" lon="132.2122301"/>
 <node id="3732695829" visible="true" version="2" changeset="132993721" timestamp="2023-02-25T06:19:48Z" user="AYAGE" uid="521665" lat="34.1482897" lon="132.2118975"/>
 <node id="4262966063" visible="true" version="3" changeset="132993721" timestamp="2023-02-25T06:19:48Z" user="AYAGE" uid="521665" lat="34.1509404" lon="132.2077017"/>
 <node id="5892053885" visible="true" version="1" changeset="62393092" timestamp="2018-09-08T04:12:05Z" user="nmaruichi" uid="317331" lat="34.1470940" lon="132.2146838">
  <tag k="bicycle" v="yes"/>
  <tag k="crossing" v="traffic_signals"/>
  <tag k="foot" v="yes"/>
  <tag k="highway" v="crossing"/>
 </node>
 <node id="6042064926" visible="true" version="2" changeset="167612722" timestamp="2025-06-14T13:20:59Z" user="okadatsuneo" uid="10163840" lat="34.1499158" lon="132.2182314">
  <tag k="power" v="tower"/>
  <tag k="structure" v="tubular"/>
 </node>
 <node id="6042064927" visible="true" version="1" changeset="64235805" timestamp="2018-11-06T16:18:39Z" user="42429" uid="42429" lat="34.1477948" lon="132.2163337">
  <tag k="power" v="tower"/>
  <tag k="source" v="Bing"/>
 </node>
 <node id="6042064928" visible="true" version="2" changeset="133071136" timestamp="2023-02-27T05:33:56Z" user="AYAGE" uid="521665" lat="34.1462265" lon="132.2139855">
  <tag k="power" v="tower"/>
  <tag k="source" v="Bing"/>
 </node>
 <node id="6042064929" visible="true" version="2" changeset="133134511" timestamp="2023-02-28T15:47:27Z" user="AYAGE" uid="521665" lat="34.1459401" lon="132.2102760">
  <tag k="power" v="tower"/>
  <tag k="source" v="Bing"/>
 </node>
 <node id="6042064931" visible="true" version="2" changeset="133134511" timestamp="2023-02-28T15:47:27Z" user="AYAGE" uid="521665" lat="34.1480234" lon="132.2076836">
  <tag k="power" v="tower"/>
  <tag k="source" v="Bing"/>
 </node>
 <node id="6042064932" visible="true" version="1" changeset="64235805" timestamp="2018-11-06T16:18:39Z" user="42429" uid="42429" lat="34.1471910" lon="132.2052669">
  <tag k="power" v="tower"/>
  <tag k="source" v="Bing"/>
 </node>
 <node id="6042064933" visible="true" version="1" changeset="64235805" timestamp="2018-11-06T16:18:39Z" user="42429" uid="42429" lat="34.1465894" lon="132.2023353">
  <tag k="power" v="tower"/>
  <tag k="source" v="Bing"/>
 </node>
 <node id="6042064934" visible="true" version="1" changeset="64235805" timestamp="2018-11-06T16:18:39Z" user="42429" uid="42429" lat="34.1470312" lon="132.1992052">
  <tag k="power" v="tower"/>
  <tag k="source" v="Bing"/>
 </node>
 <node id="6042064935" visible="true" version="1" changeset="64235805" timestamp="2018-11-06T16:18:39Z" user="42429" uid="42429" lat="34.1532797" lon="132.1967965">
  <tag k="power" v="tower"/>
  <tag k="source" v="Bing"/>
 </node>
 <node id="6042064936" visible="true" version="1" changeset="64235805" timestamp="2018-11-06T16:18:39Z" user="42429" uid="42429" lat="34.1511244" lon="132.1983844">
  <tag k="power" v="tower"/>
  <tag k="source" v="Bing"/>
 </node>
 <node id="6042064937" visible="true" version="1" changeset="64235805" timestamp="2018-11-06T16:18:39Z" user="42429" uid="42429" lat="34.1472176" lon="132.1967939">
  <tag k="power" v="tower"/>
  <tag k="source" v="Bing"/>
 </node>
 <node id="6042064976" visible="true" version="2" changeset="132952477" timestamp="2023-02-24T05:57:18Z" user="AYAGE" uid="521665" lat="34.1539434" lon="132.1952864">
  <tag k="power" v="tower"/>
  <tag k="source" v="Bing"/>
 </node>
 <node id="6341033217" visible="true" version="1" changeset="68196941" timestamp="2019-03-16T07:03:39Z" user="Otenkiya" uid="4702051" lat="34.1513735" lon="132.2065136"/>
 <node id="7373926564" visible="true" version="3" changeset="133048492" timestamp="2023-02-26T15:53:59Z" user="AYAGE" uid="521665" lat="34.1498995" lon="132.2094388"/>
 <node id="7373926566" visible="true" version="1" changeset="83170390" timestamp="2020-04-07T02:29:42Z" user="Jillybean558" uid="10912192" lat="34.1476281" lon="132.2140528">
  <tag k="highway" v="crossing"/>
 </node>
 <node id="7373926567" visible="true" version="1" changeset="83170390" timestamp="2020-04-07T02:29:42Z" user="Jillybean558" uid="10912192" lat="34.1472900" lon="132.2138050"/>
 <node id="10692334442" visible="true" version="2" changeset="132993721" timestamp="2023-02-25T06:19:48Z" user="AYAGE" uid="521665" lat="34.1483192" lon="132.2125840"/>
 <node id="10692334443" visible="true" version="2" changeset="132993721" timestamp="2023-02-25T06:19:48Z" user="AYAGE" uid="521665" lat="34.1484857" lon="132.2125988"/>
 <node id="10692407480" visible="true" version="1" changeset="132993721" timestamp="2023-02-25T06:19:48Z" user="AYAGE" uid="521665" lat="34.1473447" lon="132.2124875"/>
 <node id="10692407481" visible="true" version="1" changeset="132993721" timestamp="2023-02-25T06:19:48Z" user="AYAGE" uid="521665" lat="34.1473025" lon="132.2127108"/>
 <node id="10692407482" visible="true" version="1" changeset="132993721" timestamp="2023-02-25T06:19:48Z" user="AYAGE" uid="521665" lat="34.1473136" lon="132.2126417"/>
 <node id="10692407483" visible="true" version="1" changeset="132993721" timestamp="2023-02-25T06:19:48Z" user="AYAGE" uid="521665" lat="34.1472598" lon="132.2127677"/>
 <node id="10692407489" visible="true" version="1" changeset="132993721" timestamp="2023-02-25T06:19:48Z" user="AYAGE" uid="521665" lat="34.1482138" lon="132.2117954"/>
 <node id="10692407490" visible="true" version="1" changeset="132993721" timestamp="2023-02-25T06:19:48Z" user="AYAGE" uid="521665" lat="34.1482482" lon="132.2116768"/>
 <node id="10692440705" visible="true" version="1" changeset="132993721" timestamp="2023-02-25T06:19:48Z" user="AYAGE" uid="521665" lat="34.1493745" lon="132.2102064"/>
 <node id="10692440715" visible="true" version="1" changeset="132993721" timestamp="2023-02-25T06:19:48Z" user="AYAGE" uid="521665" lat="34.1501366" lon="132.2090770"/>
 <node id="10692440726" visible="true" version="1" changeset="132993721" timestamp="2023-02-25T06:19:48Z" user="AYAGE" uid="521665" lat="34.1505012" lon="132.2084822"/>
 <node id="10693171872" visible="true" version="1" changeset="133010782" timestamp="2023-02-25T15:43:49Z" user="AYAGE" uid="521665" lat="34.1460034" lon="132.2092156"/>
 <node id="10693171932" visible="true" version="1" changeset="133010782" timestamp="2023-02-25T15:43:49Z" user="AYAGE" uid="521665" lat="34.1430699" lon="132.2122394"/>
 <node id="10693171946" visible="true" version="1" changeset="133010782" timestamp="2023-02-25T15:43:49Z" user="AYAGE" uid="521665" lat="34.1472365" lon="132.2099575"/>
 <node id="10693171952" visible="true" version="1" changeset="133010782" timestamp="2023-02-25T15:43:49Z" user="AYAGE" uid="521665" lat="34.1457232" lon="132.2084688"/>
 <node id="10693171953" visible="true" version="1" changeset="133010782" timestamp="2023-02-25T15:43:49Z" user="AYAGE" uid="521665" lat="34.1457459" lon="132.2085084"/>
 <node id="10693171954" visible="true" version="1" changeset="133010782" timestamp="2023-02-25T15:43:49Z" user="AYAGE" uid="521665" lat="34.1460117" lon="132.2098985"/>
 <node id="10693171955" visible="true" version="1" changeset="133010782" timestamp="2023-02-25T15:43:49Z" user="AYAGE" uid="521665" lat="34.1459845" lon="132.2100299"/>
 <node id="10693171956" visible="true" version="1" changeset="133010782" timestamp="2023-02-25T15:43:49Z" user="AYAGE" uid="521665" lat="34.1460206" lon="132.2102036"/>
 <node id="10693171957" visible="true" version="1" changeset="133010782" timestamp="2023-02-25T15:43:49Z" user="AYAGE" uid="521665" lat="34.1460300" lon="132.2102344"/>
 <node id="10693171958" visible="true" version="1" changeset="133010782" timestamp="2023-02-25T15:43:49Z" user="AYAGE" uid="521665" lat="34.1460950" lon="132.2117224"/>
 <node id="10693171959" visible="true" version="1" changeset="133010782" timestamp="2023-02-25T15:43:49Z" user="AYAGE" uid="521665" lat="34.1460872" lon="132.2118866"/>
 <node id="10693171960" visible="true" version="1" changeset="133010782" timestamp="2023-02-25T15:43:49Z" user="AYAGE" uid="521665" lat="34.1460384" lon="132.2119269"/>
 <node id="10693171961" visible="true" version="1" changeset="133010782" timestamp="2023-02-25T15:43:49Z" user="AYAGE" uid="521665" lat="34.1462004" lon="132.2122166"/>
 <node id="10693171962" visible="true" version="1" changeset="133010782" timestamp="2023-02-25T15:43:49Z" user="AYAGE" uid="521665" lat="34.1462665" lon="132.2122856"/>
 <node id="10693171963" visible="true" version="1" changeset="133010782" timestamp="2023-02-25T15:43:49Z" user="AYAGE" uid="521665" lat="34.1461926" lon="132.2123460"/>
 <node id="10693171964" visible="true" version="1" changeset="133010782" timestamp="2023-02-25T15:43:49Z" user="AYAGE" uid="521665" lat="34.1461449" lon="132.2124821"/>
 <node id="10693171965" visible="true" version="1" changeset="133010782" timestamp="2023-02-25T15:43:49Z" user="AYAGE" uid="521665" lat="34.1456005" lon="132.2125210"/>
 <node id="10693171966" visible="true" version="1" changeset="133010782" timestamp="2023-02-25T15:43:49Z" user="AYAGE" uid="521665" lat="34.1463780" lon="132.2122212"/>
 <node id="10693171967" visible="true" version="1" changeset="133010782" timestamp="2023-02-25T15:43:49Z" user="AYAGE" uid="521665" lat="34.1471727" lon="132.2115064"/>
 <node id="10695082522" visible="true" version="1" changeset="133048492" timestamp="2023-02-26T15:53:59Z" user="AYAGE" uid="521665" lat="34.1497880" lon="132.2096029"/>
 <node id="10696306922" visible="true" version="1" changeset="133071136" timestamp="2023-02-27T05:33:56Z" user="AYAGE" uid="521665" lat="34.1461660" lon="132.2137769"/>
 <node id="10696306923" visible="true" version="1" changeset="133071136" timestamp="2023-02-27T05:33:56Z" user="AYAGE" uid="521665" lat="34.1460439" lon="132.2135396"/>
 <node id="10696306924" visible="true" version="1" changeset="133071136" timestamp="2023-02-27T05:33:56Z" user="AYAGE" uid="521665" lat="34.1460267" lon="132.2134792"/>
 <node id="10696306925" visible="true" version="2" changeset="133122932" timestamp="2023-02-28T10:45:57Z" user="AYAGE" uid="521665" lat="34.1460223" lon="132.2134316"/>
 <node id="10696306926" visible="true" version="1" changeset="133071136" timestamp="2023-02-27T05:33:56Z" user="AYAGE" uid="521665" lat="34.1460228" lon="132.2130695"/>
 <node id="10696306927" visible="true" version="1" changeset="133071136" timestamp="2023-02-27T05:33:56Z" user="AYAGE" uid="521665" lat="34.1460306" lon="132.2129260"/>
 <node id="10696306928" visible="true" version="1" changeset="133071136" timestamp="2023-02-27T05:33:56Z" user="AYAGE" uid="521665" lat="34.1460539" lon="132.2127711"/>
 <node id="10696306929" visible="true" version="1" changeset="133071136" timestamp="2023-02-27T05:33:56Z" user="AYAGE" uid="521665" lat="34.1460916" lon="132.2126243"/>
 <node id="10696306933" visible="true" version="1" changeset="133071136" timestamp="2023-02-27T05:33:56Z" user="AYAGE" uid="521665" lat="34.1462476" lon="132.2136274"/>
 <node id="10696306934" visible="true" version="1" changeset="133071136" timestamp="2023-02-27T05:33:56Z" user="AYAGE" uid="521665" lat="34.1462964" lon="132.2135094"/>
 <node id="10697427385" visible="true" version="1" changeset="133093872" timestamp="2023-02-27T16:04:10Z" user="AYAGE" uid="521665" lat="34.1452742" lon="132.2109438"/>
 <node id="10697427386" visible="true" version="1" changeset="133093872" timestamp="2023-02-27T16:04:10Z" user="AYAGE" uid="521665" lat="34.1453774" lon="132.2111048"/>
 <node id="10699197031" visible="true" version="1" changeset="133122932" timestamp="2023-02-28T10:45:57Z" user="AYAGE" uid="521665" lat="34.1452786" lon="132.2129931"/>
 <node id="10699197032" visible="true" version="1" changeset="133122932" timestamp="2023-02-28T10:45:57Z" user="AYAGE" uid="521665" lat="34.1452922" lon="132.2124823"/>
 <node id="10699197033" visible="true" version="1" changeset="133122932" timestamp="2023-02-28T10:45:57Z" user="AYAGE" uid="521665" lat="34.1452864" lon="132.2125250"/>
 <node id="10699197034" visible="true" version="1" changeset="133122932" timestamp="2023-02-28T10:45:57Z" user="AYAGE" uid="521665" lat="34.1452853" lon="132.2128603"/>
 <node id="10699197035" visible="true" version="1" changeset="133122932" timestamp="2023-02-28T10:45:57Z" user="AYAGE" uid="521665" lat="34.1453069" lon="132.2128623"/>
 <node id="10699197036" visible="true" version="1" changeset="133122932" timestamp="2023-02-28T10:45:57Z" user="AYAGE" uid="521665" lat="34.1455361" lon="132.2128160"/>
 <node id="10699197037" visible="true" version="1" changeset="133122932" timestamp="2023-02-28T10:45:57Z" user="AYAGE" uid="521665" lat="34.1456521" lon="132.2128670"/>
 <node id="10699197038" visible="true" version="1" changeset="133122932" timestamp="2023-02-28T10:45:57Z" user="AYAGE" uid="521665" lat="34.1455117" lon="132.2130205"/>
 <node id="10699197039" visible="true" version="1" changeset="133122932" timestamp="2023-02-28T10:45:57Z" user="AYAGE" uid="521665" lat="34.1456549" lon="132.2131687"/>
 <node id="10699197040" visible="true" version="1" changeset="133122932" timestamp="2023-02-28T10:45:57Z" user="AYAGE" uid="521665" lat="34.1457392" lon="132.2130668"/>
 <node id="10699197041" visible="true" version="1" changeset="133122932" timestamp="2023-02-28T10:45:57Z" user="AYAGE" uid="521665" lat="34.1458458" lon="132.2132948"/>
 <node id="10699197042" visible="true" version="1" changeset="133122932" timestamp="2023-02-28T10:45:57Z" user="AYAGE" uid="521665" lat="34.1458935" lon="132.2133552"/>
 <node id="10699197043" visible="true" version="1" changeset="133122932" timestamp="2023-02-28T10:45:57Z" user="AYAGE" uid="521665" lat="34.1459113" lon="132.2133712"/>
 <node id="10699197044" visible="true" version="1" changeset="133122932" timestamp="2023-02-28T10:45:57Z" user="AYAGE" uid="521665" lat="34.1459329" lon="132.2133753"/>
 <node id="10699197045" visible="true" version="1" changeset="133122932" timestamp="2023-02-28T10:45:57Z" user="AYAGE" uid="521665" lat="34.1459551" lon="132.2133833"/>
 <node id="10699197046" visible="true" version="1" changeset="133122932" timestamp="2023-02-28T10:45:57Z" user="AYAGE" uid="521665" lat="34.1459856" lon="132.2134148"/>
 <node id="10699197047" visible="true" version="1" changeset="133122932" timestamp="2023-02-28T10:45:57Z" user="AYAGE" uid="521665" lat="34.1460051" lon="132.2134316"/>
 <node id="10699789530" visible="true" version="1" changeset="133134511" timestamp="2023-02-28T15:47:27Z" user="AYAGE" uid="521665" lat="34.1468797" lon="132.2125593"/>
 <node id="10699789531" visible="true" version="1" changeset="133134511" timestamp="2023-02-28T15:47:27Z" user="AYAGE" uid="521665" lat="34.1468769" lon="132.2125049"/>
 <node id="10699789532" visible="true" version="1" changeset="133134511" timestamp="2023-02-28T15:47:27Z" user="AYAGE" uid="521665" lat="34.1466409" lon="132.2120128"/>
 <node id="10699789533" visible="true" version="1" changeset="133134511" timestamp="2023-02-28T15:47:27Z" user="AYAGE" uid="521665" lat="34.1471044" lon="132.2125156"/>
 <node id="10699789534" visible="true" version="1" changeset="133134511" timestamp="2023-02-28T15:47:27Z" user="AYAGE" uid="521665" lat="34.1471144" lon="132.2125616"/>
 <node id="10699789535" visible="true" version="1" changeset="133134511" timestamp="2023-02-28T15:47:27Z" user="AYAGE" uid="521665" lat="34.1479113" lon="132.2114883"/>
 <node id="10699789536" visible="true" version="1" changeset="133134511" timestamp="2023-02-28T15:47:27Z" user="AYAGE" uid="521665" lat="34.1478125" lon="132.2114045"/>
 <node id="10699789537" visible="true" version="1" changeset="133134511" timestamp="2023-02-28T15:47:27Z" user="AYAGE" uid="521665" lat="34.1475900" lon="132.2110699"/>
 <node id="10699789538" visible="true" version="1" changeset="133134511" timestamp="2023-02-28T15:47:27Z" user="AYAGE" uid="521665" lat="34.1475279" lon="132.2110739"/>
 <node id="10699789539" visible="true" version="1" changeset="133134511" timestamp="2023-02-28T15:47:27Z" user="AYAGE" uid="521665" lat="34.1474596" lon="132.2112516"/>
 <node id="10699789541" visible="true" version="1" changeset="133134511" timestamp="2023-02-28T15:47:27Z" user="AYAGE" uid="521665" lat="34.1473691" lon="132.2110069"/>
 <node id="10699789542" visible="true" version="1" changeset="133134511" timestamp="2023-02-28T15:47:27Z" user="AYAGE" uid="521665" lat="34.1473386" lon="132.2110303"/>
 <node id="10699789543" visible="true" version="1" changeset="133134511" timestamp="2023-02-28T15:47:27Z" user="AYAGE" uid="521665" lat="34.1472415" lon="132.2111061"/>
 <node id="10699789544" visible="true" version="1" changeset="133134511" timestamp="2023-02-28T15:47:27Z" user="AYAGE" uid="521665" lat="34.1471960" lon="132.2111363"/>
 <node id="10699789545" visible="true" version="1" changeset="133134511" timestamp="2023-02-28T15:47:27Z" user="AYAGE" uid="521665" lat="34.1471366" lon="132.2111430"/>
 <node id="10699789546" visible="true" version="1" changeset="133134511" timestamp="2023-02-28T15:47:27Z" user="AYAGE" uid="521665" lat="34.1470534" lon="132.2111209"/>
 <node id="10699789547" visible="true" version="1" changeset="133134511" timestamp="2023-02-28T15:47:27Z" user="AYAGE" uid="521665" lat="34.1468863" lon="132.2110089"/>
 <node id="10699789548" visible="true" version="1" changeset="133134511" timestamp="2023-02-28T15:47:27Z" user="AYAGE" uid="521665" lat="34.1468564" lon="132.2109727"/>
 <node id="10699789549" visible="true" version="1" changeset="133134511" timestamp="2023-02-28T15:47:27Z" user="AYAGE" uid="521665" lat="34.1467204" lon="132.2107065"/>
 <node id="10699789550" visible="true" version="1" changeset="133134511" timestamp="2023-02-28T15:47:27Z" user="AYAGE" uid="521665" lat="34.1467204" lon="132.2106354"/>
 <node id="10699789551" visible="true" version="1" changeset="133134511" timestamp="2023-02-28T15:47:27Z" user="AYAGE" uid="521665" lat="34.1467371" lon="132.2105657"/>
 <node id="10699789552" visible="true" version="1" changeset="133134511" timestamp="2023-02-28T15:47:27Z" user="AYAGE" uid="521665" lat="34.1467676" lon="132.2105053"/>
 <node id="10699789553" visible="true" version="1" changeset="133134511" timestamp="2023-02-28T15:47:27Z" user="AYAGE" uid="521665" lat="34.1468314" lon="132.2104470"/>
 <node id="10699789554" visible="true" version="1" changeset="133134511" timestamp="2023-02-28T15:47:27Z" user="AYAGE" uid="521665" lat="34.1468908" lon="132.2104087"/>
 <node id="10699789555" visible="true" version="1" changeset="133134511" timestamp="2023-02-28T15:47:27Z" user="AYAGE" uid="521665" lat="34.1469590" lon="132.2103464"/>
 <node id="10699789557" visible="true" version="1" changeset="133134511" timestamp="2023-02-28T15:47:27Z" user="AYAGE" uid="521665" lat="34.1465495" lon="132.2100037"/>
 <node id="10699789558" visible="true" version="1" changeset="133134511" timestamp="2023-02-28T15:47:27Z" user="AYAGE" uid="521665" lat="34.1466938" lon="132.2100802"/>
 <node id="10699789559" visible="true" version="1" changeset="133134511" timestamp="2023-02-28T15:47:27Z" user="AYAGE" uid="521665" lat="34.1468780" lon="132.2101660"/>
 <node id="10699789560" visible="true" version="1" changeset="133134511" timestamp="2023-02-28T15:47:27Z" user="AYAGE" uid="521665" lat="34.1470500" lon="132.2101955"/>
 <way id="119017651" visible="true" version="2" changeset="133010782" timestamp="2023-02-25T15:43:49Z" user="AYAGE" uid="521665">
  <nd ref="1337994875"/>
  <nd ref="10693171959"/>
  <nd ref="10693171958"/>
  <nd ref="1337994316"/>
  <nd ref="1337995338"/>
  <nd ref="1337992940"/>
  <nd ref="1337994513"/>
  <nd ref="1337994033"/>
  <nd ref="1337995184"/>
  <nd ref="1337995274"/>
  <nd ref="10693171957"/>
  <nd ref="10693171956"/>
  <nd ref="1337993474"/>
  <nd ref="1337994735"/>
  <nd ref="10693171955"/>
  <nd ref="1337993163"/>
  <nd ref="10693171954"/>
  <nd ref="1337994758"/>
  <nd ref="1337995239"/>
  <nd ref="10693171872"/>
  <nd ref="1337993887"/>
  <nd ref="1337994869"/>
  <nd ref="1337995862"/>
  <nd ref="1337996206"/>
  <nd ref="1337995938"/>
  <nd ref="10693171953"/>
  <nd ref="10693171952"/>
  <nd ref="1337996853"/>
  <nd ref="1337995885"/>
  <nd ref="1337994102"/>
  <tag k="highway" v="residential"/>
  <tag k="source" v="YahooJapan/ALPSMAP"/>
 </way>
 <way id="119018153" visible="true" version="2" changeset="133010782" timestamp="2023-02-25T15:43:49Z" user="AYAGE" uid="521665">
  <nd ref="1337994875"/>
  <nd ref="10693171961"/>
  <nd ref="1337996291"/>
  <tag k="highway" v="unclassified"/>
  <tag k="source" v="YahooJapan/ALPSMAP"/>
 </way>
 <way id="119018171" visible="true" version="6" changeset="133134511" timestamp="2023-02-28T15:47:27Z" user="AYAGE" uid="521665">
  <nd ref="1337996579"/>
  <nd ref="10693171932"/>
  <nd ref="1337994008"/>
  <nd ref="1337994469"/>
  <nd ref="10699197032"/>
  <nd ref="10693171965"/>
  <nd ref="1337996806"/>
  <nd ref="10699789530"/>
  <nd ref="10699789534"/>
  <nd ref="2826509621"/>
  <nd ref="1337994632"/>
  <nd ref="1337994767"/>
  <nd ref="2826509616"/>
  <tag k="highway" v="tertiary"/>
  <tag k="lanes" v="2"/>
  <tag k="maxspeed" v="50"/>
  <tag k="source" v="YahooJapan/ALPSMAP"/>
 </way>
 <way id="119018275" visible="true" version="2" changeset="83170390" timestamp="2020-04-07T02:29:42Z" user="Jillybean558" uid="10912192">
  <nd ref="1337995904"/>
  <nd ref="1337995471"/>
  <tag k="highway" v="path"/>
  <tag k="source" v="YahooJapan/ALPSMAP"/>
 </way>
 <way id="119018290" visible="true" version="5" changeset="132993721" timestamp="2023-02-25T06:19:48Z" user="AYAGE" uid="521665">
  <nd ref="2826509619"/>
  <nd ref="3732695827"/>
  <nd ref="3732695828"/>
  <nd ref="10692407489"/>
  <nd ref="10692407490"/>
  <nd ref="1337995814"/>
  <tag k="highway" v="unclassified"/>
  <tag k="source" v="YahooJapan/ALPSMAP"/>
 </way>
 <way id="119018407" visible="true" version="3" changeset="133071136" timestamp="2023-02-27T05:33:56Z" user="AYAGE" uid="521665">
  <nd ref="1337994386"/>
  <nd ref="1337992898"/>
  <nd ref="1337993856"/>
  <nd ref="1337996124"/>
  <nd ref="1337995661"/>
  <nd ref="1337993963"/>
  <nd ref="1337994936"/>
  <nd ref="1337993416"/>
  <nd ref="10696306933"/>
  <nd ref="10696306934"/>
  <nd ref="1337995904"/>
  <nd ref="1337994712"/>
  <nd ref="1337995654"/>
  <nd ref="1337993540"/>
  <nd ref="10692407483"/>
  <nd ref="10692407481"/>
  <nd ref="10692407482"/>
  <nd ref="2826509621"/>
  <tag k="highway" v="unclassified"/>
  <tag k="source" v="YahooJapan/ALPSMAP"/>
 </way>
 <way id="119018481" visible="true" version="3" changeset="133071136" timestamp="2023-02-27T05:33:56Z" user="AYAGE" uid="521665">
  <nd ref="1337996291"/>
  <nd ref="10693171963"/>
  <nd ref="10693171964"/>
  <nd ref="1337996806"/>
  <nd ref="10696306929"/>
  <nd ref="10696306928"/>
  <nd ref="10696306927"/>
  <nd ref="10696306926"/>
  <nd ref="10696306925"/>
  <nd ref="10696306924"/>
  <nd ref="10696306923"/>
  <nd ref="10696306922"/>
  <nd ref="1337993416"/>
  <tag k="highway" v="unclassified"/>
  <tag k="source" v="YahooJapan/ALPSMAP"/>
 </way>
 <way id="119018573" visible="true" version="2" changeset="83170390" timestamp="2020-04-07T02:29:42Z" user="Jillybean558" uid="10912192">
  <nd ref="1337993375"/>
  <nd ref="1337995623"/>
  <nd ref="1337995471"/>
  <nd ref="7373926567"/>
  <tag k="highway" v="unclassified"/>
  <tag k="source" v="YahooJapan/ALPSMAP"/>
 </way>
 <way id="119018710" visible="true" version="3" changeset="83170390" timestamp="2020-04-07T02:29:42Z" user="Jillybean558" uid="10912192">
  <nd ref="7373926567"/>
  <nd ref="1337993513"/>
  <tag k="highway" v="unclassified"/>
  <tag k="source" v="YahooJapan/ALPSMAP"/>
 </way>
 <way id="119018726" visible="true" version="3" changeset="133134511" timestamp="2023-02-28T15:47:27Z" user="AYAGE" uid="521665">
  <nd ref="1337996291"/>
  <nd ref="10693171962"/>
  <nd ref="10693171966"/>
  <nd ref="1337995564"/>
  <nd ref="10699789532"/>
  <nd ref="1337995610"/>
  <nd ref="1337995840"/>
  <nd ref="10693171967"/>
  <nd ref="1337995960"/>
  <nd ref="10699789539"/>
  <nd ref="1337995136"/>
  <nd ref="1337993593"/>
  <nd ref="10699789541"/>
  <nd ref="1337992839"/>
  <nd ref="1337993304"/>
  <nd ref="1337993227"/>
  <nd ref="1337995070"/>
  <nd ref="1337994311"/>
  <nd ref="1337993248"/>
  <nd ref="10693171946"/>
  <nd ref="1337995083"/>
  <nd ref="1337993974"/>
  <tag k="highway" v="unclassified"/>
  <tag k="source" v="YahooJapan/ALPSMAP"/>
 </way>
 <way id="119018744" visible="true" version="2" changeset="83170390" timestamp="2020-04-07T02:29:42Z" user="Jillybean558" uid="10912192">
  <nd ref="1337993022"/>
  <nd ref="7373926566"/>
  <nd ref="1337992870"/>
  <tag k="highway" v="path"/>
  <tag k="source" v="YahooJapan/ALPSMAP"/>
 </way>
 <way id="119018784" visible="true" version="4" changeset="132991996" timestamp="2023-02-25T04:01:54Z" user="AYAGE" uid="521665">
  <nd ref="2826509616"/>
  <nd ref="1337993692"/>
  <nd ref="10692334442"/>
  <nd ref="10692334443"/>
  <nd ref="1337995047"/>
  <tag k="highway" v="tertiary"/>
  <tag k="source" v="YahooJapan/ALPSMAP"/>
 </way>
 <way id="278247645" visible="true" version="11" changeset="170704530" timestamp="2025-08-20T06:13:30Z" user="taketaketake" uid="4757277">
  <nd ref="2826509618"/>
  <nd ref="5892053885"/>
  <nd ref="1337993022"/>
  <nd ref="1337993513"/>
  <nd ref="2826509617"/>
  <nd ref="2826509616"/>
  <nd ref="2826509615"/>
  <nd ref="3732695829"/>
  <nd ref="2826509614"/>
  <nd ref="10692440705"/>
  <nd ref="2826509612"/>
  <nd ref="10695082522"/>
  <nd ref="7373926564"/>
  <nd ref="1337993631"/>
  <nd ref="10692440715"/>
  <nd ref="2826509611"/>
  <nd ref="10692440726"/>
  <nd ref="2826509610"/>
  <nd ref="4262966063"/>
  <nd ref="2826509609"/>
  <nd ref="2826509608"/>
  <nd ref="2826509607"/>
  <nd ref="6341033217"/>
  <nd ref="2826509606"/>
  <nd ref="2826509605"/>
  <nd ref="1336832742"/>
  <tag k="highway" v="secondary"/>
  <tag k="lanes" v="2"/>
  <tag k="maxspeed" v="50"/>
  <tag k="name" v="南岩国停車場磯崎線"/>
  <tag k="name:en" v="Minamiiwakuni Station Isozaki Line"/>
  <tag k="name:ja" v="南岩国停車場磯崎線"/>
  <tag k="name:ja-Hira" v="みなみいわくにていしゃじょういそざきせん"/>
  <tag k="name:ja_rm" v="Minamiiwakuni Teishajō Isozaki-sen"/>
  <tag k="ref" v="113"/>
  <tag k="source" v="image;survey"/>
  <tag k="surface" v="asphalt"/>
  <tag k="wikidata" v="Q11467131"/>
  <tag k="wikipedia" v="ja:山口県道113号南岩国停車場磯崎線"/>
 </way>
 <way id="278247647" visible="true" version="2" changeset="132993721" timestamp="2023-02-25T06:19:48Z" user="AYAGE" uid="521665">
  <nd ref="2826509619"/>
  <nd ref="2826509620"/>
  <nd ref="10692407480"/>
  <nd ref="2826509621"/>
  <tag k="highway" v="residential"/>
  <tag k="source" v="image;survey"/>
 </way>
 <way id="641622942" visible="true" version="4" changeset="167612722" timestamp="2025-06-14T13:20:59Z" user="okadatsuneo" uid="10163840">
  <nd ref="6042064976"/>
  <nd ref="6042064935"/>
  <nd ref="6042064936"/>
  <nd ref="6042064937"/>
  <nd ref="6042064934"/>
  <nd ref="6042064933"/>
  <nd ref="6042064932"/>
  <nd ref="6042064931"/>
  <nd ref="6042064929"/>
  <nd ref="6042064928"/>
  <nd ref="6042064927"/>
  <nd ref="6042064926"/>
  <tag k="cables" v="6"/>
  <tag k="circuits" v="2"/>
  <tag k="power" v="line"/>
 </way>
 <way id="1149806788" visible="true" version="2" changeset="133093872" timestamp="2023-02-27T16:04:10Z" user="AYAGE" uid="521665">
  <nd ref="10697427385"/>
  <nd ref="10697427386"/>
  <nd ref="1337994264"/>
  <nd ref="1337993366"/>
  <nd ref="10693171960"/>
  <nd ref="1337994875"/>
  <tag k="highway" v="unclassified"/>
  <tag k="source" v="YahooJapan/ALPSMAP"/>
 </way>
 <way id="1150129410" visible="true" version="1" changeset="133122932" timestamp="2023-02-28T10:45:57Z" user="AYAGE" uid="521665">
  <nd ref="10699197031"/>
  <nd ref="10699197034"/>
  <nd ref="10699197033"/>
  <nd ref="10699197032"/>
  <tag k="highway" v="residential"/>
 </way>
 <way id="1150129411" visible="true" version="1" changeset="133122932" timestamp="2023-02-28T10:45:57Z" user="AYAGE" uid="521665">
  <nd ref="10699197040"/>
  <nd ref="10699197039"/>
  <nd ref="10699197038"/>
  <tag k="highway" v="residential"/>
 </way>
 <way id="1150129412" visible="true" version="1" changeset="133122932" timestamp="2023-02-28T10:45:57Z" user="AYAGE" uid="521665">
  <nd ref="10696306925"/>
  <nd ref="10699197047"/>
  <nd ref="10699197046"/>
  <nd ref="10699197045"/>
  <nd ref="10699197044"/>
  <nd ref="10699197043"/>
  <nd ref="10699197042"/>
  <nd ref="10699197041"/>
  <nd ref="10699197040"/>
  <nd ref="10699197037"/>
  <nd ref="10699197036"/>
  <nd ref="10699197035"/>
  <nd ref="10699197034"/>
  <tag k="highway" v="residential"/>
 </way>
 <way id="1150193592" visible="true" version="1" changeset="133134511" timestamp="2023-02-28T15:47:27Z" user="AYAGE" uid="521665">
  <nd ref="10699789532"/>
  <nd ref="10699789531"/>
  <nd ref="10699789530"/>
  <tag k="highway" v="residential"/>
 </way>
 <way id="1150193593" visible="true" version="1" changeset="133134511" timestamp="2023-02-28T15:47:27Z" user="AYAGE" uid="521665">
  <nd ref="10699789534"/>
  <nd ref="10699789533"/>
  <nd ref="1337995610"/>
  <tag k="highway" v="residential"/>
 </way>
 <way id="1150193594" visible="true" version="1" changeset="133134511" timestamp="2023-02-28T15:47:27Z" user="AYAGE" uid="521665">
  <nd ref="1337993593"/>
  <nd ref="10699789538"/>
  <nd ref="10699789537"/>
  <nd ref="10699789536"/>
  <nd ref="10699789535"/>
  <tag k="highway" v="residential"/>
 </way>
 <way id="1150193596" visible="true" version="1" changeset="133134511" timestamp="2023-02-28T15:47:27Z" user="AYAGE" uid="521665">
  <nd ref="10699789541"/>
  <nd ref="10699789542"/>
  <nd ref="10699789543"/>
  <nd ref="10699789544"/>
  <nd ref="10699789545"/>
  <nd ref="10699789546"/>
  <nd ref="10699789547"/>
  <nd ref="10699789548"/>
  <nd ref="10699789549"/>
  <nd ref="10699789550"/>
  <nd ref="10699789551"/>
  <nd ref="10699789552"/>
  <nd ref="10699789553"/>
  <nd ref="10699789554"/>
  <nd ref="10699789555"/>
  <nd ref="1337994311"/>
  <nd ref="10699789560"/>
  <nd ref="10699789559"/>
  <nd ref="10699789558"/>
  <nd ref="10699789557"/>
  <tag k="highway" v="residential"/>
 </way>
 <relation id="19481950" visible="true" version="3" changeset="188702646" timestamp="2026-09-08T05:07:38Z" user="taketaketake" uid="4757277">
  <member type="way" ref="183569582" role=""/>
  <member type="way" ref="278247645" role=""/>
  <member type="way" ref="119018596" role=""/>
  <member type="way" ref="119018193" role=""/>
  <member type="way" ref="119018734" role=""/>
  <member type="way" ref="119025588" role=""/>
  <member type="way" ref="119024946" role=""/>
  <member type="way" ref="119024834" role=""/>
  <member type="way" ref="119025112" role=""/>
  <tag k="colour" v="Yellow"/>
  <tag k="from" v="山口県岩国市南岩国町1丁目（南岩国駅前）"/>
  <tag k="name" v="山口県道113号　南岩国停車場磯崎線"/>
  <tag k="name:en" v="Yamaguchi Prefectural Route 113 Minamiiwakuni Station Isozaki Line"/>
  <tag k="name:ja" v="山口県道113号　南岩国停車場磯崎線"/>
  <tag k="name:ja-Hira" v="やまぐちけんどう113ごう みなみいわくにていしゃじょういそざきせん"/>
  <tag k="name:ja_rm" v="Yamaguchikendō 113-gō Minamiiwakuni Teishajō Isozaki-sen"/>
  <tag k="network" v="JP:prefectural"/>
  <tag k="ref" v="113"/>
  <tag k="route" v="road"/>
  <tag k="to" v="山口県岩国市室の木町1丁目"/>
  <tag k="type" v="route"/>
  <tag k="wikidata" v="Q11467131"/>
  <tag k="wikipedia" v="ja:山口県道113号南岩国停車場磯崎線"/>
 </relation>
</osm>
