<?xml version="1.0" encoding="UTF-8"?>
<osm version="0.6" generator="openstreetmap-cgimap 2.1.0 (2942765 spike-08.openstreetmap.org)" copyright="OpenStreetMap and contributors" attribution="http://www.openstreetmap.org/copyright" license="http://opendatacommons.org/licenses/odbl/1-0/">
 <bounds minlat="34.1577893" minlon="132.2153721" maxlat="34.1608246" maxlon="132.2185777"/>
 <node id="733198699" visible="true" version="3" changeset="133191082" timestamp="2023-03-01T23:18:38Z" user="AYAGE" uid="521665" lat="34.1613100" lon="132.2193257"/>
 <node id="748919085" visible="true" version="1" changeset="4813224" timestamp="2010-05-26T13:46:28Z" user="Tom_G3X" uid="146930" lat="34.1633060" lon="132.2262840"/>
 <node id="748933008" visible="true" version="1" changeset="4813224" timestamp="2010-05-26T13:53:45Z" user="Tom_G3X" uid="146930" lat="34.1594140" lon="132.2129860"/>
 <node id="748953924" visible="true" version="1" changeset="4813224" timestamp="2010-05-26T14:02:24Z" user="Tom_G3X" uid="146930" lat="34.1626340" lon="132.2410350"/>
 <node id="749042161" visible="true" version="2" changeset="14279910" timestamp="2012-12-15T12:33:52Z" user="nmaruichi" uid="317331" lat="34.1585498" lon="132.2041809"/>
 <node id="749094001" visible="true" version="1" changeset="4813826" timestamp="2010-05-26T14:59:35Z" user="Tom_G3X" uid="146930" lat="34.1625370" lon="132.2210730"/>
 <node id="749154475" visible="true" version="1" changeset="4813826" timestamp="2010-05-26T15:17:47Z" user="Tom_G3X" uid="146930" lat="34.1631650" lon="132.2356130"/>
 <node id="749218889" visible="true" version="1" changeset="4813826" timestamp="2010-05-26T15:38:09Z" user="Tom_G3X" uid="146930" lat="34.1587020" lon="132.2098500"/>
 <node id="749298227" visible="true" version="1" changeset="4814433" timestamp="2010-05-26T16:10:38Z" user="Tom_G3X" uid="146930" lat="34.1635570" lon="132.2279250"/>
 <node id="749315938" visible="true" version="1" changeset="4814433" timestamp="2010-05-26T16:17:02Z" user="Tom_G3X" uid="146930" lat="34.1607460" lon="132.2158960"/>
 <node id="749438992" visible="true" version="1" changeset="4814433" timestamp="2010-05-26T16:55:07Z" user="Tom_G3X" uid="146930" lat="34.1586270" lon="132.2054060"/>
 <node id="749552561" visible="true" version="1" changeset="4815008" timestamp="2010-05-26T17:29:40Z" user="Tom_G3X" uid="146930" lat="34.1628740" lon="132.2231260"/>
 <node id="749603583" visible="true" version="1" changeset="4815008" timestamp="2010-05-26T17:45:14Z" user="Tom_G3X" uid="146930" lat="34.1628370" lon="132.2389640"/>
 <node id="749684523" visible="true" version="1" changeset="4815008" timestamp="2010-05-26T18:10:21Z" user="Tom_G3X" uid="146930" lat="34.1590940" lon="132.2115760"/>
 <node id="749726877" visible="true" version="2" changeset="14279910" timestamp="2012-12-15T12:33:52Z" user="nmaruichi" uid="317331" lat="34.1584696" lon="132.2007860"/>
 <node id="749775044" visible="true" version="1" changeset="4815008" timestamp="2010-05-26T18:47:14Z" user="Tom_G3X" uid="146930" lat="34.1635780" lon="132.2280550"/>
 <node id="749790081" visible="true" version="1" changeset="4815758" timestamp="2010-05-26T18:57:37Z" user="Tom_G3X" uid="146930" lat="34.1612260" lon="132.2172840"/>
 <node id="749815427" visible="true" version="1" changeset="4815758" timestamp="2010-05-26T19:11:49Z" user="Tom_G3X" uid="146930" lat="34.1635020" lon="132.2303560"/>
 <node id="749872193" visible="true" version="1" changeset="4815758" timestamp="2010-05-26T19:31:47Z" user="Tom_G3X" uid="146930" lat="34.1586270" lon="132.2078190"/>
 <node id="1338102164" visible="true" version="2" changeset="133178979" timestamp="2023-03-01T16:24:37Z" user="AYAGE" uid="521665" lat="34.1603392" lon="132.2168425"/>
 <node id="1338102183" visible="true" version="4" changeset="133178979" timestamp="2023-03-01T16:24:37Z" user="AYAGE" uid="521665" lat="34.1598835" lon="132.2161363"/>
 <node id="1338102199" visible="true" version="2" changeset="133178979" timestamp="2023-03-01T16:24:37Z" user="AYAGE" uid="521665" lat="34.1586951" lon="132.2178796"/>
 <node id="1338102220" visible="true" version="3" changeset="133178979" timestamp="2023-03-01T16:24:37Z" user="AYAGE" uid="521665" lat="34.1585398" lon="132.2175395"/>
 <node id="1338102244" visible="true" version="3" changeset="133157034" timestamp="2023-03-01T06:07:53Z" user="AYAGE" uid="521665" lat="34.1581581" lon="132.2128407"/>
 <node id="1338102277" visible="true" version="2" changeset="83013275" timestamp="2020-04-03T06:44:34Z" user="Jillybean558" uid="10912192" lat="34.1583868" lon="132.2164337"/>
 <node id="1338102368" visible="true" version="1" changeset="8540490" timestamp="2011-06-25T09:52:56Z" user="yamasan" uid="32308" lat="34.1580390" lon="132.2162210"/>
 <node id="1338102395" visible="true" version="3" changeset="133157034" timestamp="2023-03-01T06:07:53Z" user="AYAGE" uid="521665" lat="34.1584882" lon="132.2137671"/>
 <node id="1338102550" visible="true" version="2" changeset="83013275" timestamp="2020-04-03T06:44:34Z" user="Jillybean558" uid="10912192" lat="34.1591081" lon="132.2185011"/>
 <node id="1338102577" visible="true" version="3" changeset="133178979" timestamp="2023-03-01T16:24:37Z" user="AYAGE" uid="521665" lat="34.1602420" lon="132.2167752"/>
 <node id="1338102595" visible="true" version="2" changeset="133178979" timestamp="2023-03-01T16:24:37Z" user="AYAGE" uid="521665" lat="34.1598627" lon="132.2179602"/>
 <node id="1338102609" visible="true" version="4" changeset="133191082" timestamp="2023-03-01T23:18:38Z" user="AYAGE" uid="521665" lat="34.1579132" lon="132.2167944"/>
 <node id="1338102687" visible="true" version="1" changeset="8540490" timestamp="2011-06-25T09:53:04Z" user="yamasan" uid="32308" lat="34.1575790" lon="132.2172120"/>
 <node id="1338102727" visible="true" version="3" changeset="133178979" timestamp="2023-03-01T16:24:37Z" user="AYAGE" uid="521665" lat="34.1584311" lon="132.2153163"/>
 <node id="1338102775" visible="true" version="4" changeset="133157034" timestamp="2023-03-01T06:07:53Z" user="AYAGE" uid="521665" lat="34.1565701" lon="132.2163424"/>
 <node id="1338102779" visible="true" version="2" changeset="83066884" timestamp="2020-04-04T10:41:27Z" user="xkrautsc" uid="5283635" lat="34.1593728" lon="132.2153427"/>
 <node id="1338102798" visible="true" version="3" changeset="133178979" timestamp="2023-03-01T16:24:37Z" user="AYAGE" uid="521665" lat="34.1595396" lon="132.2160232"/>
 <node id="1338102855" visible="true" version="3" changeset="133178979" timestamp="2023-03-01T16:24:37Z" user="AYAGE" uid="521665" lat="34.1585049" lon="132.2174136"/>
 <node id="1338102932" visible="true" version="3" changeset="133191082" timestamp="2023-03-01T23:18:38Z" user="AYAGE" uid="521665" lat="34.1609913" lon="132.2183570"/>
 <node id="1338102975" visible="true" version="2" changeset="22537912" timestamp="2014-05-25T08:08:56Z" user="nmaruichi" uid="317331" lat="34.1569578" lon="132.2164612"/>
 <node id="1338102981" visible="true" version="3" changeset="133157034" timestamp="2023-03-01T06:07:53Z" user="AYAGE" uid="521665" lat="34.1585792" lon="132.2139603"/>
 <node id="1338102999" visible="true" version="3" changeset="133157034" timestamp="2023-03-01T06:07:53Z" user="AYAGE" uid="521665" lat="34.1583963" lon="132.2135362"/>
 <node id="1338103015" visible="true" version="2" changeset="83013275" timestamp="2020-04-03T06:44:34Z" user="Jillybean558" uid="10912192" lat="34.1576746" lon="132.2169635"/>
 <node id="1338103067" visible="true" version="2" changeset="133178979" timestamp="2023-03-01T16:24:37Z" user="AYAGE" uid="521665" lat="34.1588032" lon="132.2180807"/>
 <node id="1338103100" visible="true" version="2" changeset="83013275" timestamp="2020-04-03T06:44:34Z" user="Jillybean558" uid="10912192" lat="34.1579007" lon="132.2159136"/>
 <node id="1338103124" visible="true" version="3" changeset="133191082" timestamp="2023-03-01T23:18:38Z" user="AYAGE" uid="521665" lat="34.1584228" lon="132.2160058"/>
 <node id="1338103215" visible="true" version="4" changeset="133178979" timestamp="2023-03-01T16:24:37Z" user="AYAGE" uid="521665" lat="34.1593765" lon="132.2159510"/>
 <node id="1338103222" visible="true" version="4" changeset="133191082" timestamp="2023-03-01T23:18:38Z" user="AYAGE" uid="521665" lat="34.1578263" lon="132.2167614"/>
 <node id="1338103246" visible="true" version="3" changeset="133178979" timestamp="2023-03-01T16:24:37Z" user="AYAGE" uid="521665" lat="34.1587979" lon="132.2152639"/>
 <node id="1338103314" visible="true" version="3" changeset="133178979" timestamp="2023-03-01T16:24:37Z" user="AYAGE" uid="521665" lat="34.1596755" lon="132.2166850"/>
 <node id="1338103372" visible="true" version="3" changeset="133259244" timestamp="2023-03-03T15:30:50Z" user="AYAGE" uid="521665" lat="34.1581797" lon="132.2187916"/>
 <node id="1338103487" visible="true" version="3" changeset="133380517" timestamp="2023-03-06T21:34:26Z" user="AYAGE" uid="521665" lat="34.1617150" lon="132.2162216"/>
 <node id="1338103510" visible="true" version="2" changeset="83013275" timestamp="2020-04-03T06:44:34Z" user="Jillybean558" uid="10912192" lat="34.1580083" lon="132.2160609"/>
 <node id="1338103514" visible="true" version="1" changeset="8540490" timestamp="2011-06-25T09:53:23Z" user="yamasan" uid="32308" lat="34.1599450" lon="132.2195830"/>
 <node id="1338103538" visible="true" version="3" changeset="133191082" timestamp="2023-03-01T23:18:38Z" user="AYAGE" uid="521665" lat="34.1580722" lon="132.2168460"/>
 <node id="1338103635" visible="true" version="3" changeset="133191082" timestamp="2023-03-01T23:18:38Z" user="AYAGE" uid="521665" lat="34.1584509" lon="132.2157836"/>
 <node id="1338103696" visible="true" version="4" changeset="133178979" timestamp="2023-03-01T16:24:37Z" user="AYAGE" uid="521665" lat="34.1595862" lon="132.2163207"/>
 <node id="1338103792" visible="true" version="2" changeset="83013275" timestamp="2020-04-03T06:44:34Z" user="Jillybean558" uid="10912192" lat="34.1579306" lon="132.2154940"/>
 <node id="1338103797" visible="true" version="3" changeset="133191082" timestamp="2023-03-01T23:18:38Z" user="AYAGE" uid="521665" lat="34.1605596" lon="132.2173629"/>
 <node id="1338103816" visible="true" version="3" changeset="133178979" timestamp="2023-03-01T16:24:37Z" user="AYAGE" uid="521665" lat="34.1599101" lon="132.2170112"/>
 <node id="1338103835" visible="true" version="4" changeset="133178979" timestamp="2023-03-01T16:24:37Z" user="AYAGE" uid="521665" lat="34.1597272" lon="132.2170400">
  <tag k="highway" v="traffic_signals"/>
 </node>
 <node id="1338103945" visible="true" version="2" changeset="133178979" timestamp="2023-03-01T16:24:37Z" user="AYAGE" uid="521665" lat="34.1590614" lon="132.2169275"/>
 <node id="1338103998" visible="true" version="4" changeset="133191082" timestamp="2023-03-01T23:18:38Z" user="AYAGE" uid="521665" lat="34.1584432" lon="132.2168886"/>
 <node id="1338104009" visible="true" version="2" changeset="133178979" timestamp="2023-03-01T16:24:37Z" user="AYAGE" uid="521665" lat="34.1579477" lon="132.2152184"/>
 <node id="1338104034" visible="true" version="3" changeset="83066884" timestamp="2020-04-04T10:41:27Z" user="xkrautsc" uid="5283635" lat="34.1589418" lon="132.2153865"/>
 <node id="1338104214" visible="true" version="3" changeset="64865815" timestamp="2018-11-25T12:33:46Z" user="iwa map" uid="7211705" lat="34.1580522" lon="132.2124776"/>
 <node id="1338104296" visible="true" version="2" changeset="83013275" timestamp="2020-04-03T06:44:34Z" user="Jillybean558" uid="10912192" lat="34.1578769" lon="132.2157927"/>
 <node id="1338104329" visible="true" version="2" changeset="83013275" timestamp="2020-04-03T06:44:34Z" user="Jillybean558" uid="10912192" lat="34.1580282" lon="132.2165142"/>
 <node id="1338104510" visible="true" version="3" changeset="133191082" timestamp="2023-03-01T23:18:38Z" user="AYAGE" uid="521665" lat="34.1574862" lon="132.2166473"/>
 <node id="1338104528" visible="true" version="1" changeset="8540490" timestamp="2011-06-25T09:53:49Z" user="yamasan" uid="32308" lat="34.1581470" lon="132.2180490"/>
 <node id="1338104605" visible="true" version="2" changeset="133178979" timestamp="2023-03-01T16:24:37Z" user="AYAGE" uid="521665" lat="34.1582322" lon="132.2152748"/>
 <node id="1338104645" visible="true" version="4" changeset="133191082" timestamp="2023-03-01T23:18:38Z" user="AYAGE" uid="521665" lat="34.1602862" lon="132.2168651"/>
 <node id="1338104666" visible="true" version="2" changeset="83013275" timestamp="2020-04-03T06:44:34Z" user="Jillybean558" uid="10912192" lat="34.1592206" lon="132.2186134"/>
 <node id="1338104681" visible="true" version="3" changeset="133191082" timestamp="2023-03-01T23:18:38Z" user="AYAGE" uid="521665" lat="34.1581400" lon="132.2174766"/>
 <node id="1338104702" visible="true" version="3" changeset="133178979" timestamp="2023-03-01T16:24:37Z" user="AYAGE" uid="521665" lat="34.1594238" lon="132.2169678"/>
 <node id="1338104756" visible="true" version="3" changeset="133191082" timestamp="2023-03-01T23:18:38Z" user="AYAGE" uid="521665" lat="34.1584313" lon="132.2158642"/>
 <node id="1338104848" visible="true" version="3" changeset="133191082" timestamp="2023-03-01T23:18:38Z" user="AYAGE" uid="521665" lat="34.1585772" lon="132.2154074"/>
 <node id="1338104880" visible="true" version="2" changeset="83066884" timestamp="2020-04-04T10:41:27Z" user="xkrautsc" uid="5283635" lat="34.1589648" lon="132.2146928"/>
 <node id="1423659697" visible="true" version="2" changeset="24611741" timestamp="2014-08-08T09:38:51Z" user="yoshimap" uid="1776043" lat="34.1578152" lon="132.2182039">
  <tag k="amenity" v="kindergarten"/>
  <tag k="name" v="法寿幼稚園"/>
  <tag k="note" v="National-Land Numerical Information (Public Facility) 2006, MLIT Japan"/>
  <tag k="note:ja" v="国土数値情報（公共施設データ）平成19年　国土交通省"/>
  <tag k="source" v="KSJ2"/>
  <tag k="source_ref" v="http://nlftp.mlit.go.jp/ksj/jpgis/datalist/KsjTmplt-P02-v2_0.html"/>
 </node>
 <node id="2068116150" visible="true" version="3" changeset="66243786" timestamp="2019-01-12T04:31:54Z" user="HicksCO" uid="9337111" lat="34.1580283" lon="132.1998363"/>
 <node id="2068116151" visible="true" version="2" changeset="133178979" timestamp="2023-03-01T16:24:37Z" user="AYAGE" uid="521665" lat="34.1583297" lon="132.2031032"/>
 <node id="2068116185" visible="true" version="2" changeset="18465298" timestamp="2013-10-21T09:17:24Z" user="yoshimap" uid="1776043" lat="34.1619145" lon="132.2357579"/>
 <node id="2068116187" visible="true" version="2" changeset="18465298" timestamp="2013-10-21T09:17:24Z" user="yoshimap" uid="1776043" lat="34.1620651" lon="132.2353008"/>
 <node id="2068116188" visible="true" version="2" changeset="18465298" timestamp="2013-10-21T09:17:24Z" user="yoshimap" uid="1776043" lat="34.1628353" lon="132.2288530"/>
 <node id="2068116189" visible="true" version="2" changeset="18465298" timestamp="2013-10-21T09:17:24Z" user="yoshimap" uid="1776043" lat="34.1628455" lon="132.2281931"/>
 <node id="2068116190" visible="true" version="2" changeset="18465298" timestamp="2013-10-21T09:17:24Z" user="yoshimap" uid="1776043" lat="34.1626482" lon="132.2271295"/>
 <node id="2068116191" visible="true" version="2" changeset="18465298" timestamp="2013-10-21T09:17:24Z" user="yoshimap" uid="1776043" lat="34.1624252" lon="132.2260725"/>
 <node id="2068116192" visible="true" version="2" changeset="18465298" timestamp="2013-10-21T09:17:24Z" user="yoshimap" uid="1776043" lat="34.1624401" lon="132.2252002"/>
 <node id="2068116193" visible="true" version="3" changeset="133191082" timestamp="2023-03-01T23:18:38Z" user="AYAGE" uid="521665" lat="34.1621964" lon="132.2227918"/>
 <node id="2068116194" visible="true" version="3" changeset="133191082" timestamp="2023-03-01T23:18:38Z" user="AYAGE" uid="521665" lat="34.1620605" lon="132.2217016"/>
 <node id="2068116195" visible="true" version="3" changeset="133191082" timestamp="2023-03-01T23:18:38Z" user="AYAGE" uid="521665" lat="34.1618426" lon="132.2206134"/>
 <node id="2068116196" visible="true" version="3" changeset="133191082" timestamp="2023-03-01T23:18:38Z" user="AYAGE" uid="521665" lat="34.1611408" lon="132.2184993"/>
 <node id="2068116197" visible="true" version="3" changeset="133191082" timestamp="2023-03-01T23:18:38Z" user="AYAGE" uid="521665" lat="34.1609566" lon="132.2179998"/>
 <node id="2068116198" visible="true" version="3" changeset="133191082" timestamp="2023-03-01T23:18:38Z" user="AYAGE" uid="521665" lat="34.1602092" lon="132.2163168"/>
 <node id="2068116199" visible="true" version="3" changeset="133191082" timestamp="2023-03-01T23:18:38Z" user="AYAGE" uid="521665" lat="34.1592148" lon="132.2135012"/>
 <node id="2068116200" visible="true" version="3" changeset="133191082" timestamp="2023-03-01T23:18:38Z" user="AYAGE" uid="521665" lat="34.1590761" lon="132.2131777"/>
 <node id="2068116201" visible="true" version="3" changeset="133191082" timestamp="2023-03-01T23:18:38Z" user="AYAGE" uid="521665" lat="34.1590155" lon="132.2129236"/>
 <node id="2068116202" visible="true" version="2" changeset="18465298" timestamp="2013-10-21T09:17:25Z" user="yoshimap" uid="1776043" lat="34.1586117" lon="132.2124089"/>
 <node id="2068116203" visible="true" version="2" changeset="18465298" timestamp="2013-10-21T09:17:25Z" user="yoshimap" uid="1776043" lat="34.1582434" lon="132.2111354"/>
 <node id="2068116204" visible="true" version="2" changeset="18465298" timestamp="2013-10-21T09:17:25Z" user="yoshimap" uid="1776043" lat="34.1583299" lon="132.2109436"/>
 <node id="2068116205" visible="true" version="2" changeset="18465298" timestamp="2013-10-21T09:17:25Z" user="yoshimap" uid="1776043" lat="34.1582841" lon="132.2106714"/>
 <node id="2068116223" visible="true" version="1" changeset="14279910" timestamp="2012-12-15T12:33:46Z" user="nmaruichi" uid="317331" lat="34.1581816" lon="132.2104243"/>
 <node id="2068116224" visible="true" version="1" changeset="14279910" timestamp="2012-12-15T12:33:46Z" user="nmaruichi" uid="317331" lat="34.1582519" lon="132.2102757"/>
 <node id="2068116225" visible="true" version="1" changeset="14279910" timestamp="2012-12-15T12:33:46Z" user="nmaruichi" uid="317331" lat="34.1583134" lon="132.2100634"/>
 <node id="2068116226" visible="true" version="1" changeset="14279910" timestamp="2012-12-15T12:33:46Z" user="nmaruichi" uid="317331" lat="34.1583134" lon="132.2084284"/>
 <node id="2068116227" visible="true" version="1" changeset="14279910" timestamp="2012-12-15T12:33:46Z" user="nmaruichi" uid="317331" lat="34.1582285" lon="132.1993156"/>
 <node id="2068116228" visible="true" version="1" changeset="14279910" timestamp="2012-12-15T12:33:46Z" user="nmaruichi" uid="317331" lat="34.1583924" lon="132.1986927"/>
 <node id="2068116229" visible="true" version="2" changeset="132975766" timestamp="2023-02-24T16:27:22Z" user="AYAGE" uid="521665" lat="34.1585054" lon="132.1980273"/>
 <node id="2068116230" visible="true" version="2" changeset="132975766" timestamp="2023-02-24T16:27:22Z" user="AYAGE" uid="521665" lat="34.1585444" lon="132.1966587"/>
 <node id="2068116231" visible="true" version="1" changeset="14279910" timestamp="2012-12-15T12:33:46Z" user="nmaruichi" uid="317331" lat="34.1584627" lon="132.1956492"/>
 <node id="2068116232" visible="true" version="1" changeset="14279910" timestamp="2012-12-15T12:33:46Z" user="nmaruichi" uid="317331" lat="34.1575256" lon="132.1908928"/>
 <node id="2068116233" visible="true" version="1" changeset="14279910" timestamp="2012-12-15T12:33:46Z" user="nmaruichi" uid="317331" lat="34.1573616" lon="132.1892649"/>
 <node id="2068116234" visible="true" version="1" changeset="14279910" timestamp="2012-12-15T12:33:46Z" user="nmaruichi" uid="317331" lat="34.1573441" lon="132.1884449"/>
 <node id="2068116235" visible="true" version="1" changeset="14279910" timestamp="2012-12-15T12:33:46Z" user="nmaruichi" uid="317331" lat="34.1573794" lon="132.1881185"/>
 <node id="2068116236" visible="true" version="1" changeset="14279910" timestamp="2012-12-15T12:33:46Z" user="nmaruichi" uid="317331" lat="34.1572619" lon="132.1867987"/>
 <node id="2068116237" visible="true" version="1" changeset="14279910" timestamp="2012-12-15T12:33:46Z" user="nmaruichi" uid="317331" lat="34.1571328" lon="132.1864156"/>
 <node id="2068116238" visible="true" version="1" changeset="14279910" timestamp="2012-12-15T12:33:46Z" user="nmaruichi" uid="317331" lat="34.1570388" lon="132.1859898"/>
 <node id="2068116239" visible="true" version="1" changeset="14279910" timestamp="2012-12-15T12:33:46Z" user="nmaruichi" uid="317331" lat="34.1570975" lon="132.1850674"/>
 <node id="2068116240" visible="true" version="1" changeset="14279910" timestamp="2012-12-15T12:33:46Z" user="nmaruichi" uid="317331" lat="34.1583658" lon="132.1823285"/>
 <node id="2068116241" visible="true" version="1" changeset="14279910" timestamp="2012-12-15T12:33:46Z" user="nmaruichi" uid="317331" lat="34.1587063" lon="132.1821014"/>
 <node id="2068116242" visible="true" version="2" changeset="132937419" timestamp="2023-02-23T17:48:32Z" user="AYAGE" uid="521665" lat="34.1589986" lon="132.1815819"/>
 <node id="2068116243" visible="true" version="2" changeset="132937419" timestamp="2023-02-23T17:48:32Z" user="AYAGE" uid="521665" lat="34.1597700" lon="132.1803633"/>
 <node id="2068116254" visible="true" version="1" changeset="14279910" timestamp="2012-12-15T12:33:46Z" user="nmaruichi" uid="317331" lat="34.1601742" lon="132.1815196"/>
 <node id="2499026023" visible="true" version="3" changeset="133178979" timestamp="2023-03-01T16:24:37Z" user="AYAGE" uid="521665" lat="34.1594935" lon="132.2161513"/>
 <node id="2499026024" visible="true" version="2" changeset="133178979" timestamp="2023-03-01T16:24:37Z" user="AYAGE" uid="521665" lat="34.1598082" lon="132.2161379"/>
 <node id="2499026025" visible="true" version="2" changeset="166801996" timestamp="2025-05-27T00:31:20Z" user="higa4" uid="162590" lat="34.1589759" lon="132.2155867">
  <tag k="amenity" v="place_of_worship"/>
  <tag k="name" v="大歳神社"/>
  <tag k="religion" v="shinto"/>
 </node>
 <node id="3004342888" visible="true" version="4" changeset="132619461" timestamp="2023-02-16T09:48:52Z" user="solenoid jam" uid="10129333" lat="34.1578463" lon="132.2184292">
  <tag k="amenity" v="place_of_worship"/>
  <tag k="denomination" v="jodo_shinshu"/>
  <tag k="denomination:ja" v="浄土真宗本願寺派"/>
  <tag k="name" v="法寿寺"/>
  <tag k="religion" v="buddhist"/>
 </node>
 <node id="5152921210" visible="true" version="2" changeset="62393092" timestamp="2018-09-08T04:12:07Z" user="nmaruichi" uid="317331" lat="34.1583828" lon="132.2216128">
  <tag k="highway" v="traffic_signals"/>
  <tag k="source" v="survey"/>
  <tag k="survey:date" v="2018-09-06"/>
  <tag k="traffic_signals" v="signal"/>
 </node>
 <node id="5152921211" visible="true" version="3" changeset="133178979" timestamp="2023-03-01T16:24:37Z" user="AYAGE" uid="521665" lat="34.1587480" lon="132.2203152"/>
 <node id="5152921212" visible="true" version="3" changeset="133178979" timestamp="2023-03-01T16:24:37Z" user="AYAGE" uid="521665" lat="34.1588835" lon="132.2196205"/>
 <node id="5152921213" visible="true" version="4" changeset="133178979" timestamp="2023-03-01T16:24:37Z" user="AYAGE" uid="521665" lat="34.1589610" lon="132.2183777">
  <tag k="highway" v="crossing"/>
 </node>
 <node id="5152921214" visible="true" version="3" changeset="133178979" timestamp="2023-03-01T16:24:37Z" user="AYAGE" uid="521665" lat="34.1586778" lon="132.2205602"/>
 <node id="5892053889" visible="true" version="1" changeset="62393092" timestamp="2018-09-08T04:12:07Z" user="nmaruichi" uid="317331" lat="34.1584054" lon="132.2215370">
  <tag k="crossing" v="traffic_signals"/>
  <tag k="highway" v="crossing"/>
  <tag k="source" v="survey"/>
  <tag k="survey:date" v="2018-09-06"/>
 </node>
 <node id="6052021707" visible="true" version="3" changeset="133178979" timestamp="2023-03-01T16:24:37Z" user="AYAGE" uid="521665" lat="34.1585963" lon="132.2153018"/>
 <node id="6052021708" visible="true" version="2" changeset="133178979" timestamp="2023-03-01T16:24:37Z" user="AYAGE" uid="521665" lat="34.1584895" lon="132.2153178"/>
 <node id="6052021710" visible="true" version="2" changeset="83066884" timestamp="2020-04-04T10:41:27Z" user="xkrautsc" uid="5283635" lat="34.1588123" lon="132.2152311"/>
 <node id="6052021711" visible="true" version="2" changeset="83066884" timestamp="2020-04-04T10:41:27Z" user="xkrautsc" uid="5283635" lat="34.1590930" lon="132.2155594"/>
 <node id="6052021712" visible="true" version="2" changeset="83066884" timestamp="2020-04-04T10:41:27Z" user="xkrautsc" uid="5283635" lat="34.1592137" lon="132.2154499"/>
 <node id="6052021713" visible="true" version="2" changeset="83066884" timestamp="2020-04-04T10:41:27Z" user="xkrautsc" uid="5283635" lat="34.1591985" lon="132.2154209"/>
 <node id="6052021715" visible="true" version="2" changeset="133178979" timestamp="2023-03-01T16:24:37Z" user="AYAGE" uid="521665" lat="34.1595744" lon="132.2156347"/>
 <node id="6052021716" visible="true" version="2" changeset="133191082" timestamp="2023-03-01T23:18:38Z" user="AYAGE" uid="521665" lat="34.1608637" lon="132.2179801"/>
 <node id="6189198128" visible="true" version="2" changeset="133178979" timestamp="2023-03-01T16:24:37Z" user="AYAGE" uid="521665" lat="34.1589242" lon="132.2189093"/>
 <node id="6189198137" visible="true" version="2" changeset="83013275" timestamp="2020-04-03T06:44:34Z" user="Jillybean558" uid="10912192" lat="34.1592949" lon="132.2186956"/>
 <node id="6189198160" visible="true" version="2" changeset="133191082" timestamp="2023-03-01T23:18:38Z" user="AYAGE" uid="521665" lat="34.1602318" lon="132.2190093"/>
 <node id="6189198163" visible="true" version="1" changeset="66086826" timestamp="2019-01-07T05:34:46Z" user="iwa map" uid="7211705" lat="34.1599185" lon="132.2190134"/>
 <node id="6189198164" visible="true" version="2" changeset="133191082" timestamp="2023-03-01T23:18:38Z" user="AYAGE" uid="521665" lat="34.1602542" lon="132.2188934"/>
 <node id="6189198165" visible="true" version="2" changeset="133191082" timestamp="2023-03-01T23:18:38Z" user="AYAGE" uid="521665" lat="34.1602610" lon="132.2187006"/>
 <node id="6189198166" visible="true" version="2" changeset="133191082" timestamp="2023-03-01T23:18:38Z" user="AYAGE" uid="521665" lat="34.1602766" lon="132.2185506"/>
 <node id="6189198167" visible="true" version="2" changeset="133191082" timestamp="2023-03-01T23:18:38Z" user="AYAGE" uid="521665" lat="34.1603022" lon="132.2184784"/>
 <node id="6189198168" visible="true" version="2" changeset="133191082" timestamp="2023-03-01T23:18:38Z" user="AYAGE" uid="521665" lat="34.1603308" lon="132.2184408"/>
 <node id="6189198169" visible="true" version="2" changeset="133191082" timestamp="2023-03-01T23:18:38Z" user="AYAGE" uid="521665" lat="34.1604277" lon="132.2184155"/>
 <node id="6189198170" visible="true" version="2" changeset="133191082" timestamp="2023-03-01T23:18:38Z" user="AYAGE" uid="521665" lat="34.1605297" lon="132.2183679"/>
 <node id="6189198171" visible="true" version="2" changeset="133191082" timestamp="2023-03-01T23:18:38Z" user="AYAGE" uid="521665" lat="34.1605734" lon="132.2182972"/>
 <node id="7361782547" visible="true" version="1" changeset="83013275" timestamp="2020-04-03T06:44:34Z" user="Jillybean558" uid="10912192" lat="34.1593529" lon="132.2187660"/>
 <node id="7361782549" visible="true" version="2" changeset="83066884" timestamp="2020-04-04T10:41:27Z" user="xkrautsc" uid="5283635" lat="34.1589290" lon="132.2154005"/>
 <node id="7366209438" visible="true" version="2" changeset="133178979" timestamp="2023-03-01T16:24:37Z" user="AYAGE" uid="521665" lat="34.1590948" lon="132.2156004"/>
 <node id="7366209439" visible="true" version="1" changeset="83066884" timestamp="2020-04-04T10:41:27Z" user="xkrautsc" uid="5283635" lat="34.1590602" lon="132.2149105"/>
 <node id="7366209440" visible="true" version="1" changeset="83066884" timestamp="2020-04-04T10:41:27Z" user="xkrautsc" uid="5283635" lat="34.1593183" lon="132.2152999"/>
 <node id="7413187417" visible="true" version="1" changeset="83680745" timestamp="2020-04-17T05:24:51Z" user="Jillybean558" uid="10912192" lat="34.1571424" lon="132.2165335"/>
 <node id="7413216336" visible="true" version="2" changeset="133259244" timestamp="2023-03-03T15:30:50Z" user="AYAGE" uid="521665" lat="34.1599361" lon="132.2193736"/>
 <node id="7413216337" visible="true" version="2" changeset="133259244" timestamp="2023-03-03T15:30:50Z" user="AYAGE" uid="521665" lat="34.1598717" lon="132.2193256"/>
 <node id="7413216338" visible="true" version="2" changeset="133259244" timestamp="2023-03-03T15:30:50Z" user="AYAGE" uid="521665" lat="34.1597267" lon="132.2190619"/>
 <node id="7413216339" visible="true" version="2" changeset="133259244" timestamp="2023-03-03T15:30:50Z" user="AYAGE" uid="521665" lat="34.1595802" lon="132.2188377"/>
 <node id="7413216340" visible="true" version="2" changeset="133259244" timestamp="2023-03-03T15:30:50Z" user="AYAGE" uid="521665" lat="34.1595415" lon="132.2187688"/>
 <node id="7413216341" visible="true" version="2" changeset="133259244" timestamp="2023-03-03T15:30:50Z" user="AYAGE" uid="521665" lat="34.1595114" lon="132.2186659"/>
 <node id="7413216342" visible="true" version="2" changeset="133259244" timestamp="2023-03-03T15:30:50Z" user="AYAGE" uid="521665" lat="34.1594800" lon="132.2183992"/>
 <node id="7413216343" visible="true" version="2" changeset="133259244" timestamp="2023-03-03T15:30:50Z" user="AYAGE" uid="521665" lat="34.1592913" lon="132.2177350"/>
 <node id="7413216344" visible="true" version="2" changeset="133259244" timestamp="2023-03-03T15:30:50Z" user="AYAGE" uid="521665" lat="34.1592014" lon="132.2173368"/>
 <node id="7413216345" visible="true" version="2" changeset="133259244" timestamp="2023-03-03T15:30:50Z" user="AYAGE" uid="521665" lat="34.1592551" lon="132.2172902"/>
 <node id="7413216346" visible="true" version="2" changeset="133259244" timestamp="2023-03-03T15:30:50Z" user="AYAGE" uid="521665" lat="34.1592489" lon="132.2170236"/>
 <node id="7413216347" visible="true" version="3" changeset="133259244" timestamp="2023-03-03T15:30:50Z" user="AYAGE" uid="521665" lat="34.1592447" lon="132.2169464"/>
 <node id="7413216348" visible="true" version="2" changeset="133259244" timestamp="2023-03-03T15:30:50Z" user="AYAGE" uid="521665" lat="34.1592510" lon="132.2175845"/>
 <node id="8999503514" visible="true" version="1" changeset="109534641" timestamp="2021-08-11T19:42:27Z" user="Triglav2018" uid="9040307" lat="34.1613988" lon="132.2405021"/>
 <node id="9128388147" visible="true" version="1" changeset="111794059" timestamp="2021-09-28T02:23:39Z" user="nyampire_import" uid="1178360" lat="34.1601830" lon="132.2172070">
  <tag k="name" v="川下町一丁目"/>
  <tag k="place" v="neighbourhood"/>
 </node>
 <node id="9235586641" visible="true" version="1" changeset="113525708" timestamp="2021-11-08T14:48:05Z" user="Juliet225" uid="10103365" lat="34.1585572" lon="132.2042986"/>
 <node id="10688925569" visible="true" version="1" changeset="132937419" timestamp="2023-02-23T17:48:32Z" user="AYAGE" uid="521665" lat="34.1585456" lon="132.1822335"/>
 <node id="10688925570" visible="true" version="1" changeset="132937419" timestamp="2023-02-23T17:48:32Z" user="AYAGE" uid="521665" lat="34.1588352" lon="132.1818808"/>
 <node id="10688925571" visible="true" version="1" changeset="132937419" timestamp="2023-02-23T17:48:32Z" user="AYAGE" uid="521665" lat="34.1590794" lon="132.1813229"/>
 <node id="10688925572" visible="true" version="1" changeset="132937419" timestamp="2023-02-23T17:48:32Z" user="AYAGE" uid="521665" lat="34.1590960" lon="132.1811539"/>
 <node id="10688925573" visible="true" version="1" changeset="132937419" timestamp="2023-02-23T17:48:32Z" user="AYAGE" uid="521665" lat="34.1591737" lon="132.1811606"/>
 <node id="10688925574" visible="true" version="1" changeset="132937419" timestamp="2023-02-23T17:48:32Z" user="AYAGE" uid="521665" lat="34.1593968" lon="132.1808454"/>
 <node id="10691210644" visible="true" version="1" changeset="132975766" timestamp="2023-02-24T16:27:22Z" user="AYAGE" uid="521665" lat="34.1585522" lon="132.1974255"/>
 <node id="10691210834" visible="true" version="1" changeset="132975766" timestamp="2023-02-24T16:27:22Z" user="AYAGE" uid="521665" lat="34.1579896" lon="132.1935242"/>
 <node id="10691210835" visible="true" version="1" changeset="132975766" timestamp="2023-02-24T16:27:22Z" user="AYAGE" uid="521665" lat="34.1577166" lon="132.1918747"/>
 <node id="10701075081" visible="true" version="1" changeset="133157034" timestamp="2023-03-01T06:07:53Z" user="AYAGE" uid="521665" lat="34.1587958" lon="132.2143898"/>
 <node id="10701075082" visible="true" version="1" changeset="133157034" timestamp="2023-03-01T06:07:53Z" user="AYAGE" uid="521665" lat="34.1582632" lon="132.2131506"/>
 <node id="10702263495" visible="true" version="1" changeset="133178979" timestamp="2023-03-01T16:24:37Z" user="AYAGE" uid="521665" lat="34.1598395" lon="132.2176816"/>
 <node id="10702263496" visible="true" version="1" changeset="133178979" timestamp="2023-03-01T16:24:37Z" user="AYAGE" uid="521665" lat="34.1598101" lon="132.2174891"/>
 <node id="10702263497" visible="true" version="1" changeset="133178979" timestamp="2023-03-01T16:24:37Z" user="AYAGE" uid="521665" lat="34.1597569" lon="132.2172765"/>
 <node id="10702263498" visible="true" version="1" changeset="133178979" timestamp="2023-03-01T16:24:37Z" user="AYAGE" uid="521665" lat="34.1596686" lon="132.2160729"/>
 <node id="10702263499" visible="true" version="1" changeset="133178979" timestamp="2023-03-01T16:24:37Z" user="AYAGE" uid="521665" lat="34.1600093" lon="132.2163451"/>
 <node id="10702263500" visible="true" version="1" changeset="133178979" timestamp="2023-03-01T16:24:37Z" user="AYAGE" uid="521665" lat="34.1598395" lon="132.2161460"/>
 <node id="10702263501" visible="true" version="1" changeset="133178979" timestamp="2023-03-01T16:24:37Z" user="AYAGE" uid="521665" lat="34.1601037" lon="132.2169466"/>
 <node id="10702278611" visible="true" version="1" changeset="133178979" timestamp="2023-03-01T16:24:37Z" user="AYAGE" uid="521665" lat="34.1588968" lon="132.2195135"/>
 <node id="10702278612" visible="true" version="1" changeset="133178979" timestamp="2023-03-01T16:24:37Z" user="AYAGE" uid="521665" lat="34.1589601" lon="132.2185345"/>
 <node id="10702278613" visible="true" version="1" changeset="133178979" timestamp="2023-03-01T16:24:37Z" user="AYAGE" uid="521665" lat="34.1590006" lon="132.2183950"/>
 <node id="10702278614" visible="true" version="1" changeset="133178979" timestamp="2023-03-01T16:24:37Z" user="AYAGE" uid="521665" lat="34.1589456" lon="132.2183280"/>
 <node id="10702278615" visible="true" version="1" changeset="133178979" timestamp="2023-03-01T16:24:37Z" user="AYAGE" uid="521665" lat="34.1584818" lon="132.2172195"/>
 <node id="10702278616" visible="true" version="1" changeset="133178979" timestamp="2023-03-01T16:24:37Z" user="AYAGE" uid="521665" lat="34.1596869" lon="132.2170351"/>
 <node id="10702278617" visible="true" version="1" changeset="133178979" timestamp="2023-03-01T16:24:37Z" user="AYAGE" uid="521665" lat="34.1597768" lon="132.2170392"/>
 <node id="10702278618" visible="true" version="1" changeset="133178979" timestamp="2023-03-01T16:24:37Z" user="AYAGE" uid="521665" lat="34.1597330" lon="132.2171270"/>
 <node id="10702278619" visible="true" version="1" changeset="133178979" timestamp="2023-03-01T16:24:37Z" user="AYAGE" uid="521665" lat="34.1597219" lon="132.2169607"/>
 <node id="10702278620" visible="true" version="1" changeset="133178979" timestamp="2023-03-01T16:24:37Z" user="AYAGE" uid="521665" lat="34.1596509" lon="132.2165684"/>
 <node id="10702278621" visible="true" version="1" changeset="133178979" timestamp="2023-03-01T16:24:37Z" user="AYAGE" uid="521665" lat="34.1595560" lon="132.2162553"/>
 <node id="10702278622" visible="true" version="1" changeset="133178979" timestamp="2023-03-01T16:24:37Z" user="AYAGE" uid="521665" lat="34.1594284" lon="132.2160655"/>
 <node id="10702278623" visible="true" version="1" changeset="133178979" timestamp="2023-03-01T16:24:37Z" user="AYAGE" uid="521665" lat="34.1593818" lon="132.2160025"/>
 <node id="10702278624" visible="true" version="1" changeset="133178979" timestamp="2023-03-01T16:24:37Z" user="AYAGE" uid="521665" lat="34.1593185" lon="132.2159167"/>
 <node id="10702278625" visible="true" version="1" changeset="133178979" timestamp="2023-03-01T16:24:37Z" user="AYAGE" uid="521665" lat="34.1592492" lon="132.2158288"/>
 <node id="10702278626" visible="true" version="1" changeset="133178979" timestamp="2023-03-01T16:24:37Z" user="AYAGE" uid="521665" lat="34.1591865" lon="132.2157269"/>
 <node id="10702278629" visible="true" version="1" changeset="133178979" timestamp="2023-03-01T16:24:37Z" user="AYAGE" uid="521665" lat="34.1587681" lon="132.2152568"/>
 <node id="10702278632" visible="true" version="1" changeset="133178979" timestamp="2023-03-01T16:24:37Z" user="AYAGE" uid="521665" lat="34.1587243" lon="132.2152676"/>
 <node id="10702278633" visible="true" version="1" changeset="133178979" timestamp="2023-03-01T16:24:37Z" user="AYAGE" uid="521665" lat="34.1585966" lon="132.2153440"/>
 <node id="10703073431" visible="true" version="1" changeset="133191082" timestamp="2023-03-01T23:18:38Z" user="AYAGE" uid="521665" lat="34.1576267" lon="132.2170593"/>
 <node id="10703073437" visible="true" version="1" changeset="133191082" timestamp="2023-03-01T23:18:38Z" user="AYAGE" uid="521665" lat="34.1571038" lon="132.2165184"/>
 <node id="10703073466" visible="true" version="1" changeset="133191082" timestamp="2023-03-01T23:18:38Z" user="AYAGE" uid="521665" lat="34.1584146" lon="132.2160870"/>
 <node id="10703073467" visible="true" version="1" changeset="133191082" timestamp="2023-03-01T23:18:38Z" user="AYAGE" uid="521665" lat="34.1583874" lon="132.2162828"/>
 <node id="10703073468" visible="true" version="1" changeset="133191082" timestamp="2023-03-01T23:18:38Z" user="AYAGE" uid="521665" lat="34.1583891" lon="132.2165812"/>
 <node id="10703073469" visible="true" version="1" changeset="133191082" timestamp="2023-03-01T23:18:38Z" user="AYAGE" uid="521665" lat="34.1584130" lon="132.2167475"/>
 <node id="10703073470" visible="true" version="1" changeset="133191082" timestamp="2023-03-01T23:18:38Z" user="AYAGE" uid="521665" lat="34.1582476" lon="132.2168776"/>
 <node id="10703073471" visible="true" version="1" changeset="133191082" timestamp="2023-03-01T23:18:38Z" user="AYAGE" uid="521665" lat="34.1581550" lon="132.2168648"/>
 <node id="10703073472" visible="true" version="1" changeset="133191082" timestamp="2023-03-01T23:18:38Z" user="AYAGE" uid="521665" lat="34.1581255" lon="132.2174100"/>
 <node id="10703073473" visible="true" version="1" changeset="133191082" timestamp="2023-03-01T23:18:38Z" user="AYAGE" uid="521665" lat="34.1580834" lon="132.2172504"/>
 <node id="10703073474" visible="true" version="1" changeset="133191082" timestamp="2023-03-01T23:18:38Z" user="AYAGE" uid="521665" lat="34.1580756" lon="132.2171619"/>
 <node id="10703073475" visible="true" version="1" changeset="133191082" timestamp="2023-03-01T23:18:38Z" user="AYAGE" uid="521665" lat="34.1577865" lon="132.2168286"/>
 <node id="10703073476" visible="true" version="1" changeset="133191082" timestamp="2023-03-01T23:18:38Z" user="AYAGE" uid="521665" lat="34.1576506" lon="132.2170036"/>
 <node id="10703073517" visible="true" version="1" changeset="133191082" timestamp="2023-03-01T23:18:38Z" user="AYAGE" uid="521665" lat="34.1606008" lon="132.2181053"/>
 <node id="10703073518" visible="true" version="1" changeset="133191082" timestamp="2023-03-01T23:18:38Z" user="AYAGE" uid="521665" lat="34.1605836" lon="132.2181449"/>
 <node id="10703073519" visible="true" version="1" changeset="133191082" timestamp="2023-03-01T23:18:38Z" user="AYAGE" uid="521665" lat="34.1605647" lon="132.2183313"/>
 <node id="10703073520" visible="true" version="1" changeset="133191082" timestamp="2023-03-01T23:18:38Z" user="AYAGE" uid="521665" lat="34.1602657" lon="132.2186163"/>
 <node id="10703073561" visible="true" version="1" changeset="133191082" timestamp="2023-03-01T23:18:38Z" user="AYAGE" uid="521665" lat="34.1612139" lon="132.2190334"/>
 <node id="10703073562" visible="true" version="1" changeset="133191082" timestamp="2023-03-01T23:18:38Z" user="AYAGE" uid="521665" lat="34.1607839" lon="132.2177969"/>
 <node id="10703073591" visible="true" version="1" changeset="133191082" timestamp="2023-03-01T23:18:38Z" user="AYAGE" uid="521665" lat="34.1621588" lon="132.2227603"/>
 <node id="10703073592" visible="true" version="1" changeset="133191082" timestamp="2023-03-01T23:18:38Z" user="AYAGE" uid="521665" lat="34.1621333" lon="132.2222950"/>
 <node id="10703073593" visible="true" version="1" changeset="133191082" timestamp="2023-03-01T23:18:38Z" user="AYAGE" uid="521665" lat="34.1604299" lon="132.2169681"/>
 <node id="10703073594" visible="true" version="1" changeset="133191082" timestamp="2023-03-01T23:18:38Z" user="AYAGE" uid="521665" lat="34.1603323" lon="132.2166288"/>
 <node id="10703073595" visible="true" version="1" changeset="133191082" timestamp="2023-03-01T23:18:38Z" user="AYAGE" uid="521665" lat="34.1599028" lon="132.2158161"/>
 <node id="10703073596" visible="true" version="1" changeset="133191082" timestamp="2023-03-01T23:18:38Z" user="AYAGE" uid="521665" lat="34.1597796" lon="132.2154956"/>
 <node id="10703073597" visible="true" version="1" changeset="133191082" timestamp="2023-03-01T23:18:38Z" user="AYAGE" uid="521665" lat="34.1584535" lon="132.2120208"/>
 <node id="10704639757" visible="true" version="1" changeset="133217497" timestamp="2023-03-02T15:47:28Z" user="AYAGE" uid="521665" lat="34.1622798" lon="132.2236133"/>
 <node id="10704639758" visible="true" version="1" changeset="133217497" timestamp="2023-03-02T15:47:28Z" user="AYAGE" uid="521665" lat="34.1623175" lon="132.2240290"/>
 <node id="10704639759" visible="true" version="1" changeset="133217497" timestamp="2023-03-02T15:47:28Z" user="AYAGE" uid="521665" lat="34.1624535" lon="132.2258254"/>
 <node id="10704639760" visible="true" version="1" changeset="133217497" timestamp="2023-03-02T15:47:28Z" user="AYAGE" uid="521665" lat="34.1624346" lon="132.2255740"/>
 <node id="10704639761" visible="true" version="1" changeset="133217497" timestamp="2023-03-02T15:47:28Z" user="AYAGE" uid="521665" lat="34.1624374" lon="132.2254968"/>
 <node id="10704639762" visible="true" version="1" changeset="133217497" timestamp="2023-03-02T15:47:28Z" user="AYAGE" uid="521665" lat="34.1624673" lon="132.2254660"/>
 <node id="10704639763" visible="true" version="1" changeset="133217497" timestamp="2023-03-02T15:47:28Z" user="AYAGE" uid="521665" lat="34.1624601" lon="132.2255847"/>
 <node id="10707008196" visible="true" version="1" changeset="133259244" timestamp="2023-03-03T15:30:50Z" user="AYAGE" uid="521665" lat="34.1594189" lon="132.2181315"/>
 <node id="12338682854" visible="true" version="1" changeset="159114461" timestamp="2024-11-14T03:59:18Z" user="tempapapaa" uid="22175623" lat="34.1592309" lon="132.2151167"/>
 <node id="12338682855" visible="true" version="1" changeset="159114461" timestamp="2024-11-14T03:59:18Z" user="tempapapaa" uid="22175623" lat="34.1590680" lon="132.2148573"/>
 <node id="12338682856" visible="true" version="1" changeset="159114461" timestamp="2024-11-14T03:59:18Z" user="tempapapaa" uid="22175623" lat="34.1587740" lon="132.2152582"/>
 <node id="12338682857" visible="true" version="1" changeset="159114461" timestamp="2024-11-14T03:59:18Z" user="tempapapaa" uid="22175623" lat="34.1584754" lon="132.2157107"/>
 <node id="12338682858" visible="true" version="1" changeset="159114461" timestamp="2024-11-14T03:59:18Z" user="tempapapaa" uid="22175623" lat="34.1584306" lon="132.2158762"/>
 <node id="12338682860" visible="true" version="1" changeset="159114461" timestamp="2024-11-14T03:59:18Z" user="tempapapaa" uid="22175623" lat="34.1588743" lon="132.2196679"/>
 <node id="12338682861" visible="true" version="1" changeset="159114461" timestamp="2024-11-14T03:59:18Z" user="tempapapaa" uid="22175623" lat="34.1588244" lon="132.2199237"/>
 <node id="12338682874" visible="true" version="1" changeset="159114461" timestamp="2024-11-14T03:59:18Z" user="tempapapaa" uid="22175623" lat="34.1570863" lon="132.2165115"/>
 <node id="12529294258" visible="true" version="1" changeset="161712305" timestamp="2025-01-24T13:22:42Z" user="Triglav2018" uid="9040307" lat="34.1602967" lon="132.1811447"/>
 <way id="60297942" visible="true" version="9" changeset="153269809" timestamp="2024-06-27T23:45:30Z" user="taketaketake" uid="4757277">
  <nd ref="749726877"/>
  <nd ref="749042161"/>
  <nd ref="9235586641"/>
  <nd ref="749438992"/>
  <nd ref="749872193"/>
  <nd ref="749218889"/>
  <nd ref="749684523"/>
  <nd ref="748933008"/>
  <nd ref="749315938"/>
  <nd ref="749790081"/>
  <nd ref="749094001"/>
  <nd ref="749552561"/>
  <nd ref="748919085"/>
  <nd ref="749298227"/>
  <nd ref="749775044"/>
  <nd ref="749815427"/>
  <nd ref="749154475"/>
  <nd ref="749603583"/>
  <nd ref="748953924"/>
  <tag k="name" v="今津川"/>
  <tag k="name:en" v="Imazu River"/>
  <tag k="name:ja" v="今津川"/>
  <tag k="note" v="National-Land Numerical Information (River) 2006, MLIT Japan"/>
  <tag k="note:ja" v="国土数値情報(河川データ)平成18年国土交通省"/>
  <tag k="source" v="Bing,2005-06;KSJ2"/>
  <tag k="source_ref" v="http://nlftp.mlit.go.jp/ksj/jpgis/datalist/KsjTmplt-W05.html"/>
  <tag k="waterway" v="river"/>
 </way>
 <way id="119024837" visible="true" version="6" changeset="159114461" timestamp="2024-11-14T03:59:18Z" user="tempapapaa" uid="22175623">
  <nd ref="1338104009"/>
  <nd ref="1338104605"/>
  <nd ref="1338102727"/>
  <nd ref="6052021708"/>
  <nd ref="6052021707"/>
  <nd ref="10702278632"/>
  <nd ref="10702278629"/>
  <nd ref="12338682856"/>
  <nd ref="1338103246"/>
  <nd ref="7361782549"/>
  <tag k="highway" v="unclassified"/>
  <tag k="source" v="YahooJapan/ALPSMAP"/>
 </way>
 <way id="119024958" visible="true" version="3" changeset="133191082" timestamp="2023-03-01T23:18:38Z" user="AYAGE" uid="521665">
  <nd ref="1338104645"/>
  <nd ref="1338103797"/>
  <nd ref="10703073562"/>
  <nd ref="6052021716"/>
  <nd ref="1338102932"/>
  <nd ref="10703073561"/>
  <nd ref="733198699"/>
  <tag k="highway" v="unclassified"/>
  <tag k="source" v="YahooJapan/ALPSMAP"/>
 </way>
 <way id="119025021" visible="true" version="1" changeset="8540490" timestamp="2011-06-25T09:54:33Z" user="yamasan" uid="32308">
  <nd ref="1338104329"/>
  <nd ref="1338102609"/>
  <tag k="highway" v="unclassified"/>
  <tag k="source" v="YahooJapan/ALPSMAP"/>
  <tag k="yh:STRUCTURE" v="地上"/>
  <tag k="yh:TOTYUMONO" v="供用中"/>
  <tag k="yh:TYPE" v="その他一般道"/>
  <tag k="yh:WIDTH" v="3.0m〜5.5m"/>
  <tag k="yh:WIDTH_RANK" v="3"/>
 </way>
 <way id="119025044" visible="true" version="3" changeset="133178979" timestamp="2023-03-01T16:24:37Z" user="AYAGE" uid="521665">
  <nd ref="1338103215"/>
  <nd ref="10702278623"/>
  <nd ref="10702278622"/>
  <nd ref="2499026023"/>
  <nd ref="10702278621"/>
  <nd ref="1338103696"/>
  <nd ref="10702278620"/>
  <nd ref="1338103314"/>
  <nd ref="10702278619"/>
  <nd ref="1338103835"/>
  <tag k="highway" v="unclassified"/>
  <tag k="source" v="YahooJapan/ALPSMAP"/>
 </way>
 <way id="119025085" visible="true" version="2" changeset="106873098" timestamp="2021-06-24T05:42:54Z" user="taketaketake" uid="4757277">
  <nd ref="1338103222"/>
  <nd ref="1338102609"/>
  <tag k="highway" v="tertiary"/>
  <tag k="source" v="YahooJapan/ALPSMAP"/>
 </way>
 <way id="119025113" visible="true" version="1" changeset="8540490" timestamp="2011-06-25T09:54:51Z" user="yamasan" uid="32308">
  <nd ref="1338104009"/>
  <nd ref="1338103792"/>
  <nd ref="1338104296"/>
  <nd ref="1338103100"/>
  <nd ref="1338103510"/>
  <nd ref="1338102368"/>
  <nd ref="1338104329"/>
  <tag k="highway" v="path"/>
  <tag k="source" v="YahooJapan/ALPSMAP"/>
  <tag k="yh:STRUCTURE" v="地上"/>
  <tag k="yh:TOTYUMONO" v="供用中"/>
  <tag k="yh:TYPE" v="その他一般道"/>
  <tag k="yh:WIDTH" v="1.5m未満"/>
  <tag k="yh:WIDTH_RANK" v="5"/>
 </way>
 <way id="119025137" visible="true" version="4" changeset="133191082" timestamp="2023-03-01T23:18:38Z" user="AYAGE" uid="521665">
  <nd ref="1338103538"/>
  <nd ref="10703073471"/>
  <nd ref="10703073470"/>
  <nd ref="1338103998"/>
  <tag k="highway" v="tertiary"/>
  <tag k="source" v="YahooJapan/ALPSMAP"/>
 </way>
 <way id="119025158" visible="true" version="7" changeset="159114461" timestamp="2024-11-14T03:59:18Z" user="tempapapaa" uid="22175623">
  <nd ref="1338104214"/>
  <nd ref="1338102244"/>
  <nd ref="10701075082"/>
  <nd ref="1338102999"/>
  <nd ref="1338102395"/>
  <nd ref="1338102981"/>
  <nd ref="10701075081"/>
  <nd ref="1338104880"/>
  <nd ref="12338682855"/>
  <nd ref="12338682854"/>
  <nd ref="1338102779"/>
  <nd ref="6052021715"/>
  <nd ref="1338102183"/>
  <tag k="highway" v="unclassified"/>
  <tag k="source" v="YahooJapan/ALPSMAP"/>
 </way>
 <way id="119025173" visible="true" version="5" changeset="133178979" timestamp="2023-03-01T16:24:37Z" user="AYAGE" uid="521665">
  <nd ref="7361782549"/>
  <nd ref="7366209438"/>
  <nd ref="10702278626"/>
  <nd ref="10702278625"/>
  <nd ref="10702278624"/>
  <nd ref="1338103215"/>
  <tag k="highway" v="unclassified"/>
  <tag k="source" v="YahooJapan/ALPSMAP"/>
 </way>
 <way id="119025190" visible="true" version="4" changeset="106873098" timestamp="2021-06-24T05:42:54Z" user="taketaketake" uid="4757277">
  <nd ref="1338102164"/>
  <nd ref="1338103487"/>
  <tag k="bridge" v="yes"/>
  <tag k="highway" v="tertiary"/>
  <tag k="layer" v="1"/>
  <tag k="source" v="YahooJapan/ALPSMAP"/>
 </way>
 <way id="119025203" visible="true" version="3" changeset="106873098" timestamp="2021-06-24T05:42:54Z" user="taketaketake" uid="4757277">
  <nd ref="1338102609"/>
  <nd ref="1338103538"/>
  <tag k="highway" v="tertiary"/>
  <tag k="source" v="YahooJapan/ALPSMAP"/>
 </way>
 <way id="119025227" visible="true" version="4" changeset="133178979" timestamp="2023-03-01T16:24:37Z" user="AYAGE" uid="521665">
  <nd ref="1338103835"/>
  <nd ref="10702278618"/>
  <nd ref="10702263497"/>
  <nd ref="10702263496"/>
  <nd ref="10702263495"/>
  <nd ref="1338102595"/>
  <nd ref="6189198163"/>
  <nd ref="7413216336"/>
  <nd ref="1338103514"/>
  <tag k="highway" v="tertiary"/>
  <tag k="source" v="YahooJapan/ALPSMAP"/>
 </way>
 <way id="119025233" visible="true" version="2" changeset="133178979" timestamp="2023-03-01T16:24:37Z" user="AYAGE" uid="521665">
  <nd ref="1338103998"/>
  <nd ref="10702278615"/>
  <nd ref="1338102855"/>
  <nd ref="1338102220"/>
  <tag k="highway" v="unclassified"/>
  <tag k="source" v="YahooJapan/ALPSMAP"/>
 </way>
 <way id="119025383" visible="true" version="5" changeset="133178979" timestamp="2023-03-01T16:24:37Z" user="AYAGE" uid="521665">
  <nd ref="1338103998"/>
  <nd ref="1338103945"/>
  <nd ref="7413216347"/>
  <nd ref="1338104702"/>
  <nd ref="10702278616"/>
  <nd ref="1338103835"/>
  <tag k="highway" v="tertiary"/>
  <tag k="source" v="YahooJapan/ALPSMAP"/>
 </way>
 <way id="119025474" visible="true" version="5" changeset="159114461" timestamp="2024-11-14T03:59:18Z" user="tempapapaa" uid="22175623">
  <nd ref="6052021707"/>
  <nd ref="10702278633"/>
  <nd ref="1338104848"/>
  <nd ref="12338682857"/>
  <nd ref="1338103635"/>
  <nd ref="1338104756"/>
  <nd ref="12338682858"/>
  <nd ref="1338103124"/>
  <nd ref="10703073466"/>
  <nd ref="10703073467"/>
  <nd ref="1338102277"/>
  <tag k="highway" v="unclassified"/>
  <tag k="source" v="YahooJapan/ALPSMAP"/>
 </way>
 <way id="119025495" visible="true" version="3" changeset="133178979" timestamp="2023-03-01T16:24:37Z" user="AYAGE" uid="521665">
  <nd ref="1338102183"/>
  <nd ref="10702263500"/>
  <nd ref="2499026024"/>
  <nd ref="10702263498"/>
  <nd ref="1338102798"/>
  <nd ref="1338103215"/>
  <tag k="highway" v="unclassified"/>
  <tag k="source" v="YahooJapan/ALPSMAP"/>
 </way>
 <way id="119025502" visible="true" version="2" changeset="83013470" timestamp="2020-04-03T06:48:14Z" user="Jillybean558" uid="10912192">
  <nd ref="1338104681"/>
  <nd ref="1338104528"/>
  <nd ref="1338103372"/>
  <tag k="highway" v="unclassified"/>
  <tag k="source" v="YahooJapan/ALPSMAP"/>
 </way>
 <way id="119025511" visible="true" version="2" changeset="133191082" timestamp="2023-03-01T23:18:38Z" user="AYAGE" uid="521665">
  <nd ref="1338103538"/>
  <nd ref="10703073474"/>
  <nd ref="10703073473"/>
  <nd ref="10703073472"/>
  <nd ref="1338104681"/>
  <tag k="highway" v="unclassified"/>
  <tag k="source" v="YahooJapan/ALPSMAP"/>
 </way>
 <way id="119025529" visible="true" version="3" changeset="133178979" timestamp="2023-03-01T16:24:37Z" user="AYAGE" uid="521665">
  <nd ref="1338103835"/>
  <nd ref="10702278617"/>
  <nd ref="1338103816"/>
  <nd ref="10702263501"/>
  <nd ref="1338104645"/>
  <nd ref="1338102164"/>
  <tag k="highway" v="tertiary"/>
  <tag k="source" v="YahooJapan/ALPSMAP"/>
 </way>
 <way id="119025545" visible="true" version="2" changeset="133191082" timestamp="2023-03-01T23:18:38Z" user="AYAGE" uid="521665">
  <nd ref="1338103222"/>
  <nd ref="10703073475"/>
  <nd ref="1338103015"/>
  <nd ref="10703073476"/>
  <nd ref="10703073431"/>
  <nd ref="1338102687"/>
  <tag k="highway" v="unclassified"/>
  <tag k="source" v="YahooJapan/ALPSMAP"/>
 </way>
 <way id="119025568" visible="true" version="5" changeset="133178979" timestamp="2023-03-01T16:24:37Z" user="AYAGE" uid="521665">
  <nd ref="1338102220"/>
  <nd ref="1338102199"/>
  <nd ref="1338103067"/>
  <nd ref="10702278614"/>
  <nd ref="5152921213"/>
  <tag k="highway" v="unclassified"/>
  <tag k="source" v="YahooJapan/ALPSMAP"/>
 </way>
 <way id="119025575" visible="true" version="2" changeset="133191082" timestamp="2023-03-01T23:18:38Z" user="AYAGE" uid="521665">
  <nd ref="1338103998"/>
  <nd ref="10703073469"/>
  <nd ref="10703073468"/>
  <nd ref="1338102277"/>
  <tag k="highway" v="unclassified"/>
  <tag k="source" v="YahooJapan/ALPSMAP"/>
 </way>
 <way id="119025580" visible="true" version="6" changeset="159114461" timestamp="2024-11-14T03:59:18Z" user="tempapapaa" uid="22175623">
  <nd ref="1338102775"/>
  <nd ref="1338102975"/>
  <nd ref="12338682874"/>
  <nd ref="10703073437"/>
  <nd ref="7413187417"/>
  <nd ref="1338104510"/>
  <nd ref="1338103222"/>
  <tag k="highway" v="tertiary"/>
  <tag k="source" v="YahooJapan/ALPSMAP"/>
 </way>
 <way id="119025599" visible="true" version="2" changeset="133178979" timestamp="2023-03-01T16:24:37Z" user="AYAGE" uid="521665">
  <nd ref="1338102183"/>
  <nd ref="10702263499"/>
  <nd ref="1338102577"/>
  <nd ref="1338104645"/>
  <tag k="highway" v="unclassified"/>
  <tag k="source" v="YahooJapan/ALPSMAP"/>
 </way>
 <way id="530719977" visible="true" version="5" changeset="159114461" timestamp="2024-11-14T03:59:18Z" user="tempapapaa" uid="22175623">
  <nd ref="5152921210"/>
  <nd ref="5892053889"/>
  <nd ref="5152921214"/>
  <nd ref="5152921211"/>
  <nd ref="12338682861"/>
  <nd ref="12338682860"/>
  <nd ref="5152921212"/>
  <nd ref="10702278611"/>
  <nd ref="6189198128"/>
  <nd ref="10702278612"/>
  <nd ref="5152921213"/>
  <tag k="highway" v="unclassified"/>
 </way>
 <way id="643002167" visible="true" version="2" changeset="83066884" timestamp="2020-04-04T10:41:27Z" user="xkrautsc" uid="5283635">
  <nd ref="7366209439"/>
  <nd ref="6052021710"/>
  <nd ref="1338104034"/>
  <nd ref="6052021711"/>
  <nd ref="6052021712"/>
  <nd ref="6052021713"/>
  <nd ref="7366209440"/>
  <nd ref="7366209439"/>
  <tag k="leisure" v="park"/>
 </way>
 <way id="661082243" visible="true" version="2" changeset="133191082" timestamp="2023-03-01T23:18:38Z" user="AYAGE" uid="521665">
  <nd ref="6189198160"/>
  <nd ref="6189198164"/>
  <nd ref="6189198165"/>
  <nd ref="10703073520"/>
  <nd ref="6189198166"/>
  <nd ref="6189198167"/>
  <nd ref="6189198168"/>
  <nd ref="6189198169"/>
  <nd ref="6189198170"/>
  <nd ref="10703073519"/>
  <nd ref="6189198171"/>
  <nd ref="10703073518"/>
  <nd ref="10703073517"/>
  <nd ref="6052021716"/>
  <tag k="highway" v="unclassified"/>
 </way>
 <way id="787369634" visible="true" version="2" changeset="133178979" timestamp="2023-03-01T16:24:37Z" user="AYAGE" uid="521665">
  <nd ref="5152921213"/>
  <nd ref="10702278613"/>
  <nd ref="1338102550"/>
  <nd ref="1338104666"/>
  <nd ref="6189198137"/>
  <nd ref="7361782547"/>
  <tag k="highway" v="path"/>
  <tag k="source" v="YahooJapan/ALPSMAP"/>
 </way>
 <way id="792783760" visible="true" version="2" changeset="133259244" timestamp="2023-03-03T15:30:50Z" user="AYAGE" uid="521665">
  <nd ref="7413216336"/>
  <nd ref="7413216337"/>
  <nd ref="7413216338"/>
  <nd ref="7413216339"/>
  <nd ref="7413216340"/>
  <nd ref="7413216341"/>
  <nd ref="7413216342"/>
  <nd ref="10707008196"/>
  <nd ref="7413216343"/>
  <nd ref="7413216348"/>
  <tag k="highway" v="path"/>
 </way>
 <way id="792783761" visible="true" version="1" changeset="83680896" timestamp="2020-04-17T05:27:56Z" user="Jillybean558" uid="10912192">
  <nd ref="7413216348"/>
  <nd ref="7413216344"/>
  <nd ref="7413216345"/>
  <nd ref="7413216346"/>
  <nd ref="7413216347"/>
  <tag k="highway" v="unclassified"/>
 </way>
 <way id="1353945403" visible="true" version="1" changeset="161712305" timestamp="2025-01-24T13:22:42Z" user="Triglav2018" uid="9040307">
  <nd ref="8999503514"/>
  <nd ref="2068116185"/>
  <nd ref="2068116187"/>
  <nd ref="2068116188"/>
  <nd ref="2068116189"/>
  <nd ref="2068116190"/>
  <nd ref="2068116191"/>
  <nd ref="10704639759"/>
  <nd ref="10704639763"/>
  <nd ref="10704639760"/>
  <nd ref="10704639761"/>
  <nd ref="10704639762"/>
  <nd ref="2068116192"/>
  <nd ref="10704639758"/>
  <nd ref="10704639757"/>
  <nd ref="2068116193"/>
  <nd ref="10703073591"/>
  <nd ref="10703073592"/>
  <nd ref="2068116194"/>
  <nd ref="2068116195"/>
  <nd ref="2068116196"/>
  <nd ref="2068116197"/>
  <nd ref="10703073593"/>
  <nd ref="10703073594"/>
  <nd ref="2068116198"/>
  <nd ref="10703073595"/>
  <nd ref="10703073596"/>
  <nd ref="2068116199"/>
  <nd ref="2068116200"/>
  <nd ref="2068116201"/>
  <nd ref="2068116202"/>
  <nd ref="10703073597"/>
  <nd ref="2068116203"/>
  <nd ref="2068116204"/>
  <nd ref="2068116205"/>
  <nd ref="2068116223"/>
  <nd ref="2068116224"/>
  <nd ref="2068116225"/>
  <nd ref="2068116226"/>
  <nd ref="2068116151"/>
  <nd ref="2068116150"/>
  <nd ref="2068116227"/>
  <nd ref="2068116228"/>
  <nd ref="2068116229"/>
  <nd ref="10691210644"/>
  <nd ref="2068116230"/>
  <nd ref="2068116231"/>
  <nd ref="10691210834"/>
  <nd ref="10691210835"/>
  <nd ref="2068116232"/>
  <nd ref="2068116233"/>
  <nd ref="2068116234"/>
  <nd ref="2068116235"/>
  <nd ref="2068116236"/>
  <nd ref="2068116237"/>
  <nd ref="2068116238"/>
  <nd ref="2068116239"/>
  <nd ref="2068116240"/>
  <nd ref="10688925569"/>
  <nd ref="2068116241"/>
  <nd ref="10688925570"/>
  <nd ref="2068116242"/>
  <nd ref="10688925571"/>
  <nd ref="10688925572"/>
  <nd ref="10688925573"/>
  <nd ref="10688925574"/>
  <nd ref="2068116243"/>
  <nd ref="12529294258"/>
  <nd ref="2068116254"/>
  <tag k="source" v="Bing,2005-06"/>
 </way>
 <relation id="13080042" visible="true" version="7" changeset="161735425" timestamp="2025-01-25T06:02:49Z" user="Triglav2018" uid="9040307">
  <member type="way" ref="196483102" role="inner"/>
  <member type="way" ref="196483103" role="inner"/>
  <member type="way" ref="196483100" role="inner"/>
  <member type="way" ref="196483099" role="inner"/>
  <member type="way" ref="1353945404" role="outer"/>
  <member type="way" ref="1353945403" role="outer"/>
  <tag k="name" v="錦川"/>
  <tag k="natural" v="water"/>
  <tag k="type" v="multipolygon"/>
  <tag k="water" v="river"/>
 </relation>
 <relation id="18607513" visible="true" version="3" changeset="163981743" timestamp="2025-03-23T11:15:16Z" user="tartiflex" uid="507417">
  <member type="way" ref="60297942" role=""/>
  <member type="way" ref="60299210" role=""/>
  <member type="way" ref="60308065" role=""/>
  <member type="way" ref="60307414" role=""/>
  <member type="way" ref="60297910" role=""/>
  <member type="way" ref="60299344" role=""/>
  <member type="way" ref="60305107" role=""/>
  <member type="way" ref="276148073" role=""/>
  <member type="way" ref="60306054" role=""/>
  <member type="way" ref="60299967" role=""/>
  <member type="way" ref="60307229" role=""/>
  <member type="way" ref="60301046" role=""/>
  <member type="way" ref="60306036" role=""/>
  <member type="way" ref="60302184" role=""/>
  <member type="way" ref="60306896" role=""/>
  <member type="way" ref="60306057" role=""/>
  <member type="way" ref="60297785" role=""/>
  <member type="way" ref="60305633" role=""/>
  <member type="way" ref="276182178" role=""/>
  <member type="way" ref="60308203" role=""/>
  <member type="way" ref="276183959" role=""/>
  <member type="way" ref="60298989" role=""/>
  <member type="way" ref="60306368" role=""/>
  <member type="way" ref="60306047" role=""/>
  <member type="way" ref="60304716" role=""/>
  <member type="way" ref="60306147" role=""/>
  <member type="way" ref="60302512" role=""/>
  <member type="way" ref="60302027" role=""/>
  <member type="way" ref="60301189" role=""/>
  <member type="way" ref="60303788" role=""/>
  <member type="way" ref="60297680" role=""/>
  <member type="way" ref="60298600" role=""/>
  <member type="way" ref="60301873" role=""/>
  <member type="way" ref="60302091" role=""/>
  <member type="way" ref="60297564" role=""/>
  <member type="way" ref="279342887" role=""/>
  <member type="way" ref="60307368" role=""/>
  <member type="way" ref="276420825" role=""/>
  <member type="way" ref="276420321" role=""/>
  <member type="way" ref="276419307" role=""/>
  <member type="way" ref="276419202" role=""/>
  <member type="way" ref="60307326" role=""/>
  <member type="way" ref="276418719" role=""/>
  <member type="way" ref="276418701" role=""/>
  <member type="way" ref="276187005" role=""/>
  <member type="way" ref="60298376" role=""/>
  <member type="way" ref="276186669" role=""/>
  <member type="way" ref="276186667" role=""/>
  <member type="way" ref="60307275" role=""/>
  <member type="way" ref="276186446" role=""/>
  <member type="way" ref="60299391" role=""/>
  <member type="way" ref="276186449" role=""/>
  <member type="way" ref="276423634" role=""/>
  <member type="way" ref="276423633" role=""/>
  <member type="way" ref="276423620" role=""/>
  <member type="way" ref="276423619" role=""/>
  <member type="way" ref="60307575" role=""/>
  <member type="way" ref="276423615" role=""/>
  <member type="way" ref="60301952" role=""/>
  <member type="way" ref="60305636" role=""/>
  <member type="way" ref="60301299" role=""/>
  <member type="way" ref="276423708" role=""/>
  <member type="way" ref="60301857" role=""/>
  <member type="way" ref="972371834" role=""/>
  <member type="way" ref="60306636" role=""/>
  <member type="way" ref="60298236" role=""/>
  <member type="way" ref="60300267" role=""/>
  <member type="way" ref="276423772" role=""/>
  <member type="way" ref="276423840" role=""/>
  <member type="way" ref="276423841" role=""/>
  <member type="way" ref="276423842" role=""/>
  <member type="way" ref="276424931" role=""/>
  <member type="way" ref="60302172" role=""/>
  <member type="way" ref="60305044" role=""/>
  <member type="way" ref="276424934" role=""/>
  <member type="way" ref="60301051" role=""/>
  <member type="way" ref="60301650" role=""/>
  <member type="way" ref="60298517" role=""/>
  <member type="way" ref="60301428" role=""/>
  <member type="way" ref="60299662" role=""/>
  <member type="way" ref="60301985" role=""/>
  <member type="way" ref="276436388" role=""/>
  <member type="way" ref="276436393" role=""/>
  <member type="way" ref="276436394" role=""/>
  <member type="way" ref="276436559" role=""/>
  <member type="way" ref="276436405" role=""/>
  <member type="way" ref="60307379" role=""/>
  <member type="way" ref="276436406" role=""/>
  <member type="way" ref="60301191" role=""/>
  <member type="way" ref="276458177" role=""/>
  <member type="way" ref="60303009" role=""/>
  <member type="way" ref="276457855" role=""/>
  <member type="way" ref="276436427" role=""/>
  <member type="way" ref="276436428" role=""/>
  <member type="way" ref="60302048" role=""/>
  <member type="way" ref="276436470" role=""/>
  <member type="way" ref="276436472" role=""/>
  <member type="way" ref="60300269" role=""/>
  <member type="way" ref="60301321" role=""/>
  <member type="way" ref="60299547" role=""/>
  <member type="way" ref="60297577" role=""/>
  <member type="way" ref="60301849" role=""/>
  <member type="way" ref="60301865" role=""/>
  <member type="way" ref="60304692" role=""/>
  <member type="way" ref="60307548" role=""/>
  <member type="way" ref="60307563" role=""/>
  <member type="way" ref="60300658" role=""/>
  <member type="way" ref="60305681" role=""/>
  <member type="way" ref="281457884" role=""/>
  <member type="way" ref="525257510" role=""/>
  <member type="way" ref="60297716" role=""/>
  <member type="way" ref="281458061" role=""/>
  <member type="way" ref="60305084" role=""/>
  <member type="way" ref="281463424" role=""/>
  <member type="way" ref="281463410" role=""/>
  <member type="way" ref="281463383" role=""/>
  <member type="way" ref="60304115" role=""/>
  <tag k="contact:tripadvisor" v="19929091"/>
  <tag k="name" v="錦川"/>
  <tag k="name:en" v="Nishiki River"/>
  <tag k="name:fr" v="Rivière Nishiki"/>
  <tag k="name:ja-Hira" v="にしきがわ"/>
  <tag k="name:ja-Latn" v="Nishiki-gawa"/>
  <tag k="type" v="waterway"/>
  <tag k="waterway" v="river"/>
  <tag k="wikidata" v="Q7040592"/>
  <tag k="wikimedia_commons" v="Category:Nishiki River"/>
  <tag k="wikipedia" v="ja:錦川"/>
 </relation>
</osm>
