<?xml version="1.0" encoding="UTF-8"?>
<osm version="0.6" generator="openstreetmap-cgimap 2.1.0 (2942764 spike-08.openstreetmap.org)" copyright="OpenStreetMap and contributors" attribution="http://www.openstreetmap.org/copyright" license="http://opendatacommons.org/licenses/odbl/1-0/">
 <bounds minlat="33.9761070" minlon="132.0027900" maxlat="33.9785070" maxlon="132.0057900"/>
 <node id="748899545" visible="true" version="2" changeset="125323463" timestamp="2022-08-24T16:21:05Z" user="AYAGE" uid="521665" lat="33.9776336" lon="132.0065533"/>
 <node id="748929327" visible="true" version="2" changeset="125323463" timestamp="2022-08-24T16:21:05Z" user="AYAGE" uid="521665" lat="33.9756052" lon="132.0039101"/>
 <node id="749180136" visible="true" version="2" changeset="125323463" timestamp="2022-08-24T16:21:05Z" user="AYAGE" uid="521665" lat="33.9775189" lon="132.0060996"/>
 <node id="749311769" visible="true" version="2" changeset="125323463" timestamp="2022-08-24T16:21:05Z" user="AYAGE" uid="521665" lat="33.9760480" lon="132.0043105"/>
 <node id="749404547" visible="true" version="2" changeset="125323463" timestamp="2022-08-24T16:21:05Z" user="AYAGE" uid="521665" lat="33.9767494" lon="132.0046972"/>
 <node id="749838860" visible="true" version="2" changeset="125323463" timestamp="2022-08-24T16:21:05Z" user="AYAGE" uid="521665" lat="33.9771704" lon="132.0051009"/>
 <node id="1283545577" visible="true" version="1" changeset="8136896" timestamp="2011-05-14T00:53:21Z" user="yamasan" uid="32308" lat="33.9774010" lon="132.0012220"/>
 <node id="1283545587" visible="true" version="1" changeset="8136896" timestamp="2011-05-14T00:53:22Z" user="yamasan" uid="32308" lat="33.9771300" lon="132.0015400"/>
 <node id="1283545720" visible="true" version="2" changeset="125534095" timestamp="2022-08-29T17:22:37Z" user="AYAGE" uid="521665" lat="33.9761729" lon="132.0037607"/>
 <node id="1283545912" visible="true" version="2" changeset="125534095" timestamp="2022-08-29T17:22:37Z" user="AYAGE" uid="521665" lat="33.9763361" lon="132.0044491"/>
 <node id="1283545974" visible="true" version="3" changeset="125323463" timestamp="2022-08-24T16:21:05Z" user="AYAGE" uid="521665" lat="33.9770744" lon="132.0052166"/>
 <node id="1283546125" visible="true" version="1" changeset="8136896" timestamp="2011-05-14T00:53:45Z" user="yamasan" uid="32308" lat="33.9771510" lon="131.9997910"/>
 <node id="1283546198" visible="true" version="3" changeset="125323463" timestamp="2022-08-24T16:21:05Z" user="AYAGE" uid="521665" lat="33.9780563" lon="132.0009763"/>
 <node id="1283546211" visible="true" version="1" changeset="8136896" timestamp="2011-05-14T00:53:49Z" user="yamasan" uid="32308" lat="33.9769910" lon="132.0020370"/>
 <node id="1283546746" visible="true" version="2" changeset="125323463" timestamp="2022-08-24T16:21:05Z" user="AYAGE" uid="521665" lat="33.9781861" lon="132.0052769"/>
 <node id="1283546804" visible="true" version="2" changeset="125323463" timestamp="2022-08-24T16:21:05Z" user="AYAGE" uid="521665" lat="33.9772603" lon="132.0053501"/>
 <node id="1283547084" visible="true" version="2" changeset="125534095" timestamp="2022-08-29T17:22:37Z" user="AYAGE" uid="521665" lat="33.9757384" lon="132.0031439"/>
 <node id="1283547165" visible="true" version="2" changeset="125323463" timestamp="2022-08-24T16:21:05Z" user="AYAGE" uid="521665" lat="33.9783810" lon="132.0031231"/>
 <node id="1283547241" visible="true" version="2" changeset="125323463" timestamp="2022-08-24T16:21:05Z" user="AYAGE" uid="521665" lat="33.9773882" lon="132.0058431"/>
 <node id="1283547357" visible="true" version="2" changeset="41549582" timestamp="2016-08-19T06:41:15Z" user="show1017" uid="3244669" lat="33.9780166" lon="131.9982582"/>
 <node id="1283547364" visible="true" version="2" changeset="41549644" timestamp="2016-08-19T06:45:16Z" user="show1017" uid="3244669" lat="33.9775614" lon="132.0031292"/>
 <node id="1283547599" visible="true" version="1" changeset="8136896" timestamp="2011-05-14T00:54:56Z" user="yamasan" uid="32308" lat="33.9770080" lon="132.0022970"/>
 <node id="1283547602" visible="true" version="2" changeset="125247588" timestamp="2022-08-22T23:20:13Z" user="AYAGE" uid="521665" lat="33.9771892" lon="132.0049292"/>
 <node id="1283547832" visible="true" version="2" changeset="125323463" timestamp="2022-08-24T16:21:05Z" user="AYAGE" uid="521665" lat="33.9775226" lon="132.0061965"/>
 <node id="1283548626" visible="true" version="1" changeset="8136896" timestamp="2011-05-14T00:55:35Z" user="yamasan" uid="32308" lat="33.9774420" lon="132.0010880"/>
 <node id="1283548713" visible="true" version="1" changeset="8136896" timestamp="2011-05-14T00:55:38Z" user="yamasan" uid="32308" lat="33.9772670" lon="132.0029190"/>
 <node id="1283548790" visible="true" version="2" changeset="125534095" timestamp="2022-08-29T17:22:37Z" user="AYAGE" uid="521665" lat="33.9759440" lon="132.0033061"/>
 <node id="1283548833" visible="true" version="1" changeset="8136896" timestamp="2011-05-14T00:55:42Z" user="yamasan" uid="32308" lat="33.9774350" lon="132.0007910"/>
 <node id="1283548935" visible="true" version="4" changeset="125323463" timestamp="2022-08-24T16:21:05Z" user="AYAGE" uid="521665" lat="33.9788888" lon="131.9973287">
  <tag k="highway" v="traffic_signals"/>
 </node>
 <node id="1283549015" visible="true" version="3" changeset="125323463" timestamp="2022-08-24T16:21:05Z" user="AYAGE" uid="521665" lat="33.9788493" lon="131.9974173"/>
 <node id="1283549311" visible="true" version="3" changeset="125534095" timestamp="2022-08-29T17:22:37Z" user="AYAGE" uid="521665" lat="33.9776264" lon="132.0029389"/>
 <node id="1283549328" visible="true" version="2" changeset="125323463" timestamp="2022-08-24T16:21:05Z" user="AYAGE" uid="521665" lat="33.9774877" lon="132.0065394"/>
 <node id="1283549390" visible="true" version="2" changeset="125534095" timestamp="2022-08-29T17:22:37Z" user="AYAGE" uid="521665" lat="33.9762028" lon="132.0040216"/>
 <node id="1283549484" visible="true" version="1" changeset="8136896" timestamp="2011-05-14T00:56:14Z" user="yamasan" uid="32308" lat="33.9772420" lon="132.0002450"/>
 <node id="1283549507" visible="true" version="4" changeset="125323463" timestamp="2022-08-24T16:21:05Z" user="AYAGE" uid="521665" lat="33.9776265" lon="131.9993313"/>
 <node id="1283549553" visible="true" version="2" changeset="125534095" timestamp="2022-08-29T17:22:37Z" user="AYAGE" uid="521665" lat="33.9765283" lon="132.0045714"/>
 <node id="1283549623" visible="true" version="3" changeset="125323463" timestamp="2022-08-24T16:21:05Z" user="AYAGE" uid="521665" lat="33.9779164" lon="131.9983699"/>
 <node id="1283549858" visible="true" version="2" changeset="125247588" timestamp="2022-08-22T23:20:13Z" user="AYAGE" uid="521665" lat="33.9764564" lon="132.0066301"/>
 <node id="1283549897" visible="true" version="2" changeset="125247588" timestamp="2022-08-22T23:20:13Z" user="AYAGE" uid="521665" lat="33.9762872" lon="132.0069964"/>
 <node id="1283550006" visible="true" version="1" changeset="8136896" timestamp="2011-05-14T00:56:39Z" user="yamasan" uid="32308" lat="33.9769700" lon="132.0021790"/>
 <node id="1283550223" visible="true" version="1" changeset="8136896" timestamp="2011-05-14T00:56:50Z" user="yamasan" uid="32308" lat="33.9770750" lon="132.0019520"/>
 <node id="1283550408" visible="true" version="2" changeset="125323463" timestamp="2022-08-24T16:21:05Z" user="AYAGE" uid="521665" lat="33.9783111" lon="132.0044787"/>
 <node id="1283550462" visible="true" version="1" changeset="8136896" timestamp="2011-05-14T00:57:02Z" user="yamasan" uid="32308" lat="33.9771180" lon="132.0016400"/>
 <node id="1283550819" visible="true" version="2" changeset="125323463" timestamp="2022-08-24T16:21:05Z" user="AYAGE" uid="521665" lat="33.9783326" lon="132.0034096"/>
 <node id="1283550860" visible="true" version="2" changeset="125534095" timestamp="2022-08-29T17:22:37Z" user="AYAGE" uid="521665" lat="33.9762824" lon="132.0043485"/>
 <node id="1283550877" visible="true" version="2" changeset="125534095" timestamp="2022-08-29T17:22:37Z" user="AYAGE" uid="521665" lat="33.9757798" lon="132.0028728"/>
 <node id="1283551102" visible="true" version="2" changeset="125247588" timestamp="2022-08-22T23:20:13Z" user="AYAGE" uid="521665" lat="33.9772414" lon="132.0047648"/>
 <node id="1283551446" visible="true" version="2" changeset="125247588" timestamp="2022-08-22T23:20:13Z" user="AYAGE" uid="521665" lat="33.9772908" lon="132.0045360"/>
 <node id="1283551863" visible="true" version="1" changeset="8136896" timestamp="2011-05-14T00:58:12Z" user="yamasan" uid="32308" lat="33.9771160" lon="132.0018190"/>
 <node id="1283551891" visible="true" version="2" changeset="125534095" timestamp="2022-08-29T17:22:37Z" user="AYAGE" uid="521665" lat="33.9757554" lon="132.0032083"/>
 <node id="1283552100" visible="true" version="2" changeset="125323463" timestamp="2022-08-24T16:21:05Z" user="AYAGE" uid="521665" lat="33.9783565" lon="132.0039290"/>
 <node id="1283552142" visible="true" version="2" changeset="125323463" timestamp="2022-08-24T16:21:05Z" user="AYAGE" uid="521665" lat="33.9780767" lon="132.0053253"/>
 <node id="1283552166" visible="true" version="3" changeset="125323463" timestamp="2022-08-24T16:21:05Z" user="AYAGE" uid="521665" lat="33.9778355" lon="131.9999901"/>
 <node id="1283552308" visible="true" version="1" changeset="8136896" timestamp="2011-05-14T00:58:32Z" user="yamasan" uid="32308" lat="33.9773650" lon="132.0012730"/>
 <node id="1283552611" visible="true" version="2" changeset="125323463" timestamp="2022-08-24T16:21:05Z" user="AYAGE" uid="521665" lat="33.9771965" lon="132.0053477"/>
 <node id="1283552750" visible="true" version="2" changeset="125323463" timestamp="2022-08-24T16:21:05Z" user="AYAGE" uid="521665" lat="33.9781420" lon="132.0052988"/>
 <node id="1283552824" visible="true" version="2" changeset="125323463" timestamp="2022-08-24T16:21:05Z" user="AYAGE" uid="521665" lat="33.9784563" lon="132.0027136"/>
 <node id="1283552908" visible="true" version="3" changeset="125323463" timestamp="2022-08-24T16:21:05Z" user="AYAGE" uid="521665" lat="33.9787088" lon="131.9976061"/>
 <node id="1283552942" visible="true" version="2" changeset="125247588" timestamp="2022-08-22T23:20:13Z" user="AYAGE" uid="521665" lat="33.9767398" lon="132.0059798"/>
 <node id="1283553275" visible="true" version="3" changeset="125323463" timestamp="2022-08-24T16:21:05Z" user="AYAGE" uid="521665" lat="33.9779907" lon="132.0006765"/>
 <node id="1283553283" visible="true" version="3" changeset="125534095" timestamp="2022-08-29T17:22:37Z" user="AYAGE" uid="521665" lat="33.9774322" lon="132.0038404"/>
 <node id="1283553288" visible="true" version="3" changeset="125323463" timestamp="2022-08-24T16:21:05Z" user="AYAGE" uid="521665" lat="33.9777424" lon="132.0026576"/>
 <node id="1283553293" visible="true" version="2" changeset="125323463" timestamp="2022-08-24T16:21:05Z" user="AYAGE" uid="521665" lat="33.9782916" lon="132.0049431"/>
 <node id="1283553474" visible="true" version="1" changeset="8136896" timestamp="2011-05-14T00:59:34Z" user="yamasan" uid="32308" lat="33.9773360" lon="132.0029740"/>
 <node id="1283553550" visible="true" version="2" changeset="125323463" timestamp="2022-08-24T16:21:05Z" user="AYAGE" uid="521665" lat="33.9782727" lon="132.0051062"/>
 <node id="1283553592" visible="true" version="3" changeset="125534095" timestamp="2022-08-29T17:22:37Z" user="AYAGE" uid="521665" lat="33.9775143" lon="132.0033619"/>
 <node id="1283553633" visible="true" version="1" changeset="8136896" timestamp="2011-05-14T00:59:43Z" user="yamasan" uid="32308" lat="33.9771320" lon="132.0025950"/>
 <node id="1283553804" visible="true" version="2" changeset="125323463" timestamp="2022-08-24T16:21:05Z" user="AYAGE" uid="521665" lat="33.9776985" lon="132.0054028"/>
 <node id="1283553836" visible="true" version="3" changeset="125323463" timestamp="2022-08-24T16:21:05Z" user="AYAGE" uid="521665" lat="33.9778922" lon="132.0001949"/>
 <node id="1283553929" visible="true" version="3" changeset="125323463" timestamp="2022-08-24T16:21:05Z" user="AYAGE" uid="521665" lat="33.9776481" lon="131.9987076"/>
 <node id="1283554061" visible="true" version="3" changeset="125323463" timestamp="2022-08-24T16:21:05Z" user="AYAGE" uid="521665" lat="33.9780805" lon="132.0017101"/>
 <node id="1283554090" visible="true" version="2" changeset="125534095" timestamp="2022-08-29T17:22:37Z" user="AYAGE" uid="521665" lat="33.9758049" lon="132.0032518"/>
 <node id="1283554139" visible="true" version="1" changeset="8136896" timestamp="2011-05-14T01:00:10Z" user="yamasan" uid="32308" lat="33.9772270" lon="132.0028650"/>
 <node id="1283554407" visible="true" version="1" changeset="8136896" timestamp="2011-05-14T01:00:20Z" user="yamasan" uid="32308" lat="33.9773250" lon="132.0004630"/>
 <node id="1283554509" visible="true" version="1" changeset="8136896" timestamp="2011-05-14T01:00:23Z" user="yamasan" uid="32308" lat="33.9770980" lon="132.0024790"/>
 <node id="1283554665" visible="true" version="3" changeset="125323463" timestamp="2022-08-24T16:21:05Z" user="AYAGE" uid="521665" lat="33.9776127" lon="131.9990126"/>
 <node id="1283554670" visible="true" version="4" changeset="125323463" timestamp="2022-08-24T16:21:05Z" user="AYAGE" uid="521665" lat="33.9776637" lon="131.9995328"/>
 <node id="1283554804" visible="true" version="1" changeset="8136896" timestamp="2011-05-14T01:00:40Z" user="yamasan" uid="32308" lat="33.9769670" lon="132.0021060"/>
 <node id="1283554814" visible="true" version="2" changeset="125534095" timestamp="2022-08-29T17:22:37Z" user="AYAGE" uid="521665" lat="33.9770744" lon="131.9996679"/>
 <node id="1283555399" visible="true" version="2" changeset="125247588" timestamp="2022-08-22T23:20:13Z" user="AYAGE" uid="521665" lat="33.9759717" lon="132.0075796"/>
 <node id="1283555618" visible="true" version="2" changeset="125247588" timestamp="2022-08-22T23:20:13Z" user="AYAGE" uid="521665" lat="33.9761615" lon="132.0072444"/>
 <node id="1283555626" visible="true" version="2" changeset="125323463" timestamp="2022-08-24T16:21:05Z" user="AYAGE" uid="521665" lat="33.9775491" lon="132.0053888"/>
 <node id="1283555637" visible="true" version="2" changeset="125534095" timestamp="2022-08-29T17:22:37Z" user="AYAGE" uid="521665" lat="33.9762308" lon="132.0041876"/>
 <node id="1283555723" visible="true" version="1" changeset="8136896" timestamp="2011-05-14T01:01:32Z" user="yamasan" uid="32308" lat="33.9783350" lon="132.0042320"/>
 <node id="1283555779" visible="true" version="3" changeset="125323463" timestamp="2022-08-24T16:21:05Z" user="AYAGE" uid="521665" lat="33.9780503" lon="132.0019383"/>
 <node id="1283555977" visible="true" version="3" changeset="125323463" timestamp="2022-08-24T16:21:05Z" user="AYAGE" uid="521665" lat="33.9776950" lon="131.9985986"/>
 <node id="1283556134" visible="true" version="1" changeset="8136896" timestamp="2011-05-14T01:01:55Z" user="yamasan" uid="32308" lat="33.9771880" lon="132.0027170"/>
 <node id="1283556309" visible="true" version="3" changeset="125534095" timestamp="2022-08-29T17:22:37Z" user="AYAGE" uid="521665" lat="33.9773682" lon="132.0041656"/>
 <node id="1283556493" visible="true" version="2" changeset="125323463" timestamp="2022-08-24T16:21:05Z" user="AYAGE" uid="521665" lat="33.9782360" lon="132.0052115"/>
 <node id="1283556521" visible="true" version="2" changeset="125534095" timestamp="2022-08-29T17:22:37Z" user="AYAGE" uid="521665" lat="33.9760238" lon="132.0033705"/>
 <node id="1283556671" visible="true" version="2" changeset="125323463" timestamp="2022-08-24T16:21:05Z" user="AYAGE" uid="521665" lat="33.9784766" lon="132.0025651"/>
 <node id="1283557039" visible="true" version="1" changeset="8136896" timestamp="2011-05-14T01:02:36Z" user="yamasan" uid="32308" lat="33.9771780" lon="132.0014550"/>
 <node id="1283557987" visible="true" version="2" changeset="125323463" timestamp="2022-08-24T16:21:05Z" user="AYAGE" uid="521665" lat="33.9777968" lon="132.0053941"/>
 <node id="1283558004" visible="true" version="2" changeset="125323463" timestamp="2022-08-24T16:21:05Z" user="AYAGE" uid="521665" lat="33.9771359" lon="132.0052647"/>
 <node id="1283558110" visible="true" version="2" changeset="125534095" timestamp="2022-08-29T17:22:37Z" user="AYAGE" uid="521665" lat="33.9761225" lon="132.0035480"/>
 <node id="1283558188" visible="true" version="2" changeset="125323463" timestamp="2022-08-24T16:21:05Z" user="AYAGE" uid="521665" lat="33.9782719" lon="132.0036642"/>
 <node id="1283558429" visible="true" version="2" changeset="125534095" timestamp="2022-08-29T17:22:37Z" user="AYAGE" uid="521665" lat="33.9760699" lon="132.0034431"/>
 <node id="1283558562" visible="true" version="2" changeset="41549582" timestamp="2016-08-19T06:41:14Z" user="show1017" uid="3244669" lat="33.9776157" lon="131.9988728"/>
 <node id="1283558902" visible="true" version="1" changeset="8136896" timestamp="2011-05-14T01:03:50Z" user="yamasan" uid="32308" lat="33.9773920" lon="132.0006280"/>
 <node id="1283559057" visible="true" version="3" changeset="125323463" timestamp="2022-08-24T16:21:05Z" user="AYAGE" uid="521665" lat="33.9780936" lon="132.0014255"/>
 <node id="1283559088" visible="true" version="3" changeset="125323463" timestamp="2022-08-24T16:21:05Z" user="AYAGE" uid="521665" lat="33.9779605" lon="132.0021633"/>
 <node id="1283559222" visible="true" version="1" changeset="8136896" timestamp="2011-05-14T01:03:59Z" user="yamasan" uid="32308" lat="33.9771930" lon="132.0000600"/>
 <node id="9975278982" visible="true" version="1" changeset="125323463" timestamp="2022-08-24T16:21:05Z" user="AYAGE" uid="521665" lat="33.9788067" lon="131.9974916"/>
 <node id="9975279050" visible="true" version="1" changeset="125323463" timestamp="2022-08-24T16:21:05Z" user="AYAGE" uid="521665" lat="33.9755616" lon="132.0038746"/>
 <node id="9975279052" visible="true" version="1" changeset="125323463" timestamp="2022-08-24T16:21:05Z" user="AYAGE" uid="521665" lat="33.9756216" lon="132.0039913"/>
 <node id="9975279053" visible="true" version="1" changeset="125323463" timestamp="2022-08-24T16:21:05Z" user="AYAGE" uid="521665" lat="33.9755682" lon="132.0045157"/>
 <node id="9975279054" visible="true" version="1" changeset="125323463" timestamp="2022-08-24T16:21:05Z" user="AYAGE" uid="521665" lat="33.9756405" lon="132.0045385"/>
 <node id="9975279055" visible="true" version="1" changeset="125323463" timestamp="2022-08-24T16:21:05Z" user="AYAGE" uid="521665" lat="33.9757328" lon="132.0044500"/>
 <node id="9975279056" visible="true" version="1" changeset="125323463" timestamp="2022-08-24T16:21:05Z" user="AYAGE" uid="521665" lat="33.9758274" lon="132.0044138"/>
 <node id="9975279057" visible="true" version="1" changeset="125323463" timestamp="2022-08-24T16:21:05Z" user="AYAGE" uid="521665" lat="33.9755571" lon="132.0044298"/>
 <node id="9975279058" visible="true" version="1" changeset="125323463" timestamp="2022-08-24T16:21:05Z" user="AYAGE" uid="521665" lat="33.9759819" lon="132.0043279"/>
 <node id="9975279059" visible="true" version="1" changeset="125323463" timestamp="2022-08-24T16:21:05Z" user="AYAGE" uid="521665" lat="33.9760854" lon="132.0043293"/>
 <node id="9975279060" visible="true" version="1" changeset="125323463" timestamp="2022-08-24T16:21:05Z" user="AYAGE" uid="521665" lat="33.9761666" lon="132.0044124"/>
 <node id="9975279061" visible="true" version="1" changeset="125323463" timestamp="2022-08-24T16:21:05Z" user="AYAGE" uid="521665" lat="33.9762700" lon="132.0044728"/>
 <node id="9975279062" visible="true" version="1" changeset="125323463" timestamp="2022-08-24T16:21:05Z" user="AYAGE" uid="521665" lat="33.9764691" lon="132.0046055"/>
 <node id="9975279063" visible="true" version="1" changeset="125323463" timestamp="2022-08-24T16:21:05Z" user="AYAGE" uid="521665" lat="33.9766492" lon="132.0046498"/>
 <node id="9975279223" visible="true" version="1" changeset="125323463" timestamp="2022-08-24T16:21:05Z" user="AYAGE" uid="521665" lat="33.9775417" lon="132.0064884"/>
 <node id="9975279224" visible="true" version="1" changeset="125323463" timestamp="2022-08-24T16:21:05Z" user="AYAGE" uid="521665" lat="33.9775690" lon="132.0064314"/>
 <node id="9975279225" visible="true" version="1" changeset="125323463" timestamp="2022-08-24T16:21:05Z" user="AYAGE" uid="521665" lat="33.9775550" lon="132.0063262"/>
 <node id="9975279226" visible="true" version="1" changeset="125323463" timestamp="2022-08-24T16:21:05Z" user="AYAGE" uid="521665" lat="33.9783708" lon="132.0028460"/>
 <node id="9975279227" visible="true" version="1" changeset="125323463" timestamp="2022-08-24T16:21:05Z" user="AYAGE" uid="521665" lat="33.9783624" lon="132.0029144"/>
 <node id="9975279228" visible="true" version="1" changeset="125323463" timestamp="2022-08-24T16:21:05Z" user="AYAGE" uid="521665" lat="33.9783797" lon="132.0030123"/>
 <node id="9975279229" visible="true" version="1" changeset="125323463" timestamp="2022-08-24T16:21:05Z" user="AYAGE" uid="521665" lat="33.9772120" lon="132.0053512"/>
 <node id="9975279230" visible="true" version="1" changeset="125323463" timestamp="2022-08-24T16:21:05Z" user="AYAGE" uid="521665" lat="33.9770635" lon="132.0049106"/>
 <node id="9975279231" visible="true" version="1" changeset="125323463" timestamp="2022-08-24T16:21:05Z" user="AYAGE" uid="521665" lat="33.9771035" lon="132.0049636"/>
 <node id="9975279232" visible="true" version="1" changeset="125323463" timestamp="2022-08-24T16:21:05Z" user="AYAGE" uid="521665" lat="33.9771908" lon="132.0052338"/>
 <node id="9975279233" visible="true" version="1" changeset="125323463" timestamp="2022-08-24T16:21:05Z" user="AYAGE" uid="521665" lat="33.9772120" lon="132.0053083"/>
 <node id="9975279234" visible="true" version="1" changeset="125323463" timestamp="2022-08-24T16:21:05Z" user="AYAGE" uid="521665" lat="33.9775890" lon="132.0063329"/>
 <node id="9975279238" visible="true" version="1" changeset="125323463" timestamp="2022-08-24T16:21:05Z" user="AYAGE" uid="521665" lat="33.9777797" lon="131.9984961"/>
 <node id="9975279240" visible="true" version="1" changeset="125323463" timestamp="2022-08-24T16:21:05Z" user="AYAGE" uid="521665" lat="33.9777558" lon="131.9997682"/>
 <node id="9975279241" visible="true" version="1" changeset="125323463" timestamp="2022-08-24T16:21:05Z" user="AYAGE" uid="521665" lat="33.9780905" lon="132.0011985"/>
 <node id="9975279242" visible="true" version="1" changeset="125323463" timestamp="2022-08-24T16:21:05Z" user="AYAGE" uid="521665" lat="33.9784636" lon="132.0026033"/>
 <node id="9986531454" visible="true" version="1" changeset="125534095" timestamp="2022-08-29T17:22:37Z" user="AYAGE" uid="521665" lat="33.9764440" lon="132.0045385"/>
 <node id="9986531455" visible="true" version="1" changeset="125534095" timestamp="2022-08-29T17:22:37Z" user="AYAGE" uid="521665" lat="33.9766676" lon="132.0045894"/>
 <node id="9986531456" visible="true" version="1" changeset="125534095" timestamp="2022-08-29T17:22:37Z" user="AYAGE" uid="521665" lat="33.9767271" lon="132.0046236"/>
 <node id="9986531457" visible="true" version="1" changeset="125534095" timestamp="2022-08-29T17:22:37Z" user="AYAGE" uid="521665" lat="33.9768639" lon="132.0047034"/>
 <node id="9986531458" visible="true" version="1" changeset="125534095" timestamp="2022-08-29T17:22:37Z" user="AYAGE" uid="521665" lat="33.9768850" lon="132.0018361"/>
 <node id="9986531459" visible="true" version="1" changeset="125534095" timestamp="2022-08-29T17:22:37Z" user="AYAGE" uid="521665" lat="33.9769484" lon="132.0016725"/>
 <node id="9986531460" visible="true" version="1" changeset="125534095" timestamp="2022-08-29T17:22:37Z" user="AYAGE" uid="521665" lat="33.9769806" lon="132.0014808"/>
 <node id="9986531461" visible="true" version="1" changeset="125534095" timestamp="2022-08-29T17:22:37Z" user="AYAGE" uid="521665" lat="33.9769139" lon="132.0013708"/>
 <node id="9986531462" visible="true" version="1" changeset="125534095" timestamp="2022-08-29T17:22:37Z" user="AYAGE" uid="521665" lat="33.9768605" lon="132.0012984"/>
 <node id="9986531463" visible="true" version="1" changeset="125534095" timestamp="2022-08-29T17:22:37Z" user="AYAGE" uid="521665" lat="33.9768683" lon="132.0011643"/>
 <node id="9986531464" visible="true" version="1" changeset="125534095" timestamp="2022-08-29T17:22:37Z" user="AYAGE" uid="521665" lat="33.9768283" lon="132.0010503"/>
 <node id="9986531465" visible="true" version="1" changeset="125534095" timestamp="2022-08-29T17:22:37Z" user="AYAGE" uid="521665" lat="33.9767349" lon="132.0009819"/>
 <node id="9986531466" visible="true" version="1" changeset="125534095" timestamp="2022-08-29T17:22:37Z" user="AYAGE" uid="521665" lat="33.9766926" lon="132.0008947"/>
 <node id="9986531467" visible="true" version="1" changeset="125534095" timestamp="2022-08-29T17:22:37Z" user="AYAGE" uid="521665" lat="33.9767337" lon="132.0006573"/>
 <node id="9986531468" visible="true" version="1" changeset="125534095" timestamp="2022-08-29T17:22:37Z" user="AYAGE" uid="521665" lat="33.9768071" lon="132.0006372"/>
 <node id="9986531469" visible="true" version="1" changeset="125534095" timestamp="2022-08-29T17:22:37Z" user="AYAGE" uid="521665" lat="33.9769295" lon="132.0006520"/>
 <node id="9986531470" visible="true" version="1" changeset="125534095" timestamp="2022-08-29T17:22:37Z" user="AYAGE" uid="521665" lat="33.9769729" lon="132.0005782"/>
 <node id="9986531471" visible="true" version="1" changeset="125534095" timestamp="2022-08-29T17:22:37Z" user="AYAGE" uid="521665" lat="33.9770574" lon="132.0005152"/>
 <node id="9986531472" visible="true" version="1" changeset="125534095" timestamp="2022-08-29T17:22:37Z" user="AYAGE" uid="521665" lat="33.9771363" lon="132.0004106"/>
 <node id="9986531473" visible="true" version="1" changeset="125534095" timestamp="2022-08-29T17:22:37Z" user="AYAGE" uid="521665" lat="33.9771386" lon="132.0002550"/>
 <node id="9986531474" visible="true" version="1" changeset="125534095" timestamp="2022-08-29T17:22:37Z" user="AYAGE" uid="521665" lat="33.9770752" lon="132.0000994"/>
 <node id="9986531475" visible="true" version="1" changeset="125534095" timestamp="2022-08-29T17:22:37Z" user="AYAGE" uid="521665" lat="33.9770652" lon="131.9999613"/>
 <node id="9986531476" visible="true" version="1" changeset="125534095" timestamp="2022-08-29T17:22:37Z" user="AYAGE" uid="521665" lat="33.9770963" lon="131.9998057"/>
 <node id="9986531477" visible="true" version="1" changeset="125534095" timestamp="2022-08-29T17:22:37Z" user="AYAGE" uid="521665" lat="33.9770752" lon="131.9996622"/>
 <node id="9986531478" visible="true" version="1" changeset="125534095" timestamp="2022-08-29T17:22:37Z" user="AYAGE" uid="521665" lat="33.9769973" lon="131.9995992"/>
 <node id="9986531479" visible="true" version="1" changeset="125534095" timestamp="2022-08-29T17:22:37Z" user="AYAGE" uid="521665" lat="33.9769918" lon="131.9993404"/>
 <node id="9986531480" visible="true" version="1" changeset="125534095" timestamp="2022-08-29T17:22:37Z" user="AYAGE" uid="521665" lat="33.9770451" lon="131.9991982"/>
 <node id="9986531481" visible="true" version="1" changeset="125534095" timestamp="2022-08-29T17:22:37Z" user="AYAGE" uid="521665" lat="33.9770718" lon="131.9990373"/>
 <node id="9986531482" visible="true" version="1" changeset="125534095" timestamp="2022-08-29T17:22:37Z" user="AYAGE" uid="521665" lat="33.9771386" lon="131.9989903"/>
 <node id="9986531483" visible="true" version="1" changeset="125534095" timestamp="2022-08-29T17:22:37Z" user="AYAGE" uid="521665" lat="33.9771541" lon="131.9990560"/>
 <node id="9986531484" visible="true" version="1" changeset="125534095" timestamp="2022-08-29T17:22:37Z" user="AYAGE" uid="521665" lat="33.9771286" lon="131.9991794"/>
 <node id="9986531485" visible="true" version="1" changeset="125534095" timestamp="2022-08-29T17:22:37Z" user="AYAGE" uid="521665" lat="33.9771230" lon="131.9993860"/>
 <node id="9986531486" visible="true" version="1" changeset="125534095" timestamp="2022-08-29T17:22:37Z" user="AYAGE" uid="521665" lat="33.9771764" lon="131.9994973"/>
 <node id="9986531487" visible="true" version="1" changeset="125534095" timestamp="2022-08-29T17:22:37Z" user="AYAGE" uid="521665" lat="33.9772153" lon="131.9996877"/>
 <node id="9986531488" visible="true" version="1" changeset="125534095" timestamp="2022-08-29T17:22:37Z" user="AYAGE" uid="521665" lat="33.9771786" lon="131.9997360"/>
 <node id="9986531489" visible="true" version="1" changeset="125534095" timestamp="2022-08-29T17:22:37Z" user="AYAGE" uid="521665" lat="33.9771853" lon="131.9998902"/>
 <node id="9986531490" visible="true" version="1" changeset="125534095" timestamp="2022-08-29T17:22:37Z" user="AYAGE" uid="521665" lat="33.9772131" lon="132.0000833"/>
 <node id="9986531491" visible="true" version="1" changeset="125534095" timestamp="2022-08-29T17:22:37Z" user="AYAGE" uid="521665" lat="33.9772787" lon="132.0001249"/>
 <node id="9986531492" visible="true" version="1" changeset="125534095" timestamp="2022-08-29T17:22:37Z" user="AYAGE" uid="521665" lat="33.9773310" lon="132.0001142"/>
 <node id="9986531493" visible="true" version="1" changeset="125534095" timestamp="2022-08-29T17:22:37Z" user="AYAGE" uid="521665" lat="33.9773710" lon="131.9999921"/>
 <node id="9986531494" visible="true" version="1" changeset="125534095" timestamp="2022-08-29T17:22:37Z" user="AYAGE" uid="521665" lat="33.9773988" lon="131.9998352"/>
 <node id="9986531495" visible="true" version="1" changeset="125534095" timestamp="2022-08-29T17:22:37Z" user="AYAGE" uid="521665" lat="33.9775056" lon="131.9997682"/>
 <node id="9986531496" visible="true" version="1" changeset="125534095" timestamp="2022-08-29T17:22:37Z" user="AYAGE" uid="521665" lat="33.9775556" lon="131.9997749"/>
 <node id="9986531497" visible="true" version="1" changeset="125534095" timestamp="2022-08-29T17:22:37Z" user="AYAGE" uid="521665" lat="33.9776446" lon="131.9997199"/>
 <node id="9986531498" visible="true" version="1" changeset="125534095" timestamp="2022-08-29T17:22:37Z" user="AYAGE" uid="521665" lat="33.9777146" lon="131.9998071"/>
 <node id="9986531499" visible="true" version="1" changeset="125534095" timestamp="2022-08-29T17:22:37Z" user="AYAGE" uid="521665" lat="33.9778036" lon="132.0000780"/>
 <node id="9986531500" visible="true" version="1" changeset="125534095" timestamp="2022-08-29T17:22:37Z" user="AYAGE" uid="521665" lat="33.9778359" lon="132.0003381"/>
 <node id="9986531501" visible="true" version="1" changeset="125534095" timestamp="2022-08-29T17:22:37Z" user="AYAGE" uid="521665" lat="33.9778525" lon="132.0005634"/>
 <node id="9986531502" visible="true" version="1" changeset="125534095" timestamp="2022-08-29T17:22:37Z" user="AYAGE" uid="521665" lat="33.9779359" lon="132.0007163"/>
 <node id="9986531503" visible="true" version="1" changeset="125534095" timestamp="2022-08-29T17:22:37Z" user="AYAGE" uid="521665" lat="33.9780182" lon="132.0011602"/>
 <node id="9986531504" visible="true" version="1" changeset="125534095" timestamp="2022-08-29T17:22:37Z" user="AYAGE" uid="521665" lat="33.9780060" lon="132.0013279"/>
 <node id="9986531505" visible="true" version="1" changeset="125534095" timestamp="2022-08-29T17:22:37Z" user="AYAGE" uid="521665" lat="33.9779738" lon="132.0014888"/>
 <node id="9986531506" visible="true" version="1" changeset="125534095" timestamp="2022-08-29T17:22:37Z" user="AYAGE" uid="521665" lat="33.9780182" lon="132.0015813"/>
 <node id="9986531507" visible="true" version="1" changeset="125534095" timestamp="2022-08-29T17:22:37Z" user="AYAGE" uid="521665" lat="33.9779827" lon="132.0019341"/>
 <node id="9986531508" visible="true" version="1" changeset="125534095" timestamp="2022-08-29T17:22:37Z" user="AYAGE" uid="521665" lat="33.9778748" lon="132.0021902"/>
 <node id="9986531509" visible="true" version="1" changeset="125534095" timestamp="2022-08-29T17:22:37Z" user="AYAGE" uid="521665" lat="33.9778170" lon="132.0021594"/>
 <node id="9986531510" visible="true" version="1" changeset="125534095" timestamp="2022-08-29T17:22:37Z" user="AYAGE" uid="521665" lat="33.9777903" lon="132.0020440"/>
 <node id="9986531511" visible="true" version="1" changeset="125534095" timestamp="2022-08-29T17:22:37Z" user="AYAGE" uid="521665" lat="33.9777158" lon="132.0020105"/>
 <node id="9986531512" visible="true" version="1" changeset="125534095" timestamp="2022-08-29T17:22:37Z" user="AYAGE" uid="521665" lat="33.9776312" lon="132.0020480"/>
 <node id="9986531513" visible="true" version="1" changeset="125534095" timestamp="2022-08-29T17:22:37Z" user="AYAGE" uid="521665" lat="33.9775723" lon="132.0020293"/>
 <node id="9986531514" visible="true" version="1" changeset="125534095" timestamp="2022-08-29T17:22:37Z" user="AYAGE" uid="521665" lat="33.9774433" lon="132.0018670"/>
 <node id="9986531515" visible="true" version="1" changeset="125534095" timestamp="2022-08-29T17:22:37Z" user="AYAGE" uid="521665" lat="33.9773354" lon="132.0018442"/>
 <node id="9986531516" visible="true" version="1" changeset="125534095" timestamp="2022-08-29T17:22:37Z" user="AYAGE" uid="521665" lat="33.9772398" lon="132.0019166"/>
 <node id="9986557717" visible="true" version="1" changeset="125534095" timestamp="2022-08-29T17:22:37Z" user="AYAGE" uid="521665" lat="33.9771308" lon="132.0020534"/>
 <node id="9986557718" visible="true" version="1" changeset="125534095" timestamp="2022-08-29T17:22:37Z" user="AYAGE" uid="521665" lat="33.9770563" lon="132.0021594"/>
 <node id="9986557719" visible="true" version="1" changeset="125534095" timestamp="2022-08-29T17:22:37Z" user="AYAGE" uid="521665" lat="33.9770518" lon="132.0022814"/>
 <node id="9986557720" visible="true" version="1" changeset="125534095" timestamp="2022-08-29T17:22:37Z" user="AYAGE" uid="521665" lat="33.9771308" lon="132.0024262"/>
 <node id="9986557721" visible="true" version="1" changeset="125534095" timestamp="2022-08-29T17:22:37Z" user="AYAGE" uid="521665" lat="33.9772097" lon="132.0026006"/>
 <node id="9986557722" visible="true" version="1" changeset="125534095" timestamp="2022-08-29T17:22:37Z" user="AYAGE" uid="521665" lat="33.9772387" lon="132.0027387"/>
 <node id="9986557723" visible="true" version="1" changeset="125534095" timestamp="2022-08-29T17:22:37Z" user="AYAGE" uid="521665" lat="33.9771853" lon="132.0028259"/>
 <node id="9986557724" visible="true" version="1" changeset="125534095" timestamp="2022-08-29T17:22:37Z" user="AYAGE" uid="521665" lat="33.9771297" lon="132.0029211"/>
 <node id="9986557725" visible="true" version="1" changeset="125534095" timestamp="2022-08-29T17:22:37Z" user="AYAGE" uid="521665" lat="33.9770585" lon="132.0031571"/>
 <node id="9986557726" visible="true" version="1" changeset="125534095" timestamp="2022-08-29T17:22:37Z" user="AYAGE" uid="521665" lat="33.9770018" lon="132.0033087"/>
 <node id="9986557727" visible="true" version="1" changeset="125534095" timestamp="2022-08-29T17:22:37Z" user="AYAGE" uid="521665" lat="33.9768761" lon="132.0034964"/>
 <node id="9986557728" visible="true" version="1" changeset="125534095" timestamp="2022-08-29T17:22:37Z" user="AYAGE" uid="521665" lat="33.9768038" lon="132.0035474"/>
 <node id="9986557729" visible="true" version="1" changeset="125534095" timestamp="2022-08-29T17:22:37Z" user="AYAGE" uid="521665" lat="33.9767171" lon="132.0035233"/>
 <node id="9986557730" visible="true" version="1" changeset="125534095" timestamp="2022-08-29T17:22:37Z" user="AYAGE" uid="521665" lat="33.9764880" lon="132.0036855"/>
 <node id="9986557731" visible="true" version="1" changeset="125534095" timestamp="2022-08-29T17:22:37Z" user="AYAGE" uid="521665" lat="33.9763167" lon="132.0037298"/>
 <node id="9986557732" visible="true" version="1" changeset="125534095" timestamp="2022-08-29T17:22:37Z" user="AYAGE" uid="521665" lat="33.9762155" lon="132.0036614"/>
 <node id="9986557733" visible="true" version="1" changeset="125534095" timestamp="2022-08-29T17:22:37Z" user="AYAGE" uid="521665" lat="33.9760487" lon="132.0033275"/>
 <node id="9986557734" visible="true" version="1" changeset="125534095" timestamp="2022-08-29T17:22:37Z" user="AYAGE" uid="521665" lat="33.9759641" lon="132.0031893"/>
 <node id="9986557735" visible="true" version="1" changeset="125534095" timestamp="2022-08-29T17:22:37Z" user="AYAGE" uid="521665" lat="33.9760031" lon="132.0031276"/>
 <node id="9986557736" visible="true" version="1" changeset="125534095" timestamp="2022-08-29T17:22:37Z" user="AYAGE" uid="521665" lat="33.9760242" lon="132.0029895"/>
 <node id="9986557737" visible="true" version="1" changeset="125534095" timestamp="2022-08-29T17:22:37Z" user="AYAGE" uid="521665" lat="33.9761221" lon="132.0028447"/>
 <node id="9986557738" visible="true" version="1" changeset="125534095" timestamp="2022-08-29T17:22:37Z" user="AYAGE" uid="521665" lat="33.9762055" lon="132.0027950"/>
 <node id="9986557739" visible="true" version="1" changeset="125534095" timestamp="2022-08-29T17:22:37Z" user="AYAGE" uid="521665" lat="33.9762967" lon="132.0027427"/>
 <node id="9986557740" visible="true" version="1" changeset="125534095" timestamp="2022-08-29T17:22:37Z" user="AYAGE" uid="521665" lat="33.9763489" lon="132.0026180"/>
 <node id="9986557741" visible="true" version="1" changeset="125534095" timestamp="2022-08-29T17:22:37Z" user="AYAGE" uid="521665" lat="33.9764190" lon="132.0025402"/>
 <node id="9986557742" visible="true" version="1" changeset="125534095" timestamp="2022-08-29T17:22:37Z" user="AYAGE" uid="521665" lat="33.9765480" lon="132.0024799"/>
 <node id="9986557743" visible="true" version="1" changeset="125534095" timestamp="2022-08-29T17:22:37Z" user="AYAGE" uid="521665" lat="33.9765958" lon="132.0024182"/>
 <node id="9986557744" visible="true" version="1" changeset="125534095" timestamp="2022-08-29T17:22:37Z" user="AYAGE" uid="521665" lat="33.9766058" lon="132.0022707"/>
 <node id="9986557745" visible="true" version="1" changeset="125534095" timestamp="2022-08-29T17:22:37Z" user="AYAGE" uid="521665" lat="33.9765747" lon="132.0021915"/>
 <node id="9986557746" visible="true" version="1" changeset="125534095" timestamp="2022-08-29T17:22:37Z" user="AYAGE" uid="521665" lat="33.9765936" lon="132.0021406"/>
 <node id="9986557747" visible="true" version="1" changeset="125534095" timestamp="2022-08-29T17:22:37Z" user="AYAGE" uid="521665" lat="33.9766904" lon="132.0021433"/>
 <node id="9986557748" visible="true" version="1" changeset="125534095" timestamp="2022-08-29T17:22:37Z" user="AYAGE" uid="521665" lat="33.9767604" lon="132.0020936"/>
 <node id="9986557749" visible="true" version="1" changeset="125534095" timestamp="2022-08-29T17:22:37Z" user="AYAGE" uid="521665" lat="33.9767805" lon="132.0019857"/>
 <node id="9986557750" visible="true" version="1" changeset="125534095" timestamp="2022-08-29T17:22:37Z" user="AYAGE" uid="521665" lat="33.9768077" lon="132.0019374"/>
 <node id="9986557751" visible="true" version="1" changeset="125534095" timestamp="2022-08-29T17:22:37Z" user="AYAGE" uid="521665" lat="33.9768761" lon="132.0019280"/>
 <node id="13049649781" visible="true" version="1" changeset="169992940" timestamp="2025-08-05T08:49:54Z" user="taketaketake" uid="4757277" lat="33.9759374" lon="132.0076331"/>
 <way id="113098509" visible="true" version="2" changeset="125323463" timestamp="2022-08-24T16:21:05Z" user="AYAGE" uid="521665">
  <nd ref="1283556671"/>
  <nd ref="9975279242"/>
  <nd ref="1283552824"/>
  <nd ref="9975279226"/>
  <nd ref="9975279227"/>
  <nd ref="9975279228"/>
  <nd ref="1283547165"/>
  <nd ref="1283550819"/>
  <nd ref="1283558188"/>
  <nd ref="1283552100"/>
  <nd ref="1283555723"/>
  <nd ref="1283550408"/>
  <nd ref="1283553293"/>
  <nd ref="1283553550"/>
  <nd ref="1283556493"/>
  <nd ref="1283546746"/>
  <nd ref="1283552750"/>
  <nd ref="1283552142"/>
  <nd ref="1283557987"/>
  <nd ref="1283553804"/>
  <nd ref="1283555626"/>
  <nd ref="1283546804"/>
  <tag k="highway" v="unclassified"/>
  <tag k="source" v="YahooJapan/ALPSMAP"/>
 </way>
 <way id="113099514" visible="true" version="1" changeset="8136896" timestamp="2011-05-14T01:09:53Z" user="yamasan" uid="32308">
  <nd ref="1283547364"/>
  <nd ref="1283553474"/>
  <nd ref="1283548713"/>
  <nd ref="1283554139"/>
  <nd ref="1283556134"/>
  <nd ref="1283553633"/>
  <nd ref="1283554509"/>
  <nd ref="1283547599"/>
  <nd ref="1283550006"/>
  <nd ref="1283554804"/>
  <nd ref="1283546211"/>
  <nd ref="1283550223"/>
  <nd ref="1283551863"/>
  <nd ref="1283550462"/>
  <nd ref="1283545587"/>
  <nd ref="1283557039"/>
  <nd ref="1283552308"/>
  <nd ref="1283545577"/>
  <nd ref="1283548626"/>
  <nd ref="1283548833"/>
  <nd ref="1283558902"/>
  <nd ref="1283554407"/>
  <nd ref="1283549484"/>
  <nd ref="1283559222"/>
  <nd ref="1283546125"/>
  <nd ref="1283554814"/>
  <tag k="highway" v="path"/>
  <tag k="source" v="YahooJapan/ALPSMAP"/>
  <tag k="yh:STRUCTURE" v="地上"/>
  <tag k="yh:TOTYUMONO" v="供用中"/>
  <tag k="yh:TYPE" v="その他一般道"/>
  <tag k="yh:WIDTH" v="1.5m未満"/>
  <tag k="yh:WIDTH_RANK" v="5"/>
 </way>
 <way id="113100393" visible="true" version="2" changeset="125323463" timestamp="2022-08-24T16:21:05Z" user="AYAGE" uid="521665">
  <nd ref="1283552611"/>
  <nd ref="1283547241"/>
  <nd ref="1283547832"/>
  <nd ref="9975279225"/>
  <nd ref="9975279224"/>
  <nd ref="9975279223"/>
  <nd ref="1283549328"/>
  <tag k="highway" v="unclassified"/>
  <tag k="source" v="YahooJapan/ALPSMAP"/>
 </way>
 <way id="113100728" visible="true" version="1" changeset="8136896" timestamp="2011-05-14T01:13:33Z" user="yamasan" uid="32308">
  <nd ref="1283545974"/>
  <nd ref="1283558004"/>
  <nd ref="1283552611"/>
  <tag k="highway" v="unclassified"/>
  <tag k="source" v="YahooJapan/ALPSMAP"/>
  <tag k="yh:STRUCTURE" v="地上"/>
  <tag k="yh:TOTYUMONO" v="供用中"/>
  <tag k="yh:TYPE" v="その他一般道"/>
  <tag k="yh:WIDTH" v="3.0m〜5.5m"/>
  <tag k="yh:WIDTH_RANK" v="3"/>
 </way>
 <way id="113100833" visible="true" version="2" changeset="125534095" timestamp="2022-08-29T17:22:37Z" user="AYAGE" uid="521665">
  <nd ref="1283547602"/>
  <nd ref="9986531457"/>
  <nd ref="9986531456"/>
  <nd ref="9986531455"/>
  <nd ref="1283549553"/>
  <nd ref="9986531454"/>
  <nd ref="1283545912"/>
  <nd ref="1283550860"/>
  <nd ref="1283555637"/>
  <nd ref="1283549390"/>
  <nd ref="1283545720"/>
  <nd ref="1283558110"/>
  <nd ref="1283558429"/>
  <nd ref="1283556521"/>
  <nd ref="1283548790"/>
  <nd ref="1283554090"/>
  <nd ref="1283551891"/>
  <nd ref="1283547084"/>
  <nd ref="1283550877"/>
  <tag k="highway" v="residential"/>
  <tag k="source" v="YahooJapan/ALPSMAP"/>
 </way>
 <way id="1088849860" visible="true" version="1" changeset="125323463" timestamp="2022-08-24T16:21:05Z" user="AYAGE" uid="521665">
  <nd ref="9975279050"/>
  <nd ref="748929327"/>
  <nd ref="9975279052"/>
  <nd ref="9975279057"/>
  <nd ref="9975279053"/>
  <nd ref="9975279054"/>
  <nd ref="9975279055"/>
  <nd ref="9975279056"/>
  <nd ref="9975279058"/>
  <nd ref="749311769"/>
  <nd ref="9975279059"/>
  <nd ref="9975279060"/>
  <nd ref="9975279061"/>
  <nd ref="9975279062"/>
  <nd ref="9975279063"/>
  <nd ref="749404547"/>
  <nd ref="9975279230"/>
  <nd ref="9975279231"/>
  <tag k="name" v="貞延川"/>
  <tag k="name:ja" v="貞延川"/>
  <tag k="note" v="National-Land Numerical Information (River) 2006, MLIT Japan"/>
  <tag k="note:ja" v="国土数値情報(河川データ)平成18年国土交通省"/>
  <tag k="source" v="KSJ2"/>
  <tag k="source_ref" v="http://nlftp.mlit.go.jp/ksj/jpgis/datalist/KsjTmplt-W05.html"/>
  <tag k="waterway" v="river"/>
 </way>
 <way id="1088849862" visible="true" version="1" changeset="125323463" timestamp="2022-08-24T16:21:05Z" user="AYAGE" uid="521665">
  <nd ref="749838860"/>
  <nd ref="9975279232"/>
  <nd ref="9975279233"/>
  <nd ref="749180136"/>
  <nd ref="9975279234"/>
  <nd ref="748899545"/>
  <tag k="name" v="貞延川"/>
  <tag k="name:ja" v="貞延川"/>
  <tag k="note" v="National-Land Numerical Information (River) 2006, MLIT Japan"/>
  <tag k="note:ja" v="国土数値情報(河川データ)平成18年国土交通省"/>
  <tag k="source" v="KSJ2"/>
  <tag k="source_ref" v="http://nlftp.mlit.go.jp/ksj/jpgis/datalist/KsjTmplt-W05.html"/>
  <tag k="waterway" v="river"/>
 </way>
 <way id="1088849863" visible="true" version="1" changeset="125323463" timestamp="2022-08-24T16:21:05Z" user="AYAGE" uid="521665">
  <nd ref="9975279231"/>
  <nd ref="749838860"/>
  <tag k="layer" v="-1"/>
  <tag k="name" v="貞延川"/>
  <tag k="name:ja" v="貞延川"/>
  <tag k="note" v="National-Land Numerical Information (River) 2006, MLIT Japan"/>
  <tag k="note:ja" v="国土数値情報(河川データ)平成18年国土交通省"/>
  <tag k="source" v="KSJ2"/>
  <tag k="source_ref" v="http://nlftp.mlit.go.jp/ksj/jpgis/datalist/KsjTmplt-W05.html"/>
  <tag k="tunnel" v="culvert"/>
  <tag k="waterway" v="river"/>
 </way>
 <way id="1088849877" visible="true" version="1" changeset="125323463" timestamp="2022-08-24T16:21:05Z" user="AYAGE" uid="521665">
  <nd ref="9975279229"/>
  <nd ref="1283552611"/>
  <tag k="highway" v="unclassified"/>
  <tag k="source" v="YahooJapan/ALPSMAP"/>
 </way>
 <way id="1088849878" visible="true" version="1" changeset="125323463" timestamp="2022-08-24T16:21:05Z" user="AYAGE" uid="521665">
  <nd ref="1283546804"/>
  <nd ref="9975279229"/>
  <tag k="bridge" v="yes"/>
  <tag k="highway" v="unclassified"/>
  <tag k="layer" v="1"/>
  <tag k="source" v="YahooJapan/ALPSMAP"/>
 </way>
 <way id="1090288098" visible="true" version="1" changeset="125534095" timestamp="2022-08-29T17:22:37Z" user="AYAGE" uid="521665">
  <nd ref="9986557751"/>
  <nd ref="9986557750"/>
  <nd ref="9986557749"/>
  <nd ref="9986557748"/>
  <nd ref="9986557747"/>
  <nd ref="9986557746"/>
  <nd ref="9986557745"/>
  <nd ref="9986557744"/>
  <nd ref="9986557743"/>
  <nd ref="9986557742"/>
  <nd ref="9986557741"/>
  <nd ref="9986557740"/>
  <nd ref="9986557739"/>
  <nd ref="9986557738"/>
  <nd ref="9986557737"/>
  <nd ref="9986557736"/>
  <nd ref="9986557735"/>
  <nd ref="9986557734"/>
  <nd ref="9986557733"/>
  <nd ref="9986557732"/>
  <nd ref="9986557731"/>
  <nd ref="9986557730"/>
  <nd ref="9986557729"/>
  <nd ref="9986557728"/>
  <nd ref="9986557727"/>
  <nd ref="9986557726"/>
  <nd ref="9986557725"/>
  <nd ref="9986557724"/>
  <nd ref="9986557723"/>
  <nd ref="9986557722"/>
  <nd ref="9986557721"/>
  <nd ref="9986557720"/>
  <nd ref="9986557719"/>
  <nd ref="9986557718"/>
  <nd ref="9986557717"/>
  <nd ref="9986531516"/>
  <nd ref="9986531515"/>
  <nd ref="9986531514"/>
  <nd ref="9986531513"/>
  <nd ref="9986531512"/>
  <nd ref="9986531511"/>
  <nd ref="9986531510"/>
  <nd ref="9986531509"/>
  <nd ref="9986531508"/>
  <nd ref="9986531507"/>
  <nd ref="9986531506"/>
  <nd ref="9986531505"/>
  <nd ref="9986531504"/>
  <nd ref="9986531503"/>
  <nd ref="9986531502"/>
  <nd ref="9986531501"/>
  <nd ref="9986531500"/>
  <nd ref="9986531499"/>
  <nd ref="9986531498"/>
  <nd ref="9986531497"/>
  <nd ref="9986531496"/>
  <nd ref="9986531495"/>
  <nd ref="9986531494"/>
  <nd ref="9986531493"/>
  <nd ref="9986531492"/>
  <nd ref="9986531491"/>
  <nd ref="9986531490"/>
  <nd ref="9986531489"/>
  <nd ref="9986531488"/>
  <nd ref="9986531487"/>
  <nd ref="9986531486"/>
  <nd ref="9986531485"/>
  <nd ref="9986531484"/>
  <nd ref="9986531483"/>
  <nd ref="9986531482"/>
  <nd ref="9986531481"/>
  <nd ref="9986531480"/>
  <nd ref="9986531479"/>
  <nd ref="9986531478"/>
  <nd ref="9986531477"/>
  <nd ref="9986531476"/>
  <nd ref="9986531475"/>
  <nd ref="9986531474"/>
  <nd ref="9986531473"/>
  <nd ref="9986531472"/>
  <nd ref="9986531471"/>
  <nd ref="9986531470"/>
  <nd ref="9986531469"/>
  <nd ref="9986531468"/>
  <nd ref="9986531467"/>
  <nd ref="9986531466"/>
  <nd ref="9986531465"/>
  <nd ref="9986531464"/>
  <nd ref="9986531463"/>
  <nd ref="9986531462"/>
  <nd ref="9986531461"/>
  <nd ref="9986531460"/>
  <nd ref="9986531459"/>
  <nd ref="9986531458"/>
  <nd ref="9986557751"/>
  <tag k="natural" v="wood"/>
 </way>
 <way id="1420133824" visible="true" version="1" changeset="169992940" timestamp="2025-08-05T08:49:54Z" user="taketaketake" uid="4757277">
  <nd ref="1283548935"/>
  <nd ref="1283549015"/>
  <nd ref="9975278982"/>
  <nd ref="1283552908"/>
  <nd ref="1283547357"/>
  <nd ref="1283549623"/>
  <nd ref="9975279238"/>
  <nd ref="1283555977"/>
  <nd ref="1283553929"/>
  <nd ref="1283558562"/>
  <nd ref="1283554665"/>
  <nd ref="1283549507"/>
  <nd ref="1283554670"/>
  <nd ref="9975279240"/>
  <nd ref="1283552166"/>
  <nd ref="1283553836"/>
  <nd ref="1283553275"/>
  <nd ref="1283546198"/>
  <nd ref="9975279241"/>
  <nd ref="1283559057"/>
  <nd ref="1283554061"/>
  <nd ref="1283555779"/>
  <nd ref="1283559088"/>
  <nd ref="1283553288"/>
  <nd ref="1283549311"/>
  <nd ref="1283547364"/>
  <nd ref="1283553592"/>
  <nd ref="1283553283"/>
  <nd ref="1283556309"/>
  <nd ref="1283551446"/>
  <nd ref="1283551102"/>
  <nd ref="1283547602"/>
  <nd ref="1283545974"/>
  <nd ref="1283552942"/>
  <nd ref="1283549858"/>
  <nd ref="1283549897"/>
  <nd ref="1283555618"/>
  <nd ref="1283555399"/>
  <nd ref="13049649781"/>
  <tag k="highway" v="primary"/>
  <tag k="lanes" v="2"/>
  <tag k="name" v="光上関線"/>
  <tag k="name:en" v="Hikari Kaminoseki Line"/>
  <tag k="name:ja" v="光上関線"/>
  <tag k="name:ja-Hira" v="ひかりかみのせきせん"/>
  <tag k="name:ja_rm" v="Hikari Kaminoseki-sen"/>
  <tag k="ref" v="23"/>
  <tag k="source" v="YahooJapan/ALPSMAP"/>
  <tag k="surface" v="asphalt"/>
  <tag k="wikidata" v="Q11467223"/>
  <tag k="wikipedia" v="ja:山口県道23号光上関線"/>
 </way>
 <relation id="19427828" visible="true" version="1" changeset="169992940" timestamp="2025-08-05T08:49:54Z" user="taketaketake" uid="4757277">
  <member type="way" ref="113003221" role=""/>
  <member type="way" ref="113003595" role=""/>
  <member type="way" ref="113003046" role=""/>
  <member type="way" ref="113003329" role=""/>
  <member type="way" ref="113003580" role=""/>
  <member type="way" ref="425616391" role=""/>
  <member type="way" ref="113099408" role=""/>
  <member type="way" ref="425624384" role=""/>
  <member type="way" ref="113098116" role=""/>
  <member type="way" ref="113098250" role=""/>
  <member type="way" ref="1420133824" role=""/>
  <member type="way" ref="1420133825" role=""/>
  <member type="way" ref="112970169" role=""/>
  <member type="way" ref="1088014470" role=""/>
  <member type="way" ref="112969992" role=""/>
  <member type="way" ref="112970190" role=""/>
  <member type="way" ref="112970120" role=""/>
  <member type="way" ref="112971636" role=""/>
  <member type="way" ref="112971518" role=""/>
  <member type="way" ref="112975253" role=""/>
  <member type="way" ref="112974967" role=""/>
  <member type="way" ref="112975792" role=""/>
  <member type="way" ref="112975588" role=""/>
  <member type="way" ref="112975071" role=""/>
  <member type="way" ref="112974874" role=""/>
  <member type="way" ref="112975596" role=""/>
  <member type="way" ref="112974975" role=""/>
  <member type="way" ref="112974965" role=""/>
  <member type="way" ref="1309971790" role=""/>
  <member type="way" ref="112975060" role=""/>
  <member type="way" ref="749978778" role=""/>
  <member type="way" ref="112965151" role=""/>
  <member type="way" ref="1309971781" role=""/>
  <member type="way" ref="1420133827" role=""/>
  <member type="way" ref="1420133828" role=""/>
  <member type="way" ref="112965187" role=""/>
  <member type="way" ref="112965692" role=""/>
  <member type="way" ref="112965201" role=""/>
  <member type="way" ref="1420133829" role=""/>
  <member type="way" ref="112965168" role=""/>
  <member type="way" ref="439706801" role=""/>
  <member type="way" ref="112965177" role=""/>
  <tag k="from" v="山口県光市立野"/>
  <tag k="name" v="山口県道23号　光上関線"/>
  <tag k="name:en" v="Yamaguchi Prefectural Route 23 Hikari Kaminoseki Line"/>
  <tag k="name:ja" v="山口県道23号　光上関線"/>
  <tag k="name:ja-Hira" v="やまぐちけんどう23ごう ひかりかみのせきせん"/>
  <tag k="name:ja_rm" v="Yamaguchikendō 23-gō Hikari Kaminoseki-sen"/>
  <tag k="network" v="JP:prefectural"/>
  <tag k="ref" v="23"/>
  <tag k="route" v="road"/>
  <tag k="to" v="山口県熊毛郡上関町長島四代"/>
  <tag k="type" v="route"/>
  <tag k="wikidata" v="Q11467223"/>
  <tag k="wikipedia" v="ja:山口県道23号光上関線"/>
 </relation>
</osm>
